{
  "id": 2031988171,
  "type": "Feature",
  "properties": {
    "geom:area": 0,
    "geom:bbox": "-122.359722,32.766944,-97.050000,37.612222",
    "geom:latitude": 35.03201237352253,
    "geom:longitude": -110.25450613962916,
    "src:alt_label": "swim-path",
    "src:geom": "swim",
    "swim:altitudes": [
      "011",
      "027",
      "040",
      "070",
      "109",
      "130",
      "148",
      "167",
      "183",
      "199",
      "215",
      "230",
      "241",
      "265",
      "276",
      "287",
      "295",
      "304",
      "311",
      "317",
      "323",
      "329",
      "337",
      "345",
      "346",
      "350",
      "352",
      "359C",
      "360C",
      "360C",
      "360C",
      "360C",
      "360C",
      "360C",
      "360C",
      "360C",
      "360C",
      "360C",
      "360C",
      "360C",
      "360C",
      "360C",
      "360C",
      "360C",
      "360C",
      "360C",
      "360C",
      "360C",
      "360C",
      "360C",
      "360C",
      "360C",
      "360C",
      "360C",
      "360C",
      "360C",
      "360C",
      "360C",
      "360C",
      "360C",
      "360C",
      "360C",
      "360C",
      "360C",
      "360C",
      "360C",
      "360C",
      "360C",
      "360C",
      "360C",
      "359C",
      "360C",
      "360C",
      "360C",
      "360C",
      "360C",
      "360C",
      "361C",
      "360C",
      "360C",
      "360C",
      "360C",
      "360C",
      "360C",
      "360C",
      "361C",
      "360C",
      "360C",
      "360C",
      "360C",
      "360C",
      "360C",
      "360C",
      "360C",
      "360C",
      "360C",
      "360C",
      "360C",
      "360C",
      "360C",
      "360C",
      "360C",
      "360C",
      "360C",
      "360C",
      "360C",
      "360C",
      "360C",
      "360C",
      "360C",
      "360C",
      "360C",
      "360C",
      "360C",
      "360C",
      "360C",
      "360C",
      "360C",
      "360C",
      "360C",
      "360C",
      "360C",
      "360C",
      "360C",
      "360C",
      "360C",
      "360C",
      "360C",
      "360C",
      "360C",
      "360C",
      "360C",
      "360C",
      "360C",
      "360C",
      "360C",
      "360C",
      "360C",
      "360C",
      "360C",
      "360C",
      "360C",
      "360C",
      "360C",
      "360C",
      "360C",
      "361C",
      "360C",
      "359C",
      "360C",
      "360C",
      "360C",
      "360C",
      "360C",
      "360C",
      "360C",
      "360C",
      "360C",
      "361C",
      "361C",
      "360C",
      "360C",
      "360C",
      "360C",
      "361C",
      "360C",
      "360C",
      "360C",
      "360C",
      "360C",
      "360C",
      "360C",
      "360C",
      "360C",
      "358",
      "357",
      "341",
      "298",
      "280",
      "268",
      "262",
      "245",
      "228",
      "191",
      "178",
      "163",
      "159",
      "143",
      "133",
      "125",
      "115",
      "101",
      "089",
      "079",
      "060",
      "060",
      "053",
      "041",
      "041",
      "027",
      "020",
      "001"
    ],
    "swim:geom": "path",
    "swim:speeds": [
      159,
      187,
      251,
      271,
      326,
      340,
      353,
      360,
      375,
      385,
      392,
      402,
      409,
      436,
      443,
      447,
      453,
      457,
      464,
      474,
      481,
      488,
      489,
      489,
      487,
      489,
      487,
      485,
      485,
      486,
      488,
      488,
      489,
      490,
      491,
      491,
      493,
      495,
      495,
      495,
      495,
      496,
      496,
      496,
      498,
      498,
      498,
      498,
      497,
      497,
      497,
      497,
      497,
      497,
      497,
      497,
      495,
      496,
      494,
      493,
      493,
      492,
      492,
      492,
      493,
      492,
      492,
      491,
      489,
      487,
      486,
      487,
      485,
      484,
      483,
      483,
      484,
      484,
      483,
      483,
      482,
      480,
      479,
      479,
      473,
      473,
      468,
      467,
      467,
      467,
      467,
      479,
      479,
      485,
      485,
      485,
      484,
      484,
      482,
      480,
      479,
      479,
      478,
      476,
      480,
      479,
      479,
      480,
      480,
      480,
      479,
      477,
      476,
      475,
      473,
      473,
      468,
      457,
      450,
      453,
      456,
      457,
      457,
      457,
      456,
      456,
      456,
      457,
      458,
      459,
      460,
      461,
      461,
      462,
      464,
      465,
      467,
      469,
      471,
      471,
      471,
      472,
      472,
      471,
      472,
      474,
      473,
      473,
      472,
      469,
      468,
      467,
      467,
      465,
      453,
      451,
      452,
      452,
      454,
      455,
      446,
      445,
      445,
      454,
      467,
      463,
      462,
      461,
      456,
      450,
      448,
      448,
      446,
      445,
      443,
      442,
      442,
      433,
      427,
      414,
      410,
      396,
      383,
      362,
      354,
      347,
      340,
      328,
      332,
      285,
      257,
      252,
      245,
      243,
      238,
      242,
      213,
      199,
      191,
      152,
      143,
      124
    ],
    "swim:timestamps": [
      1785195909,
      1785195969,
      1785196030,
      1785196105,
      1785196225,
      1785196285,
      1785196345,
      1785196405,
      1785196466,
      1785196526,
      1785196586,
      1785196646,
      1785196706,
      1785196838,
      1785196898,
      1785196958,
      1785197018,
      1785197078,
      1785197139,
      1785197199,
      1785197259,
      1785197319,
      1785197379,
      1785197439,
      1785197457,
      1785197499,
      1785197517,
      1785197577,
      1785197619,
      1785197637,
      1785197739,
      1785197757,
      1785197799,
      1785197818,
      1785197860,
      1785197878,
      1785197938,
      1785197998,
      1785198040,
      1785198058,
      1785198100,
      1785198118,
      1785198178,
      1785198238,
      1785198358,
      1785198412,
      1785198418,
      1785198478,
      1785198532,
      1785198539,
      1785198599,
      1785198653,
      1785198659,
      1785198719,
      1785198779,
      1785198833,
      1785198953,
      1785198959,
      1785199013,
      1785199073,
      1785199079,
      1785199133,
      1785199193,
      1785199260,
      1785199320,
      1785199440,
      1785199560,
      1785199620,
      1785199680,
      1785199740,
      1785199789,
      1785199849,
      1785199860,
      1785199921,
      1785199981,
      1785200029,
      1785200041,
      1785200089,
      1785200150,
      1785200161,
      1785200221,
      1785200281,
      1785200330,
      1785200401,
      1785200450,
      1785200461,
      1785200510,
      1785200570,
      1785200581,
      1785200642,
      1785200702,
      1785200750,
      1785200762,
      1785200822,
      1785200871,
      1785200882,
      1785200942,
      1785200991,
      1785201062,
      1785201111,
      1785201182,
      1785201242,
      1785201363,
      1785201423,
      1785201484,
      1785201544,
      1785201664,
      1785201720,
      1785201780,
      1785201840,
      1785201900,
      1785201961,
      1785202021,
      1785202081,
      1785202261,
      1785202321,
      1785202381,
      1785202445,
      1785202505,
      1785202565,
      1785202625,
      1785202685,
      1785202745,
      1785202805,
      1785202866,
      1785202926,
      1785203046,
      1785203106,
      1785203166,
      1785203226,
      1785203286,
      1785203346,
      1785203466,
      1785203527,
      1785203587,
      1785203647,
      1785203767,
      1785203827,
      1785203887,
      1785203947,
      1785204067,
      1785204127,
      1785204188,
      1785204308,
      1785204368,
      1785204418,
      1785204428,
      1785204488,
      1785204538,
      1785204608,
      1785204668,
      1785204728,
      1785204778,
      1785204788,
      1785204849,
      1785204898,
      1785204959,
      1785204969,
      1785205019,
      1785205029,
      1785205089,
      1785205139,
      1785205149,
      1785205209,
      1785205269,
      1785205319,
      1785205329,
      1785205389,
      1785205449,
      1785205509,
      1785205559,
      1785205570,
      1785205619,
      1785205630,
      1785205679,
      1785205690,
      1785205739,
      1785205860,
      1785205920,
      1785205952,
      1785205980,
      1785206040,
      1785206100,
      1785206223,
      1785206280,
      1785206340,
      1785206348,
      1785206408,
      1785206460,
      1785206517,
      1785206580,
      1785206641,
      1785206708,
      1785206761,
      1785206881,
      1785206943,
      1785207001,
      1785207061,
      1785207121,
      1785207241,
      1785207361,
      1785207542
    ],
    "wof:geomhash": "2531a99441ed0e45a4224268cd2425e1",
    "wof:id": 2031988171,
    "wof:repo": "sfomuseum-data-flights-2026-07"
  },
  "bbox": [
    -122.35972222222222,
    32.76694444444444,
    -97.05,
    37.61222222222222
  ],
  "geometry": {"coordinates":[[-97.05,32.88333333333333],[-97.05,32.85],[-97.08333333333333,32.78333333333333],[-97.17583333333334,32.76694444444444],[-97.36833333333333,32.80222222222222],[-97.4775,32.82833333333333],[-97.58916666666666,32.85527777777778],[-97.70833333333334,32.88333333333333],[-97.8261111111111,32.919999999999995],[-97.94444444444444,32.95888888888889],[-98.06638888888888,32.99861111111111],[-98.19166666666668,33.03944444444444],[-98.29805555555555,33.073888888888895],[-98.6036111111111,33.17305555555555],[-98.74138888888889,33.217222222222226],[-98.88138888888888,33.261944444444445],[-99.02361111111111,33.3075],[-99.16527777777779,33.3525],[-99.31166666666667,33.39861111111111],[-99.45805555555556,33.44472222222222],[-99.60972222222222,33.48888888888889],[-99.76555555555555,33.5325],[-99.9213888888889,33.57555555555556],[-100.06777777777778,33.615833333333335],[-100.10972222222222,33.62722222222222],[-100.2225,33.658055555555556],[-100.2625,33.66861111111111],[-100.41861111111112,33.70638888888889],[-100.53277777777778,33.73444444444444],[-100.57305555555556,33.74444444444445],[-100.84555555555555,33.81055555555555],[-100.9038888888889,33.82472222222223],[-101.00166666666667,33.848333333333336],[-101.06138888888889,33.86277777777778],[-101.17222222222223,33.88916666666667],[-101.20361111111112,33.89666666666667],[-101.36472222222221,33.93527777777778],[-101.52444444444444,33.97277777777778],[-101.65138888888889,34.00277777777778],[-101.68277777777779,34.01],[-101.81083333333333,34.04],[-101.84388888888888,34.0475],[-102.00416666666666,34.084722222222226],[-102.17361111111111,34.12388888888889],[-102.49583333333334,34.19916666666666],[-102.63944444444445,34.25055555555556],[-102.64194444444445,34.251666666666665],[-102.79305555555555,34.3075],[-102.94638888888889,34.36416666666667],[-102.94638888888889,34.36416666666667],[-103.09916666666666,34.42055555555555],[-103.25027777777778,34.475833333333334],[-103.25277777777778,34.47666666666667],[-103.405,34.532222222222224],[-103.55888888888889,34.588055555555556],[-103.71222222222222,34.64361111111111],[-104.0175,34.75277777777778],[-104.02027777777778,34.75388888888889],[-104.17166666666667,34.80777777777777],[-104.32222222222222,34.861111111111114],[-104.325,34.86222222222222],[-104.47694444444444,34.91583333333333],[-104.62805555555555,34.96888888888889],[-104.79027777777777,35.025555555555556],[-104.94277777777778,35.07833333333333],[-105.25166666666667,35.187777777777775],[-105.54833333333333,35.3125],[-105.715,35.343611111111116],[-105.88277777777778,35.35611111111111],[-106.03944444444444,35.369166666666665],[-106.18111111111112,35.38194444444444],[-106.34916666666666,35.400277777777774],[-106.37416666666665,35.403888888888886],[-106.53527777777778,35.42027777777778],[-106.69888888888889,35.43666666666666],[-106.81166666666667,35.44777777777777],[-106.86416666666666,35.45277777777778],[-107.00416666666666,35.46666666666667],[-107.165,35.481944444444444],[-107.17833333333334,35.483333333333334],[-107.32555555555555,35.49722222222222],[-107.4888888888889,35.51222222222222],[-107.64861111111112,35.52722222222222],[-107.81027777777777,35.5425],[-107.96861111111112,35.52638888888889],[-107.96777777777778,35.526666666666664],[-108.11166666666666,35.47555555555556],[-108.25805555555556,35.42361111111111],[-108.25694444444444,35.424166666666665],[-108.39888888888889,35.36472222222223],[-108.54055555555556,35.30888888888889],[-108.7025,35.30694444444444],[-108.70111111111112,35.30694444444444],[-108.86333333333333,35.335],[-109.02333333333333,35.36361111111111],[-109.04305555555555,35.367222222222225],[-109.21666666666667,35.39805555555556],[-109.34583333333333,35.420833333333334],[-109.53222222222222,35.453611111111115],[-109.66416666666667,35.47666666666667],[-109.84916666666666,35.50833333333333],[-110.00972222222222,35.53583333333333],[-110.33055555555555,35.57777777777778],[-110.49416666666667,35.595555555555556],[-110.65361111111112,35.61333333333334],[-110.815,35.630833333333335],[-111.14111111111112,35.66555555555556],[-111.30416666666666,35.6825],[-111.46611111111112,35.69888888888889],[-111.62888888888888,35.71555555555556],[-111.78916666666666,35.731388888888894],[-111.9475,35.746944444444445],[-112.1061111111111,35.76222222222222],[-112.26805555555555,35.778055555555554],[-112.74666666666667,35.82222222222222],[-112.90527777777778,35.83527777777778],[-113.06055555555555,35.814166666666665],[-113.20944444444444,35.77833333333333],[-113.35305555555556,35.73722222222222],[-113.49833333333333,35.69583333333333],[-113.64694444444446,35.653055555555554],[-113.82083333333333,35.6025],[-113.9675,35.55916666666666],[-114.11194444444443,35.51722222222222],[-114.25972222222222,35.47361111111111],[-114.38555555555556,35.436388888888885],[-114.67722222222223,35.34916666666667],[-114.82388888888889,35.305277777777775],[-114.97111111111111,35.26083333333333],[-115.11833333333333,35.215833333333336],[-115.27972222222222,35.166666666666664],[-115.42805555555556,35.12111111111111],[-115.70444444444445,35.035555555555554],[-115.85027777777778,34.99027777777778],[-115.99916666666667,34.94361111111111],[-116.1463888888889,34.89722222222222],[-116.44416666666667,34.80611111111111],[-116.6,34.78388888888889],[-116.75722222222223,34.76833333333333],[-116.91777777777779,34.75194444444445],[-117.23444444444445,34.719722222222224],[-117.39305555555556,34.70333333333333],[-117.55277777777778,34.686388888888885],[-117.87138888888889,34.65222222222222],[-118.02944444444444,34.6475],[-118.15805555555556,34.67527777777777],[-118.18138888888889,34.68805555555555],[-118.32055555555556,34.75361111111111],[-118.43472222222222,34.80694444444444],[-118.59888888888888,34.88444444444444],[-118.7375,34.94944444444444],[-118.875,35.01361111111111],[-118.98777777777778,35.06583333333333],[-119.01222222222222,35.077222222222225],[-119.14416666666668,35.138333333333335],[-119.25416666666666,35.18888888888888],[-119.38722222222223,35.25],[-119.41222222222223,35.26138888888889],[-119.52527777777777,35.308611111111105],[-119.55027777777778,35.31388888888888],[-119.70416666666667,35.3175],[-119.82722222222222,35.31861111111112],[-119.85388888888889,35.31861111111112],[-119.99888888888889,35.348888888888894],[-120.10694444444444,35.44333333333333],[-120.18722222222223,35.52444444444444],[-120.20555555555556,35.54333333333333],[-120.30583333333333,35.63861111111111],[-120.42361111111111,35.711111111111116],[-120.56055555555555,35.76555555555556],[-120.67361111111111,35.808611111111105],[-120.69694444444445,35.8175],[-120.81027777777777,35.86055555555556],[-120.83555555555554,35.87027777777778],[-120.94583333333334,35.91166666666666],[-120.97,35.920833333333334],[-121.08305555555555,35.96333333333334],[-121.33722222222222,36.08027777777778],[-121.42222222222223,36.17805555555555],[-121.46666666666667,36.233333333333334],[-121.5038888888889,36.27194444444444],[-121.58194444444445,36.361666666666665],[-121.65833333333335,36.44888888888889],[-121.81666666666666,36.63333333333333],[-121.86555555555555,36.705555555555556],[-121.90833333333335,36.794444444444444],[-121.91666666666667,36.81666666666667],[-121.93333333333334,36.916666666666664],[-121.96138888888889,36.97361111111111],[-122,37.06666666666667],[-122.05416666666666,37.10027777777778],[-122.13805555555557,37.118611111111115],[-122.21666666666667,37.166666666666664],[-122.25111111111111,37.21416666666667],[-122.30805555555555,37.32638888888889],[-122.21666666666667,37.35],[-122.15361111111112,37.365833333333335],[-122.10166666666666,37.39861111111111],[-122.08416666666666,37.44777777777777],[-122.15277777777779,37.524166666666666],[-122.2425,37.56305555555555],[-122.35972222222222,37.61222222222222]],"type":"LineString"}
}
