{
  "id": 2032054277,
  "type": "Feature",
  "properties": {
    "geom:area": 0,
    "geom:bbox": "-121.384444,32.694722,-116.966667,35.884444",
    "geom:latitude": 34.262596521039896,
    "geom:longitude": -119.07588087264251,
    "src:alt_label": "swim-path",
    "src:geom": "swim",
    "swim:altitudes": [
      "329",
      "341",
      "350C",
      "350C",
      "350C",
      "350C",
      "350C",
      "350C",
      "350C",
      "350C",
      "350C",
      "350C",
      "350C",
      "350C",
      "350C",
      "350C",
      "350C",
      "350C",
      "350C",
      "350C",
      "350C",
      "350C",
      "350C",
      "350C",
      "349",
      "333",
      "307",
      "286",
      "269",
      "248",
      "226",
      "217",
      "205",
      "195",
      "181",
      "174",
      "163",
      "152",
      "141",
      "135",
      "120",
      "117",
      "105",
      "100",
      "098",
      "093",
      "080",
      "075",
      "063",
      "062",
      "056",
      "050",
      "039",
      "028",
      "016",
      "009",
      "007"
    ],
    "swim:geom": "path",
    "swim:speeds": [
      452,
      452,
      450,
      449,
      449,
      451,
      451,
      451,
      450,
      450,
      450,
      450,
      450,
      452,
      453,
      455,
      456,
      457,
      457,
      456,
      455,
      454,
      452,
      450,
      448,
      448,
      450,
      443,
      431,
      416,
      404,
      396,
      395,
      381,
      373,
      347,
      341,
      352,
      352,
      344,
      339,
      333,
      336,
      335,
      301,
      292,
      291,
      284,
      281,
      264,
      235,
      238,
      225,
      206,
      156,
      155,
      146
    ],
    "swim:timestamps": [
      1785563077,
      1785563137,
      1785563197,
      1785563257,
      1785563317,
      1785563437,
      1785563497,
      1785563557,
      1785563617,
      1785563677,
      1785563737,
      1785563797,
      1785563857,
      1785563917,
      1785563977,
      1785564041,
      1785564101,
      1785564161,
      1785564221,
      1785564281,
      1785564341,
      1785564402,
      1785564462,
      1785564522,
      1785564582,
      1785564642,
      1785564702,
      1785564762,
      1785564822,
      1785564882,
      1785564942,
      1785564956,
      1785565002,
      1785565016,
      1785565062,
      1785565082,
      1785565122,
      1785565130,
      1785565182,
      1785565193,
      1785565242,
      1785565256,
      1785565303,
      1785565316,
      1785565363,
      1785565370,
      1785565423,
      1785565430,
      1785565483,
      1785565490,
      1785565550,
      1785565603,
      1785565663,
      1785565723,
      1785565793,
      1785565843,
      1785565853
    ],
    "wof:geomhash": "2582c9c069adc6b9222ac753844659fd",
    "wof:id": 2032054277,
    "wof:repo": "sfomuseum-data-flights-2026-07"
  },
  "bbox": [
    -121.38444444444445,
    32.69472222222222,
    -116.96666666666667,
    35.88444444444444
  ],
  "geometry": {"coordinates":[[-121.38444444444445,35.88444444444444],[-121.29638888888888,35.782222222222224],[-121.2088888888889,35.680277777777775],[-121.12166666666666,35.57833333333333],[-121.01777777777778,35.48694444444445],[-120.76833333333333,35.34138888888889],[-120.64555555555556,35.269999999999996],[-120.52305555555556,35.198055555555555],[-120.40055555555556,35.12638888888889],[-120.2775,35.05333333333333],[-120.15666666666667,34.981944444444444],[-120.03361111111111,34.90861111111111],[-119.91055555555556,34.834722222222226],[-119.78583333333333,34.76027777777778],[-119.66333333333334,34.68666666666666],[-119.51611111111112,34.59805555555556],[-119.39444444444445,34.52472222222222],[-119.27055555555556,34.44944444444444],[-119.14722222222223,34.37416666666667],[-119.02277777777778,34.29805555555556],[-118.90166666666667,34.22361111111111],[-118.78027777777778,34.14888888888889],[-118.65916666666668,34.07416666666667],[-118.53722222222223,33.99861111111111],[-118.41861111111112,33.922777777777775],[-118.30638888888889,33.836111111111116],[-118.19166666666668,33.7475],[-118.08166666666666,33.66416666666667],[-117.99722222222222,33.599444444444444],[-117.89611111111111,33.51833333333333],[-117.80277777777778,33.437777777777775],[-117.76666666666667,33.4],[-117.71638888888889,33.35666666666667],[-117.68333333333334,33.31666666666667],[-117.63277777777778,33.27861111111111],[-117.6,33.233333333333334],[-117.55611111111111,33.20638888888889],[-117.53333333333333,33.18333333333333],[-117.47444444444444,33.13611111111111],[-117.45,33.11666666666667],[-117.38,33.05416666666667],[-117.36666666666666,33.03333333333333],[-117.31333333333333,32.99638888888889],[-117.28333333333333,32.96666666666667],[-117.24027777777778,32.9325],[-117.21666666666667,32.916666666666664],[-117.1738888888889,32.874722222222225],[-117.15,32.86666666666667],[-117.10944444444443,32.818333333333335],[-117.1,32.8],[-117.03333333333333,32.766666666666666],[-116.9738888888889,32.75555555555555],[-116.96666666666667,32.69944444444444],[-117.03083333333333,32.69472222222222],[-117.1,32.71666666666667],[-117.1388888888889,32.72138888888889],[-117.15,32.71666666666667]],"type":"LineString"}
}
