{
  "id": 2031968213,
  "type": "Feature",
  "properties": {
    "geom:area": 0,
    "geom:bbox": "-122.401750,37.623390,-121.288030,37.991430",
    "geom:latitude": 37.932174505768,
    "geom:longitude": -121.96359982929427,
    "src:alt_label": "swim-takeoff",
    "src:geom": "swim",
    "swim:elevations": [
      152,
      471,
      731,
      1092,
      1376,
      1935,
      2234,
      2533,
      2777,
      2912,
      3176,
      3244,
      3261,
      3430,
      3689,
      3878,
      4119,
      4542,
      4757,
      4918,
      5274,
      5512,
      5580
    ],
    "swim:geom": "takeoff",
    "swim:timestamps": [
      1785025815,
      1785025836,
      1785025881,
      1785025929,
      1785025953,
      1785026006,
      1785026038,
      1785026064,
      1785026089,
      1785026104,
      1785026142,
      1785026157,
      1785026163,
      1785026202,
      1785026267,
      1785026308,
      1785026335,
      1785026398,
      1785026428,
      1785026451,
      1785026500,
      1785026545,
      1785026557
    ],
    "wof:geomhash": "5687c09f67f8c3950532a17b3ae3be7c",
    "wof:id": 2031968213,
    "wof:repo": "sfomuseum-data-flights-2026-07"
  },
  "bbox": [
    -122.40175,
    37.62339,
    -121.28803,
    37.99143
  ],
  "geometry": {"coordinates":[[-122.38597,37.62339],[-122.40175,37.63247],[-122.38681,37.66937],[-122.34569,37.715],[-122.33861,37.74342],[-122.36465,37.80547],[-122.38468,37.84434],[-122.38462,37.88129],[-122.38108,37.9156],[-122.36959,37.93344],[-122.30763,37.95544],[-122.27964,37.96057],[-122.26811,37.96284],[-122.18955,37.97939],[-122.04098,37.98857],[-121.94048,37.9891],[-121.8722,37.98969],[-121.71108,37.99049],[-121.63315,37.99092],[-121.57163,37.99109],[-121.44062,37.99138],[-121.32059,37.99141],[-121.28803,37.99143]],"type":"LineString"}
}
