{
  "id": 2032020375,
  "type": "Feature",
  "properties": {
    "geom:area": 0,
    "geom:bbox": "-122.359710,36.721510,-121.890890,37.612500",
    "geom:latitude": 37.215522349414414,
    "geom:longitude": -122.0777315713393,
    "src:alt_label": "swim-approach",
    "src:geom": "swim",
    "swim:elevations": [
      5324,
      5070,
      4582,
      4463,
      4093,
      3762,
      3537,
      3434,
      3314,
      3156,
      2946,
      2688,
      2462,
      2339,
      2205,
      1998,
      1949,
      1829,
      1697,
      1576,
      1313,
      1306,
      1157,
      1095,
      941,
      915,
      779,
      610,
      492,
      399,
      334,
      209,
      90,
      0
    ],
    "swim:geom": "approach",
    "swim:timestamps": [
      1785326740,
      1785326766,
      1785326818,
      1785326832,
      1785326874,
      1785326907,
      1785326937,
      1785326952,
      1785326978,
      1785327018,
      1785327051,
      1785327086,
      1785327113,
      1785327127,
      1785327148,
      1785327172,
      1785327180,
      1785327218,
      1785327262,
      1785327278,
      1785327327,
      1785327331,
      1785327384,
      1785327394,
      1785327448,
      1785327452,
      1785327483,
      1785327525,
      1785327555,
      1785327576,
      1785327595,
      1785327627,
      1785327658,
      1785327679
    ],
    "wof:geomhash": "6d9987b7fd6365403926a7be1c29c48a",
    "wof:id": 2032020375,
    "wof:repo": "sfomuseum-data-flights-2026-07"
  },
  "bbox": [
    -122.35971,
    36.72151,
    -121.89089,
    37.6125
  ],
  "geometry": {"coordinates":[[-121.89089,36.72151],[-121.90116,36.76609],[-121.92468,36.8513],[-121.93096,36.87399],[-121.94973,36.941],[-121.96841,36.99096],[-121.98574,37.03591],[-121.99362,37.05649],[-122.00703,37.09106],[-122.02651,37.14047],[-122.05115,37.1712],[-122.0865,37.19683],[-122.11342,37.21757],[-122.12138,37.2317],[-122.12926,37.25314],[-122.13355,37.27903],[-122.13286,37.28743],[-122.13003,37.32817],[-122.12666,37.37517],[-122.12549,37.39212],[-122.1219,37.44384],[-122.12155,37.44777],[-122.13105,37.49261],[-122.13755,37.49956],[-122.1735,37.53312],[-122.17672,37.5347],[-122.20218,37.54619],[-122.23736,37.56094],[-122.2633,37.57176],[-122.27986,37.57877],[-122.2949,37.58515],[-122.32077,37.59586],[-122.34415,37.6057],[-122.35971,37.6125]],"type":"LineString"}
}
