{
  "id": 2031947169,
  "type": "Feature",
  "properties": {
    "geom:area": 0,
    "geom:bbox": "-122.527500,37.655278,-114.094444,48.642222",
    "geom:latitude": 43.468075094895205,
    "geom:longitude": -118.70741162847429,
    "src:alt_label": "swim-path",
    "src:geom": "swim",
    "swim:altitudes": [
      "031",
      "044",
      "066",
      "104",
      "112",
      "124",
      "139",
      "154",
      "184",
      "196",
      "210",
      "224",
      "258",
      "269",
      "290",
      "296",
      "306",
      "311",
      "317",
      "322",
      "325",
      "336",
      "340C",
      "340C",
      "340C",
      "340C",
      "340C",
      "340C",
      "340C",
      "340C",
      "340C",
      "340C",
      "340C",
      "340C",
      "340C",
      "340C",
      "340C",
      "340C",
      "340C",
      "340C",
      "340C",
      "340C",
      "340C",
      "340C",
      "340C",
      "340C",
      "340C",
      "340C",
      "340C",
      "340C",
      "340C",
      "340C",
      "340C",
      "340C",
      "340C",
      "340C",
      "340C",
      "340C",
      "340C",
      "340C",
      "340C",
      "340C",
      "340C",
      "340",
      "340",
      "345",
      "359C",
      "360C",
      "360C",
      "360C",
      "360C",
      "360C",
      "360C",
      "360C",
      "360C",
      "360C",
      "360C",
      "360C",
      "360C",
      "360C",
      "360C",
      "360C",
      "360C",
      "360C",
      "360C",
      "360C",
      "360C",
      "360C",
      "360C",
      "360C",
      "360C",
      "360C",
      "360C",
      "360C",
      "360C",
      "360C",
      "360C",
      "360C",
      "360C",
      "360C",
      "360C",
      "360C",
      "360C",
      "360C",
      "360C",
      "360",
      "359",
      "356",
      "355",
      "352C",
      "350C",
      "350C",
      "350C"
    ],
    "swim:geom": "path",
    "swim:speeds": [
      188,
      256,
      281,
      318,
      367,
      405,
      417,
      429,
      452,
      465,
      474,
      485,
      510,
      523,
      533,
      547,
      549,
      556,
      560,
      559,
      559,
      559,
      559,
      560,
      561,
      562,
      562,
      562,
      562,
      563,
      563,
      563,
      564,
      564,
      563,
      562,
      562,
      560,
      560,
      561,
      561,
      560,
      560,
      559,
      559,
      558,
      557,
      557,
      556,
      556,
      556,
      556,
      554,
      553,
      551,
      551,
      551,
      552,
      559,
      559,
      560,
      561,
      561,
      561,
      561,
      557,
      544,
      547,
      552,
      549,
      549,
      546,
      545,
      544,
      545,
      546,
      546,
      551,
      553,
      552,
      554,
      554,
      554,
      555,
      557,
      558,
      565,
      566,
      568,
      568,
      570,
      568,
      568,
      568,
      569,
      569,
      568,
      568,
      567,
      566,
      565,
      564,
      563,
      563,
      562,
      562,
      562,
      563,
      564,
      564,
      561,
      559,
      559
    ],
    "swim:timestamps": [
      1784847259,
      1784847319,
      1784847379,
      1784847499,
      1784847559,
      1784847619,
      1784847679,
      1784847739,
      1784847859,
      1784847920,
      1784847980,
      1784848043,
      1784848223,
      1784848280,
      1784848403,
      1784848460,
      1784848520,
      1784848560,
      1784848583,
      1784848620,
      1784848641,
      1784848680,
      1784848740,
      1784848764,
      1784848800,
      1784848821,
      1784848860,
      1784848881,
      1784848920,
      1784848944,
      1784848980,
      1784849001,
      1784849040,
      1784849100,
      1784849121,
      1784849160,
      1784849181,
      1784849281,
      1784849301,
      1784849341,
      1784849362,
      1784849425,
      1784849461,
      1784849485,
      1784849521,
      1784849545,
      1784849605,
      1784849641,
      1784849665,
      1784849689,
      1784849749,
      1784849761,
      1784849869,
      1784849941,
      1784850001,
      1784850049,
      1784850062,
      1784850122,
      1784850169,
      1784850182,
      1784850230,
      1784850242,
      1784850302,
      1784850350,
      1784850362,
      1784850410,
      1784850482,
      1784850542,
      1784850602,
      1784850650,
      1784850662,
      1784850698,
      1784850759,
      1784850770,
      1784850830,
      1784850879,
      1784850890,
      1784850939,
      1784850950,
      1784850999,
      1784851010,
      1784851071,
      1784851119,
      1784851191,
      1784851239,
      1784851251,
      1784851311,
      1784851371,
      1784851431,
      1784851491,
      1784851540,
      1784851551,
      1784851611,
      1784851671,
      1784851720,
      1784851731,
      1784851791,
      1784851851,
      1784851912,
      1784851972,
      1784852020,
      1784852032,
      1784852080,
      1784852092,
      1784852140,
      1784852152,
      1784852212,
      1784852260,
      1784852272,
      1784852332,
      1784852392,
      1784852441,
      1784852452
    ],
    "wof:geomhash": "b2cfc1f33e58e409a186019bb6e2229c",
    "wof:id": 2031947169,
    "wof:repo": "sfomuseum-data-flights-2026-07"
  },
  "bbox": [
    -122.5275,
    37.655277777777776,
    -114.09444444444443,
    48.64222222222222
  ],
  "geometry": {"coordinates":[[-122.46000000000001,37.655277777777776],[-122.52527777777777,37.69444444444444],[-122.5275,37.77111111111111],[-122.39666666666668,37.89555555555555],[-122.34138888888889,37.98305555555556],[-122.2775,38.08111111111111],[-122.21000000000001,38.18555555555555],[-122.14222222222223,38.29055555555556],[-122.045,38.52388888888889],[-121.99861111111112,38.64972222222222],[-121.95138888888889,38.77777777777778],[-121.89194444444445,38.92166666666667],[-121.64944444444446,39.30138888888889],[-121.57305555555556,39.421388888888885],[-121.39111111111112,39.70805555555556],[-121.31861111111111,39.81861111111112],[-121.23,39.95583333333334],[-121.16222222222223,40.06027777777778],[-121.12333333333332,40.120555555555555],[-121.07305555555556,40.2],[-121.04944444444445,40.23361111111111],[-120.98111111111112,40.34],[-120.89055555555557,40.47805555555556],[-120.85249999999999,40.534166666666664],[-120.7975,40.617222222222225],[-120.75805555555556,40.67666666666666],[-120.70444444444445,40.757222222222225],[-120.66694444444445,40.81388888888888],[-120.61138888888888,40.89694444444444],[-120.57444444444444,40.9525],[-120.51722222222222,41.03805555555555],[-120.48,41.093333333333334],[-120.42416666666666,41.17638888888889],[-120.32888888888888,41.316944444444445],[-120.29222222222222,41.37111111111111],[-120.235,41.455555555555556],[-120.19777777777779,41.50972222222222],[-120.04416666666667,41.734722222222224],[-120.00833333333334,41.78638888888889],[-119.94861111111112,41.8725],[-119.91333333333334,41.92388888888889],[-119.81861111111111,42.06083333333333],[-119.76722222222222,42.13444444444444],[-119.72305555555556,42.1975],[-119.67083333333333,42.27222222222222],[-119.6275,42.33361111111111],[-119.53,42.47222222222222],[-119.47777777777777,42.54611111111111],[-119.43333333333334,42.60916666666667],[-119.39555555555556,42.66222222222222],[-119.29694444444445,42.80027777777777],[-119.28305555555555,42.819722222222225],[-119.10638888888889,43.06583333333333],[-118.99138888888889,43.225],[-118.89222222222223,43.36083333333333],[-118.81194444444444,43.47083333333334],[-118.79416666666667,43.49527777777778],[-118.69527777777778,43.629444444444445],[-118.61027777777777,43.74472222222222],[-118.57277777777777,43.794999999999995],[-118.50722222222223,43.88333333333333],[-118.4713888888889,43.931666666666665],[-118.36916666666666,44.06861111111112],[-118.30666666666666,44.15138888888889],[-118.2825,44.183611111111105],[-118.18277777777779,44.31583333333333],[-118.07916666666667,44.452222222222225],[-117.9775,44.58583333333333],[-117.90055555555556,44.72777777777778],[-117.86083333333333,44.85027777777778],[-117.85222222222221,44.87777777777778],[-117.8275,44.966944444444444],[-117.78416666666666,45.114444444444445],[-117.77388888888889,45.14611111111111],[-117.71638888888889,45.30888888888889],[-117.67166666666667,45.4075],[-117.65027777777779,45.45333333333333],[-117.60277777777777,45.555],[-117.5825,45.598888888888894],[-117.5325,45.7],[-117.51638888888888,45.73083333333334],[-117.43916666666667,45.87777777777778],[-117.37944444444443,45.99027777777778],[-117.26944444444445,46.16277777777778],[-117.18583333333333,46.26861111111111],[-117.16166666666668,46.29722222222222],[-117.01861111111111,46.419444444444444],[-116.86916666666666,46.54055555555556],[-116.71888888888888,46.65972222222222],[-116.55749999999999,46.78777777777778],[-116.44,46.88055555555555],[-116.40694444444445,46.906666666666666],[-116.25416666666666,47.02638888888889],[-116.10194444444444,47.14527777777778],[-115.98055555555555,47.23916666666667],[-115.94694444444445,47.265277777777776],[-115.79416666666667,47.3825],[-115.64027777777778,47.500277777777775],[-115.48583333333333,47.617777777777775],[-115.32972222222222,47.73527777777778],[-115.20611111111111,47.82833333333333],[-115.17500000000001,47.85138888888889],[-115.0525,47.94277777777778],[-115.01833333333333,47.968333333333334],[-114.89500000000001,48.05972222222222],[-114.86,48.08555555555556],[-114.70305555555557,48.20111111111111],[-114.57333333333332,48.295833333333334],[-114.5411111111111,48.31944444444445],[-114.41111111111111,48.41416666666667],[-114.2525,48.52861111111111],[-114.0961111111111,48.64111111111111],[-114.09444444444443,48.64222222222222]],"type":"LineString"}
}
