{
  "id": 2031947035,
  "type": "Feature",
  "properties": {
    "geom:area": 0,
    "geom:bbox": "-114.486944,26.396389,-81.486667,40.848056",
    "geom:latitude": 36.141877215268416,
    "geom:longitude": -96.53274955124904,
    "src:alt_label": "swim-path",
    "src:geom": "swim",
    "swim:altitudes": [
      "330C",
      "330C",
      "330C",
      "330C",
      "330C",
      "330C",
      "330C",
      "330C",
      "330C",
      "330C",
      "330C",
      "330C",
      "330C",
      "330C",
      "330C",
      "330C",
      "330C",
      "330C",
      "330C",
      "330C",
      "330C",
      "330C",
      "330C",
      "330C",
      "330C",
      "330C",
      "330C",
      "330C",
      "330C",
      "330C",
      "330C",
      "330C",
      "330C",
      "330C",
      "330C",
      "330C",
      "330C",
      "330C",
      "330C",
      "330C",
      "330C",
      "330C",
      "330C",
      "330C",
      "330C",
      "330C",
      "329",
      "312",
      "297",
      "250",
      "236",
      "232",
      "215",
      "200",
      "195",
      "187",
      "179",
      "172",
      "164",
      "144",
      "131",
      "119",
      "117",
      "110",
      "110",
      "090",
      "090",
      "070",
      "061",
      "060",
      "054",
      "054",
      "060",
      "069",
      "088",
      "098",
      "100",
      "100",
      "111",
      "129",
      "155",
      "188",
      "210",
      "232",
      "251",
      "256",
      "265",
      "276",
      "280",
      "288",
      "292",
      "301",
      "316",
      "327",
      "330",
      "330",
      "330",
      "330",
      "330",
      "330",
      "330",
      "330",
      "330",
      "330",
      "330",
      "332",
      "337",
      "347",
      "350C",
      "350C",
      "350C",
      "350C",
      "350C",
      "350C",
      "350C",
      "350C",
      "350C",
      "350C",
      "350C",
      "350C",
      "350C",
      "350C",
      "350C",
      "350C",
      "350C",
      "350C",
      "350C",
      "350C",
      "350C",
      "350C",
      "350C",
      "350C",
      "350C",
      "350C",
      "350C",
      "350C",
      "350C",
      "350C",
      "350C",
      "350C",
      "350C",
      "350C",
      "350C",
      "350C",
      "350C",
      "350C",
      "350C",
      "350C",
      "350C",
      "350C",
      "350C",
      "350C",
      "350C",
      "350C",
      "350C",
      "350C",
      "350C",
      "350C",
      "350C",
      "350C",
      "350C",
      "350C",
      "350C",
      "350C",
      "350C",
      "350C",
      "350C",
      "350C",
      "350C",
      "350C",
      "350C",
      "350C",
      "350C",
      "350",
      "356",
      "366",
      "370C",
      "370C",
      "370C",
      "370C",
      "370C",
      "370C",
      "370C",
      "370C",
      "370C",
      "370C",
      "370C",
      "370C",
      "370C",
      "370C",
      "370C",
      "370C",
      "370C",
      "370C",
      "370C",
      "370C",
      "370C",
      "370C",
      "370C",
      "370C",
      "370C",
      "370C",
      "370C",
      "370C",
      "370C",
      "370C",
      "370C",
      "370C",
      "370C",
      "370C",
      "370C",
      "370C",
      "370C",
      "370C",
      "370C",
      "370C",
      "370C",
      "370C",
      "370C",
      "370C",
      "370C",
      "370C",
      "370C",
      "370C",
      "370C",
      "370C",
      "370C",
      "370C",
      "370C",
      "370C",
      "370C",
      "370C",
      "370C",
      "370C",
      "370C",
      "370C",
      "370C",
      "370C",
      "370C",
      "370C",
      "370C",
      "370C",
      "370C",
      "370C",
      "370C",
      "370C",
      "370C",
      "370C",
      "370C",
      "370C",
      "370C",
      "370C",
      "370C",
      "370C",
      "370C",
      "370C",
      "370C",
      "370C",
      "370C",
      "370C",
      "370C",
      "370C",
      "370C",
      "370C",
      "370C",
      "370C",
      "370C",
      "370C",
      "370C",
      "370C",
      "370",
      "369",
      "363",
      "359",
      "354",
      "350C",
      "350",
      "350",
      "350",
      "350",
      "350",
      "350",
      "350",
      "348",
      "343",
      "329",
      "324",
      "307",
      "299",
      "290C",
      "290C",
      "290",
      "288",
      "278",
      "273",
      "263",
      "262",
      "252",
      "243",
      "224",
      "219",
      "198",
      "192",
      "169",
      "165",
      "143",
      "127",
      "122",
      "106",
      "101C",
      "100C",
      "087",
      "074",
      "063",
      "050",
      "050",
      "048",
      "040",
      "040",
      "040",
      "040",
      "040",
      "038",
      "038",
      "029",
      "029",
      "020",
      "011",
      "003",
      "100"
    ],
    "swim:geom": "path",
    "swim:speeds": [
      484,
      483,
      484,
      485,
      486,
      489,
      491,
      492,
      494,
      510,
      512,
      511,
      512,
      513,
      514,
      515,
      516,
      517,
      518,
      510,
      510,
      502,
      500,
      498,
      496,
      496,
      495,
      495,
      494,
      495,
      495,
      496,
      497,
      497,
      498,
      499,
      500,
      500,
      501,
      502,
      502,
      503,
      504,
      504,
      503,
      502,
      502,
      494,
      475,
      448,
      433,
      435,
      415,
      400,
      394,
      355,
      343,
      344,
      340,
      318,
      317,
      314,
      310,
      280,
      246,
      229,
      219,
      198,
      165,
      161,
      162,
      75,
      205,
      217,
      265,
      286,
      306,
      329,
      327,
      351,
      393,
      422,
      429,
      423,
      445,
      464,
      461,
      466,
      477,
      485,
      480,
      483,
      480,
      467,
      479,
      472,
      476,
      492,
      476,
      483,
      488,
      479,
      482,
      487,
      482,
      485,
      493,
      494,
      493,
      493,
      489,
      482,
      483,
      481,
      483,
      487,
      487,
      488,
      486,
      484,
      485,
      484,
      484,
      484,
      484,
      486,
      488,
      493,
      496,
      497,
      496,
      490,
      488,
      484,
      483,
      484,
      481,
      486,
      487,
      488,
      487,
      489,
      489,
      487,
      487,
      485,
      485,
      487,
      487,
      489,
      488,
      488,
      487,
      487,
      477,
      476,
      478,
      478,
      481,
      481,
      480,
      481,
      480,
      480,
      480,
      479,
      479,
      480,
      481,
      481,
      481,
      479,
      476,
      478,
      478,
      478,
      477,
      477,
      475,
      473,
      472,
      470,
      470,
      470,
      470,
      469,
      471,
      470,
      469,
      467,
      477,
      467,
      456,
      456,
      458,
      461,
      460,
      466,
      464,
      463,
      458,
      455,
      455,
      455,
      456,
      456,
      456,
      456,
      456,
      456,
      456,
      456,
      456,
      456,
      457,
      457,
      456,
      456,
      456,
      455,
      455,
      453,
      454,
      453,
      453,
      453,
      453,
      453,
      453,
      454,
      454,
      454,
      454,
      455,
      455,
      455,
      456,
      455,
      455,
      454,
      453,
      453,
      454,
      453,
      453,
      455,
      453,
      455,
      454,
      454,
      454,
      453,
      454,
      454,
      455,
      455,
      453,
      449,
      448,
      446,
      437,
      439,
      435,
      436,
      435,
      437,
      437,
      438,
      439,
      438,
      439,
      438,
      434,
      434,
      437,
      441,
      441,
      441,
      442,
      444,
      446,
      446,
      446,
      441,
      427,
      417,
      415,
      436,
      437,
      447,
      448,
      448,
      448,
      446,
      445,
      458,
      459,
      463,
      461,
      448,
      444,
      419,
      415,
      406,
      399,
      377,
      368,
      365,
      355,
      319,
      305,
      301,
      291,
      285,
      286,
      274,
      274,
      263,
      265,
      251,
      228,
      230,
      200,
      203,
      177,
      182,
      157,
      148,
      149,
      149
    ],
    "swim:timestamps": [
      1784825549,
      1784825609,
      1784825729,
      1784825789,
      1784825850,
      1784825910,
      1784825970,
      1784826030,
      1784826150,
      1784826330,
      1784826390,
      1784826450,
      1784826510,
      1784826570,
      1784826631,
      1784826751,
      1784826811,
      1784826871,
      1784826882,
      1784826931,
      1784826942,
      1784827051,
      1784827111,
      1784827122,
      1784827171,
      1784827182,
      1784827231,
      1784827242,
      1784827302,
      1784827362,
      1784827412,
      1784827423,
      1784827472,
      1784827483,
      1784827532,
      1784827543,
      1784827592,
      1784827603,
      1784827663,
      1784827712,
      1784827723,
      1784827783,
      1784827832,
      1784827843,
      1784827963,
      1784828023,
      1784828083,
      1784828144,
      1784828204,
      1784828384,
      1784828419,
      1784828444,
      1784828504,
      1784828564,
      1784828572,
      1784828624,
      1784828692,
      1784828744,
      1784828804,
      1784828925,
      1784828992,
      1784829045,
      1784829052,
      1784829112,
      1784829165,
      1784829291,
      1784829345,
      1784829465,
      1784829525,
      1784829532,
      1784829585,
      1784829646,
      1784846586,
      1784846611,
      1784846667,
      1784846709,
      1784846733,
      1784846769,
      1784846798,
      1784846852,
      1784846949,
      1784847069,
      1784847129,
      1784847201,
      1784847312,
      1784847322,
      1784847372,
      1784847432,
      1784847442,
      1784847492,
      1784847514,
      1784847552,
      1784847612,
      1784847634,
      1784847672,
      1784847694,
      1784847732,
      1784847754,
      1784847792,
      1784847814,
      1784847853,
      1784847874,
      1784847913,
      1784847934,
      1784847973,
      1784848033,
      1784848055,
      1784848115,
      1784848153,
      1784848175,
      1784848213,
      1784848235,
      1784848273,
      1784848295,
      1784848333,
      1784848355,
      1784848393,
      1784848415,
      1784848475,
      1784848535,
      1784848574,
      1784848595,
      1784848655,
      1784848694,
      1784848715,
      1784848776,
      1784848814,
      1784848874,
      1784849054,
      1784849114,
      1784849175,
      1784849415,
      1784849476,
      1784849596,
      1784849716,
      1784849776,
      1784849824,
      1784849836,
      1784849884,
      1784849896,
      1784849944,
      1784850005,
      1784850016,
      1784850065,
      1784850077,
      1784850125,
      1784850185,
      1784850194,
      1784850245,
      1784850305,
      1784850365,
      1784850425,
      1784850434,
      1784850485,
      1784850545,
      1784850614,
      1784850665,
      1784850674,
      1784850795,
      1784850855,
      1784850906,
      1784850915,
      1784850966,
      1784850975,
      1784851026,
      1784851086,
      1784851146,
      1784851206,
      1784851266,
      1784851275,
      1784851326,
      1784851386,
      1784851446,
      1784851567,
      1784851687,
      1784851747,
      1784851807,
      1784851867,
      1784852047,
      1784852167,
      1784852228,
      1784852408,
      1784852468,
      1784852528,
      1784852588,
      1784852648,
      1784852768,
      1784852888,
      1784852949,
      1784853129,
      1784853369,
      1784853429,
      1784853489,
      1784853549,
      1784853609,
      1784853670,
      1784853832,
      1784853850,
      1784853910,
      1784853953,
      1784853970,
      1784854030,
      1784854073,
      1784854090,
      1784854133,
      1784854153,
      1784854193,
      1784854213,
      1784854253,
      1784854273,
      1784854313,
      1784854333,
      1784854373,
      1784854393,
      1784854433,
      1784854453,
      1784854513,
      1784854553,
      1784854573,
      1784854613,
      1784854634,
      1784854674,
      1784854694,
      1784854734,
      1784854754,
      1784854794,
      1784854814,
      1784854854,
      1784854874,
      1784854914,
      1784854974,
      1784855034,
      1784855094,
      1784855154,
      1784855214,
      1784855274,
      1784855313,
      1784855334,
      1784855373,
      1784855433,
      1784855455,
      1784855493,
      1784855515,
      1784855553,
      1784855575,
      1784855613,
      1784855635,
      1784855673,
      1784855695,
      1784855733,
      1784855755,
      1784855793,
      1784855815,
      1784855854,
      1784855875,
      1784855914,
      1784855935,
      1784855974,
      1784855995,
      1784856034,
      1784856055,
      1784856094,
      1784856115,
      1784856154,
      1784856176,
      1784856214,
      1784856236,
      1784856274,
      1784856334,
      1784856356,
      1784856394,
      1784856416,
      1784856454,
      1784856476,
      1784856515,
      1784856536,
      1784856575,
      1784856596,
      1784856635,
      1784856656,
      1784856695,
      1784856716,
      1784856755,
      1784856815,
      1784856836,
      1784856875,
      1784856897,
      1784856935,
      1784856957,
      1784856995,
      1784857017,
      1784857055,
      1784857077,
      1784857137,
      1784857176,
      1784857236,
      1784857257,
      1784857317,
      1784857356,
      1784857416,
      1784857437,
      1784857476,
      1784857497,
      1784857536,
      1784857557,
      1784857618,
      1784857656,
      1784857678,
      1784857716,
      1784857777,
      1784857837,
      1784857894,
      1784857954,
      1784858008,
      1784858077,
      1784858122,
      1784858137,
      1784858182,
      1784858197,
      1784858257,
      1784858308,
      1784858317,
      1784858368,
      1784858377,
      1784858428,
      1784858438,
      1784858498,
      1784858558,
      1784858618,
      1784858678
    ],
    "wof:geomhash": "9fd6c5253b7e25a0926ac62a063bf9d1",
    "wof:id": 2031947035,
    "wof:repo": "sfomuseum-data-flights-2026-07"
  },
  "bbox": [
    -114.48694444444445,
    26.39638888888889,
    -81.48666666666666,
    40.84805555555556
  ],
  "geometry": {"coordinates":[[-114.48694444444445,40.700833333333335],[-114.30888888888889,40.70722222222223],[-113.95666666666666,40.719166666666666],[-113.77944444444444,40.72555555555556],[-113.60194444444444,40.73777777777778],[-113.42333333333333,40.75138888888889],[-113.23916666666666,40.765277777777776],[-113.05944444444444,40.778055555555554],[-112.69722222222222,40.80361111111111],[-112.14666666666668,40.84],[-111.96805555555555,40.84805555555556],[-111.77888888888889,40.840833333333336],[-111.59333333333333,40.83111111111111],[-111.40277777777779,40.821111111111115],[-111.21888888888888,40.811388888888885],[-110.84194444444444,40.790277777777774],[-110.65333333333334,40.77916666666667],[-110.46666666666667,40.768055555555556],[-110.41388888888889,40.764722222222225],[-110.27888888888889,40.756388888888885],[-110.24416666666667,40.754444444444445],[-109.93333333333334,40.73444444444444],[-109.75083333333333,40.72222222222222],[-109.70027777777779,40.71888888888889],[-109.57055555555556,40.71],[-109.53527777777778,40.7075],[-109.3913888888889,40.6975],[-109.3561111111111,40.69499999999999],[-109.17500000000001,40.68222222222222],[-108.995,40.66916666666666],[-108.84083333333332,40.659444444444446],[-108.81305555555555,40.657777777777774],[-108.6588888888889,40.647777777777776],[-108.63138888888888,40.64611111111111],[-108.48055555555555,40.63583333333333],[-108.44666666666667,40.63361111111111],[-108.29722222222222,40.62305555555555],[-108.26527777777778,40.62083333333334],[-108.08666666666666,40.608333333333334],[-107.97027777777778,40.599722222222226],[-107.87027777777777,40.5925],[-107.68972222222223,40.57916666666667],[-107.56805555555555,40.57],[-107.51083333333334,40.565555555555555],[-107.14583333333334,40.5375],[-106.96666666666667,40.52305555555555],[-106.78388888888888,40.50833333333333],[-106.60444444444444,40.49333333333333],[-106.44722222222222,40.47277777777778],[-105.99166666666667,40.345555555555556],[-105.86666666666666,40.333333333333336],[-105.83388888888888,40.33722222222222],[-105.67972222222222,40.33972222222222],[-105.53444444444445,40.342222222222226],[-105.5,40.35],[-105.38083333333333,40.34166666666667],[-105.26666666666667,40.28333333333333],[-105.17750000000001,40.23361111111111],[-105.08027777777778,40.175555555555555],[-104.90861111111111,40.051944444444445],[-104.81666666666666,39.983333333333334],[-104.80527777777777,39.90861111111111],[-104.8,39.9],[-104.8,39.81666666666667],[-104.80972222222222,39.74888888888889],[-104.76666666666667,39.63333333333333],[-104.70777777777778,39.663333333333334],[-104.68833333333333,39.778055555555554],[-104.68777777777778,39.82472222222223],[-104.68333333333334,39.833333333333336],[-104.68722222222223,39.86805555555556],[-104.68444444444445,39.88583333333333],[-104.7,39.9],[-104.68333333333334,39.916666666666664],[-104.6,39.93333333333333],[-104.53222222222222,39.93388888888889],[-104.48333333333333,39.93333333333333],[-104.41777777777779,39.93611111111111],[-104.36666666666666,39.93333333333333],[-104.25,39.9],[-104.0436111111111,39.845],[-103.75972222222222,39.769444444444446],[-103.62027777777777,39.73222222222223],[-103.47472222222223,39.69333333333333],[-103.18555555555555,39.61138888888889],[-103.13388888888889,39.600833333333334],[-103.02388888888889,39.569722222222225],[-102.86305555555555,39.52833333333333],[-102.80666666666666,39.528888888888886],[-102.685,39.52611111111111],[-102.63388888888889,39.524166666666666],[-102.515,39.535],[-102.34416666666667,39.551944444444445],[-102.25083333333333,39.561388888888885],[-102.17555555555556,39.56888888888889],[-102.08305555555555,39.57611111111112],[-102.0075,39.583333333333336],[-101.90944444444445,39.59305555555556],[-101.83333333333333,39.6],[-101.73555555555555,39.596944444444446],[-101.66055555555556,39.57777777777778],[-101.57694444444444,39.54833333333333],[-101.50333333333333,39.525],[-101.41361111111112,39.49583333333334],[-101.34194444444444,39.47166666666667],[-101.17055555555557,39.41722222222222],[-101.08972222222222,39.39083333333333],[-100.92694444444444,39.33777777777778],[-100.85416666666666,39.31388888888888],[-100.76527777777778,39.284166666666664],[-100.69027777777778,39.25888888888889],[-100.60833333333333,39.23166666666667],[-100.53388888888888,39.20722222222223],[-100.45055555555555,39.17972222222222],[-100.37249999999999,39.153888888888886],[-100.28833333333333,39.12583333333333],[-100.21111111111111,39.1],[-100.13083333333333,39.073055555555555],[-99.9863888888889,39.024166666666666],[-99.8286111111111,38.970555555555556],[-99.73444444444445,38.93833333333333],[-99.67111111111112,38.916666666666664],[-99.51166666666667,38.86194444444445],[-99.41944444444445,38.83027777777778],[-99.35277777777777,38.80694444444444],[-99.19583333333334,38.7525],[-99.10055555555554,38.71944444444445],[-98.93944444444445,38.66305555555555],[-98.45833333333334,38.4925],[-98.2975,38.434999999999995],[-98.11416666666666,38.36888888888889],[-97.50055555555555,38.144999999999996],[-97.33194444444445,38.08277777777778],[-97.02694444444444,37.96888888888889],[-96.715,37.85166666666667],[-96.55916666666667,37.7925],[-96.44777777777779,37.75055555555556],[-96.40444444444445,37.73361111111111],[-96.29222222222222,37.689722222222215],[-96.25083333333333,37.675],[-96.13777777777779,37.63027777777778],[-95.98222222222222,37.57083333333334],[-95.95222222222222,37.55361111111111],[-95.84194444444444,37.493611111111115],[-95.81277777777777,37.47694444444445],[-95.7025,37.416666666666664],[-95.55583333333333,37.34638888888889],[-95.52583333333334,37.330555555555556],[-95.40166666666667,37.26861111111111],[-95.25944444444444,37.19694444444444],[-95.11611111111111,37.124722222222225],[-94.97111111111111,37.05138888888889],[-94.94777777777779,37.03944444444444],[-94.82805555555555,36.97888888888889],[-94.68833333333333,36.9075],[-94.52444444444444,36.82333333333334],[-94.41027777777778,36.764722222222225],[-94.41305555555556,36.76611111111111],[-94.12944444444443,36.61944444444445],[-93.98944444444444,36.54666666666667],[-93.84916666666666,36.473333333333336],[-93.85138888888888,36.474444444444444],[-93.73166666666667,36.41138888888889],[-93.7038888888889,36.39694444444444],[-93.5925,36.33833333333334],[-93.45583333333333,36.265277777777776],[-93.32222222222222,36.18666666666666],[-93.18722222222223,36.108333333333334],[-93.05361111111111,36.030833333333334],[-93.02527777777777,36.01444444444444],[-92.9175,35.95166666666667],[-92.78444444444445,35.87361111111111],[-92.65222222222222,35.79611111111111],[-92.38694444444445,35.63916666666667],[-92.12222222222222,35.48111111111111],[-91.99027777777778,35.40222222222222],[-91.85972222222222,35.32361111111111],[-91.72888888888889,35.24472222222222],[-91.34194444444444,35.009166666666665],[-91.08833333333332,34.853611111111114],[-90.96027777777778,34.77444444444444],[-90.58222222222221,34.53916666666667],[-90.45805555555556,34.461666666666666],[-90.33166666666666,34.382222222222225],[-90.20777777777778,34.30416666666667],[-90.0586111111111,34.209722222222226],[-89.81,34.05138888888889],[-89.56138888888889,33.89194444444444],[-89.4375,33.81222222222222],[-89.08416666666666,33.583333333333336],[-88.60194444444444,33.25388888888889],[-88.49833333333333,33.155],[-88.39916666666667,33.059444444444445],[-88.30499999999999,32.96083333333333],[-88.22027777777778,32.85333333333333],[-88.13555555555556,32.74666666666667],[-87.91194444444444,32.46361111111111],[-87.86694444444444,32.42305555555555],[-87.74333333333334,32.348333333333336],[-87.65916666666668,32.29833333333333],[-87.61861111111111,32.27388888888889],[-87.49888888888889,32.202222222222225],[-87.40527777777778,32.146388888888886],[-87.375,32.128055555555555],[-87.28416666666666,32.07361111111111],[-87.25861111111111,32.058055555555555],[-87.16361111111112,32.00083333333333],[-87.13944444444445,31.98638888888889],[-87.04277777777777,31.92777777777778],[-87.01805555555555,31.912777777777777],[-86.92111111111112,31.854166666666668],[-86.8963888888889,31.839166666666664],[-86.80027777777778,31.780555555555555],[-86.7761111111111,31.765555555555554],[-86.67916666666667,31.70638888888889],[-86.65611111111112,31.692222222222224],[-86.53611111111111,31.61861111111111],[-86.44111111111111,31.560000000000002],[-86.41666666666667,31.545],[-86.32249999999999,31.486944444444447],[-86.2975,31.471666666666664],[-86.2025,31.41333333333333],[-86.17916666666667,31.399166666666666],[-86.08444444444444,31.340555555555554],[-86.03777777777778,31.311666666666667],[-85.965,31.266666666666666],[-85.91777777777779,31.23777777777778],[-85.84805555555555,31.194166666666668],[-85.80138888888888,31.165277777777778],[-85.72833333333334,31.119722222222222],[-85.61055555555555,31.04638888888889],[-85.49166666666667,30.971944444444443],[-85.37249999999999,30.897222222222222],[-85.25361111111111,30.822222222222223],[-85.13388888888889,30.746666666666666],[-85.01416666666667,30.671111111111113],[-84.93805555555556,30.620833333333334],[-84.89583333333334,30.59583333333333],[-84.82055555555556,30.546944444444446],[-84.70305555555557,30.47222222222222],[-84.66166666666668,30.44638888888889],[-84.58944444444444,30.39472222222222],[-84.55222222222221,30.360555555555557],[-84.4863888888889,30.30527777777778],[-84.4475,30.272222222222222],[-84.38166666666666,30.21611111111111],[-84.34277777777777,30.184166666666666],[-84.27777777777777,30.128055555555555],[-84.23944444444444,30.096944444444443],[-84.17361111111111,30.041666666666668],[-84.13166666666666,30.006666666666668],[-84.07,29.954722222222223],[-84.02777777777777,29.918333333333333],[-83.96638888888889,29.865555555555556],[-83.92472222222223,29.828611111111112],[-83.86472222222221,29.774444444444445],[-83.8236111111111,29.739444444444445],[-83.76527777777778,29.68722222222222],[-83.72416666666666,29.6525],[-83.665,29.600555555555555],[-83.6211111111111,29.56972222222222],[-83.55333333333333,29.530555555555555],[-83.50638888888889,29.50638888888889],[-83.43611111111112,29.468055555555555],[-83.39,29.4425],[-83.32083333333333,29.404444444444444],[-83.2725,29.37777777777778],[-83.2025,29.33888888888889],[-83.08527777777778,29.273888888888887],[-83.0375,29.247500000000002],[-82.96777777777778,29.20861111111111],[-82.92083333333333,29.1825],[-82.85305555555556,29.144444444444446],[-82.80527777777777,29.118055555555557],[-82.73583333333333,29.079166666666666],[-82.68833333333333,29.052500000000002],[-82.61861111111111,29.013333333333332],[-82.57055555555556,28.98638888888889],[-82.5,28.946666666666665],[-82.45222222222222,28.919722222222223],[-82.38,28.878888888888888],[-82.31833333333333,28.844166666666666],[-82.24722222222222,28.80388888888889],[-82.12888888888888,28.736666666666668],[-82.08333333333333,28.710833333333333],[-82.01833333333333,28.67388888888889],[-81.98166666666667,28.653055555555554],[-81.90611111111112,28.610000000000003],[-81.86666666666666,28.5875],[-81.80444444444444,28.52583333333333],[-81.7936111111111,28.485555555555557],[-81.77527777777777,28.402777777777775],[-81.76472222222222,28.35388888888889],[-81.73916666666666,28.232777777777777],[-81.72611111111111,28.171111111111113],[-81.69722222222222,28.035],[-81.69166666666668,28.00888888888889],[-81.66416666666667,27.878333333333334],[-81.64277777777778,27.77777777777778],[-81.61694444444444,27.654722222222222],[-81.61194444444443,27.630277777777778],[-81.59194444444444,27.535833333333336],[-81.58749999999999,27.51361111111111],[-81.56888888888888,27.424166666666668],[-81.56416666666667,27.4025],[-81.54222222222222,27.297777777777778],[-81.52555555555556,27.217777777777776],[-81.5213888888889,27.197777777777777],[-81.505,27.119722222222222],[-81.48666666666666,27.030555555555555],[-81.50055555555555,26.948333333333334],[-81.52527777777777,26.8675],[-81.54722222222222,26.788611111111113],[-81.56777777777778,26.720277777777778],[-81.59416666666667,26.633055555555558],[-81.61055555555555,26.577222222222222],[-81.615,26.5625],[-81.64,26.50861111111111],[-81.65416666666667,26.498055555555556],[-81.71027777777778,26.461944444444445],[-81.77083333333333,26.422777777777778],[-81.76888888888888,26.42361111111111],[-81.82444444444444,26.39638888888889],[-81.82333333333332,26.396944444444443],[-81.86861111111111,26.425],[-81.86888888888888,26.425],[-81.85944444444443,26.466944444444444],[-81.81972222222223,26.49388888888889],[-81.78055555555555,26.51972222222222],[-81.74805555555555,26.54138888888889]],"type":"LineString"}
}
