{
  "id": 2032054159,
  "type": "Feature",
  "properties": {
    "geom:area": 0,
    "geom:bbox": "-122.053056,34.197500,-118.335833,37.139444",
    "geom:latitude": 35.54252066904606,
    "geom:longitude": -120.24868338822552,
    "src:alt_label": "swim-path",
    "src:geom": "swim",
    "swim:altitudes": [
      "225",
      "244",
      "265",
      "285",
      "310C",
      "310C",
      "310C",
      "310C",
      "310C",
      "310C",
      "310C",
      "310C",
      "310C",
      "310C",
      "310",
      "310",
      "310",
      "310",
      "310",
      "287",
      "264",
      "243",
      "220",
      "200",
      "187",
      "165",
      "147",
      "140",
      "129",
      "121",
      "117",
      "113",
      "104",
      "100",
      "095",
      "089",
      "081",
      "077",
      "070",
      "063",
      "059",
      "055",
      "053",
      "047",
      "039",
      "033",
      "028",
      "023",
      "018",
      "014",
      "010",
      "007"
    ],
    "swim:geom": "path",
    "swim:speeds": [
      402,
      406,
      408,
      416,
      415,
      415,
      423,
      415,
      415,
      414,
      415,
      415,
      416,
      417,
      420,
      423,
      425,
      426,
      428,
      428,
      415,
      400,
      389,
      375,
      363,
      362,
      347,
      340,
      339,
      329,
      307,
      297,
      294,
      289,
      291,
      286,
      288,
      277,
      273,
      269,
      269,
      257,
      238,
      227,
      229,
      219,
      204,
      201,
      188,
      162,
      156,
      147
    ],
    "swim:timestamps": [
      1785547700,
      1785547757,
      1785547820,
      1785547880,
      1785548000,
      1785548060,
      1785548178,
      1785548298,
      1785548358,
      1785548421,
      1785548539,
      1785548601,
      1785548659,
      1785548719,
      1785548781,
      1785548839,
      1785548899,
      1785548961,
      1785549019,
      1785549079,
      1785549142,
      1785549200,
      1785549260,
      1785549322,
      1785549380,
      1785549440,
      1785549502,
      1785549519,
      1785549560,
      1785549582,
      1785549620,
      1785549636,
      1785549680,
      1785549702,
      1785549740,
      1785549762,
      1785549800,
      1785549822,
      1785549861,
      1785549881,
      1785549921,
      1785549942,
      1785549981,
      1785550002,
      1785550041,
      1785550065,
      1785550101,
      1785550122,
      1785550161,
      1785550183,
      1785550221,
      1785550281
    ],
    "wof:geomhash": "a6f30251a619cdea4a374d0a317eeec3",
    "wof:id": 2032054159,
    "wof:repo": "sfomuseum-data-flights-2026-07"
  },
  "bbox": [
    -122.05305555555556,
    34.1975,
    -118.33583333333333,
    37.13944444444444
  ],
  "geometry": {"coordinates":[[-122.05305555555556,37.13944444444444],[-121.96722222222222,37.06083333333333],[-121.8586111111111,36.976111111111116],[-121.75777777777778,36.89138888888889],[-121.56305555555555,36.726111111111116],[-121.46444444444445,36.64222222222222],[-121.26527777777778,36.471944444444446],[-121.08277777777778,36.30583333333333],[-120.99138888888889,36.21638888888889],[-120.89888888888889,36.126111111111115],[-120.72,35.95],[-120.62666666666667,35.8575],[-120.53833333333333,35.769999999999996],[-120.44805555555556,35.68055555555555],[-120.35305555555556,35.58555555555556],[-120.2575,35.49444444444445],[-120.16277777777778,35.40333333333333],[-120.06611111111111,35.309999999999995],[-119.97277777777778,35.219722222222224],[-119.8786111111111,35.12861111111111],[-119.78583333333333,35.038333333333334],[-119.70138888888889,34.95611111111111],[-119.61472222222221,34.873333333333335],[-119.51527777777778,34.80555555555555],[-119.42166666666667,34.74305555555556],[-119.325,34.68055555555555],[-119.22638888888889,34.62222222222222],[-119.18333333333334,34.6],[-119.13166666666666,34.57555555555556],[-119.08333333333333,34.56666666666667],[-119.03833333333333,34.534166666666664],[-119.01666666666667,34.516666666666666],[-118.98277777777778,34.46666666666667],[-118.96666666666667,34.43333333333333],[-118.92916666666667,34.400277777777774],[-118.9,34.36666666666667],[-118.85722222222222,34.346944444444446],[-118.81666666666666,34.333333333333336],[-118.78222222222222,34.30222222222222],[-118.75,34.28333333333333],[-118.70972222222223,34.259166666666665],[-118.68333333333334,34.233333333333334],[-118.64194444444445,34.219166666666666],[-118.61666666666666,34.2],[-118.57249999999999,34.20055555555556],[-118.53333333333333,34.2],[-118.49972222222222,34.19972222222222],[-118.46666666666667,34.2],[-118.43333333333334,34.19888888888889],[-118.41666666666667,34.2],[-118.38083333333333,34.198055555555555],[-118.33583333333333,34.1975]],"type":"LineString"}
}
