{
  "id": 2032023281,
  "type": "Feature",
  "properties": {
    "geom:area": 0,
    "geom:bbox": "-122.350000,33.649444,-84.196389,39.813611",
    "geom:latitude": 37.859034590920224,
    "geom:longitude": -102.97328656044385,
    "src:alt_label": "swim-path",
    "src:geom": "swim",
    "swim:altitudes": [
      "035",
      "041",
      "061",
      "071",
      "084",
      "094",
      "107",
      "154",
      "170",
      "202",
      "228",
      "233",
      "236",
      "242",
      "247",
      "254",
      "258",
      "267",
      "278",
      "288",
      "316",
      "322",
      "330C",
      "330C",
      "330C",
      "330C",
      "330C",
      "330C",
      "330C",
      "330C",
      "330C",
      "330C",
      "330C",
      "330C",
      "330C",
      "330C",
      "330C",
      "330C",
      "330C",
      "330C",
      "330C",
      "330C",
      "330C",
      "330C",
      "330C",
      "330C",
      "330C",
      "330C",
      "330C",
      "330C",
      "330C",
      "330C",
      "330C",
      "330C",
      "330C",
      "330C",
      "330C",
      "330C",
      "330C",
      "330C",
      "330C",
      "330C",
      "330C",
      "330C",
      "330C",
      "330C",
      "330C",
      "330C",
      "330C",
      "330C",
      "330C",
      "330C",
      "330C",
      "330C",
      "330C",
      "330C",
      "330C",
      "330C",
      "330C",
      "330C",
      "330C",
      "330C",
      "330C",
      "330C",
      "330C",
      "330C",
      "330C",
      "330C",
      "330C",
      "330C",
      "330C",
      "330C",
      "330C",
      "330C",
      "330C",
      "330C",
      "330C",
      "330C",
      "330C",
      "330C",
      "330C",
      "330C",
      "330C",
      "330C",
      "330C",
      "330C",
      "330C",
      "330C",
      "330C",
      "330C",
      "330C",
      "330C",
      "330C",
      "330C",
      "330C",
      "341",
      "348C",
      "350C",
      "350C",
      "350C",
      "350C",
      "350C",
      "350C",
      "350C",
      "350C",
      "350C",
      "350C",
      "350C",
      "350C",
      "350C",
      "350C",
      "350C",
      "350C",
      "350C",
      "350C",
      "350C",
      "350C",
      "350C",
      "350C",
      "350C",
      "350C",
      "350C",
      "350C",
      "350C",
      "350C",
      "350C",
      "350C",
      "350C",
      "350C",
      "350C",
      "350C",
      "350C",
      "350C",
      "350C",
      "350C",
      "350C",
      "350C",
      "350C",
      "350C",
      "350C",
      "350C",
      "350C",
      "350C",
      "350C",
      "350C",
      "350C",
      "350C",
      "350C",
      "350C",
      "350C",
      "350C",
      "350C",
      "350C",
      "350C",
      "350C",
      "350C",
      "350C",
      "350C",
      "350C",
      "350C",
      "350C",
      "350C",
      "350C",
      "350C",
      "350C",
      "350C",
      "350C",
      "350C",
      "350C",
      "350C",
      "350C",
      "350C",
      "350C",
      "350C",
      "350C",
      "350C",
      "350C",
      "350C",
      "350C",
      "350C",
      "350C",
      "350C",
      "350C",
      "350C",
      "350C",
      "350C",
      "350C",
      "350C",
      "350C",
      "350C",
      "350C",
      "350C",
      "350C",
      "350C",
      "350C",
      "350C",
      "350C",
      "350C",
      "350C",
      "350C",
      "350C",
      "350C",
      "350C",
      "350C",
      "350C",
      "350C",
      "350C",
      "350C",
      "350C",
      "350C",
      "350C",
      "350C",
      "350C",
      "350C",
      "350C",
      "350C",
      "350C",
      "350C",
      "350C",
      "350C",
      "350",
      "342",
      "342",
      "332C",
      "332C",
      "330C",
      "330C",
      "330C",
      "330C",
      "330C",
      "330C",
      "328",
      "328",
      "319",
      "309",
      "300",
      "300",
      "290",
      "280",
      "270",
      "256",
      "234",
      "184",
      "169",
      "162",
      "155",
      "138",
      "131",
      "128",
      "121",
      "120",
      "120",
      "120",
      "107",
      "092",
      "071",
      "052",
      "035",
      "030",
      "027",
      "018",
      "012"
    ],
    "swim:geom": "path",
    "swim:speeds": [
      212,
      243,
      276,
      287,
      288,
      295,
      309,
      395,
      406,
      430,
      454,
      446,
      471,
      480,
      482,
      480,
      487,
      485,
      497,
      505,
      512,
      513,
      515,
      516,
      514,
      512,
      510,
      509,
      509,
      508,
      508,
      507,
      507,
      507,
      507,
      508,
      508,
      508,
      508,
      508,
      507,
      506,
      505,
      505,
      504,
      503,
      501,
      500,
      498,
      497,
      497,
      496,
      502,
      502,
      499,
      497,
      496,
      495,
      495,
      492,
      491,
      488,
      486,
      484,
      480,
      482,
      486,
      484,
      486,
      485,
      485,
      485,
      485,
      486,
      487,
      490,
      489,
      487,
      485,
      484,
      483,
      481,
      481,
      482,
      483,
      485,
      485,
      487,
      486,
      483,
      479,
      477,
      476,
      474,
      473,
      472,
      471,
      466,
      465,
      464,
      464,
      464,
      475,
      479,
      481,
      486,
      487,
      489,
      489,
      486,
      482,
      481,
      481,
      485,
      487,
      469,
      468,
      466,
      465,
      464,
      464,
      466,
      465,
      467,
      467,
      471,
      467,
      474,
      469,
      478,
      475,
      487,
      485,
      490,
      488,
      494,
      493,
      496,
      494,
      496,
      495,
      494,
      496,
      497,
      497,
      497,
      497,
      497,
      497,
      497,
      497,
      497,
      497,
      495,
      496,
      494,
      492,
      493,
      491,
      492,
      490,
      490,
      490,
      490,
      491,
      491,
      492,
      492,
      493,
      494,
      494,
      493,
      492,
      491,
      490,
      489,
      488,
      482,
      483,
      485,
      482,
      487,
      483,
      487,
      488,
      488,
      488,
      487,
      487,
      488,
      489,
      493,
      490,
      494,
      489,
      486,
      487,
      485,
      485,
      485,
      485,
      485,
      485,
      486,
      488,
      491,
      494,
      494,
      494,
      494,
      494,
      496,
      497,
      497,
      496,
      497,
      497,
      497,
      498,
      500,
      501,
      502,
      503,
      503,
      503,
      502,
      502,
      500,
      499,
      499,
      499,
      499,
      499,
      499,
      497,
      496,
      495,
      498,
      494,
      494,
      494,
      495,
      494,
      492,
      492,
      491,
      491,
      491,
      486,
      485,
      484,
      485,
      484,
      487,
      492,
      494,
      495,
      505,
      512,
      512,
      499,
      485,
      449,
      433,
      430,
      421,
      404,
      404,
      400,
      399,
      389,
      317,
      278,
      275,
      267,
      251,
      241,
      242,
      196,
      190,
      165,
      161
    ],
    "swim:timestamps": [
      1785362602,
      1785362646,
      1785362706,
      1785362723,
      1785362766,
      1785362782,
      1785362838,
      1785363019,
      1785363079,
      1785363199,
      1785363319,
      1785363363,
      1785363379,
      1785363423,
      1785363439,
      1785363483,
      1785363499,
      1785363555,
      1785363615,
      1785363675,
      1785363856,
      1785363916,
      1785363976,
      1785364108,
      1785364168,
      1785364228,
      1785364288,
      1785364340,
      1785364348,
      1785364461,
      1785364468,
      1785364521,
      1785364529,
      1785364581,
      1785364589,
      1785364649,
      1785364709,
      1785364769,
      1785364821,
      1785364829,
      1785364881,
      1785364889,
      1785364941,
      1785364949,
      1785365009,
      1785365069,
      1785365129,
      1785365189,
      1785365261,
      1785365322,
      1785365382,
      1785365442,
      1785365502,
      1785365562,
      1785365622,
      1785365682,
      1785365742,
      1785365802,
      1785365862,
      1785365982,
      1785366043,
      1785366103,
      1785366163,
      1785366223,
      1785366343,
      1785366403,
      1785366511,
      1785366523,
      1785366571,
      1785366583,
      1785366631,
      1785366643,
      1785366703,
      1785366751,
      1785366764,
      1785366824,
      1785366872,
      1785366884,
      1785366932,
      1785366944,
      1785367004,
      1785367064,
      1785367112,
      1785367172,
      1785367184,
      1785367232,
      1785367244,
      1785367292,
      1785367352,
      1785367364,
      1785367424,
      1785367472,
      1785367545,
      1785367593,
      1785367665,
      1785367713,
      1785367725,
      1785367773,
      1785367785,
      1785367833,
      1785367893,
      1785367953,
      1785368013,
      1785368073,
      1785368133,
      1785368193,
      1785368254,
      1785368314,
      1785368374,
      1785368434,
      1785368554,
      1785368614,
      1785368674,
      1785368734,
      1785368794,
      1785368914,
      1785368974,
      1785369035,
      1785369095,
      1785369155,
      1785369215,
      1785369275,
      1785369297,
      1785369335,
      1785369357,
      1785369395,
      1785369417,
      1785369455,
      1785369474,
      1785369515,
      1785369534,
      1785369635,
      1785369655,
      1785369695,
      1785369715,
      1785369756,
      1785369775,
      1785369816,
      1785369835,
      1785369876,
      1785369936,
      1785369955,
      1785370015,
      1785370056,
      1785370075,
      1785370135,
      1785370176,
      1785370198,
      1785370236,
      1785370255,
      1785370319,
      1785370356,
      1785370379,
      1785370416,
      1785370439,
      1785370499,
      1785370537,
      1785370559,
      1785370597,
      1785370619,
      1785370657,
      1785370717,
      1785370739,
      1785370777,
      1785370837,
      1785370859,
      1785370897,
      1785370919,
      1785370979,
      1785371040,
      1785371160,
      1785371220,
      1785371280,
      1785371340,
      1785371460,
      1785371520,
      1785371580,
      1785371761,
      1785371821,
      1785372001,
      1785372013,
      1785372061,
      1785372073,
      1785372121,
      1785372181,
      1785372241,
      1785372301,
      1785372361,
      1785372433,
      1785372482,
      1785372542,
      1785372554,
      1785372602,
      1785372674,
      1785372722,
      1785372734,
      1785372782,
      1785372794,
      1785372854,
      1785372914,
      1785372962,
      1785373022,
      1785373034,
      1785373083,
      1785373143,
      1785373214,
      1785373335,
      1785373383,
      1785373455,
      1785373575,
      1785373623,
      1785373743,
      1785373767,
      1785373827,
      1785373887,
      1785373947,
      1785374007,
      1785374067,
      1785374127,
      1785374188,
      1785374248,
      1785374308,
      1785374368,
      1785374419,
      1785374428,
      1785374488,
      1785374540,
      1785374548,
      1785374608,
      1785374668,
      1785374720,
      1785374728,
      1785374788,
      1785374840,
      1785374908,
      1785374969,
      1785375020,
      1785375080,
      1785375149,
      1785375209,
      1785375269,
      1785375321,
      1785375329,
      1785375381,
      1785375389,
      1785375449,
      1785375501,
      1785375509,
      1785375569,
      1785375621,
      1785375689,
      1785375741,
      1785375749,
      1785375810,
      1785375870,
      1785375922,
      1785375930,
      1785375982,
      1785376050,
      1785376110,
      1785376170,
      1785376222,
      1785376342,
      1785376376,
      1785376402,
      1785376412,
      1785376472,
      1785376522,
      1785376532,
      1785376583,
      1785376643,
      1785376703,
      1785376763,
      1785376823,
      1785376883,
      1785376947,
      1785377007,
      1785377063,
      1785377127,
      1785377183,
      1785377244,
      1785377304
    ],
    "wof:geomhash": "02c6a9a1a884d2d110da51f9ea4223d0",
    "wof:id": 2032023281,
    "wof:repo": "sfomuseum-data-flights-2026-07"
  },
  "bbox": [
    -122.35,
    33.64944444444444,
    -84.19638888888889,
    39.81361111111111
  ],
  "geometry": {"coordinates":[[-122.35,37.666666666666664],[-122.30111111111111,37.68833333333333],[-122.21333333333334,37.718611111111116],[-122.16666666666667,37.733333333333334],[-122.1286111111111,37.761944444444445],[-122.08333333333333,37.78333333333333],[-122.02194444444444,37.816944444444445],[-121.65555555555557,37.96388888888889],[-121.52805555555555,38.01416666666667],[-121.26083333333334,38.11888888888889],[-120.97277777777778,38.215],[-120.87694444444443,38.227222222222224],[-120.81055555555555,38.23833333333334],[-120.71027777777778,38.24888888888889],[-120.64527777777778,38.26138888888889],[-120.54166666666667,38.27444444444444],[-120.47638888888889,38.28472222222222],[-120.33722222222222,38.30416666666667],[-120.12638888888888,38.33166666666667],[-119.94805555555556,38.35472222222222],[-119.4113888888889,38.42527777777777],[-119.23194444444445,38.44833333333333],[-119.05083333333333,38.471944444444446],[-118.65666666666667,38.519999999999996],[-118.48,38.5425],[-118.3025,38.56388888888888],[-118.12583333333333,38.585],[-117.96777777777778,38.60333333333333],[-117.95027777777779,38.605555555555554],[-117.61138888888888,38.644444444444446],[-117.59305555555555,38.646388888888886],[-117.43472222222222,38.663888888888884],[-117.41638888888889,38.66583333333333],[-117.25861111111111,38.68583333333333],[-117.24083333333333,38.68888888888888],[-117.06527777777778,38.719166666666666],[-116.88666666666667,38.74916666666667],[-116.71138888888889,38.77861111111111],[-116.55222222222221,38.805],[-116.53611111111111,38.8075],[-116.37888888888888,38.833333333333336],[-116.35916666666667,38.836666666666666],[-116.20305555555557,38.86194444444445],[-116.18472222222222,38.865],[-116.03055555555555,38.88972222222222],[-115.82194444444444,38.92305555555555],[-115.64888888888889,38.95027777777778],[-115.47583333333334,38.977222222222224],[-115.3025,39.00416666666667],[-115.09277777777777,39.03611111111111],[-114.91916666666667,39.06222222222222],[-114.74444444444444,39.08861111111111],[-114.58805555555556,39.155277777777776],[-114.43222222222222,39.218333333333334],[-114.26583333333333,39.272777777777776],[-114.09416666666667,39.3125],[-113.91833333333334,39.336111111111116],[-113.74472222222222,39.356944444444444],[-113.57055555555556,39.37888888888889],[-113.21972222222223,39.42472222222222],[-113.0475,39.447222222222216],[-112.8736111111111,39.46888888888889],[-112.70361111111112,39.49138888888889],[-112.53444444444445,39.515277777777776],[-112.1975,39.5575],[-112.0261111111111,39.58111111111111],[-111.72111111111111,39.6325],[-111.68611111111112,39.63972222222222],[-111.55333333333333,39.66694444444444],[-111.51944444444445,39.674166666666665],[-111.3825,39.70138888888889],[-111.34833333333333,39.708333333333336],[-111.18055555555556,39.74111111111111],[-111.04527777777777,39.76833333333333],[-111.00805555555556,39.77583333333333],[-110.83749999999999,39.80916666666666],[-110.69777777777779,39.81361111111111],[-110.66333333333334,39.809444444444445],[-110.52722222222222,39.79388888888889],[-110.48972222222223,39.78944444444444],[-110.31972222222223,39.76888888888889],[-110.14972222222222,39.748333333333335],[-110.01333333333334,39.73166666666667],[-109.84277777777777,39.71083333333333],[-109.80555555555556,39.70638888888889],[-109.66638888888889,39.689166666666665],[-109.63333333333334,39.684999999999995],[-109.49277777777777,39.66722222222222],[-109.32277777777777,39.64472222222222],[-109.29055555555556,39.63611111111111],[-109.13388888888889,39.581944444444446],[-109.01333333333334,39.53666666666666],[-108.83444444444444,39.469166666666666],[-108.715,39.42388888888889],[-108.53277777777778,39.35666666666667],[-108.41305555555556,39.31083333333333],[-108.38333333333334,39.29888888888889],[-108.2375,39.23888888888889],[-108.21361111111112,39.22833333333333],[-108.10222222222221,39.17777777777778],[-107.95555555555556,39.106944444444444],[-107.80194444444444,39.05555555555555],[-107.63361111111112,39.044444444444444],[-107.46222222222222,39.04111111111111],[-107.2911111111111,39.0375],[-107.11999999999999,39.056666666666665],[-106.94805555555556,39.078611111111115],[-106.77583333333334,39.105000000000004],[-106.60333333333332,39.13472222222222],[-106.43694444444445,39.165],[-106.12083333333332,39.230000000000004],[-105.95527777777778,39.261944444444445],[-105.7863888888889,39.28666666666666],[-105.6125,39.309999999999995],[-105.43916666666667,39.325833333333335],[-105.10333333333332,39.30138888888889],[-104.93805555555556,39.2825],[-104.77722222222222,39.26416666666667],[-104.61611111111111,39.24583333333334],[-104.4213888888889,39.223333333333336],[-104.25666666666666,39.203611111111115],[-104.0936111111111,39.18388888888889],[-104.07222222222222,39.18083333333333],[-103.92861111111111,39.16416666666667],[-103.90805555555556,39.159444444444446],[-103.75972222222222,39.14333333333333],[-103.74027777777778,39.1375],[-103.5925,39.12277777777778],[-103.57249999999999,39.117222222222225],[-103.42444444444445,39.10166666666667],[-103.40277777777779,39.09638888888889],[-103.07944444444443,39.0575],[-103.05833333333334,39.05222222222222],[-102.90666666666667,39.03472222222222],[-102.88472222222222,39.02972222222222],[-102.73277777777778,39.011944444444445],[-102.70861111111111,39.006388888888885],[-102.56666666666666,38.99],[-102.53277777777778,38.98416666666667],[-102.39111111111112,38.96611111111111],[-102.21833333333333,38.942499999999995],[-102.18527777777778,38.93694444444444],[-101.9738888888889,38.90888888888889],[-101.86749999999999,38.89388888888889],[-101.80305555555556,38.88472222222222],[-101.62527777777777,38.85944444444445],[-101.51777777777778,38.844166666666666],[-101.45222222222222,38.834722222222226],[-101.34527777777777,38.81916666666667],[-101.27638888888889,38.80916666666666],[-101.10249999999999,38.78361111111111],[-100.99472222222222,38.76777777777777],[-100.93055555555556,38.75833333333333],[-100.82388888888889,38.742222222222225],[-100.7575,38.73222222222223],[-100.58638888888889,38.70638888888889],[-100.48,38.69],[-100.41527777777779,38.680277777777775],[-100.30777777777777,38.66361111111111],[-100.24222222222222,38.65333333333333],[-100.13722222222223,38.636944444444445],[-99.9675,38.61027777777778],[-99.935,38.60527777777778],[-99.79694444444445,38.583333333333336],[-99.62416666666665,38.55555555555555],[-99.59277777777777,38.550555555555555],[-99.45166666666667,38.52777777777778],[-99.41638888888889,38.52194444444444],[-99.2461111111111,38.494166666666665],[-99.07388888888889,38.46555555555556],[-98.74694444444445,38.36944444444445],[-98.59166666666667,38.30916666666666],[-98.43583333333333,38.24888888888889],[-98.28055555555555,38.18833333333333],[-97.9713888888889,38.066111111111105],[-97.81638888888888,38.005],[-97.6588888888889,37.95027777777778],[-97.14888888888889,37.886944444444445],[-96.98027777777779,37.86638888888889],[-96.4775,37.80277777777778],[-96.42694444444444,37.795833333333334],[-96.30666666666666,37.780833333333334],[-96.25777777777778,37.774166666666666],[-96.13861111111112,37.75888888888889],[-95.98583333333333,37.73888888888889],[-95.81361111111111,37.715833333333336],[-95.64527777777778,37.69305555555555],[-95.47638888888889,37.67027777777778],[-95.24277777777777,37.638888888888886],[-95.13972222222223,37.62361111111111],[-94.96861111111112,37.599444444444444],[-94.93277777777779,37.594166666666666],[-94.79777777777778,37.57527777777778],[-94.59277777777777,37.54472222222222],[-94.46083333333334,37.52638888888889],[-94.3963888888889,37.51694444444444],[-94.29194444444444,37.501666666666665],[-94.22805555555556,37.492222222222225],[-94.06027777777777,37.467222222222226],[-93.8963888888889,37.442499999999995],[-93.79527777777777,37.42722222222222],[-93.6275,37.40138888888889],[-93.56138888888889,37.39111111111111],[-93.46222222222222,37.37583333333333],[-93.30194444444444,37.33277777777778],[-93.11888888888888,37.21277777777778],[-92.8536111111111,37.03472222222222],[-92.77444444444444,36.981388888888894],[-92.59388888888888,36.85888888888889],[-92.35055555555554,36.69277777777778],[-92.25583333333333,36.628055555555555],[-91.98138888888889,36.43944444444444],[-91.95666666666666,36.4225],[-91.79472222222222,36.32222222222222],[-91.63833333333334,36.264722222222225],[-91.4825,36.20805555555556],[-91.32555555555555,36.15083333333333],[-91.17111111111112,36.09388888888889],[-90.99277777777777,36.028055555555554],[-90.835,35.969722222222224],[-90.67944444444444,35.91166666666666],[-90.52388888888889,35.85277777777778],[-90.36611111111111,35.79361111111111],[-90.2388888888889,35.74777777777778],[-90.21138888888889,35.73527777777778],[-90.07249999999999,35.68277777777777],[-89.93,35.62888888888889],[-89.91861111111112,35.62388888888889],[-89.76388888888889,35.56444444444444],[-89.60888888888888,35.504444444444445],[-89.46944444444445,35.45138888888889],[-89.45444444444445,35.44444444444444],[-89.30194444444444,35.38472222222222],[-89.16388888888889,35.330555555555556],[-88.995,35.26444444444444],[-88.84416666666667,35.205000000000005],[-88.71166666666667,35.153055555555554],[-88.56277777777777,35.09305555555556],[-88.4088888888889,35.03138888888889],[-88.25916666666667,34.971111111111114],[-88.10666666666665,34.90972222222222],[-87.96000000000001,34.85],[-87.95722222222223,34.848888888888894],[-87.8086111111111,34.788333333333334],[-87.80888888888889,34.788333333333334],[-87.66111111111111,34.72777777777778],[-87.51083333333334,34.66583333333333],[-87.51083333333334,34.66583333333333],[-87.35305555555556,34.61805555555556],[-87.19638888888889,34.58916666666667],[-87.03305555555555,34.559444444444445],[-86.87555555555555,34.52722222222222],[-86.87527777777777,34.52722222222222],[-86.71722222222222,34.486111111111114],[-86.55888888888889,34.44499999999999],[-86.40111111111112,34.40333333333333],[-86.39833333333334,34.402499999999996],[-86.23722222222223,34.36],[-86.0736111111111,34.31638888888889],[-85.9075,34.27388888888889],[-85.74916666666667,34.23222222222223],[-85.60916666666667,34.19611111111111],[-85.31527777777778,34.11805555555556],[-85.21666666666667,34.1],[-85.17694444444444,34.0825],[-85.13333333333334,34.06666666666667],[-85.01666666666667,34.016666666666666],[-84.9563888888889,33.95888888888889],[-84.93333333333334,33.93333333333333],[-84.87055555555555,33.87583333333333],[-84.78722222222223,33.79472222222222],[-84.70111111111112,33.73694444444445],[-84.61,33.733333333333334],[-84.51972222222223,33.73305555555556],[-84.43277777777779,33.7325],[-84.31666666666666,33.733333333333334],[-84.25,33.733333333333334],[-84.19638888888889,33.6975],[-84.25,33.65],[-84.30055555555555,33.64944444444444],[-84.35694444444444,33.64944444444444],[-84.39944444444446,33.64944444444444]],"type":"LineString"}
}
