{
  "id": 2032020539,
  "type": "Feature",
  "properties": {
    "geom:area": 0,
    "geom:bbox": "-122.356944,37.491667,-104.650000,39.930000",
    "geom:latitude": 38.708077264758835,
    "geom:longitude": -113.50125075691933,
    "src:alt_label": "swim-path",
    "src:geom": "swim",
    "swim:altitudes": [
      "062",
      "070",
      "084",
      "107",
      "117",
      "136",
      "142",
      "153",
      "165",
      "186",
      "222",
      "236",
      "248",
      "256",
      "267",
      "278",
      "295",
      "303",
      "315",
      "324",
      "331",
      "339C",
      "341C",
      "340C",
      "341",
      "354",
      "360C",
      "360C",
      "360C",
      "361C",
      "361C",
      "360C",
      "360C",
      "360C",
      "360C",
      "361C",
      "360C",
      "360C",
      "360C",
      "360C",
      "360C",
      "360C",
      "360C",
      "360C",
      "360C",
      "360C",
      "360C",
      "360C",
      "360C",
      "360C",
      "360C",
      "360C",
      "360C",
      "360C",
      "360C",
      "360C",
      "360C",
      "360C",
      "360C",
      "360C",
      "360C",
      "360C",
      "360C",
      "360C",
      "360C",
      "360C",
      "360C",
      "360C",
      "361C",
      "360C",
      "360C",
      "361C",
      "360C",
      "360C",
      "360C",
      "360C",
      "360C",
      "360C",
      "360C",
      "360C",
      "360C",
      "360C",
      "361C",
      "360C",
      "360C",
      "361C",
      "360C",
      "360C",
      "360C",
      "360C",
      "361C",
      "360C",
      "360C",
      "360C",
      "360C",
      "360C",
      "360C",
      "360C",
      "360C",
      "357",
      "341C",
      "340C",
      "329",
      "305",
      "281",
      "257",
      "251",
      "241",
      "230",
      "217",
      "206",
      "195",
      "191",
      "177",
      "172",
      "162",
      "158",
      "143",
      "134",
      "129",
      "116",
      "106",
      "102",
      "095",
      "092",
      "084",
      "080C",
      "073",
      "069",
      "062",
      "061",
      "051",
      "043",
      "030",
      "012",
      "009",
      "004",
      "002"
    ],
    "swim:geom": "path",
    "swim:speeds": [
      191,
      229,
      274,
      304,
      319,
      370,
      391,
      389,
      381,
      403,
      399,
      406,
      410,
      427,
      434,
      443,
      451,
      466,
      469,
      467,
      468,
      465,
      468,
      463,
      463,
      453,
      448,
      436,
      435,
      436,
      438,
      450,
      455,
      455,
      457,
      459,
      463,
      465,
      461,
      457,
      458,
      457,
      457,
      457,
      457,
      456,
      456,
      454,
      452,
      449,
      442,
      439,
      437,
      435,
      434,
      434,
      434,
      434,
      435,
      435,
      435,
      434,
      435,
      440,
      445,
      445,
      444,
      444,
      445,
      444,
      445,
      442,
      443,
      438,
      438,
      438,
      437,
      439,
      437,
      437,
      436,
      436,
      436,
      436,
      437,
      437,
      439,
      437,
      435,
      433,
      433,
      436,
      437,
      438,
      439,
      439,
      439,
      439,
      438,
      437,
      427,
      425,
      431,
      420,
      403,
      387,
      382,
      380,
      382,
      371,
      371,
      363,
      359,
      343,
      338,
      319,
      318,
      313,
      306,
      306,
      302,
      294,
      297,
      286,
      277,
      266,
      267,
      259,
      259,
      257,
      258,
      253,
      235,
      217,
      156,
      156,
      148,
      152
    ],
    "swim:timestamps": [
      1785368466,
      1785368504,
      1785368565,
      1785368650,
      1785368685,
      1785368770,
      1785368802,
      1785368830,
      1785368890,
      1785368950,
      1785369071,
      1785369131,
      1785369191,
      1785369251,
      1785369311,
      1785369371,
      1785369491,
      1785369551,
      1785369611,
      1785369671,
      1785369732,
      1785369792,
      1785369852,
      1785369912,
      1785369972,
      1785370032,
      1785370092,
      1785370152,
      1785370212,
      1785370272,
      1785370392,
      1785370465,
      1785370513,
      1785370525,
      1785370573,
      1785370585,
      1785370645,
      1785370705,
      1785370765,
      1785370813,
      1785370825,
      1785370873,
      1785370885,
      1785370945,
      1785371005,
      1785371065,
      1785371125,
      1785371186,
      1785371246,
      1785371306,
      1785371366,
      1785371426,
      1785371486,
      1785371606,
      1785371666,
      1785371726,
      1785371786,
      1785371846,
      1785371906,
      1785371967,
      1785372027,
      1785372087,
      1785372207,
      1785372267,
      1785372327,
      1785372387,
      1785372447,
      1785372507,
      1785372567,
      1785372627,
      1785372680,
      1785372688,
      1785372740,
      1785372808,
      1785372868,
      1785372920,
      1785372928,
      1785372980,
      1785373048,
      1785373108,
      1785373168,
      1785373232,
      1785373348,
      1785373412,
      1785373469,
      1785373529,
      1785373709,
      1785373773,
      1785373829,
      1785373889,
      1785373953,
      1785374013,
      1785374073,
      1785374133,
      1785374193,
      1785374253,
      1785374313,
      1785374373,
      1785374434,
      1785374494,
      1785374554,
      1785374614,
      1785374674,
      1785374734,
      1785374794,
      1785374854,
      1785374868,
      1785374887,
      1785374914,
      1785374947,
      1785374974,
      1785375007,
      1785375034,
      1785375067,
      1785375094,
      1785375127,
      1785375154,
      1785375214,
      1785375247,
      1785375275,
      1785375335,
      1785375367,
      1785375395,
      1785375427,
      1785375455,
      1785375487,
      1785375515,
      1785375547,
      1785375575,
      1785375607,
      1785375635,
      1785375695,
      1785375727,
      1785375787,
      1785375908,
      1785375935,
      1785375968,
      1785375995
    ],
    "wof:geomhash": "6135772f6578c408dabf813f0a43493d",
    "wof:id": 2032020539,
    "wof:repo": "sfomuseum-data-flights-2026-07"
  },
  "bbox": [
    -122.35694444444444,
    37.49166666666667,
    -104.65,
    39.93
  ],
  "geometry": {"coordinates":[[-104.65,39.81666666666667],[-104.66666666666667,39.8],[-104.76666666666667,39.78333333333333],[-104.9213888888889,39.78861111111111],[-104.98333333333333,39.8],[-105.15555555555557,39.84444444444445],[-105.23333333333333,39.86666666666667],[-105.2911111111111,39.87972222222222],[-105.42527777777778,39.91305555555555],[-105.5675,39.93],[-105.83583333333333,39.89194444444444],[-105.98166666666667,39.870555555555555],[-106.13777777777779,39.846944444444446],[-106.28027777777778,39.82638888888889],[-106.44527777777778,39.80138888888889],[-106.6086111111111,39.78],[-106.92694444444444,39.74444444444445],[-107.09722222222221,39.72638888888889],[-107.26083333333334,39.70805555555556],[-107.42916666666667,39.70916666666667],[-107.59944444444444,39.71277777777778],[-107.76138888888889,39.717222222222226],[-107.93138888888889,39.69472222222222],[-108.09138888888889,39.67583333333333],[-108.26138888888889,39.657222222222224],[-108.42333333333333,39.636944444444445],[-108.58305555555555,39.61527777777778],[-108.74,39.594722222222224],[-108.86944444444444,39.577222222222225],[-109.025,39.55611111111111],[-109.33666666666666,39.51305555555555],[-109.5286111111111,39.486111111111114],[-109.65611111111112,39.46805555555556],[-109.68805555555556,39.46361111111111],[-109.81861111111111,39.44472222222222],[-109.85138888888888,39.44],[-110.01472222222222,39.41638888888889],[-110.18055555555556,39.39194444444444],[-110.34333333333333,39.36805555555556],[-110.50055555555555,39.34444444444445],[-110.50361111111111,39.34388888888889],[-110.66361111111112,39.319722222222225],[-110.69583333333334,39.31472222222222],[-110.82305555555556,39.29527777777778],[-111.01472222222222,39.26583333333333],[-111.17527777777778,39.240833333333335],[-111.30416666666666,39.220555555555556],[-111.46944444444445,39.19444444444444],[-111.6275,39.16916666666666],[-111.78305555555555,39.14416666666666],[-111.935,39.111111111111114],[-112.07333333333332,39.05694444444444],[-112.21055555555556,39.00361111111111],[-112.48722222222223,38.8975],[-112.62638888888888,38.844166666666666],[-112.76472222222222,38.79194444444444],[-112.90333333333334,38.73972222222222],[-113.06833333333333,38.67777777777778],[-113.20694444444445,38.625277777777775],[-113.34527777777777,38.573055555555555],[-113.48388888888888,38.52027777777778],[-113.62194444444444,38.467777777777776],[-113.89805555555556,38.36194444444445],[-114.04222222222222,38.31861111111112],[-114.19805555555556,38.303888888888885],[-114.35444444444444,38.29277777777778],[-114.51055555555556,38.281666666666666],[-114.66722222222222,38.27055555555555],[-114.82222222222222,38.259166666666665],[-114.97583333333334,38.2475],[-115.10416666666666,38.23777777777778],[-115.1325,38.23555555555556],[-115.25611111111111,38.22638888888889],[-115.44277777777778,38.21138888888889],[-115.5975,38.19916666666666],[-115.715,38.19027777777777],[-115.75055555555555,38.18666666666666],[-115.87333333333332,38.17638888888889],[-116.05638888888889,38.16111111111111],[-116.2088888888889,38.14805555555556],[-116.36138888888888,38.135],[-116.51416666666667,38.12138888888889],[-116.81638888888888,38.094166666666666],[-116.97361111111111,38.07972222222222],[-117.12138888888889,38.066111111111105],[-117.27361111111111,38.05166666666666],[-117.72638888888889,38.0075],[-117.89083333333333,37.99],[-118.02888888888889,37.97694444444445],[-118.17972222222222,37.96055555555556],[-118.33222222222221,37.94361111111111],[-118.48583333333333,37.92666666666666],[-118.63972222222223,37.90972222222222],[-118.80555555555556,37.89111111111111],[-118.95916666666668,37.87361111111111],[-119.11222222222221,37.85611111111111],[-119.26277777777777,37.83833333333334],[-119.41666666666667,37.82027777777778],[-119.56944444444444,37.80222222222222],[-119.72027777777778,37.784166666666664],[-119.86972222222222,37.76583333333333],[-120.01694444444445,37.74777777777778],[-120.16694444444445,37.72916666666667],[-120.31305555555555,37.71083333333333],[-120.45333333333333,37.69305555555555],[-120.58749999999999,37.67777777777778],[-120.61666666666666,37.666666666666664],[-120.66666666666667,37.666666666666664],[-120.72027777777778,37.66222222222222],[-120.8,37.65],[-120.84916666666666,37.64666666666667],[-120.91666666666667,37.63333333333333],[-120.97472222222223,37.63138888888889],[-121.05,37.61666666666667],[-121.0925,37.61555555555556],[-121.15,37.6],[-121.19583333333334,37.60166666666667],[-121.30361111111111,37.58777777777778],[-121.36666666666666,37.583333333333336],[-121.40972222222223,37.57611111111112],[-121.51305555555555,37.56388888888888],[-121.58333333333333,37.55],[-121.61555555555555,37.55166666666666],[-121.66666666666667,37.53333333333333],[-121.71111111111111,37.530277777777776],[-121.76666666666667,37.516666666666666],[-121.79888888888888,37.509166666666665],[-121.85,37.5],[-121.8875,37.49166666666667],[-121.93333333333334,37.5],[-121.97611111111111,37.49666666666667],[-122.06416666666667,37.501666666666665],[-122.11666666666666,37.516666666666666],[-122.18333333333334,37.53333333333333],[-122.3,37.583333333333336],[-122.31,37.593611111111116],[-122.33333333333333,37.6],[-122.35694444444444,37.61333333333334]],"type":"LineString"}
}
