{
  "id": 2032021427,
  "type": "Feature",
  "properties": {
    "geom:area": 0,
    "geom:bbox": "-122.407010,37.626140,-121.263890,37.962240",
    "geom:latitude": 37.82980085030508,
    "geom:longitude": -121.85686445162345,
    "src:alt_label": "swim-takeoff",
    "src:geom": "swim",
    "swim:elevations": [
      213,
      494,
      569,
      1008,
      1783,
      1964,
      2260,
      2610,
      2850,
      3128,
      3317,
      3444,
      3800,
      4061,
      4238,
      4540,
      4637,
      4702,
      4833,
      5018,
      5193,
      5405,
      5704
    ],
    "swim:geom": "takeoff",
    "swim:timestamps": [
      1785313946,
      1785313970,
      1785313984,
      1785314052,
      1785314119,
      1785314137,
      1785314164,
      1785314197,
      1785314221,
      1785314250,
      1785314282,
      1785314297,
      1785314333,
      1785314364,
      1785314385,
      1785314423,
      1785314438,
      1785314447,
      1785314462,
      1785314483,
      1785314509,
      1785314553,
      1785314629
    ],
    "wof:geomhash": "9e3afc5f1ce78a87e290584146f09b6d",
    "wof:id": 2032021427,
    "wof:repo": "sfomuseum-data-flights-2026-07"
  },
  "bbox": [
    -122.40701,
    37.62614,
    -121.26389,
    37.96224
  ],
  "geometry": {"coordinates":[[-122.39283,37.62614],[-122.40701,37.64071],[-122.40242,37.65306],[-122.31417,37.68358],[-122.21443,37.71807],[-122.18906,37.73086],[-122.15192,37.75023],[-122.10537,37.77434],[-122.07114,37.79201],[-122.02916,37.81368],[-121.97708,37.83135],[-121.9481,37.83655],[-121.88052,37.84929],[-121.82212,37.86014],[-121.7816,37.86766],[-121.70623,37.88167],[-121.67715,37.88705],[-121.65907,37.89033],[-121.62911,37.89585],[-121.5849,37.90392],[-121.53283,37.91341],[-121.4386,37.9306],[-121.26389,37.96224]],"type":"LineString"}
}
