{
  "id": 2031940723,
  "type": "Feature",
  "properties": {
    "geom:area": 0,
    "geom:bbox": "-122.344420,37.492360,-121.282440,37.608210",
    "geom:latitude": 37.54053436204919,
    "geom:longitude": -121.82010843150712,
    "src:alt_label": "swim-approach",
    "src:geom": "swim",
    "swim:elevations": [
      4153,
      3998,
      3675,
      3514,
      3371,
      3197,
      3076,
      3048,
      2962,
      2738,
      2469,
      2343,
      2284,
      2188,
      1960,
      1939,
      1761,
      1658,
      1579,
      1270,
      1187,
      1034,
      979,
      758,
      670,
      626,
      551,
      377,
      280,
      188,
      90
    ],
    "swim:geom": "approach",
    "swim:timestamps": [
      1784854553,
      1784854568,
      1784854596,
      1784854611,
      1784854623,
      1784854654,
      1784854703,
      1784854735,
      1784854756,
      1784854784,
      1784854827,
      1784854857,
      1784854882,
      1784854909,
      1784854948,
      1784854951,
      1784854975,
      1784854987,
      1784854996,
      1784855035,
      1784855049,
      1784855094,
      1784855110,
      1784855151,
      1784855173,
      1784855179,
      1784855194,
      1784855236,
      1784855262,
      1784855289,
      1784855318
    ],
    "wof:geomhash": "d766b5ba16984bcf95e873e4c52ce095",
    "wof:id": 2031940723,
    "wof:repo": "sfomuseum-data-flights-2026-07"
  },
  "bbox": [
    -122.34442,
    37.49236,
    -121.28244,
    37.60821
  ],
  "geometry": {"coordinates":[[-121.28244,37.59],[-121.31583,37.58607],[-121.37761,37.5794],[-121.41023,37.57583],[-121.43614,37.57287],[-121.50067,37.56548],[-121.59358,37.55453],[-121.64768,37.54525],[-121.6805,37.53761],[-121.72557,37.52679],[-121.79316,37.51051],[-121.83985,37.4993],[-121.87851,37.49236],[-121.91793,37.49299],[-121.9726,37.49632],[-121.97678,37.49657],[-122.00948,37.49858],[-122.02565,37.49954],[-122.03783,37.50027],[-122.09031,37.50379],[-122.1071,37.50827],[-122.15814,37.53091],[-122.1749,37.53747],[-122.21524,37.55382],[-122.23548,37.5624],[-122.24108,37.56473],[-122.25508,37.57062],[-122.29074,37.58562],[-122.30916,37.59339],[-122.32648,37.60067],[-122.34442,37.60821]],"type":"LineString"}
}
