{
  "id": 2032039507,
  "type": "Feature",
  "properties": {
    "geom:area": 0,
    "geom:bbox": "-121.632500,37.973333,-94.691667,40.139444",
    "geom:latitude": 39.45029325895187,
    "geom:longitude": -108.02689998040755,
    "src:alt_label": "swim-path",
    "src:geom": "swim",
    "swim:altitudes": [
      "159",
      "172",
      "186",
      "199",
      "211",
      "223",
      "235",
      "246",
      "270",
      "285",
      "297",
      "306",
      "316",
      "326",
      "330",
      "330",
      "333",
      "343",
      "350C",
      "350C",
      "350C",
      "350C",
      "350C",
      "350C",
      "350C",
      "350C",
      "350C",
      "350C",
      "350C",
      "350C",
      "350C",
      "350C",
      "350C",
      "350C",
      "350C",
      "350C",
      "350C",
      "350C",
      "350C",
      "350C",
      "350C",
      "350C",
      "350C",
      "350C",
      "350C",
      "350C",
      "350C",
      "350C",
      "350C",
      "350C",
      "350C",
      "350C",
      "350C",
      "350C",
      "350C",
      "350C",
      "350C",
      "350C",
      "350C",
      "350C",
      "350C",
      "350C",
      "350C",
      "350C",
      "350C",
      "350C",
      "350C",
      "350C",
      "350C",
      "350C",
      "350C",
      "350C",
      "350C",
      "350C",
      "350C",
      "350C",
      "350C",
      "350C",
      "350C",
      "350C",
      "350C",
      "350C",
      "350C",
      "350C",
      "350C",
      "350C",
      "349C",
      "350C",
      "350C",
      "350C",
      "350C",
      "350C",
      "350C",
      "350C",
      "350C",
      "350C",
      "350C",
      "350C",
      "350C",
      "349C",
      "350C",
      "350C",
      "350C",
      "350C",
      "350C",
      "350C",
      "350C",
      "350C",
      "350C",
      "350C",
      "350C",
      "350C",
      "350C",
      "350C",
      "350C",
      "350C",
      "350C",
      "350C",
      "350C",
      "350C",
      "350C",
      "350C",
      "350C",
      "350C",
      "350C",
      "350C",
      "350C",
      "350C",
      "350C",
      "350C",
      "350C",
      "350C",
      "350C",
      "350C",
      "350C",
      "350C",
      "350C",
      "349C",
      "350C",
      "350C",
      "350C",
      "350C",
      "350C",
      "350C",
      "350C",
      "350C",
      "350C",
      "350C",
      "350C",
      "350C",
      "350C",
      "350C",
      "350C",
      "349C",
      "350C",
      "350C",
      "350C",
      "350",
      "350",
      "344",
      "335",
      "316",
      "291",
      "267",
      "243",
      "223",
      "208",
      "195",
      "181",
      "167",
      "154",
      "141",
      "128",
      "128",
      "121",
      "114",
      "108",
      "106",
      "096",
      "088",
      "079",
      "073",
      "059",
      "052",
      "050",
      "048",
      "041",
      "040",
      "040",
      "032",
      "027",
      "020",
      "013",
      "010"
    ],
    "swim:geom": "path",
    "swim:speeds": [
      410,
      426,
      440,
      451,
      461,
      470,
      479,
      489,
      505,
      503,
      503,
      503,
      504,
      505,
      506,
      519,
      520,
      522,
      516,
      513,
      513,
      513,
      512,
      513,
      514,
      514,
      514,
      514,
      513,
      513,
      512,
      512,
      511,
      511,
      512,
      512,
      512,
      512,
      511,
      511,
      511,
      510,
      509,
      509,
      509,
      508,
      508,
      509,
      509,
      509,
      509,
      510,
      511,
      510,
      508,
      502,
      507,
      508,
      506,
      506,
      504,
      505,
      504,
      505,
      505,
      506,
      506,
      506,
      506,
      507,
      507,
      508,
      508,
      508,
      508,
      508,
      508,
      508,
      508,
      508,
      507,
      506,
      505,
      504,
      504,
      504,
      504,
      505,
      506,
      508,
      512,
      512,
      512,
      512,
      512,
      512,
      511,
      510,
      510,
      509,
      509,
      510,
      512,
      513,
      513,
      513,
      513,
      513,
      513,
      514,
      516,
      518,
      518,
      517,
      517,
      517,
      518,
      518,
      517,
      517,
      516,
      515,
      513,
      513,
      512,
      510,
      507,
      506,
      509,
      509,
      510,
      515,
      516,
      512,
      513,
      509,
      505,
      505,
      506,
      508,
      507,
      505,
      502,
      503,
      505,
      506,
      504,
      504,
      505,
      507,
      507,
      505,
      504,
      503,
      504,
      504,
      508,
      507,
      509,
      509,
      507,
      506,
      500,
      498,
      490,
      467,
      452,
      442,
      437,
      430,
      421,
      417,
      404,
      407,
      393,
      390,
      356,
      335,
      313,
      316,
      308,
      309,
      295,
      286,
      279,
      262,
      226,
      216,
      191,
      177,
      148,
      140,
      138,
      130
    ],
    "swim:timestamps": [
      1785461271,
      1785461331,
      1785461391,
      1785461451,
      1785461511,
      1785461571,
      1785461632,
      1785461692,
      1785461812,
      1785461872,
      1785461935,
      1785461995,
      1785462052,
      1785462112,
      1785462175,
      1785462232,
      1785462292,
      1785462355,
      1785462413,
      1785462473,
      1785462535,
      1785462593,
      1785462653,
      1785462716,
      1785462776,
      1785462833,
      1785462896,
      1785462956,
      1785463013,
      1785463076,
      1785463136,
      1785463194,
      1785463256,
      1785463317,
      1785463377,
      1785463437,
      1785463497,
      1785463557,
      1785463617,
      1785463677,
      1785463737,
      1785463797,
      1785463857,
      1785463917,
      1785463977,
      1785464038,
      1785464098,
      1785464158,
      1785464218,
      1785464278,
      1785464338,
      1785464398,
      1785464458,
      1785464518,
      1785464578,
      1785464612,
      1785464638,
      1785464672,
      1785464698,
      1785464732,
      1785464758,
      1785464792,
      1785464819,
      1785464853,
      1785464879,
      1785464913,
      1785464939,
      1785464973,
      1785464999,
      1785465033,
      1785465059,
      1785465093,
      1785465119,
      1785465153,
      1785465179,
      1785465213,
      1785465239,
      1785465273,
      1785465299,
      1785465333,
      1785465359,
      1785465393,
      1785465419,
      1785465453,
      1785465479,
      1785465513,
      1785465540,
      1785465574,
      1785465600,
      1785465634,
      1785465660,
      1785465694,
      1785465720,
      1785465754,
      1785465780,
      1785465814,
      1785465840,
      1785465874,
      1785465900,
      1785465934,
      1785465994,
      1785466054,
      1785466114,
      1785466174,
      1785466234,
      1785466295,
      1785466355,
      1785466415,
      1785466475,
      1785466535,
      1785466595,
      1785466655,
      1785466715,
      1785466775,
      1785466835,
      1785466895,
      1785466955,
      1785467015,
      1785467076,
      1785467136,
      1785467196,
      1785467256,
      1785467316,
      1785467376,
      1785467436,
      1785467496,
      1785467556,
      1785467616,
      1785467684,
      1785467744,
      1785467804,
      1785467857,
      1785467917,
      1785467925,
      1785467977,
      1785468037,
      1785468097,
      1785468157,
      1785468217,
      1785468277,
      1785468337,
      1785468403,
      1785468457,
      1785468463,
      1785468522,
      1785468578,
      1785468638,
      1785468698,
      1785468758,
      1785468818,
      1785468882,
      1785468938,
      1785468998,
      1785469063,
      1785469118,
      1785469124,
      1785469183,
      1785469243,
      1785469303,
      1785469363,
      1785469423,
      1785469483,
      1785469543,
      1785469603,
      1785469663,
      1785469723,
      1785469783,
      1785469843,
      1785469903,
      1785469963,
      1785470024,
      1785470084,
      1785470132,
      1785470144,
      1785470168,
      1785470204,
      1785470228,
      1785470264,
      1785470288,
      1785470324,
      1785470348,
      1785470384,
      1785470444,
      1785470462,
      1785470504,
      1785470522,
      1785470582,
      1785470626,
      1785470636,
      1785470684,
      1785470746,
      1785470807,
      1785470867,
      1785470927
    ],
    "wof:geomhash": "fa7ee393b40671be98a6be39141e6da2",
    "wof:id": 2032039507,
    "wof:repo": "sfomuseum-data-flights-2026-07"
  },
  "bbox": [
    -121.6325,
    37.973333333333336,
    -94.69166666666668,
    40.13944444444444
  ],
  "geometry": {"coordinates":[[-121.6325,37.973333333333336],[-121.49916666666667,38.025555555555556],[-121.36055555555555,38.07972222222222],[-121.22,38.13444444444444],[-121.07305555555556,38.19138888888889],[-120.91527777777779,38.22277777777778],[-120.74722222222222,38.24666666666667],[-120.57777777777777,38.27055555555555],[-120.23222222222222,38.31805555555556],[-120.05777777777777,38.34166666666667],[-119.87305555555555,38.36472222222223],[-119.69777777777779,38.386944444444445],[-119.52944444444444,38.41138888888889],[-119.34638888888888,38.434999999999995],[-119.16972222222223,38.45666666666667],[-118.9875,38.48027777777778],[-118.80638888888889,38.503055555555555],[-118.6261111111111,38.52472222222222],[-118.44611111111111,38.54694444444444],[-118.26722222222222,38.56805555555556],[-118.06972222222223,38.59138888888889],[-117.92166666666667,38.60861111111111],[-117.74027777777778,38.629444444444445],[-117.5275,38.65361111111111],[-117.34333333333333,38.67388888888889],[-117.19638888888889,38.69638888888888],[-117.01666666666667,38.727222222222224],[-116.83777777777777,38.7575],[-116.65861111111111,38.78722222222222],[-116.48,38.81666666666667],[-116.30027777777778,38.846111111111114],[-116.11166666666666,38.876666666666665],[-115.94416666666667,38.90361111111111],[-115.76527777777778,38.93194444444444],[-115.58583333333333,38.96027777777778],[-115.40722222222223,38.988055555555555],[-115.22305555555556,39.01638888888889],[-115.04277777777777,39.04388888888889],[-114.86472222222221,39.07055555555556],[-114.68444444444445,39.09722222222222],[-114.50472222222223,39.12361111111111],[-114.32583333333334,39.14972222222222],[-114.14805555555556,39.17527777777777],[-113.96916666666667,39.20055555555556],[-113.78722222222223,39.22638888888889],[-113.60833333333333,39.25111111111111],[-113.42972222222222,39.275555555555556],[-113.24944444444445,39.30027777777777],[-113.07166666666666,39.32944444444445],[-112.89361111111111,39.35861111111111],[-112.71361111111112,39.3875],[-112.54444444444444,39.414722222222224],[-112.33055555555555,39.44833333333333],[-112.15333333333334,39.476111111111116],[-111.97333333333333,39.50194444444445],[-111.89333333333335,39.507777777777775],[-111.79444444444444,39.51583333333333],[-111.71444444444445,39.52194444444444],[-111.61527777777778,39.529444444444444],[-111.53388888888888,39.535555555555554],[-111.43527777777778,39.543055555555554],[-111.35333333333332,39.54888888888889],[-111.25666666666666,39.55611111111111],[-111.17416666666666,39.56194444444444],[-111.10083333333333,39.56722222222223],[-110.99166666666667,39.57472222222223],[-110.91944444444445,39.57972222222222],[-110.81083333333333,39.58722222222222],[-110.73944444444444,39.592222222222226],[-110.62777777777777,39.599722222222226],[-110.55611111111111,39.60444444444445],[-110.44611111111111,39.611666666666665],[-110.37249999999999,39.61638888888889],[-110.26388888888889,39.623333333333335],[-110.18972222222223,39.628055555555555],[-110.0825,39.63472222222222],[-110.00722222222223,39.63944444444444],[-109.89861111111112,39.64611111111111],[-109.82944444444443,39.650277777777774],[-109.71972222222223,39.656666666666666],[-109.64472222222223,39.66111111111111],[-109.53916666666666,39.66722222222222],[-109.465,39.675],[-109.35916666666667,39.686388888888885],[-109.285,39.69444444444444],[-109.17750000000001,39.70583333333334],[-109.10555555555555,39.71361111111111],[-108.99527777777777,39.725],[-108.92222222222223,39.73277777777778],[-108.80944444444444,39.74444444444445],[-108.73305555555555,39.75222222222222],[-108.61972222222222,39.763888888888886],[-108.54583333333333,39.771388888888886],[-108.43388888888889,39.782777777777774],[-108.36,39.79],[-108.25027777777778,39.80083333333333],[-108.17777777777778,39.808055555555555],[-108.075,39.81805555555556],[-107.99583333333334,39.82555555555556],[-107.89305555555556,39.83527777777778],[-107.71166666666667,39.8525],[-107.53083333333333,39.86944444444445],[-107.33611111111111,39.886944444444445],[-107.14861111111112,39.903888888888886],[-106.99055555555556,39.91777777777777],[-106.80388888888889,39.93388888888889],[-106.61777777777777,39.94972222222222],[-106.42833333333334,39.96555555555556],[-106.2425,39.980555555555554],[-106.05527777777777,39.995555555555555],[-105.87055555555555,40.01277777777778],[-105.68194444444445,40.031666666666666],[-105.4961111111111,40.04972222222222],[-105.31138888888889,40.0675],[-105.12222222222222,40.08555555555556],[-104.93527777777778,40.10277777777778],[-104.74666666666667,40.12],[-104.55888888888889,40.13638888888889],[-104.37222222222222,40.13916666666667],[-104.18194444444445,40.13944444444444],[-103.99666666666667,40.134166666666665],[-103.8111111111111,40.10888888888889],[-103.62944444444443,40.08305555555556],[-103.44611111111111,40.056666666666665],[-103.26611111111112,40.030277777777776],[-103.08416666666666,40.00333333333333],[-102.90555555555557,39.97666666666667],[-102.72444444444444,39.94916666666666],[-102.55611111111111,39.920833333333334],[-102.375,39.8925],[-102.19055555555556,39.86555555555556],[-102.01166666666667,39.83833333333334],[-101.83027777777778,39.809444444444445],[-101.82555555555555,39.80694444444444],[-101.65,39.780277777777776],[-101.47361111111111,39.751666666666665],[-101.29527777777777,39.72222222222222],[-101.11916666666666,39.69277777777778],[-100.94027777777778,39.66277777777778],[-100.76416666666667,39.632777777777775],[-100.58611111111111,39.602222222222224],[-100.38166666666666,39.566944444444445],[-100.20166666666667,39.535555555555554],[-100.20722222222223,39.53638888888889],[-100.02416666666666,39.51583333333333],[-99.84138888888889,39.53],[-99.66722222222222,39.56222222222222],[-99.49027777777778,39.594722222222224],[-99.31472222222222,39.626666666666665],[-99.13527777777779,39.659166666666664],[-98.95944444444444,39.69083333333333],[-98.78194444444445,39.72222222222222],[-98.60749999999999,39.753055555555555],[-98.43055555555556,39.78388888888889],[-98.2538888888889,39.814166666666665],[-98.23833333333333,39.816944444444445],[-98.07444444444444,39.845],[-97.89500000000001,39.87555555555556],[-97.71638888888889,39.905277777777776],[-97.53666666666666,39.93527777777778],[-97.35722222222222,39.96472222222223],[-97.17861111111111,39.993611111111115],[-97.00444444444445,40.02194444444444],[-96.83,40.04972222222222],[-96.65611111111112,40.07694444444445],[-96.4875,40.07333333333334],[-96.32916666666667,40.03861111111111],[-96.17694444444444,40.00472222222222],[-96.02555555555556,39.97083333333334],[-95.8775,39.9375],[-95.73361111111112,39.90472222222222],[-95.58888888888889,39.87166666666667],[-95.45,39.833333333333336],[-95.45027777777779,39.83972222222222],[-95.36666666666666,39.81666666666667],[-95.32722222222222,39.7925],[-95.26666666666667,39.75],[-95.23861111111111,39.719722222222224],[-95.2,39.68333333333333],[-95.16222222222223,39.657777777777774],[-95.11666666666666,39.61666666666667],[-95.08416666666666,39.59861111111111],[-94.98305555555555,39.57],[-94.93333333333334,39.55],[-94.88833333333334,39.54416666666666],[-94.85,39.53333333333333],[-94.76666666666667,39.516666666666666],[-94.72333333333333,39.49916666666667],[-94.7,39.483333333333334],[-94.69166666666668,39.44694444444444],[-94.69527777777778,39.41027777777778],[-94.70583333333333,39.373333333333335],[-94.71666666666667,39.336111111111116],[-94.72805555555556,39.2975]],"type":"LineString"}
}
