{
  "id": 2032023585,
  "type": "Feature",
  "properties": {
    "date:cessation_lower": "2026-07-29",
    "date:cessation_upper": "2026-07-29",
    "date:inception_lower": "2026-07-29",
    "date:inception_upper": "2026-07-29",
    "edtf:cessation": "2026-07-29T03:41:14Z",
    "edtf:inception": "2026-07-29T02:07:00Z",
    "flysfo:actual_timestamp": -1,
    "flysfo:airline": "F9",
    "flysfo:base_airline": "",
    "flysfo:base_flight_number": "2453",
    "flysfo:date": "2026-07-29",
    "flysfo:estimated_timestamp": 1785377280,
    "flysfo:event": "D",
    "flysfo:flight_number": "F92638",
    "flysfo:gate": "",
    "flysfo:journey": "SFO-PHX",
    "flysfo:scheduled_timestamp": 1785377280,
    "flysfo:timestamp": 1785377280,
    "geom:area": 0,
    "geom:bbox": "-122.370943,33.432684,-112.017392,37.617990",
    "geom:latitude": 35.525337,
    "geom:longitude": -117.19416749999999,
    "iata:airline": "F9",
    "iata:base_airline": "",
    "icao:airline": "FFT",
    "icao:base_airline": "VOI",
    "lbl:latitude": 37.61799,
    "lbl:longitude": -122.370943,
    "sfomuseum:airline_id": 1159284401,
    "sfomuseum:arrival_id": 102526751,
    "sfomuseum:base_flight_id": "20260729-D-VOI-2453",
    "sfomuseum:departure_id": 102527513,
    "sfomuseum:flight_id": "20260729-D-FFT-2638",
    "sfomuseum:flight_number": [
      "FFT2638",
      "F92638"
    ],
    "sfomuseum:placetype": "flight",
    "src:geom": "flysfo",
    "wof:belongsto": [],
    "wof:concordances": {
      "swim:flight_ref": "153122902"
    },
    "wof:country": "US",
    "wof:created": 1785428144,
    "wof:geomhash": "2a19f056fd5d16c52f22f1bf5dc85c9c",
    "wof:hierarchy": [
      {
        "custom_id": 2032023585,
        "flight_id": 2032023585
      }
    ],
    "wof:id": 2032023585,
    "wof:involves": [
      102526751,
      102527513,
      1159284401,
      -1,
      1360700749
    ],
    "wof:lastmodified": 1785429036,
    "wof:name": "F92638 (SFO-PHX)",
    "wof:parent_id": -1,
    "wof:placetype": "custom",
    "wof:placetype_alt": [
      "flight"
    ],
    "wof:repo": "sfomuseum-data-flights-2026-07",
    "wof:superseded_by": [],
    "wof:supersedes": []
  },
  "bbox": [
    -122.370943,
    33.432684,
    -112.017392,
    37.61799
  ],
  "geometry": {"coordinates":[[-122.370943,37.61799],[-112.017392,33.432684]],"type":"MultiPoint"}
}
