{
  "id": 2031996691,
  "type": "Feature",
  "properties": {
    "geom:area": 0,
    "geom:bbox": "-123.481170,37.632960,-122.408020,37.731150",
    "geom:latitude": 37.69834071481017,
    "geom:longitude": -122.94153305609879,
    "src:alt_label": "swim-takeoff",
    "src:geom": "swim",
    "swim:elevations": [
      381,
      567,
      758,
      1382,
      1841,
      2562,
      2952,
      3205,
      3370,
      3489,
      3519,
      3690,
      3987,
      4153,
      4531,
      4777,
      5021,
      5194
    ],
    "swim:geom": "takeoff",
    "swim:timestamps": [
      1785198438,
      1785198450,
      1785198483,
      1785198568,
      1785198610,
      1785198679,
      1785198718,
      1785198748,
      1785198766,
      1785198802,
      1785198810,
      1785198844,
      1785198892,
      1785198911,
      1785198957,
      1785198985,
      1785199015,
      1785199036
    ],
    "wof:geomhash": "0f9cf7f74a3073e38f787367a9a4524d",
    "wof:id": 2031996691,
    "wof:repo": "sfomuseum-data-flights-2026-07"
  },
  "bbox": [
    -123.48117,
    37.63296,
    -122.40802,
    37.73115
  ],
  "geometry": {"coordinates":[[-122.40802,37.63296],[-122.41837,37.63744],[-122.44885,37.65093],[-122.55864,37.67792],[-122.62345,37.68206],[-122.73528,37.68895],[-122.80198,37.69273],[-122.85308,37.69574],[-122.88562,37.6977],[-122.95382,37.70172],[-122.9691,37.70262],[-123.04049,37.70671],[-123.14679,37.71274],[-123.191,37.71524],[-123.29633,37.72108],[-123.36116,37.72461],[-123.43144,37.72851],[-123.48117,37.73115]],"type":"LineString"}
}
