{
  "id": 2032054739,
  "type": "Feature",
  "properties": {
    "geom:area": 0,
    "geom:bbox": "-122.548270,37.188530,-121.244620,37.669330",
    "geom:latitude": 37.37912499823733,
    "geom:longitude": -121.99794746805921,
    "src:alt_label": "swim-takeoff",
    "src:geom": "swim",
    "swim:elevations": [
      379,
      555,
      940,
      1002,
      1324,
      1402,
      2078,
      2369,
      2549,
      2686,
      3184,
      3261,
      3484,
      3867,
      4435,
      5051,
      5295,
      5375,
      5535,
      5648,
      6058,
      6486,
      6725,
      7038,
      7079,
      7184,
      7268,
      7594,
      7810,
      7992,
      8132,
      8632,
      8691,
      8869
    ],
    "swim:geom": "takeoff",
    "swim:timestamps": [
      1785523401,
      1785523410,
      1785523458,
      1785523470,
      1785523497,
      1785523508,
      1785523555,
      1785523573,
      1785523585,
      1785523592,
      1785523634,
      1785523645,
      1785523676,
      1785523706,
      1785523750,
      1785523801,
      1785523825,
      1785523834,
      1785523851,
      1785523863,
      1785523902,
      1785523946,
      1785523971,
      1785524005,
      1785524010,
      1785524021,
      1785524031,
      1785524067,
      1785524094,
      1785524118,
      1785524139,
      1785524186,
      1785524192,
      1785524213
    ],
    "wof:geomhash": "7c9e40af7c0131c9978a1f8d2df51083",
    "wof:id": 2032054739,
    "wof:repo": "sfomuseum-data-flights-2026-07"
  },
  "bbox": [
    -122.54827,
    37.18853,
    -121.24462,
    37.66933
  ],
  "geometry": {"coordinates":[[-122.394,37.627],[-122.40201,37.63054],[-122.44997,37.65166],[-122.46394,37.65781],[-122.50039,37.66933],[-122.51697,37.66812],[-122.54827,37.61859],[-122.53622,37.5961],[-122.52761,37.58164],[-122.52208,37.5723],[-122.49179,37.52023],[-122.48276,37.50566],[-122.43955,37.46897],[-122.3898,37.43974],[-122.30718,37.40331],[-122.20077,37.38113],[-122.14866,37.37104],[-122.12988,37.3674],[-122.09163,37.36006],[-122.06633,37.35514],[-121.97865,37.33794],[-121.87904,37.31809],[-121.81994,37.30621],[-121.74141,37.29034],[-121.72878,37.28775],[-121.70483,37.28292],[-121.68124,37.27818],[-121.59513,37.26071],[-121.532,37.2476],[-121.47463,37.23583],[-121.42355,37.22589],[-121.30817,37.20124],[-121.2938,37.19835],[-121.24462,37.18853]],"type":"LineString"}
}
