{
  "id": 2031980363,
  "type": "Feature",
  "properties": {
    "geom:area": 0,
    "geom:bbox": "-122.751944,37.633333,-122.241944,45.593056",
    "geom:latitude": 41.69478002306952,
    "geom:longitude": -122.51900559582921,
    "src:alt_label": "swim-path",
    "src:geom": "swim",
    "swim:altitudes": [
      "007",
      "013",
      "017",
      "025",
      "042",
      "063",
      "086",
      "106",
      "118",
      "162",
      "203",
      "223",
      "238",
      "269",
      "282",
      "294",
      "314",
      "324",
      "333",
      "341",
      "351",
      "360C",
      "360C",
      "360C",
      "360C",
      "360C",
      "360C",
      "360C",
      "360C",
      "360C",
      "360C",
      "360C",
      "360C",
      "360C",
      "360C",
      "360C",
      "360C",
      "360C",
      "360C",
      "360C",
      "360",
      "347",
      "326",
      "304",
      "285",
      "247",
      "229",
      "210",
      "193",
      "179",
      "165",
      "151",
      "149",
      "132",
      "123",
      "096",
      "092",
      "084",
      "071",
      "065",
      "056",
      "044",
      "028",
      "016",
      "009",
      "000",
      "110"
    ],
    "swim:geom": "path",
    "swim:speeds": [
      156,
      153,
      191,
      226,
      264,
      268,
      278,
      295,
      355,
      387,
      415,
      423,
      442,
      461,
      477,
      486,
      506,
      517,
      524,
      531,
      531,
      532,
      534,
      532,
      530,
      529,
      527,
      529,
      530,
      529,
      530,
      532,
      534,
      536,
      537,
      535,
      533,
      532,
      527,
      525,
      524,
      526,
      509,
      494,
      475,
      439,
      429,
      426,
      412,
      390,
      372,
      359,
      363,
      357,
      339,
      309,
      301,
      301,
      280,
      264,
      253,
      238,
      228,
      164,
      150,
      146,
      143
    ],
    "swim:timestamps": [
      1785105635,
      1785105652,
      1785105672,
      1785105712,
      1785105772,
      1785105832,
      1785105892,
      1785105952,
      1785106012,
      1785106132,
      1785106252,
      1785106313,
      1785106373,
      1785106493,
      1785106553,
      1785106613,
      1785106736,
      1785106793,
      1785106853,
      1785106916,
      1785106973,
      1785107034,
      1785107096,
      1785107154,
      1785107214,
      1785107274,
      1785107334,
      1785107454,
      1785107514,
      1785107574,
      1785107634,
      1785107694,
      1785107754,
      1785107815,
      1785107875,
      1785107937,
      1785107997,
      1785108057,
      1785108118,
      1785108178,
      1785108238,
      1785108358,
      1785108418,
      1785108478,
      1785108538,
      1785108658,
      1785108718,
      1785108778,
      1785108838,
      1785108898,
      1785108959,
      1785109004,
      1785109019,
      1785109079,
      1785109139,
      1785109259,
      1785109274,
      1785109319,
      1785109389,
      1785109439,
      1785109499,
      1785109559,
      1785109619,
      1785109689,
      1785109750,
      1785109810,
      1785109859
    ],
    "wof:geomhash": "46b71bba570b03e3a353cacf258bd952",
    "wof:id": 2031980363,
    "wof:repo": "sfomuseum-data-flights-2026-07"
  },
  "bbox": [
    -122.75194444444445,
    37.63333333333333,
    -122.24194444444444,
    45.59305555555556
  ],
  "geometry": {"coordinates":[[-122.38333333333334,37.63333333333333],[-122.39916666666667,37.63333333333333],[-122.4,37.65],[-122.3536111111111,37.66888888888889],[-122.27555555555556,37.70527777777778],[-122.29416666666667,37.775555555555556],[-122.33527777777778,37.84638888888889],[-122.32722222222222,37.92583333333333],[-122.30694444444444,38.01972222222222],[-122.25972222222222,38.22638888888889],[-122.24194444444444,38.45027777777778],[-122.2538888888889,38.568333333333335],[-122.26694444444445,38.690555555555555],[-122.29222222222222,38.933611111111105],[-122.30638888888889,39.06638888888889],[-122.32083333333333,39.20333333333333],[-122.34777777777778,39.481388888888894],[-122.36638888888888,39.626666666666665],[-122.38166666666666,39.77194444444444],[-122.39777777777779,39.91888888888889],[-122.41361111111112,40.07027777777778],[-122.43055555555556,40.225],[-122.44694444444445,40.37583333333333],[-122.46333333333334,40.522777777777776],[-122.47916666666667,40.66861111111111],[-122.49583333333334,40.81722222222223],[-122.51194444444444,40.962500000000006],[-122.54444444444444,41.256388888888885],[-122.55944444444444,41.3825],[-122.57583333333334,41.530833333333334],[-122.58555555555554,41.67722222222222],[-122.59555555555555,41.8275],[-122.60499999999999,41.97805555555556],[-122.61444444444444,42.12888888888889],[-122.62472222222222,42.280277777777776],[-122.635,42.42861111111111],[-122.64500000000001,42.57777777777778],[-122.65472222222223,42.723888888888894],[-122.66444444444446,42.86388888888889],[-122.67444444444445,43.00861111111111],[-122.68416666666667,43.15361111111111],[-122.7038888888889,43.447222222222216],[-122.715,43.6175],[-122.72583333333334,43.75472222222222],[-122.73472222222222,43.88722222222222],[-122.75194444444445,44.13472222222222],[-122.74305555555556,44.25277777777778],[-122.73138888888889,44.36944444444445],[-122.72027777777778,44.48277777777778],[-122.70944444444444,44.591944444444444],[-122.69944444444445,44.69083333333333],[-122.69083333333333,44.77444444444444],[-122.68972222222223,44.79055555555556],[-122.67972222222222,44.88666666666666],[-122.67027777777778,44.98083333333334],[-122.65138888888889,45.166666666666664],[-122.65027777777779,45.19305555555555],[-122.63916666666667,45.24944444444444],[-122.53722222222223,45.31305555555555],[-122.47,45.34861111111111],[-122.40083333333334,45.39611111111111],[-122.36555555555555,45.45777777777778],[-122.40222222222222,45.509166666666665],[-122.48111111111112,45.54],[-122.53472222222221,45.55972222222222],[-122.58472222222221,45.580555555555556],[-122.61638888888888,45.59305555555556]],"type":"LineString"}
}
