{
  "id": 2032005659,
  "type": "Feature",
  "properties": {
    "geom:area": 0,
    "geom:bbox": "-122.333333,36.337222,-76.650000,39.221667",
    "geom:latitude": 38.007439789431345,
    "geom:longitude": -99.53898728286282,
    "src:alt_label": "swim-path",
    "src:geom": "swim",
    "swim:altitudes": [
      "007",
      "022",
      "042",
      "050",
      "066",
      "077",
      "086",
      "100",
      "107",
      "116",
      "127",
      "137",
      "153",
      "173",
      "194",
      "211",
      "228",
      "243",
      "257",
      "272",
      "279",
      "286",
      "301",
      "302",
      "316",
      "316",
      "319C",
      "319C",
      "320C",
      "320C",
      "320C",
      "320C",
      "320C",
      "320C",
      "320C",
      "320C",
      "320C",
      "320C",
      "320C",
      "320C",
      "320C",
      "320C",
      "320C",
      "320C",
      "320C",
      "320C",
      "320C",
      "320C",
      "320C",
      "320C",
      "320C",
      "320C",
      "320C",
      "320C",
      "320C",
      "320C",
      "320",
      "326",
      "334",
      "342",
      "350",
      "358C",
      "360C",
      "360C",
      "360C",
      "360C",
      "360C",
      "360C",
      "360C",
      "360C",
      "360C",
      "360C",
      "360C",
      "360C",
      "360C",
      "360C",
      "360C",
      "360C",
      "360C",
      "360C",
      "360C",
      "360C",
      "360C",
      "360C",
      "360C",
      "360C",
      "360C",
      "360C",
      "360C",
      "360C",
      "360C",
      "360C",
      "360C",
      "360C",
      "360C",
      "360C",
      "360C",
      "360C",
      "360C",
      "360C",
      "360C",
      "360C",
      "360C",
      "360C",
      "360C",
      "360C",
      "360C",
      "360C",
      "360C",
      "360C",
      "360C",
      "360C",
      "360C",
      "360C",
      "360C",
      "360C",
      "360C",
      "360C",
      "360C",
      "360C",
      "360C",
      "360C",
      "360C",
      "360C",
      "360C",
      "360C",
      "360C",
      "360C",
      "360C",
      "360C",
      "360C",
      "360C",
      "360C",
      "360C",
      "360C",
      "360C",
      "360C",
      "360C",
      "360C",
      "360C",
      "360C",
      "360C",
      "360C",
      "360C",
      "360C",
      "360C",
      "360C",
      "360C",
      "360C",
      "360C",
      "360C",
      "360C",
      "360C",
      "360C",
      "360C",
      "360C",
      "360C",
      "360C",
      "360C",
      "360C",
      "360C",
      "360C",
      "360C",
      "360C",
      "360C",
      "360C",
      "360C",
      "360C",
      "360C",
      "360C",
      "360C",
      "360C",
      "360C",
      "360C",
      "360C",
      "360C",
      "360C",
      "360C",
      "360C",
      "360C",
      "360C",
      "360C",
      "360C",
      "360C",
      "360C",
      "360C",
      "360C",
      "360C",
      "360C",
      "360C",
      "360C",
      "360C",
      "360C",
      "360C",
      "360C",
      "360C",
      "360C",
      "360C",
      "360C",
      "360C",
      "360C",
      "360C",
      "360C",
      "360C",
      "360C",
      "360C",
      "360C",
      "360C",
      "360C",
      "360C",
      "360C",
      "360C",
      "360C",
      "360C",
      "360C",
      "360C",
      "360C",
      "360C",
      "360C",
      "360C",
      "360C",
      "360C",
      "360C",
      "360C",
      "360C",
      "360C",
      "360C",
      "360C",
      "360C",
      "360C",
      "360C",
      "360C",
      "360C",
      "360C",
      "360C",
      "360C",
      "360C",
      "360C",
      "360C",
      "360C",
      "360C",
      "360C",
      "360C",
      "360C",
      "360C",
      "360C",
      "360C",
      "360C",
      "360C",
      "360C",
      "360C",
      "360C",
      "360C",
      "360C",
      "360C",
      "360C",
      "360C",
      "360C",
      "360C",
      "360C",
      "360C",
      "360C",
      "360C",
      "360C",
      "360C",
      "360C",
      "360C",
      "360C",
      "360C",
      "360C",
      "360C",
      "360C",
      "360C",
      "360C",
      "360C",
      "360C",
      "360C",
      "360C",
      "360C",
      "360C",
      "360C",
      "360C",
      "360C",
      "360C",
      "360C",
      "360C",
      "360C",
      "360C",
      "360C",
      "360C",
      "360C",
      "360C",
      "360C",
      "360C",
      "360C",
      "360C",
      "360C",
      "360C",
      "360C",
      "360C",
      "360C",
      "360C",
      "360C",
      "360C",
      "360C",
      "360C",
      "360C",
      "360C",
      "360C",
      "360C",
      "360C",
      "360C",
      "360C",
      "360C",
      "360C",
      "360C",
      "360C",
      "360C",
      "360C",
      "360C",
      "360C",
      "360C",
      "360C",
      "360C",
      "360C",
      "360C",
      "360C",
      "360C",
      "360C",
      "360C",
      "360C",
      "360C",
      "360C",
      "360C",
      "360C",
      "360C",
      "360C",
      "360C",
      "360C",
      "360C",
      "360C",
      "360C",
      "360C",
      "360C",
      "360C",
      "360C",
      "360C",
      "360C",
      "360",
      "350",
      "341",
      "322",
      "312",
      "302",
      "293",
      "276",
      "255",
      "253",
      "234",
      "213",
      "191",
      "170",
      "162",
      "148",
      "131",
      "117",
      "107",
      "098",
      "083",
      "070",
      "060",
      "053",
      "043",
      "031",
      "023",
      "022",
      "014",
      "005"
    ],
    "swim:geom": "path",
    "swim:speeds": [
      182,
      205,
      243,
      245,
      250,
      243,
      263,
      264,
      295,
      306,
      319,
      322,
      356,
      360,
      364,
      372,
      378,
      381,
      383,
      385,
      396,
      393,
      401,
      416,
      406,
      400,
      406,
      409,
      410,
      415,
      421,
      423,
      424,
      425,
      426,
      427,
      428,
      428,
      427,
      427,
      427,
      427,
      426,
      426,
      424,
      420,
      417,
      413,
      413,
      413,
      412,
      411,
      411,
      411,
      411,
      412,
      412,
      412,
      414,
      415,
      414,
      412,
      409,
      409,
      408,
      408,
      408,
      408,
      408,
      409,
      408,
      411,
      411,
      411,
      412,
      413,
      412,
      415,
      416,
      417,
      417,
      417,
      417,
      416,
      407,
      404,
      403,
      403,
      403,
      403,
      406,
      406,
      409,
      411,
      414,
      417,
      418,
      420,
      420,
      421,
      421,
      422,
      421,
      422,
      422,
      422,
      423,
      424,
      424,
      424,
      424,
      424,
      425,
      425,
      426,
      428,
      430,
      431,
      432,
      433,
      431,
      429,
      428,
      428,
      427,
      427,
      426,
      425,
      425,
      425,
      425,
      426,
      430,
      431,
      433,
      434,
      434,
      435,
      435,
      434,
      434,
      433,
      432,
      432,
      431,
      431,
      431,
      431,
      431,
      432,
      433,
      435,
      436,
      438,
      437,
      437,
      438,
      441,
      443,
      443,
      443,
      443,
      443,
      443,
      441,
      443,
      442,
      439,
      441,
      438,
      438,
      437,
      438,
      438,
      438,
      438,
      438,
      440,
      441,
      440,
      441,
      438,
      440,
      437,
      436,
      435,
      435,
      433,
      434,
      433,
      434,
      434,
      434,
      435,
      436,
      436,
      436,
      436,
      437,
      436,
      437,
      437,
      438,
      438,
      439,
      440,
      441,
      441,
      443,
      444,
      446,
      446,
      448,
      448,
      449,
      449,
      450,
      450,
      451,
      452,
      453,
      454,
      456,
      458,
      464,
      467,
      468,
      467,
      463,
      462,
      449,
      449,
      449,
      450,
      463,
      464,
      465,
      464,
      464,
      464,
      463,
      463,
      462,
      462,
      462,
      462,
      463,
      463,
      463,
      463,
      463,
      463,
      464,
      464,
      463,
      463,
      462,
      463,
      465,
      467,
      468,
      463,
      463,
      463,
      462,
      464,
      451,
      450,
      455,
      453,
      454,
      455,
      465,
      468,
      470,
      474,
      477,
      481,
      482,
      481,
      476,
      472,
      469,
      468,
      467,
      465,
      464,
      463,
      462,
      462,
      462,
      463,
      464,
      465,
      465,
      465,
      463,
      461,
      459,
      457,
      455,
      454,
      452,
      452,
      452,
      453,
      455,
      455,
      454,
      452,
      452,
      450,
      451,
      448,
      449,
      447,
      446,
      436,
      431,
      431,
      429,
      429,
      428,
      417,
      416,
      415,
      415,
      414,
      414,
      414,
      413,
      412,
      411,
      411,
      410,
      410,
      410,
      411,
      411,
      411,
      412,
      413,
      413,
      413,
      412,
      411,
      411,
      409,
      408,
      410,
      413,
      413,
      418,
      420,
      420,
      423,
      416,
      417,
      399,
      386,
      379,
      372,
      330,
      317,
      309,
      311,
      287,
      252,
      249,
      242,
      234,
      231,
      227,
      183,
      171,
      175,
      162,
      144
    ],
    "swim:timestamps": [
      1785281339,
      1785281387,
      1785281447,
      1785281471,
      1785281501,
      1785281531,
      1785281555,
      1785281590,
      1785281621,
      1785281651,
      1785281681,
      1785281711,
      1785281771,
      1785281831,
      1785281891,
      1785281951,
      1785282011,
      1785282071,
      1785282131,
      1785282191,
      1785282251,
      1785282306,
      1785282366,
      1785282372,
      1785282426,
      1785282432,
      1785282486,
      1785282492,
      1785282558,
      1785282618,
      1785282678,
      1785282739,
      1785282799,
      1785282859,
      1785282919,
      1785282979,
      1785283039,
      1785283099,
      1785283153,
      1785283159,
      1785283219,
      1785283273,
      1785283279,
      1785283333,
      1785283393,
      1785283457,
      1785283513,
      1785283577,
      1785283634,
      1785283694,
      1785283757,
      1785283817,
      1785283877,
      1785283937,
      1785283997,
      1785284057,
      1785284118,
      1785284178,
      1785284238,
      1785284298,
      1785284358,
      1785284418,
      1785284478,
      1785284538,
      1785284598,
      1785284658,
      1785284718,
      1785284779,
      1785284839,
      1785284899,
      1785284949,
      1785285019,
      1785285079,
      1785285199,
      1785285259,
      1785285319,
      1785285370,
      1785285379,
      1785285439,
      1785285490,
      1785285560,
      1785285610,
      1785285620,
      1785285680,
      1785285740,
      1785285860,
      1785285920,
      1785285971,
      1785285980,
      1785286040,
      1785286161,
      1785286211,
      1785286281,
      1785286331,
      1785286401,
      1785286461,
      1785286511,
      1785286581,
      1785286632,
      1785286701,
      1785286761,
      1785286813,
      1785286873,
      1785286993,
      1785287053,
      1785287113,
      1785287233,
      1785287353,
      1785287414,
      1785287474,
      1785287534,
      1785287594,
      1785287654,
      1785287714,
      1785287775,
      1785287835,
      1785287895,
      1785287955,
      1785288015,
      1785288076,
      1785288136,
      1785288196,
      1785288256,
      1785288316,
      1785288373,
      1785288433,
      1785288494,
      1785288554,
      1785288614,
      1785288674,
      1785288734,
      1785288794,
      1785288914,
      1785288974,
      1785289094,
      1785289155,
      1785289215,
      1785289275,
      1785289335,
      1785289395,
      1785289456,
      1785289516,
      1785289575,
      1785289635,
      1785289695,
      1785289755,
      1785289815,
      1785289875,
      1785289935,
      1785290056,
      1785290116,
      1785290176,
      1785290236,
      1785290257,
      1785290296,
      1785290356,
      1785290416,
      1785290537,
      1785290597,
      1785290657,
      1785290673,
      1785290718,
      1785290733,
      1785290793,
      1785290838,
      1785290853,
      1785290913,
      1785290958,
      1785290973,
      1785291018,
      1785291033,
      1785291078,
      1785291093,
      1785291138,
      1785291154,
      1785291214,
      1785291274,
      1785291319,
      1785291334,
      1785291379,
      1785291394,
      1785291439,
      1785291454,
      1785291499,
      1785291514,
      1785291557,
      1785291574,
      1785291617,
      1785291634,
      1785291677,
      1785291694,
      1785291737,
      1785291754,
      1785291814,
      1785291855,
      1785291875,
      1785291916,
      1785291935,
      1785291976,
      1785291995,
      1785292036,
      1785292055,
      1785292096,
      1785292115,
      1785292156,
      1785292175,
      1785292216,
      1785292235,
      1785292276,
      1785292295,
      1785292336,
      1785292355,
      1785292396,
      1785292415,
      1785292456,
      1785292475,
      1785292516,
      1785292536,
      1785292576,
      1785292636,
      1785292656,
      1785292716,
      1785292757,
      1785292776,
      1785292817,
      1785292836,
      1785292877,
      1785292896,
      1785292937,
      1785292956,
      1785292997,
      1785293016,
      1785293057,
      1785293076,
      1785293117,
      1785293137,
      1785293177,
      1785293197,
      1785293237,
      1785293254,
      1785293297,
      1785293314,
      1785293357,
      1785293374,
      1785293417,
      1785293434,
      1785293478,
      1785293494,
      1785293538,
      1785293554,
      1785293598,
      1785293614,
      1785293658,
      1785293674,
      1785293718,
      1785293734,
      1785293778,
      1785293794,
      1785293838,
      1785293898,
      1785293958,
      1785294018,
      1785294078,
      1785294138,
      1785294259,
      1785294376,
      1785294439,
      1785294499,
      1785294557,
      1785294619,
      1785294679,
      1785294737,
      1785294799,
      1785294859,
      1785294917,
      1785294980,
      1785295040,
      1785295160,
      1785295220,
      1785295278,
      1785295458,
      1785295520,
      1785295580,
      1785295640,
      1785295700,
      1785295761,
      1785295818,
      1785295938,
      1785295998,
      1785296119,
      1785296179,
      1785296239,
      1785296299,
      1785296359,
      1785296419,
      1785296479,
      1785296539,
      1785296599,
      1785296659,
      1785296719,
      1785296779,
      1785296839,
      1785296900,
      1785296960,
      1785297020,
      1785297080,
      1785297140,
      1785297200,
      1785297260,
      1785297320,
      1785297331,
      1785297380,
      1785297391,
      1785297440,
      1785297451,
      1785297500,
      1785297560,
      1785297620,
      1785297680,
      1785297692,
      1785297740,
      1785297752,
      1785297800,
      1785297860,
      1785297872,
      1785297921,
      1785297932,
      1785297981,
      1785297992,
      1785298041,
      1785298052,
      1785298112,
      1785298161,
      1785298172,
      1785298221,
      1785298232,
      1785298281,
      1785298292,
      1785298341,
      1785298352,
      1785298412,
      1785298461,
      1785298472,
      1785298532,
      1785298592,
      1785298652,
      1785298713,
      1785298773,
      1785298833,
      1785298893,
      1785298953,
      1785299073,
      1785299133,
      1785299193,
      1785299253,
      1785299313,
      1785299360,
      1785299373,
      1785299433,
      1785299493,
      1785299553,
      1785299613,
      1785299673,
      1785299733,
      1785299792,
      1785299854,
      1785299914,
      1785299974,
      1785300034,
      1785300094,
      1785300154,
      1785300214,
      1785300274,
      1785300332,
      1785300387,
      1785300394,
      1785300454,
      1785300513
    ],
    "wof:geomhash": "d5dc8c38c5d495a37dec9be78183d796",
    "wof:id": 2032005659,
    "wof:repo": "sfomuseum-data-flights-2026-07"
  },
  "bbox": [
    -122.33333333333333,
    36.33722222222222,
    -76.65,
    39.22166666666667
  ],
  "geometry": {"coordinates":[[-76.66666666666667,39.166666666666664],[-76.65,39.11666666666667],[-76.71666666666667,39.11666666666667],[-76.72944444444444,39.14333333333333],[-76.75,39.18333333333333],[-76.78444444444445,39.19361111111111],[-76.83333333333333,39.2],[-76.88138888888888,39.206944444444446],[-76.93333333333334,39.21666666666667],[-76.985,39.22],[-77.05,39.21666666666667],[-77.09916666666666,39.22166666666667],[-77.20138888888889,39.175],[-77.31555555555555,39.12416666666667],[-77.43611111111112,39.08833333333334],[-77.56083333333333,39.050555555555555],[-77.68916666666667,39.011944444444445],[-77.82083333333333,38.98861111111111],[-77.95361111111112,38.980000000000004],[-78.08916666666666,38.971111111111114],[-78.22694444444444,38.96194444444445],[-78.35888888888888,38.95138888888889],[-78.50583333333333,38.94027777777777],[-78.5225,38.94166666666666],[-78.65111111111112,38.93111111111111],[-78.66555555555556,38.93194444444444],[-78.79666666666667,38.9225],[-78.80777777777777,38.92194444444444],[-78.97333333333333,38.909444444444446],[-79.11972222222222,38.899166666666666],[-79.2713888888889,38.88777777777778],[-79.4213888888889,38.87638888888889],[-79.57166666666666,38.86472222222223],[-79.72166666666666,38.85277777777778],[-79.87305555555555,38.840833333333336],[-80.02333333333333,38.828611111111115],[-80.17444444444445,38.816111111111105],[-80.32555555555555,38.80361111111111],[-80.47333333333333,38.79083333333333],[-80.47972222222222,38.790277777777774],[-80.63805555555557,38.776666666666664],[-80.74444444444444,38.7675],[-80.78666666666666,38.76361111111111],[-80.89722222222223,38.75333333333333],[-81.0475,38.74],[-81.23388888888888,38.72277777777778],[-81.34194444444444,38.71277777777778],[-81.52416666666666,38.69555555555555],[-81.655,38.683055555555555],[-81.80138888888888,38.66888888888889],[-81.94555555555556,38.654444444444444],[-82.09138888888889,38.64],[-82.2363888888889,38.62555555555556],[-82.38083333333333,38.61083333333333],[-82.52833333333334,38.59527777777778],[-82.67944444444444,38.57944444444445],[-82.82388888888889,38.56444444444444],[-82.96916666666667,38.54861111111111],[-83.11416666666666,38.533055555555556],[-83.25888888888889,38.51694444444444],[-83.4025,38.50111111111111],[-83.54777777777778,38.484722222222224],[-83.68833333333333,38.46888888888889],[-83.83222222222221,38.452222222222225],[-83.9725,38.43583333333333],[-84.11638888888888,38.41888888888889],[-84.25833333333334,38.401944444444446],[-84.40055555555556,38.385],[-84.5411111111111,38.36805555555556],[-84.68527777777778,38.35027777777778],[-84.78833333333333,38.33972222222222],[-84.97166666666666,38.31444444444444],[-85.11444444444444,38.296388888888885],[-85.39305555555556,38.26083333333333],[-85.53861111111111,38.24166666666667],[-85.6825,38.22277777777778],[-85.79861111111111,38.20777777777778],[-85.8275,38.203611111111115],[-85.97277777777778,38.18416666666666],[-86.09027777777777,38.16722222222222],[-86.26555555555555,38.14416666666666],[-86.38083333333333,38.12638888888889],[-86.41222222222223,38.12388888888889],[-86.55527777777777,38.10472222222222],[-86.70055555555555,38.108333333333334],[-86.98583333333333,38.12111111111111],[-87.13,38.12722222222222],[-87.245,38.132222222222225],[-87.27333333333333,38.13333333333333],[-87.41805555555555,38.13916666666667],[-87.7063888888889,38.150555555555556],[-87.82249999999999,38.155],[-87.99805555555555,38.16111111111111],[-88.11611111111111,38.165277777777774],[-88.29194444444444,38.17111111111111],[-88.43916666666667,38.17583333333333],[-88.56055555555555,38.17972222222222],[-88.71722222222222,38.18444444444444],[-88.83722222222222,38.187777777777775],[-89.01472222222222,38.192499999999995],[-89.16277777777778,38.19638888888888],[-89.2825,38.19944444444444],[-89.43222222222222,38.20277777777778],[-89.73,38.20944444444445],[-89.88111111111111,38.21222222222222],[-90.02888888888889,38.21527777777778],[-90.33,38.22027777777778],[-90.63055555555555,38.224444444444444],[-90.78222222222222,38.22638888888889],[-90.93111111111112,38.22777777777778],[-91.08111111111111,38.22944444444445],[-91.2325,38.230555555555554],[-91.3825,38.23166666666667],[-91.55055555555555,38.2325],[-91.70138888888889,38.233333333333334],[-91.85249999999999,38.23388888888889],[-92.00555555555556,38.23388888888889],[-92.15916666666668,38.23416666666667],[-92.31222222222222,38.23388888888889],[-92.45722222222223,38.23361111111111],[-92.60777777777777,38.23305555555556],[-92.75694444444444,38.2325],[-92.90805555555556,38.231388888888894],[-93.05749999999999,38.230555555555554],[-93.20916666666668,38.22916666666667],[-93.35888888888888,38.22777777777778],[-93.50805555555556,38.226111111111116],[-93.6563888888889,38.22416666666667],[-93.80833333333334,38.221944444444446],[-93.9563888888889,38.22],[-94.10722222222222,38.2175],[-94.24694444444445,38.215],[-94.55305555555556,38.20916666666667],[-94.70444444444445,38.20611111111111],[-95.0125,38.19888888888889],[-95.16583333333334,38.19499999999999],[-95.31916666666666,38.19083333333333],[-95.4725,38.18666666666666],[-95.62666666666667,38.18194444444444],[-95.77888888888889,38.177499999999995],[-95.9325,38.1725],[-96.08638888888889,38.1675],[-96.23777777777778,38.16222222222222],[-96.39027777777778,38.15694444444444],[-96.54055555555556,38.15138888888889],[-96.69166666666668,38.14555555555555],[-96.84472222222222,38.13944444444444],[-96.99666666666667,38.13333333333333],[-97.14694444444446,38.12694444444445],[-97.45166666666667,38.11361111111111],[-97.62472222222222,38.105555555555554],[-97.77805555555555,38.09805555555556],[-97.92444444444445,38.09111111111111],[-97.97277777777778,38.08722222222222],[-98.07805555555555,38.083333333333336],[-98.23416666666667,38.07555555555556],[-98.38555555555556,38.06111111111111],[-98.67972222222222,37.98777777777778],[-98.83083333333333,37.94972222222222],[-98.97833333333334,37.911944444444444],[-98.99472222222222,37.907222222222224],[-99.12583333333333,37.87444444444444],[-99.14250000000001,37.869166666666665],[-99.28888888888889,37.83222222222223],[-99.41777777777779,37.79888888888889],[-99.43583333333333,37.79416666666666],[-99.58194444444445,37.755833333333335],[-99.69777777777779,37.725833333333334],[-99.72638888888889,37.7175],[-99.84305555555555,37.687777777777775],[-99.87222222222222,37.68055555555555],[-99.98611111111111,37.65],[-100.0461111111111,37.634166666666665],[-100.13388888888889,37.61055555555556],[-100.19027777777778,37.595555555555556],[-100.30805555555555,37.56388888888888],[-100.45333333333333,37.52388888888889],[-100.57111111111111,37.49277777777778],[-100.61694444444444,37.48083333333334],[-100.71888888888888,37.4525],[-100.7611111111111,37.440555555555555],[-100.86527777777778,37.4125],[-100.90527777777778,37.401944444444446],[-101.01027777777777,37.3725],[-101.05111111111111,37.36138888888889],[-101.15277777777779,37.333333333333336],[-101.18333333333334,37.325],[-101.29583333333333,37.29361111111111],[-101.32416666666666,37.285555555555554],[-101.43833333333333,37.25333333333333],[-101.4675,37.24527777777778],[-101.57972222222222,37.21388888888889],[-101.6111111111111,37.20472222222222],[-101.7525,37.165],[-101.86833333333333,37.13194444444444],[-101.89722222222223,37.12361111111111],[-102.01194444444444,37.090833333333336],[-102.03861111111111,37.083333333333336],[-102.14500000000001,37.034166666666664],[-102.16916666666667,37.020833333333336],[-102.26972222222223,36.96527777777778],[-102.29527777777777,36.95111111111111],[-102.39361111111111,36.89666666666667],[-102.42027777777778,36.882222222222225],[-102.52083333333333,36.827222222222225],[-102.545,36.814166666666665],[-102.64777777777779,36.75861111111111],[-102.67472222222223,36.744166666666665],[-102.77777777777777,36.689166666666665],[-102.80361111111111,36.675555555555555],[-102.90583333333333,36.62111111111111],[-102.93361111111112,36.60638888888889],[-103.03722222222223,36.55166666666666],[-103.06222222222222,36.53861111111111],[-103.17222222222223,36.49194444444444],[-103.20111111111112,36.48277777777778],[-103.32111111111111,36.44916666666666],[-103.34833333333333,36.442499999999995],[-103.46972222222223,36.413888888888884],[-103.61972222222222,36.37916666666667],[-103.64916666666667,36.37222222222222],[-103.80083333333333,36.34],[-103.92805555555556,36.33722222222222],[-103.95555555555556,36.345],[-104.05666666666666,36.40861111111111],[-104.06888888888888,36.42916666666667],[-104.11,36.5325],[-104.11805555555554,36.55305555555555],[-104.15722222222223,36.655277777777776],[-104.16444444444446,36.67333333333333],[-104.26305555555555,36.73722222222222],[-104.29472222222222,36.7425],[-104.41555555555556,36.765],[-104.44805555555556,36.77111111111111],[-104.57055555555556,36.794444444444444],[-104.62305555555555,36.80416666666667],[-104.73027777777779,36.823888888888895],[-104.77944444444444,36.83305555555556],[-104.89222222222223,36.85333333333333],[-104.91888888888889,36.858333333333334],[-105.04944444444445,36.88166666666667],[-105.07527777777777,36.88638888888889],[-105.20416666666667,36.909166666666664],[-105.23027777777779,36.913888888888884],[-105.35527777777777,36.936388888888885],[-105.3888888888889,36.94222222222222],[-105.51277777777777,36.96388888888889],[-105.56444444444445,36.973055555555554],[-105.67694444444444,36.9925],[-105.71444444444445,36.99916666666667],[-105.8386111111111,37.02055555555555],[-105.87555555555555,37.026944444444446],[-105.98611111111111,37.045833333333334],[-106.03555555555555,37.05444444444444],[-106.14583333333334,37.073055555555555],[-106.19500000000001,37.081388888888895],[-106.30611111111111,37.10027777777778],[-106.35222222222221,37.10777777777778],[-106.465,37.13305555555556],[-106.61944444444444,37.18472222222222],[-106.76,37.23111111111111],[-106.90277777777779,37.28472222222222],[-107.03277777777778,37.34583333333334],[-107.17305555555556,37.40972222222222],[-107.45805555555556,37.5325],[-107.72805555555556,37.67305555555555],[-107.8825,37.69972222222222],[-108.03527777777778,37.72083333333334],[-108.19166666666668,37.74638888888889],[-108.34666666666666,37.77916666666667],[-108.51916666666666,37.81166666666666],[-108.66111111111111,37.82555555555556],[-108.84333333333333,37.843611111111116],[-109.00777777777778,37.859722222222224],[-109.1538888888889,37.87388888888889],[-109.34027777777777,37.891666666666666],[-109.50666666666666,37.90694444444444],[-109.84444444444443,37.937777777777775],[-110.0125,37.9525],[-110.16222222222223,37.96555555555556],[-110.66277777777778,38.007777777777775],[-110.82638888888889,38.02111111111111],[-111.00555555555556,38.03527777777778],[-111.16833333333334,38.04805555555556],[-111.33222222222221,38.06055555555555],[-111.49361111111111,38.07277777777778],[-111.655,38.084722222222226],[-111.97888888888889,38.10805555555556],[-112.14055555555557,38.119166666666665],[-112.46138888888889,38.14083333333333],[-112.62416666666665,38.151666666666664],[-112.785,38.161944444444444],[-112.94638888888889,38.17222222222222],[-113.11,38.18194444444444],[-113.27222222222223,38.19166666666666],[-113.43444444444445,38.20138888888889],[-113.59583333333333,38.21083333333333],[-113.75583333333333,38.21944444444445],[-113.91777777777779,38.22833333333333],[-114.07694444444444,38.23694444444445],[-114.23444444444445,38.245],[-114.39416666666668,38.253055555555555],[-114.5525,38.26083333333333],[-114.71111111111111,38.26833333333333],[-114.87055555555555,38.27583333333333],[-115.03277777777778,38.283055555555556],[-115.19333333333334,38.29],[-115.35333333333332,38.29666666666667],[-115.51777777777778,38.30361111111111],[-115.67694444444444,38.30972222222222],[-115.70583333333333,38.31055555555555],[-115.83222222222221,38.315555555555555],[-115.86083333333333,38.31666666666667],[-115.98944444444444,38.32138888888889],[-116.02305555555556,38.322500000000005],[-116.14694444444446,38.32694444444445],[-116.30277777777778,38.33166666666667],[-116.45416666666667,38.312777777777775],[-116.60333333333332,38.2875],[-116.63333333333334,38.282222222222224],[-116.74861111111112,38.2625],[-116.78138888888888,38.25694444444444],[-116.89583333333334,38.23694444444445],[-117.04138888888889,38.211666666666666],[-117.07333333333332,38.20611111111111],[-117.18222222222222,38.18694444444444],[-117.20416666666667,38.183055555555555],[-117.32527777777777,38.16166666666666],[-117.34638888888888,38.157777777777774],[-117.46666666666667,38.13611111111111],[-117.48861111111111,38.132222222222225],[-117.63,38.10666666666667],[-117.73833333333333,38.08722222222222],[-117.78138888888888,38.07944444444445],[-117.88111111111111,38.06111111111111],[-117.92,38.053888888888885],[-118.02166666666666,38.03527777777778],[-118.05833333333334,38.02833333333333],[-118.16444444444446,38.00888888888889],[-118.19222222222223,38.00361111111111],[-118.33388888888888,37.977222222222224],[-118.4475,37.95611111111111],[-118.47722222222222,37.95027777777778],[-118.61833333333333,37.92361111111111],[-118.75833333333334,37.89694444444444],[-118.89361111111111,37.88111111111111],[-119.03694444444444,37.86472222222223],[-119.17972222222222,37.84805555555556],[-119.31833333333333,37.831944444444446],[-119.4625,37.81472222222222],[-119.60666666666665,37.797777777777775],[-119.89472222222223,37.76277777777778],[-120.04055555555556,37.74472222222222],[-120.18722222222223,37.72666666666667],[-120.33055555555555,37.708333333333336],[-120.4786111111111,37.69027777777777],[-120.6,37.68333333333333],[-120.62416666666665,37.67388888888889],[-120.76444444444445,37.657222222222224],[-120.89833333333334,37.64083333333333],[-121.03055555555555,37.62416666666667],[-121.15666666666667,37.606944444444444],[-121.2825,37.59027777777778],[-121.39055555555557,37.57833333333333],[-121.5,37.56666666666667],[-121.6061111111111,37.55305555555555],[-121.70527777777778,37.5425],[-121.7925,37.55583333333333],[-121.83027777777778,37.4975],[-121.89083333333333,37.459722222222226],[-121.97166666666666,37.45333333333333],[-122.04444444444444,37.481388888888894],[-122.11472222222221,37.51138888888889],[-122.18333333333334,37.53333333333333],[-122.23333333333333,37.56666666666667],[-122.23083333333334,37.56055555555555],[-122.28361111111111,37.5825],[-122.33333333333333,37.6]],"type":"LineString"}
}
