{
  "id": 2031956079,
  "type": "Feature",
  "properties": {
    "geom:area": 0,
    "geom:bbox": "-123.480350,36.969100,-122.120030,37.614770",
    "geom:latitude": 37.29197666082948,
    "geom:longitude": -122.70646063803984,
    "src:alt_label": "swim-approach",
    "src:geom": "swim",
    "swim:elevations": [
      6418,
      6231,
      5687,
      5479,
      5064,
      4848,
      4703,
      4343,
      4004,
      3840,
      3222,
      3111,
      3049,
      3048,
      2990,
      2958,
      2712,
      2542,
      2438,
      2438,
      2438,
      2438,
      2378,
      2223,
      2152,
      1922,
      1883,
      1823,
      1724,
      1612,
      1465,
      1328,
      1126,
      1097,
      1090,
      1080,
      982,
      854,
      754,
      658,
      521,
      410,
      294,
      260,
      176,
      89,
      0
    ],
    "swim:geom": "approach",
    "swim:timestamps": [
      1784955947,
      1784955965,
      1784956013,
      1784956031,
      1784956067,
      1784956085,
      1784956097,
      1784956127,
      1784956157,
      1784956172,
      1784956220,
      1784956232,
      1784956256,
      1784956271,
      1784956301,
      1784956328,
      1784956370,
      1784956397,
      1784956437,
      1784956461,
      1784956488,
      1784956506,
      1784956550,
      1784956583,
      1784956598,
      1784956643,
      1784956652,
      1784956661,
      1784956676,
      1784956706,
      1784956737,
      1784956764,
      1784956795,
      1784956802,
      1784956808,
      1784956811,
      1784956826,
      1784956853,
      1784956880,
      1784956907,
      1784956941,
      1784956969,
      1784957003,
      1784957012,
      1784957036,
      1784957057,
      1784957081
    ],
    "wof:geomhash": "a76374c7f9eb662d13b71aa5ca73ad41",
    "wof:id": 2031956079,
    "wof:repo": "sfomuseum-data-flights-2026-07"
  },
  "bbox": [
    -123.48035,
    36.9691,
    -122.12003,
    37.61477
  ],
  "geometry": {"coordinates":[[-123.48035,36.9691],[-123.43995,36.98747],[-123.33489,37.0387],[-123.29547,37.0571],[-123.21776,37.09333],[-123.17929,37.11117],[-123.15386,37.12301],[-123.09096,37.15216],[-123.02898,37.18095],[-122.99838,37.19521],[-122.9016,37.23998],[-122.87733,37.25042],[-122.8271,37.26573],[-122.79599,37.27302],[-122.73825,37.28671],[-122.69126,37.2978],[-122.62018,37.31427],[-122.57593,37.32446],[-122.51147,37.3396],[-122.47257,37.34868],[-122.42875,37.35869],[-122.40032,37.36518],[-122.3329,37.38065],[-122.28577,37.39146],[-122.2646,37.39634],[-122.20237,37.41053],[-122.19013,37.4133],[-122.17789,37.41603],[-122.15828,37.42243],[-122.13626,37.44898],[-122.12003,37.47781],[-122.12618,37.50135],[-122.14725,37.52338],[-122.153,37.52677],[-122.15763,37.52905],[-122.16034,37.53028],[-122.17351,37.53629],[-122.19575,37.5457],[-122.2168,37.55447],[-122.2361,37.5626],[-122.26091,37.57303],[-122.28086,37.58148],[-122.30449,37.59145],[-122.31087,37.59409],[-122.32819,37.60149],[-122.34357,37.60794],[-122.36123,37.61477]],"type":"LineString"}
}
