{
  "id": 2032008857,
  "type": "Feature",
  "properties": {
    "geom:area": 0,
    "geom:bbox": "-120.994444,33.953889,-118.216667,36.330000",
    "geom:latitude": 35.01169713978154,
    "geom:longitude": -119.57128313817663,
    "src:alt_label": "swim-path",
    "src:geom": "swim",
    "swim:altitudes": [
      "299",
      "308",
      "321",
      "320",
      "332",
      "340",
      "350C",
      "350C",
      "350C",
      "350",
      "350",
      "350",
      "350",
      "350",
      "347",
      "347",
      "332",
      "325",
      "297",
      "273",
      "269",
      "255",
      "253",
      "237",
      "214",
      "194",
      "174",
      "158",
      "155",
      "137",
      "135",
      "125",
      "125",
      "112",
      "110",
      "100",
      "097",
      "084",
      "077",
      "069",
      "068",
      "054",
      "044",
      "043",
      "032",
      "031",
      "020",
      "011",
      "005"
    ],
    "swim:geom": "path",
    "swim:speeds": [
      478,
      478,
      477,
      477,
      473,
      472,
      465,
      465,
      462,
      464,
      466,
      466,
      465,
      463,
      462,
      462,
      463,
      465,
      470,
      461,
      457,
      436,
      427,
      411,
      400,
      389,
      378,
      364,
      365,
      357,
      361,
      334,
      336,
      321,
      324,
      301,
      303,
      290,
      282,
      247,
      250,
      242,
      238,
      240,
      225,
      229,
      193,
      138,
      133
    ],
    "swim:timestamps": [
      1785295878,
      1785295938,
      1785295998,
      1785296004,
      1785296064,
      1785296118,
      1785296238,
      1785296244,
      1785296298,
      1785296364,
      1785296424,
      1785296478,
      1785296485,
      1785296545,
      1785296598,
      1785296605,
      1785296658,
      1785296665,
      1785296719,
      1785296779,
      1785296785,
      1785296839,
      1785296845,
      1785296899,
      1785296965,
      1785297025,
      1785297085,
      1785297124,
      1785297146,
      1785297193,
      1785297206,
      1785297253,
      1785297266,
      1785297307,
      1785297326,
      1785297367,
      1785297386,
      1785297446,
      1785297506,
      1785297553,
      1785297566,
      1785297626,
      1785297673,
      1785297686,
      1785297733,
      1785297746,
      1785297806,
      1785297867,
      1785297927
    ],
    "wof:geomhash": "06bdf6b85a0c4f900e0cfe808a05b3fb",
    "wof:id": 2032008857,
    "wof:repo": "sfomuseum-data-flights-2026-07"
  },
  "bbox": [
    -120.99444444444444,
    33.95388888888889,
    -118.21666666666667,
    36.330000000000005
  ],
  "geometry": {"coordinates":[[-120.99444444444444,36.330000000000005],[-120.88388888888889,36.233333333333334],[-120.77194444444444,36.13527777777778],[-120.77555555555556,36.138333333333335],[-120.66583333333334,36.04138888888889],[-120.55444444444444,35.94305555555555],[-120.33777777777777,35.75055555555556],[-120.34166666666667,35.75416666666667],[-120.23055555555555,35.65472222222222],[-120.1236111111111,35.55888888888889],[-120.01666666666667,35.462500000000006],[-119.92805555555556,35.382777777777775],[-119.90916666666668,35.365833333333335],[-119.80555555555556,35.26916666666666],[-119.71888888888888,35.17611111111111],[-119.70944444444444,35.16611111111111],[-119.63083333333333,35.08166666666667],[-119.61305555555555,35.0625],[-119.53305555555555,34.97638888888889],[-119.43833333333333,34.87361111111111],[-119.42333333333333,34.85638888888889],[-119.35055555555554,34.77472222222222],[-119.33638888888889,34.75888888888889],[-119.26861111111111,34.681666666666665],[-119.18305555555555,34.58305555555556],[-119.10583333333332,34.49527777777778],[-119.03166666666667,34.41111111111111],[-118.96666666666667,34.35],[-118.96000000000001,34.32805555555556],[-118.9,34.25],[-118.88777777777779,34.24916666666667],[-118.81666666666666,34.18333333333333],[-118.8175,34.172777777777775],[-118.75,34.11666666666667],[-118.74638888888889,34.10638888888889],[-118.68333333333334,34.05],[-118.67694444444444,34.0425],[-118.58361111111111,34.022777777777776],[-118.49083333333333,34.01361111111111],[-118.41666666666667,34.016666666666666],[-118.40666666666667,34.019444444444446],[-118.32694444444444,34.03055555555555],[-118.25,34.03333333333333],[-118.24861111111112,34.03638888888889],[-118.21666666666667,33.983333333333334],[-118.22972222222222,33.98444444444444],[-118.28861111111111,33.96388888888889],[-118.3411111111111,33.958333333333336],[-118.38472222222222,33.95388888888889]],"type":"LineString"}
}
