{
  "id": 2032049751,
  "type": "Feature",
  "properties": {
    "geom:area": 0,
    "geom:bbox": "-123.501650,37.263070,-122.071130,37.614260",
    "geom:latitude": 37.38928581863215,
    "geom:longitude": -122.67773615845806,
    "src:alt_label": "swim-approach",
    "src:geom": "swim",
    "swim:elevations": [
      5383,
      5134,
      4857,
      4484,
      4374,
      4015,
      3656,
      3579,
      3263,
      3222,
      3050,
      3048,
      3048,
      3048,
      3048,
      3048,
      3018,
      2985,
      2654,
      2613,
      2552,
      2519,
      2466,
      2378,
      2171,
      1980,
      1773,
      1667,
      1618,
      1480,
      1289,
      1176,
      985,
      860,
      687,
      606,
      588,
      521,
      349,
      234,
      166,
      0
    ],
    "swim:geom": "approach",
    "swim:timestamps": [
      1785564238,
      1785564262,
      1785564290,
      1785564328,
      1785564340,
      1785564377,
      1785564415,
      1785564424,
      1785564467,
      1785564485,
      1785564533,
      1785564551,
      1785564593,
      1785564623,
      1785564653,
      1785564686,
      1785564712,
      1785564721,
      1785564776,
      1785564798,
      1785564837,
      1785564858,
      1785564890,
      1785564916,
      1785564957,
      1785564987,
      1785565017,
      1785565042,
      1785565048,
      1785565067,
      1785565094,
      1785565131,
      1785565167,
      1785565190,
      1785565219,
      1785565235,
      1785565238,
      1785565253,
      1785565286,
      1785565316,
      1785565331,
      1785565367
    ],
    "wof:geomhash": "012a82c770b777959259c0f0fc44abd0",
    "wof:id": 2032049751,
    "wof:repo": "sfomuseum-data-flights-2026-07"
  },
  "bbox": [
    -123.50165,
    37.26307,
    -122.07113,
    37.61426
  ],
  "geometry": {"coordinates":[[-123.50165,37.45409],[-123.44982,37.43823],[-123.39021,37.42015],[-123.30831,37.39504],[-123.28284,37.38733],[-123.20481,37.36334],[-123.12452,37.33852],[-123.10609,37.33283],[-123.01801,37.30554],[-122.98418,37.29517],[-122.89578,37.26783],[-122.86281,37.26307],[-122.78851,37.27486],[-122.73703,37.28688],[-122.68583,37.29921],[-122.62983,37.31239],[-122.58504,37.32267],[-122.57018,37.3261],[-122.4813,37.34642],[-122.4452,37.35482],[-122.38199,37.36936],[-122.34836,37.37713],[-122.29797,37.38868],[-122.25742,37.39795],[-122.19553,37.41209],[-122.15052,37.42241],[-122.106,37.43253],[-122.07639,37.44697],[-122.07249,37.45249],[-122.07113,37.47135],[-122.08992,37.4947],[-122.12913,37.51736],[-122.17041,37.5349],[-122.1958,37.54561],[-122.22831,37.55937],[-122.24522,37.56647],[-122.24823,37.56776],[-122.26277,37.57386],[-122.29358,37.58677],[-122.31875,37.59734],[-122.33075,37.60243],[-122.35887,37.61426]],"type":"LineString"}
}
