{
  "id": 2031964987,
  "type": "Feature",
  "properties": {
    "geom:area": 0,
    "geom:bbox": "-123.501990,36.967380,-122.092930,37.614940",
    "geom:latitude": 37.293259696352564,
    "geom:longitude": -122.69908025814918,
    "src:alt_label": "swim-approach",
    "src:geom": "swim",
    "swim:elevations": [
      5556,
      5477,
      5078,
      5008,
      4973,
      4906,
      4593,
      4396,
      4182,
      4068,
      3933,
      3611,
      3569,
      3524,
      3479,
      3076,
      3047,
      3048,
      3048,
      2989,
      2893,
      2837,
      2806,
      2742,
      2719,
      2683,
      2684,
      2653,
      2641,
      2556,
      2522,
      2472,
      2399,
      2256,
      2122,
      2103,
      2096,
      1873,
      1840,
      1626,
      1505,
      1433,
      1397,
      1249,
      1217,
      1177,
      1116,
      1093,
      1045,
      815,
      672,
      545,
      426,
      326,
      272,
      212,
      86,
      194
    ],
    "swim:geom": "approach",
    "swim:timestamps": [
      1785047303,
      1785047312,
      1785047355,
      1785047364,
      1785047370,
      1785047376,
      1785047410,
      1785047431,
      1785047454,
      1785047466,
      1785047482,
      1785047518,
      1785047521,
      1785047524,
      1785047527,
      1785047569,
      1785047583,
      1785047617,
      1785047640,
      1785047674,
      1785047726,
      1785047756,
      1785047771,
      1785047802,
      1785047816,
      1785047834,
      1785047843,
      1785047860,
      1785047863,
      1785047905,
      1785047932,
      1785047949,
      1785047987,
      1785048006,
      1785048018,
      1785048027,
      1785048030,
      1785048057,
      1785048062,
      1785048105,
      1785048127,
      1785048145,
      1785048151,
      1785048176,
      1785048182,
      1785048190,
      1785048199,
      1785048205,
      1785048214,
      1785048260,
      1785048290,
      1785048318,
      1785048351,
      1785048376,
      1785048390,
      1785048409,
      1785048442,
      1785048465
    ],
    "wof:geomhash": "b3d2bd7e39ca382cd64c9f92b793a53d",
    "wof:id": 2031964987,
    "wof:repo": "sfomuseum-data-flights-2026-07"
  },
  "bbox": [
    -123.50199,
    36.96738,
    -122.09293,
    37.61494
  ],
  "geometry": {"coordinates":[[-123.50199,36.96738],[-123.48311,36.97628],[-123.39374,37.01681],[-123.37506,37.02558],[-123.36346,37.03093],[-123.35148,37.03642],[-123.284,37.0672],[-123.24224,37.08621],[-123.19681,37.10684],[-123.17349,37.11749],[-123.1423,37.13162],[-123.07393,37.16264],[-123.06823,37.16522],[-123.06257,37.16779],[-123.05688,37.17035],[-122.97739,37.20619],[-122.9503,37.21849],[-122.89041,37.24545],[-122.85167,37.25968],[-122.79394,37.27422],[-122.70299,37.29507],[-122.65036,37.30725],[-122.62453,37.31325],[-122.57083,37.32571],[-122.54801,37.33103],[-122.5165,37.33835],[-122.50005,37.34217],[-122.47113,37.34883],[-122.46601,37.35002],[-122.39418,37.36657],[-122.34776,37.37721],[-122.31947,37.38372],[-122.25801,37.39686],[-122.22742,37.39383],[-122.20864,37.39604],[-122.19506,37.39979],[-122.19071,37.40115],[-122.1514,37.4126],[-122.14488,37.4142],[-122.102,37.44741],[-122.09293,37.47042],[-122.10018,37.48787],[-122.10511,37.49255],[-122.12742,37.51079],[-122.13273,37.51502],[-122.13985,37.52051],[-122.149,37.52547],[-122.15533,37.52834],[-122.16484,37.53241],[-122.20999,37.55158],[-122.23722,37.56312],[-122.2612,37.57316],[-122.2853,37.58329],[-122.30231,37.59052],[-122.3116,37.59437],[-122.32493,37.59998],[-122.34751,37.6095],[-122.36244,37.61494]],"type":"LineString"}
}
