{
  "id": 2032049361,
  "type": "Feature",
  "properties": {
    "geom:area": 0,
    "geom:bbox": "-122.344080,36.761130,-121.899470,37.608060",
    "geom:latitude": 37.24461574453512,
    "geom:longitude": -122.0832447947478,
    "src:alt_label": "swim-approach",
    "src:geom": "swim",
    "swim:elevations": [
      5359,
      5162,
      4952,
      4775,
      4521,
      4208,
      3982,
      3680,
      3432,
      3322,
      2995,
      2827,
      2536,
      2439,
      2417,
      2257,
      2085,
      1917,
      1857,
      1808,
      1579,
      1481,
      1293,
      1220,
      1219,
      1213,
      979,
      871,
      772,
      695,
      555,
      480,
      344,
      342,
      165,
      91
    ],
    "swim:geom": "approach",
    "swim:timestamps": [
      1785493347,
      1785493371,
      1785493395,
      1785493417,
      1785493449,
      1785493486,
      1785493509,
      1785493549,
      1785493580,
      1785493597,
      1785493646,
      1785493668,
      1785493705,
      1785493731,
      1785493757,
      1785493789,
      1785493816,
      1785493858,
      1785493882,
      1785493890,
      1785493941,
      1785493975,
      1785494006,
      1785494030,
      1785494040,
      1785494049,
      1785494098,
      1785494120,
      1785494138,
      1785494145,
      1785494184,
      1785494203,
      1785494242,
      1785494258,
      1785494290,
      1785494312
    ],
    "wof:geomhash": "280c21f6ee2f2630bd5a9cf94fc9eeb7",
    "wof:id": 2032049361,
    "wof:repo": "sfomuseum-data-flights-2026-07"
  },
  "bbox": [
    -122.34408,
    36.76113,
    -121.89947,
    37.60806
  ],
  "geometry": {"coordinates":[[-121.89947,36.76113],[-121.90958,36.79722],[-121.91967,36.83331],[-121.92868,36.86564],[-121.94175,36.91203],[-121.95795,36.96487],[-121.97049,36.99711],[-121.99203,37.05203],[-122.00866,37.09463],[-122.01716,37.11699],[-122.04125,37.17637],[-122.06145,37.19682],[-122.09948,37.23037],[-122.12464,37.25293],[-122.15031,37.27577],[-122.1793,37.30181],[-122.18639,37.33081],[-122.14146,37.35995],[-122.12088,37.3798],[-122.11612,37.38713],[-122.08571,37.43265],[-122.08098,37.46161],[-122.08921,37.48979],[-122.10368,37.50635],[-122.11335,37.51104],[-122.122,37.51478],[-122.16984,37.53473],[-122.19185,37.54404],[-122.20977,37.55148],[-122.21652,37.55409],[-122.25216,37.56942],[-122.26864,37.57632],[-122.29642,37.58793],[-122.30786,37.59273],[-122.33001,37.60209],[-122.34408,37.60806]],"type":"LineString"}
}
