{
  "id": 2031996117,
  "type": "Feature",
  "properties": {
    "geom:area": 0,
    "geom:bbox": "-122.534290,36.776110,-121.512850,37.669000",
    "geom:latitude": 37.232689395457214,
    "geom:longitude": -122.09741243319988,
    "src:alt_label": "swim-takeoff",
    "src:geom": "swim",
    "swim:elevations": [
      520,
      1023,
      1151,
      1505,
      1797,
      3267,
      3468,
      3513,
      4048,
      4237,
      4332,
      4483,
      4797,
      4913,
      5618,
      5895,
      6220,
      6336,
      6590,
      7091,
      7577,
      7891,
      7920,
      8124,
      8325
    ],
    "swim:geom": "takeoff",
    "swim:timestamps": [
      1785180617,
      1785180656,
      1785180679,
      1785180712,
      1785180733,
      1785180834,
      1785180868,
      1785180871,
      1785180916,
      1785180931,
      1785180954,
      1785180971,
      1785181001,
      1785181012,
      1785181075,
      1785181102,
      1785181134,
      1785181146,
      1785181172,
      1785181234,
      1785181295,
      1785181333,
      1785181336,
      1785181363,
      1785181392
    ],
    "wof:geomhash": "5f202fbb3295d930e79673919b7799b7",
    "wof:id": 2031996117,
    "wof:repo": "sfomuseum-data-flights-2026-07"
  },
  "bbox": [
    -122.53429,
    36.77611,
    -121.51285,
    37.669
  ],
  "geometry": {"coordinates":[[-122.40791,37.63343],[-122.44033,37.64649],[-122.46338,37.65651],[-122.5048,37.669],[-122.53429,37.6607],[-122.50493,37.54045],[-122.47432,37.49514],[-122.46986,37.49047],[-122.40458,37.43829],[-122.3816,37.42105],[-122.34339,37.39265],[-122.31438,37.3713],[-122.26125,37.33229],[-122.24268,37.31865],[-122.12894,37.23494],[-122.07873,37.19783],[-122.01942,37.15389],[-121.99734,37.13743],[-121.94951,37.10173],[-121.82984,37.01241],[-121.70957,36.92225],[-121.63056,36.86517],[-121.6246,36.86067],[-121.57187,36.82105],[-121.51285,36.77611]],"type":"LineString"}
}
