{
  "id": 2031955165,
  "type": "Feature",
  "properties": {
    "geom:area": 0,
    "geom:bbox": "-122.760000,37.256389,-73.559167,43.971389",
    "geom:latitude": 42.20256597574979,
    "geom:longitude": -99.1163718453896,
    "src:alt_label": "swim-path",
    "src:geom": "swim",
    "swim:altitudes": [
      "007",
      "019",
      "021",
      "027",
      "040",
      "054",
      "063",
      "073",
      "083",
      "097",
      "104",
      "110",
      "113",
      "124",
      "139",
      "155",
      "169",
      "179",
      "192",
      "205",
      "217",
      "229",
      "237",
      "248",
      "256",
      "263",
      "271",
      "282",
      "290",
      "297",
      "305",
      "314",
      "320C",
      "320C",
      "320C",
      "320C",
      "320C",
      "320C",
      "320C",
      "320C",
      "320C",
      "320C",
      "320C",
      "320C",
      "320C",
      "320C",
      "320C",
      "320C",
      "320C",
      "320C",
      "320C",
      "320C",
      "320C",
      "320C",
      "320C",
      "320C",
      "320C",
      "320C",
      "320C",
      "320C",
      "320C",
      "320C",
      "320C",
      "320C",
      "320C",
      "320C",
      "320C",
      "320C",
      "320C",
      "320C",
      "320C",
      "320C",
      "320C",
      "320C",
      "320C",
      "320C",
      "320C",
      "320C",
      "320C",
      "320C",
      "320C",
      "321C",
      "321C",
      "321C",
      "320C",
      "320C",
      "320C",
      "320C",
      "320C",
      "320C",
      "320C",
      "320C",
      "320C",
      "320C",
      "320C",
      "320C",
      "320C",
      "320C",
      "320C",
      "320C",
      "320C",
      "320C",
      "320C",
      "320C",
      "320C",
      "320C",
      "320C",
      "320C",
      "320C",
      "320C",
      "320C",
      "320C",
      "320C",
      "320C",
      "320C",
      "320C",
      "320C",
      "320C",
      "320C",
      "320C",
      "320C",
      "320C",
      "320C",
      "320C",
      "321C",
      "321C",
      "320C",
      "320C",
      "320C",
      "320C",
      "320C",
      "320C",
      "320C",
      "320",
      "320",
      "322",
      "327",
      "335",
      "340C",
      "340C",
      "340C",
      "340C",
      "340C",
      "340C",
      "340C",
      "340C",
      "340C",
      "340C",
      "340C",
      "340C",
      "340C",
      "340C",
      "340C",
      "340C",
      "340C",
      "340C",
      "340C",
      "340C",
      "340C",
      "340C",
      "340C",
      "340C",
      "340C",
      "340C",
      "340C",
      "340C",
      "340C",
      "340C",
      "340C",
      "340C",
      "340C",
      "340C",
      "340C",
      "340C",
      "340C",
      "340C",
      "340C",
      "340C",
      "340C",
      "340C",
      "340C",
      "340C",
      "340C",
      "341C",
      "340C",
      "340C",
      "340C",
      "340C",
      "340C",
      "340C",
      "340C",
      "340C",
      "340C",
      "340C",
      "340C",
      "340C",
      "340C",
      "340C",
      "340C",
      "340C",
      "340C",
      "340C",
      "340C",
      "340C",
      "340C",
      "340C",
      "340C",
      "340C",
      "340C",
      "340C",
      "340C",
      "340C",
      "340C",
      "340C",
      "340C",
      "340C",
      "340C",
      "340C",
      "340C",
      "340C",
      "340C",
      "340C",
      "340C",
      "340C",
      "340C",
      "340C",
      "340C",
      "340C",
      "340C",
      "340C",
      "340C",
      "340C",
      "340C",
      "340C",
      "340C",
      "340C",
      "340C",
      "341C",
      "340C",
      "340C",
      "340C",
      "340C",
      "340C",
      "340C",
      "340C",
      "340C",
      "340C",
      "340C",
      "340C",
      "340C",
      "340C",
      "340C",
      "340C",
      "340C",
      "341C",
      "340C",
      "340C",
      "340C",
      "340C",
      "340C",
      "340C",
      "340C",
      "340C",
      "341C",
      "341C",
      "340C",
      "340C",
      "340C",
      "340C",
      "340C",
      "340C",
      "340C",
      "340C",
      "340C",
      "340C",
      "340C",
      "340C",
      "340C",
      "340C",
      "340C",
      "340C",
      "340C",
      "340C",
      "340C",
      "340C",
      "340C",
      "340C",
      "340C",
      "340C",
      "340C",
      "340C",
      "340C",
      "340C",
      "340C",
      "340C",
      "340C",
      "340C",
      "340C",
      "340C",
      "340C",
      "340C",
      "340C",
      "340C",
      "340C",
      "340C",
      "340C",
      "340C",
      "340C",
      "340C",
      "340C",
      "340C",
      "340C",
      "340C",
      "340C",
      "340C",
      "340C",
      "340C",
      "340C",
      "340C",
      "340C",
      "340C",
      "340C",
      "340C",
      "340C",
      "340C",
      "340C",
      "340C",
      "340C",
      "340C",
      "340C",
      "340C",
      "340C",
      "340C",
      "340C",
      "340C",
      "340C",
      "340C",
      "340C",
      "339C",
      "340C",
      "340C",
      "340C",
      "340C",
      "340C",
      "340C",
      "340C",
      "340C",
      "340C",
      "340C",
      "340C",
      "340C",
      "340C",
      "340C",
      "340C",
      "340C",
      "340C",
      "340C",
      "340C",
      "340C",
      "340C",
      "340C",
      "340C",
      "340C",
      "340C",
      "340C",
      "340C",
      "340C",
      "341C",
      "340C",
      "340C",
      "340C",
      "340C",
      "340C",
      "340C",
      "340C",
      "340C",
      "340C",
      "340C",
      "340C",
      "340C",
      "340",
      "338",
      "328",
      "318",
      "308",
      "297",
      "287",
      "277",
      "267",
      "257",
      "241",
      "221",
      "214",
      "202",
      "195",
      "165",
      "158",
      "148",
      "140",
      "130",
      "112",
      "110C",
      "110C",
      "110",
      "109C",
      "106",
      "097",
      "088",
      "080",
      "079",
      "070",
      "067",
      "060",
      "060",
      "060",
      "052",
      "048",
      "043",
      "041",
      "040",
      "039",
      "032",
      "030",
      "028",
      "020",
      "018",
      "014",
      "011",
      "007",
      "005",
      "110"
    ],
    "swim:geom": "path",
    "swim:speeds": [
      179,
      214,
      225,
      254,
      253,
      257,
      259,
      280,
      279,
      282,
      281,
      308,
      322,
      352,
      367,
      377,
      383,
      385,
      391,
      397,
      402,
      408,
      413,
      416,
      420,
      427,
      420,
      430,
      430,
      428,
      427,
      423,
      418,
      418,
      418,
      418,
      419,
      420,
      419,
      418,
      416,
      414,
      412,
      410,
      407,
      405,
      405,
      404,
      403,
      403,
      403,
      402,
      402,
      402,
      401,
      401,
      403,
      406,
      406,
      407,
      407,
      406,
      406,
      406,
      407,
      408,
      410,
      411,
      413,
      414,
      416,
      417,
      417,
      417,
      417,
      417,
      417,
      418,
      419,
      420,
      421,
      422,
      423,
      423,
      423,
      422,
      421,
      420,
      419,
      418,
      417,
      417,
      416,
      416,
      416,
      415,
      414,
      414,
      415,
      415,
      415,
      415,
      415,
      414,
      412,
      412,
      412,
      412,
      412,
      413,
      413,
      413,
      413,
      413,
      413,
      413,
      414,
      414,
      414,
      414,
      414,
      414,
      415,
      416,
      418,
      421,
      419,
      416,
      415,
      414,
      413,
      413,
      413,
      414,
      415,
      415,
      416,
      413,
      411,
      410,
      411,
      412,
      412,
      412,
      413,
      413,
      414,
      414,
      415,
      415,
      416,
      417,
      418,
      419,
      418,
      417,
      415,
      413,
      414,
      415,
      415,
      416,
      416,
      417,
      417,
      419,
      420,
      422,
      424,
      425,
      426,
      427,
      427,
      427,
      429,
      429,
      428,
      428,
      429,
      428,
      428,
      427,
      427,
      426,
      425,
      423,
      423,
      423,
      422,
      423,
      424,
      424,
      424,
      425,
      423,
      423,
      423,
      423,
      422,
      425,
      422,
      422,
      422,
      422,
      422,
      422,
      422,
      422,
      422,
      422,
      421,
      422,
      419,
      418,
      417,
      418,
      417,
      417,
      417,
      417,
      418,
      418,
      418,
      417,
      417,
      417,
      415,
      414,
      412,
      412,
      411,
      410,
      411,
      412,
      413,
      413,
      414,
      414,
      413,
      412,
      410,
      409,
      409,
      409,
      410,
      410,
      410,
      412,
      410,
      410,
      410,
      410,
      411,
      414,
      418,
      418,
      417,
      414,
      414,
      414,
      413,
      414,
      415,
      418,
      419,
      420,
      420,
      420,
      420,
      418,
      416,
      415,
      415,
      415,
      416,
      417,
      421,
      423,
      424,
      425,
      424,
      422,
      420,
      420,
      419,
      419,
      418,
      417,
      415,
      414,
      414,
      414,
      415,
      417,
      417,
      418,
      418,
      419,
      419,
      418,
      418,
      418,
      418,
      419,
      419,
      420,
      419,
      418,
      418,
      418,
      418,
      419,
      419,
      419,
      419,
      419,
      419,
      418,
      419,
      418,
      418,
      417,
      416,
      415,
      416,
      414,
      415,
      414,
      414,
      415,
      415,
      415,
      415,
      415,
      415,
      415,
      415,
      415,
      415,
      414,
      414,
      414,
      414,
      414,
      414,
      414,
      414,
      414,
      415,
      415,
      415,
      414,
      414,
      413,
      413,
      413,
      412,
      412,
      412,
      412,
      412,
      412,
      412,
      412,
      412,
      412,
      424,
      438,
      439,
      439,
      438,
      435,
      416,
      414,
      414,
      414,
      395,
      392,
      389,
      389,
      389,
      389,
      389,
      388,
      386,
      383,
      380,
      372,
      367,
      362,
      359,
      363,
      357,
      357,
      359,
      348,
      340,
      340,
      337,
      338,
      307,
      290,
      249,
      242,
      243,
      235,
      238,
      236,
      235,
      233,
      234,
      233,
      240,
      238,
      240,
      206,
      207,
      182,
      182,
      176,
      177,
      164,
      168,
      167,
      152,
      147,
      137,
      140,
      134,
      137,
      131
    ],
    "swim:timestamps": [
      1784887673,
      1784887727,
      1784887747,
      1784887775,
      1784887807,
      1784887841,
      1784887867,
      1784887901,
      1784887927,
      1784887967,
      1784887987,
      1784888021,
      1784888047,
      1784888107,
      1784888167,
      1784888228,
      1784888288,
      1784888348,
      1784888408,
      1784888468,
      1784888528,
      1784888588,
      1784888648,
      1784888708,
      1784888768,
      1784888828,
      1784888888,
      1784888948,
      1784889009,
      1784889069,
      1784889128,
      1784889189,
      1784889249,
      1784889308,
      1784889369,
      1784889429,
      1784889489,
      1784889549,
      1784889609,
      1784889669,
      1784889730,
      1784889789,
      1784889850,
      1784889909,
      1784889970,
      1784890089,
      1784890149,
      1784890209,
      1784890270,
      1784890330,
      1784890390,
      1784890450,
      1784890510,
      1784890570,
      1784890630,
      1784890690,
      1784890750,
      1784890870,
      1784890930,
      1784890990,
      1784891051,
      1784891111,
      1784891171,
      1784891231,
      1784891291,
      1784891351,
      1784891471,
      1784891531,
      1784891591,
      1784891651,
      1784891711,
      1784891771,
      1784891831,
      1784891892,
      1784892012,
      1784892044,
      1784892072,
      1784892104,
      1784892132,
      1784892164,
      1784892192,
      1784892224,
      1784892252,
      1784892284,
      1784892312,
      1784892344,
      1784892372,
      1784892404,
      1784892432,
      1784892465,
      1784892492,
      1784892525,
      1784892552,
      1784892585,
      1784892612,
      1784892645,
      1784892673,
      1784892705,
      1784892733,
      1784892765,
      1784892793,
      1784892825,
      1784892853,
      1784892885,
      1784892945,
      1784892973,
      1784893005,
      1784893033,
      1784893093,
      1784893125,
      1784893153,
      1784893185,
      1784893213,
      1784893245,
      1784893306,
      1784893369,
      1784893426,
      1784893486,
      1784893546,
      1784893606,
      1784893666,
      1784893730,
      1784893846,
      1784893906,
      1784893966,
      1784894026,
      1784894087,
      1784894147,
      1784894207,
      1784894267,
      1784894327,
      1784894387,
      1784894447,
      1784894507,
      1784894567,
      1784894627,
      1784894687,
      1784894747,
      1784894808,
      1784894868,
      1784894988,
      1784895048,
      1784895108,
      1784895168,
      1784895228,
      1784895288,
      1784895348,
      1784895408,
      1784895468,
      1784895529,
      1784895589,
      1784895649,
      1784895709,
      1784895769,
      1784895829,
      1784895889,
      1784895949,
      1784896069,
      1784896190,
      1784896250,
      1784896310,
      1784896370,
      1784896430,
      1784896550,
      1784896610,
      1784896670,
      1784896730,
      1784896790,
      1784896850,
      1784896911,
      1784896971,
      1784897031,
      1784897091,
      1784897151,
      1784897271,
      1784897331,
      1784897391,
      1784897451,
      1784897511,
      1784897571,
      1784897632,
      1784897692,
      1784897752,
      1784897812,
      1784897872,
      1784897932,
      1784897973,
      1784897992,
      1784898033,
      1784898052,
      1784898112,
      1784898153,
      1784898172,
      1784898213,
      1784898232,
      1784898273,
      1784898292,
      1784898333,
      1784898353,
      1784898393,
      1784898413,
      1784898453,
      1784898513,
      1784898593,
      1784898633,
      1784898653,
      1784898693,
      1784898753,
      1784898773,
      1784898814,
      1784898833,
      1784898874,
      1784898934,
      1784898953,
      1784898994,
      1784899013,
      1784899054,
      1784899073,
      1784899114,
      1784899134,
      1784899174,
      1784899194,
      1784899234,
      1784899254,
      1784899294,
      1784899314,
      1784899354,
      1784899374,
      1784899414,
      1784899434,
      1784899474,
      1784899534,
      1784899554,
      1784899595,
      1784899655,
      1784899715,
      1784899775,
      1784899835,
      1784899895,
      1784899955,
      1784900015,
      1784900075,
      1784900135,
      1784900195,
      1784900255,
      1784900316,
      1784900376,
      1784900436,
      1784900496,
      1784900556,
      1784900616,
      1784900676,
      1784900736,
      1784900796,
      1784900856,
      1784900916,
      1784900976,
      1784901037,
      1784901097,
      1784901157,
      1784901217,
      1784901277,
      1784901337,
      1784901397,
      1784901457,
      1784901517,
      1784901577,
      1784901637,
      1784901697,
      1784901757,
      1784901818,
      1784901878,
      1784901938,
      1784901998,
      1784902058,
      1784902118,
      1784902238,
      1784902358,
      1784902418,
      1784902478,
      1784902539,
      1784902599,
      1784902659,
      1784902719,
      1784902779,
      1784902839,
      1784902899,
      1784902959,
      1784903019,
      1784903079,
      1784903139,
      1784903199,
      1784903259,
      1784903320,
      1784903380,
      1784903440,
      1784903500,
      1784903620,
      1784903680,
      1784903740,
      1784903800,
      1784903860,
      1784903920,
      1784903980,
      1784904041,
      1784904101,
      1784904161,
      1784904221,
      1784904281,
      1784904341,
      1784904390,
      1784904401,
      1784904450,
      1784904461,
      1784904521,
      1784904581,
      1784904630,
      1784904641,
      1784904691,
      1784904701,
      1784904751,
      1784904761,
      1784904822,
      1784904882,
      1784904931,
      1784904942,
      1784904991,
      1784905002,
      1784905062,
      1784905111,
      1784905122,
      1784905171,
      1784905182,
      1784905231,
      1784905242,
      1784905291,
      1784905302,
      1784905351,
      1784905362,
      1784905422,
      1784905472,
      1784905482,
      1784905532,
      1784905543,
      1784905592,
      1784905603,
      1784905652,
      1784905663,
      1784905712,
      1784905723,
      1784905772,
      1784905783,
      1784905832,
      1784905903,
      1784905952,
      1784905963,
      1784906023,
      1784906083,
      1784906132,
      1784906143,
      1784906192,
      1784906203,
      1784906263,
      1784906313,
      1784906373,
      1784906433,
      1784906493,
      1784906553,
      1784906613,
      1784906673,
      1784906733,
      1784906793,
      1784906853,
      1784906913,
      1784906973,
      1784907034,
      1784907094,
      1784907154,
      1784907274,
      1784907334,
      1784907394,
      1784907454,
      1784907514,
      1784907574,
      1784907634,
      1784907694,
      1784907755,
      1784907815,
      1784907875,
      1784907935,
      1784907995,
      1784908055,
      1784908071,
      1784908115,
      1784908131,
      1784908235,
      1784908251,
      1784908295,
      1784908311,
      1784908355,
      1784908431,
      1784908476,
      1784908536,
      1784908551,
      1784908596,
      1784908611,
      1784908656,
      1784908711,
      1784908776,
      1784908836,
      1784908875,
      1784908896,
      1784908935,
      1784908956,
      1784909016,
      1784909115,
      1784909136,
      1784909175,
      1784909197,
      1784909235,
      1784909257,
      1784909295,
      1784909317,
      1784909355,
      1784909415,
      1784909437,
      1784909475,
      1784909497,
      1784909535,
      1784909557,
      1784909617
    ],
    "wof:geomhash": "016fbd89795c37c56003d92e50e23988",
    "wof:id": 2031955165,
    "wof:repo": "sfomuseum-data-flights-2026-07"
  },
  "bbox": [
    -122.76,
    37.256388888888885,
    -73.55916666666667,
    43.97138888888889
  ],
  "geometry": {"coordinates":[[-73.78333333333333,40.61666666666667],[-73.8,40.583333333333336],[-73.775,40.56638888888889],[-73.73333333333333,40.56666666666667],[-73.69916666666667,40.59861111111111],[-73.66666666666667,40.63333333333333],[-73.63083333333333,40.64888888888889],[-73.58333333333333,40.68333333333333],[-73.55916666666667,40.70388888888889],[-73.56666666666666,40.75],[-73.56611111111111,40.779444444444444],[-73.58333333333333,40.833333333333336],[-73.58638888888889,40.86222222222222],[-73.66250000000001,40.93694444444444],[-73.76833333333333,40.99861111111111],[-73.8761111111111,41.06305555555555],[-74.00055555555555,41.10805555555556],[-74.13444444444445,41.14055555555556],[-74.27361111111111,41.17722222222222],[-74.41361111111112,41.21277777777778],[-74.55499999999999,41.24861111111111],[-74.70222222222222,41.28583333333333],[-74.82916666666667,41.316944444444445],[-74.97722222222222,41.353611111111114],[-75.12583333333333,41.38972222222222],[-75.275,41.42611111111111],[-75.43305555555555,41.46472222222223],[-75.58333333333333,41.50555555555555],[-75.72611111111111,41.54611111111111],[-75.8711111111111,41.587500000000006],[-76.02777777777777,41.63194444444444],[-76.19111111111111,41.677499999999995],[-76.33222222222221,41.717222222222226],[-76.46277777777777,41.75333333333333],[-76.60833333333333,41.79388888888889],[-76.75166666666667,41.833333333333336],[-76.89833333333334,41.87361111111111],[-77.04861111111111,41.91416666666667],[-77.19361111111111,41.953611111111115],[-77.33999999999999,41.99277777777778],[-77.48583333333333,42.03194444444444],[-77.63194444444444,42.07194444444445],[-77.77222222222223,42.109722222222224],[-77.91972222222223,42.149166666666666],[-78.05972222222222,42.186388888888885],[-78.34861111111111,42.2625],[-78.49166666666667,42.29722222222222],[-78.635,42.3325],[-78.78027777777778,42.36805555555556],[-78.92416666666666,42.403055555555554],[-79.06277777777777,42.43694444444444],[-79.20916666666668,42.473055555555554],[-79.3536111111111,42.50805555555556],[-79.49722222222222,42.54277777777778],[-79.64083333333333,42.57694444444445],[-79.78444444444445,42.60805555555556],[-79.93555555555555,42.61833333333333],[-80.25777777777778,42.6325],[-80.41000000000001,42.63861111111111],[-80.56305555555555,42.644444444444446],[-80.71555555555555,42.64944444444444],[-80.86749999999999,42.654444444444444],[-81.02194444444444,42.659444444444446],[-81.17500000000001,42.663888888888884],[-81.32694444444444,42.67388888888889],[-81.47805555555556,42.69166666666666],[-81.78194444444445,42.726111111111116],[-81.91805555555555,42.74138888888889],[-82.07416666666666,42.75861111111111],[-82.22888888888889,42.775277777777774],[-82.38416666666667,42.79222222222222],[-82.54055555555556,42.80833333333333],[-82.69500000000001,42.828611111111115],[-82.85166666666666,42.85027777777778],[-83.1613888888889,42.89138888888889],[-83.26472222222222,42.905277777777776],[-83.31611111111111,42.91138888888889],[-83.42222222222223,42.92027777777778],[-83.47305555555556,42.925],[-83.58277777777778,42.93472222222222],[-83.6588888888889,42.94138888888889],[-83.74138888888889,42.948611111111106],[-83.81805555555555,42.95527777777778],[-83.90083333333334,42.96222222222222],[-83.97416666666666,42.968333333333334],[-84.06027777777777,42.97555555555556],[-84.13194444444444,42.981388888888894],[-84.21722222222222,42.98861111111111],[-84.28888888888889,42.994166666666665],[-84.37249999999999,43.00083333333333],[-84.43333333333334,43.005833333333335],[-84.5286111111111,43.01361111111111],[-84.5886111111111,43.01833333333333],[-84.685,43.02388888888889],[-84.74472222222222,43.02583333333333],[-84.84166666666667,43.02972222222222],[-84.90083333333334,43.032222222222224],[-84.99833333333333,43.03666666666666],[-85.05972222222222,43.03944444444444],[-85.15555555555557,43.04361111111111],[-85.21666666666667,43.04611111111111],[-85.31222222222222,43.05],[-85.37305555555555,43.05222222222222],[-85.46833333333333,43.05611111111111],[-85.62388888888889,43.06222222222222],[-85.68194444444445,43.06472222222222],[-85.77972222222222,43.068333333333335],[-85.84222222222222,43.07083333333334],[-85.9975,43.07638888888889],[-86.08027777777778,43.07916666666667],[-86.15555555555557,43.081944444444446],[-86.23416666666667,43.08444444444444],[-86.325,43.087500000000006],[-86.38944444444445,43.089444444444446],[-86.54583333333333,43.09444444444445],[-86.70194444444445,43.09916666666667],[-86.86138888888888,43.103611111111114],[-87.01777777777778,43.10777777777778],[-87.1738888888889,43.111666666666665],[-87.33138888888888,43.11527777777778],[-87.48305555555555,43.11888888888889],[-87.66805555555555,43.1225],[-87.95583333333333,43.12833333333333],[-88.11694444444444,43.13111111111111],[-88.27583333333334,43.13388888888889],[-88.43083333333334,43.135],[-88.5911111111111,43.136944444444445],[-88.74916666666667,43.13972222222222],[-88.90694444444445,43.141666666666666],[-89.065,43.143055555555556],[-89.22083333333333,43.143055555555556],[-89.37916666666666,43.14555555555555],[-89.53694444444444,43.1425],[-89.7,43.1425],[-89.85777777777777,43.14111111111111],[-90.01638888888888,43.13944444444444],[-90.17472222222223,43.1375],[-90.33916666666666,43.135555555555555],[-90.49333333333334,43.134166666666665],[-90.65027777777779,43.13444444444444],[-90.96111111111111,43.13305555555556],[-91.11694444444444,43.132222222222225],[-91.27305555555556,43.13111111111111],[-91.42861111111111,43.12972222222222],[-91.58277777777778,43.12777777777778],[-91.73916666666666,43.12583333333333],[-91.8938888888889,43.12388888888889],[-92.05138888888888,43.12138888888889],[-92.20666666666666,43.11888888888889],[-92.365,43.11638888888889],[-92.52111111111111,43.11333333333334],[-92.67972222222222,43.11],[-92.84055555555555,43.106944444444444],[-92.99888888888889,43.10333333333333],[-93.1563888888889,43.099444444444444],[-93.31416666666667,43.096944444444446],[-93.4675,43.11388888888889],[-93.77722222222222,43.155],[-94.08638888888889,43.19472222222222],[-94.24111111111111,43.21416666666667],[-94.40222222222222,43.234722222222224],[-94.55833333333334,43.25388888888889],[-94.71277777777777,43.27305555555555],[-95.0261111111111,43.31083333333333],[-95.185,43.32972222222222],[-95.3425,43.348333333333336],[-95.50333333333333,43.36694444444444],[-95.66305555555556,43.38527777777778],[-95.82305555555556,43.40333333333333],[-95.98583333333333,43.42166666666667],[-96.14666666666668,43.43944444444444],[-96.31027777777777,43.456944444444446],[-96.47083333333333,43.47416666666667],[-96.63472222222222,43.49138888888889],[-96.95972222222223,43.52472222222222],[-97.12305555555555,43.54111111111111],[-97.285,43.55722222222222],[-97.44777777777779,43.57333333333334],[-97.60916666666667,43.58888888888889],[-97.77388888888889,43.60472222222222],[-97.93527777777778,43.61972222222222],[-98.09638888888888,43.63472222222222],[-98.26055555555556,43.64972222222222],[-98.42194444444445,43.663888888888884],[-98.58138888888888,43.67805555555555],[-98.75472222222223,43.69305555555555],[-98.84194444444444,43.70055555555556],[-98.91527777777779,43.706944444444446],[-99.00972222222222,43.71472222222223],[-99.07638888888889,43.72027777777778],[-99.23777777777778,43.733333333333334],[-99.335,43.74111111111111],[-99.40138888888889,43.74638888888889],[-99.49472222222222,43.7525],[-99.56305555555555,43.759166666666665],[-99.6588888888889,43.76638888888889],[-99.7238888888889,43.771388888888886],[-99.81944444444444,43.778888888888886],[-99.88555555555556,43.78388888888889],[-99.98055555555555,43.790277777777774],[-100.0475,43.795833333333334],[-100.14333333333335,43.80305555555555],[-100.27222222222223,43.8125],[-100.53222222222222,43.830555555555556],[-100.62833333333333,43.83722222222222],[-100.69277777777778,43.841944444444444],[-100.78944444444444,43.84861111111111],[-100.95111111111112,43.85916666666667],[-101.015,43.86333333333334],[-101.11972222222222,43.86833333333333],[-101.17805555555556,43.87388888888889],[-101.28,43.87888888888889],[-101.43305555555555,43.89],[-101.49638888888889,43.89388888888889],[-101.5925,43.89972222222222],[-101.65722222222223,43.90361111111111],[-101.75361111111111,43.909444444444446],[-101.81361111111111,43.91305555555555],[-101.91305555555556,43.91861111111111],[-101.97555555555556,43.92194444444444],[-102.07305555555556,43.927499999999995],[-102.1375,43.93111111111111],[-102.23277777777778,43.93611111111111],[-102.29861111111111,43.94],[-102.39416666666668,43.94499999999999],[-102.45416666666667,43.948055555555555],[-102.55166666666666,43.95333333333333],[-102.61416666666666,43.95638888888889],[-102.70777777777778,43.961111111111116],[-102.76972222222223,43.964444444444446],[-102.86972222222222,43.969166666666666],[-103.02638888888889,43.97138888888889],[-103.08527777777778,43.965833333333336],[-103.18277777777779,43.950833333333335],[-103.33916666666666,43.92805555555555],[-103.495,43.905],[-103.64944444444446,43.88166666666667],[-103.80527777777777,43.85805555555556],[-103.96027777777778,43.83416666666667],[-104.11305555555555,43.81055555555555],[-104.26527777777778,43.786944444444444],[-104.41777777777779,43.76277777777778],[-104.57055555555556,43.73861111111111],[-104.72305555555556,43.71388888888889],[-104.87249999999999,43.69],[-105.0286111111111,43.66444444444444],[-105.18111111111112,43.638888888888886],[-105.33333333333333,43.61361111111111],[-105.48527777777778,43.588055555555556],[-105.63777777777779,43.5625],[-105.79027777777777,43.53638888888889],[-105.94055555555556,43.510555555555555],[-106.0911111111111,43.474444444444444],[-106.23944444444444,43.43277777777777],[-106.38805555555557,43.39083333333333],[-106.53555555555555,43.34861111111111],[-106.68444444444445,43.30638888888888],[-106.83222222222221,43.275],[-107.00722222222223,43.237500000000004],[-107.15805555555556,43.20472222222222],[-107.30777777777777,43.17194444444444],[-107.46055555555556,43.138333333333335],[-107.61194444444443,43.105000000000004],[-107.75138888888888,43.073888888888895],[-107.91861111111112,43.03638888888889],[-108.07055555555556,43.00194444444445],[-108.2225,42.967222222222226],[-108.36138888888888,42.93555555555555],[-108.51055555555556,42.901111111111106],[-108.66194444444444,42.865833333333335],[-108.81027777777777,42.83111111111111],[-108.95861111111111,42.796388888888885],[-109.10722222222222,42.76111111111111],[-109.25611111111111,42.72555555555556],[-109.40472222222223,42.69],[-109.55416666666666,42.653888888888886],[-109.85499999999999,42.580555555555556],[-110.15722222222223,42.505833333333335],[-110.30833333333334,42.467777777777776],[-110.45777777777778,42.430277777777775],[-110.60777777777777,42.3925],[-110.75666666666666,42.35472222222222],[-110.9038888888889,42.316944444444445],[-111.05166666666666,42.278888888888886],[-111.19861111111112,42.24055555555556],[-111.3461111111111,42.202222222222225],[-111.52222222222223,42.155833333333334],[-111.66777777777779,42.1175],[-111.81277777777777,42.078611111111115],[-111.95972222222223,42.03944444444444],[-112.1036111111111,42.00083333333333],[-112.24888888888889,41.96138888888889],[-112.39361111111111,41.92222222222222],[-112.53333333333333,41.88388888888889],[-112.67722222222223,41.844166666666666],[-112.83305555555555,41.80083333333333],[-112.97722222222222,41.76083333333333],[-113.26888888888888,41.678888888888885],[-113.41333333333334,41.63777777777778],[-113.55749999999999,41.59666666666667],[-113.70361111111112,41.55444444444444],[-113.84777777777778,41.51305555555555],[-113.99166666666667,41.471111111111114],[-114.13555555555556,41.42916666666667],[-114.28166666666667,41.38611111111111],[-114.4238888888889,41.34444444444445],[-114.56861111111111,41.30138888888889],[-114.71138888888889,41.25888888888889],[-114.85444444444444,41.215833333333336],[-114.9975,41.1725],[-115.1125,41.13805555555555],[-115.1413888888889,41.12888888888889],[-115.25583333333333,41.094166666666666],[-115.28222222222222,41.086111111111116],[-115.42555555555556,41.0425],[-115.56666666666666,40.99861111111111],[-115.6825,40.962500000000006],[-115.71000000000001,40.95416666666667],[-115.82416666666666,40.91916666666666],[-115.85055555555554,40.91027777777778],[-115.96416666666667,40.87388888888889],[-115.99111111111111,40.86611111111111],[-116.13083333333333,40.822500000000005],[-116.27,40.77833333333333],[-116.38416666666667,40.742222222222225],[-116.40916666666668,40.73416666666667],[-116.52444444444444,40.697222222222216],[-116.54833333333333,40.689722222222215],[-116.68722222222223,40.644999999999996],[-116.79916666666666,40.60888888888889],[-116.82638888888889,40.6],[-116.93694444444445,40.565],[-116.96444444444445,40.55777777777777],[-117.07722222222222,40.528888888888886],[-117.10555555555555,40.521388888888886],[-117.21888888888888,40.49138888888889],[-117.24638888888889,40.48416666666667],[-117.3611111111111,40.45416666666667],[-117.38805555555557,40.44694444444444],[-117.52916666666667,40.40972222222222],[-117.64527777777778,40.37861111111111],[-117.6713888888889,40.37166666666667],[-117.78694444444444,40.340833333333336],[-117.81305555555555,40.33388888888889],[-117.92805555555556,40.30277777777778],[-117.95416666666667,40.29555555555555],[-118.07222222222222,40.26361111111111],[-118.09583333333333,40.257222222222225],[-118.21583333333334,40.224444444444444],[-118.23805555555556,40.218333333333334],[-118.35722222222222,40.18583333333333],[-118.37833333333333,40.180277777777775],[-118.49527777777777,40.147777777777776],[-118.665,40.108333333333334],[-118.7786111111111,40.07944444444445],[-118.80638888888889,40.07083333333334],[-118.94361111111111,40.02861111111111],[-119.0786111111111,39.986666666666665],[-119.19277777777778,39.95111111111111],[-119.21666666666667,39.94361111111111],[-119.35638888888889,39.9],[-119.35499999999999,39.900555555555556],[-119.52027777777778,39.84861111111111],[-119.62916666666666,39.81388888888888],[-119.76583333333333,39.77055555555555],[-119.905,39.725833333333334],[-120.04555555555555,39.69444444444444],[-120.2063888888889,39.71555555555556],[-120.36305555555555,39.740833333333335],[-120.5175,39.766666666666666],[-120.67055555555557,39.79222222222222],[-120.82222222222222,39.81777777777778],[-120.9713888888889,39.81194444444444],[-121.11777777777777,39.79472222222222],[-121.24027777777778,39.77972222222222],[-121.38694444444445,39.7625],[-121.50916666666667,39.708333333333336],[-121.58611111111111,39.61833333333333],[-121.75416666666666,39.424166666666665],[-121.83138888888888,39.335],[-121.90833333333335,39.24527777777778],[-121.985,39.155277777777776],[-122.06138888888889,39.06583333333333],[-122.1375,38.97638888888889],[-122.2125,38.88805555555555],[-122.28694444444444,38.8],[-122.36055555555555,38.71222222222222],[-122.4325,38.626111111111115],[-122.50361111111111,38.54111111111111],[-122.5736111111111,38.4575],[-122.64222222222223,38.375277777777775],[-122.71194444444444,38.29111111111111],[-122.73333333333333,38.266666666666666],[-122.76,38.20277777777778],[-122.75,38.166666666666664],[-122.70611111111111,38.01277777777778],[-122.7,37.983333333333334],[-122.68055555555556,37.925],[-122.66666666666667,37.88333333333333],[-122.62027777777777,37.85],[-122.51666666666667,37.75],[-122.46583333333334,37.703611111111115],[-122.40833333333335,37.64972222222222],[-122.4,37.63333333333333],[-122.35638888888889,37.59722222222222],[-122.35,37.583333333333336],[-122.32416666666666,37.53666666666666],[-122.3,37.5],[-122.27222222222223,37.41722222222222],[-122.30611111111111,37.35888888888889],[-122.31666666666666,37.31666666666667],[-122.30805555555555,37.29833333333333],[-122.28333333333333,37.266666666666666],[-122.25083333333333,37.256388888888885],[-122.18972222222223,37.2925],[-122.13333333333334,37.38333333333333],[-122.12777777777777,37.404444444444444],[-122.11666666666666,37.43333333333333],[-122.09944444444444,37.45138888888889],[-122.1,37.483333333333334],[-122.11166666666666,37.49472222222222],[-122.13333333333334,37.516666666666666],[-122.15305555555557,37.525277777777774],[-122.18333333333334,37.53333333333333],[-122.23333333333333,37.56666666666667],[-122.25083333333333,37.56666666666667],[-122.28333333333333,37.583333333333336],[-122.29305555555555,37.58416666666667],[-122.31666666666666,37.6],[-122.335,37.60194444444445],[-122.37222222222222,37.6175]],"type":"LineString"}
}
