{
  "id": 2032022671,
  "type": "Feature",
  "properties": {
    "geom:area": 0,
    "geom:bbox": "-122.404180,37.626830,-121.461250,38.498860",
    "geom:latitude": 38.043952565539776,
    "geom:longitude": -121.92765374137805,
    "src:alt_label": "swim-takeoff",
    "src:geom": "swim",
    "swim:elevations": [
      213,
      391,
      766,
      1129,
      1285,
      2031,
      2343,
      2888,
      2947,
      3221,
      3343,
      3509,
      4197,
      4344,
      4453,
      4566,
      4985,
      5137,
      5337,
      5674,
      5995,
      6041,
      6272,
      6714
    ],
    "swim:geom": "takeoff",
    "swim:timestamps": [
      1785310338,
      1785310352,
      1785310398,
      1785310438,
      1785310449,
      1785310514,
      1785310541,
      1785310587,
      1785310592,
      1785310623,
      1785310645,
      1785310681,
      1785310765,
      1785310785,
      1785310797,
      1785310809,
      1785310852,
      1785310868,
      1785310892,
      1785310932,
      1785310978,
      1785310984,
      1785311017,
      1785311079
    ],
    "wof:geomhash": "48c880e8cb0aa70c000ed6c2cd227675",
    "wof:id": 2032022671,
    "wof:repo": "sfomuseum-data-flights-2026-07"
  },
  "bbox": [
    -122.40418,
    37.62683,
    -121.46125,
    38.49886
  ],
  "geometry": {"coordinates":[[-122.39383,37.62683],[-122.40418,37.63527],[-122.37151,37.66894],[-122.3139,37.6854],[-122.29762,37.69051],[-122.20451,37.72732],[-122.17914,37.75633],[-122.13367,37.80664],[-122.12873,37.81218],[-122.09825,37.8461],[-122.07475,37.87224],[-122.03361,37.91745],[-121.92818,38.03377],[-121.90228,38.06229],[-121.88693,38.07902],[-121.87082,38.09664],[-121.81155,38.16099],[-121.79003,38.18436],[-121.75723,38.22025],[-121.70237,38.27998],[-121.63651,38.35164],[-121.62682,38.36218],[-121.57834,38.4145],[-121.46125,38.49886]],"type":"LineString"}
}
