{
  "id": 2031965395,
  "type": "Feature",
  "properties": {
    "geom:area": 0,
    "geom:bbox": "-122.362340,37.420220,-121.282880,37.615980",
    "geom:latitude": 37.52778652719893,
    "geom:longitude": -121.8265211314455,
    "src:alt_label": "swim-approach",
    "src:geom": "swim",
    "swim:elevations": [
      4731,
      4634,
      4457,
      4287,
      4234,
      4079,
      3999,
      3932,
      3790,
      3680,
      3567,
      3469,
      3362,
      3045,
      2918,
      2740,
      2505,
      2371,
      2226,
      2134,
      2134,
      2101,
      1937,
      1817,
      1555,
      1484,
      1466,
      1340,
      1155,
      1136,
      854,
      732,
      705,
      681,
      575,
      553,
      468,
      361,
      274,
      211,
      54,
      13,
      53
    ],
    "swim:geom": "approach",
    "swim:timestamps": [
      1785013909,
      1785013946,
      1785013976,
      1785013997,
      1785014003,
      1785014029,
      1785014053,
      1785014092,
      1785014121,
      1785014143,
      1785014161,
      1785014179,
      1785014194,
      1785014242,
      1785014264,
      1785014288,
      1785014323,
      1785014341,
      1785014362,
      1785014397,
      1785014420,
      1785014433,
      1785014475,
      1785014511,
      1785014542,
      1785014548,
      1785014551,
      1785014577,
      1785014607,
      1785014610,
      1785014667,
      1785014689,
      1785014697,
      1785014704,
      1785014728,
      1785014731,
      1785014757,
      1785014787,
      1785014809,
      1785014823,
      1785014870,
      1785014878,
      1785014885
    ],
    "wof:geomhash": "b46ed56ac8b610337015a36241e94ad8",
    "wof:id": 2031965395,
    "wof:repo": "sfomuseum-data-flights-2026-07"
  },
  "bbox": [
    -122.36234,
    37.42022,
    -121.28288,
    37.61598
  ],
  "geometry": {"coordinates":[[-121.28288,37.59011],[-121.35541,37.58212],[-121.40848,37.57623],[-121.44563,37.57185],[-121.45715,37.57048],[-121.50233,37.56507],[-121.54256,37.56072],[-121.60285,37.55339],[-121.6439,37.5584],[-121.67393,37.57036],[-121.69752,37.57938],[-121.7238,37.57984],[-121.74104,37.57146],[-121.76052,37.52062],[-121.76649,37.49727],[-121.77293,37.47112],[-121.78748,37.43505],[-121.8085,37.42611],[-121.83653,37.42377],[-121.88352,37.42022],[-121.91256,37.42649],[-121.92914,37.43231],[-121.97928,37.45411],[-122.0218,37.47218],[-122.05909,37.48783],[-122.06659,37.49103],[-122.07036,37.49262],[-122.10182,37.50595],[-122.13537,37.52021],[-122.13869,37.52162],[-122.19556,37.54558],[-122.21589,37.55413],[-122.22262,37.55707],[-122.22865,37.55963],[-122.24822,37.56771],[-122.2505,37.56865],[-122.26901,37.57655],[-122.2907,37.5858],[-122.30705,37.59256],[-122.31709,37.59673],[-122.35086,37.61088],[-122.35699,37.61346],[-122.36234,37.61598]],"type":"LineString"}
}
