{
  "id": 2031995759,
  "type": "Feature",
  "properties": {
    "geom:area": 0,
    "geom:bbox": "-118.403611,38.551944,-87.738611,41.795278",
    "geom:latitude": 40.558064116781075,
    "geom:longitude": -103.07121242116727,
    "src:alt_label": "swim-path",
    "src:geom": "swim",
    "swim:altitudes": [
      "350C",
      "350C",
      "350C",
      "350C",
      "350C",
      "350C",
      "350C",
      "350C",
      "350C",
      "350C",
      "350C",
      "350C",
      "350C",
      "350C",
      "350C",
      "350C",
      "350C",
      "350C",
      "350C",
      "350C",
      "350C",
      "350C",
      "350C",
      "350C",
      "350C",
      "350C",
      "350C",
      "350C",
      "350C",
      "350C",
      "350C",
      "350C",
      "350C",
      "350C",
      "350C",
      "350C",
      "350C",
      "350C",
      "350C",
      "350C",
      "350C",
      "350C",
      "352",
      "361",
      "366",
      "370C",
      "370C",
      "370C",
      "370C",
      "370C",
      "370C",
      "370C",
      "370C",
      "370C",
      "370C",
      "370C",
      "370C",
      "370C",
      "370C",
      "370C",
      "370C",
      "370C",
      "370C",
      "370C",
      "370C",
      "370C",
      "370C",
      "370C",
      "370C",
      "370C",
      "370C",
      "370C",
      "370C",
      "370C",
      "370C",
      "370C",
      "370C",
      "370C",
      "370C",
      "370C",
      "370C",
      "370C",
      "370C",
      "370C",
      "370C",
      "370C",
      "370C",
      "370C",
      "370C",
      "370C",
      "370C",
      "370C",
      "370C",
      "370C",
      "370C",
      "370C",
      "370C",
      "370C",
      "370C",
      "370C",
      "370C",
      "370C",
      "370C",
      "370C",
      "370C",
      "370C",
      "370C",
      "370C",
      "370C",
      "370C",
      "370C",
      "370C",
      "370C",
      "370C",
      "370C",
      "370C",
      "370C",
      "370C",
      "370C",
      "370C",
      "370C",
      "370C",
      "370C",
      "370C",
      "370C",
      "370C",
      "370C",
      "370C",
      "370C",
      "370C",
      "370C",
      "370C",
      "370C",
      "370C",
      "370C",
      "370C",
      "370C",
      "370C",
      "370C",
      "370C",
      "370C",
      "370C",
      "370C",
      "370C",
      "370C",
      "370C",
      "370C",
      "370C",
      "370C",
      "370C",
      "370C",
      "370C",
      "370C",
      "370C",
      "370C",
      "370C",
      "370C",
      "370C",
      "370C",
      "370C",
      "370C",
      "370C",
      "370C",
      "370C",
      "370C",
      "370C",
      "370C",
      "370C",
      "370C",
      "370C",
      "370C",
      "370C",
      "370C",
      "370C",
      "370C",
      "370C",
      "370C",
      "370C",
      "370C",
      "369",
      "367",
      "359",
      "357",
      "350C",
      "350C",
      "350C",
      "350C",
      "350C",
      "350C",
      "350C",
      "350C",
      "350C",
      "350C",
      "350C",
      "350C",
      "350C",
      "350C",
      "350C",
      "350C",
      "350C",
      "350C",
      "350C",
      "350C",
      "350C",
      "350C",
      "350",
      "350",
      "346",
      "345",
      "336",
      "335",
      "326",
      "326",
      "316",
      "315",
      "305",
      "295",
      "285",
      "275",
      "264",
      "254",
      "234",
      "214",
      "174",
      "161",
      "160",
      "141",
      "116",
      "103",
      "091",
      "088",
      "071",
      "067",
      "060",
      "060",
      "061",
      "060",
      "057",
      "050",
      "050",
      "048",
      "040",
      "041",
      "041",
      "041",
      "034",
      "017",
      "010",
      "006"
    ],
    "swim:geom": "path",
    "swim:speeds": [
      497,
      496,
      496,
      496,
      497,
      497,
      498,
      499,
      500,
      501,
      501,
      500,
      499,
      499,
      499,
      499,
      499,
      499,
      498,
      497,
      497,
      496,
      496,
      495,
      494,
      493,
      493,
      491,
      490,
      489,
      488,
      486,
      485,
      485,
      486,
      487,
      488,
      488,
      487,
      487,
      487,
      488,
      489,
      489,
      488,
      490,
      492,
      494,
      495,
      495,
      495,
      495,
      497,
      496,
      498,
      497,
      498,
      498,
      498,
      498,
      498,
      497,
      496,
      495,
      494,
      493,
      492,
      491,
      490,
      490,
      490,
      490,
      490,
      490,
      490,
      490,
      490,
      490,
      490,
      490,
      491,
      491,
      492,
      493,
      494,
      495,
      496,
      497,
      497,
      497,
      495,
      494,
      493,
      493,
      492,
      492,
      492,
      492,
      492,
      497,
      498,
      499,
      500,
      500,
      500,
      500,
      499,
      498,
      497,
      496,
      490,
      486,
      484,
      482,
      482,
      482,
      482,
      484,
      486,
      488,
      489,
      492,
      494,
      496,
      497,
      498,
      499,
      500,
      501,
      502,
      503,
      504,
      505,
      507,
      508,
      510,
      508,
      509,
      507,
      508,
      507,
      507,
      506,
      506,
      506,
      506,
      506,
      505,
      504,
      500,
      499,
      497,
      496,
      495,
      493,
      492,
      491,
      491,
      491,
      493,
      496,
      498,
      498,
      499,
      499,
      499,
      490,
      489,
      488,
      486,
      483,
      481,
      481,
      483,
      484,
      486,
      490,
      503,
      505,
      506,
      506,
      510,
      510,
      511,
      510,
      509,
      509,
      509,
      509,
      510,
      511,
      512,
      513,
      513,
      514,
      514,
      514,
      514,
      514,
      513,
      512,
      511,
      511,
      510,
      509,
      510,
      510,
      510,
      511,
      510,
      512,
      510,
      512,
      510,
      507,
      498,
      493,
      485,
      481,
      457,
      452,
      443,
      430,
      411,
      392,
      386,
      374,
      373,
      335,
      312,
      315,
      278,
      273,
      274,
      262,
      228,
      221,
      204,
      184,
      180,
      178,
      166,
      169,
      168,
      167,
      167,
      138,
      141,
      140
    ],
    "swim:timestamps": [
      1785227977,
      1785228006,
      1785228037,
      1785228066,
      1785228097,
      1785228126,
      1785228157,
      1785228186,
      1785228217,
      1785228246,
      1785228277,
      1785228306,
      1785228337,
      1785228366,
      1785228426,
      1785228457,
      1785228486,
      1785228517,
      1785228577,
      1785228606,
      1785228637,
      1785228666,
      1785228697,
      1785228726,
      1785228757,
      1785228786,
      1785228817,
      1785228877,
      1785228937,
      1785228997,
      1785229057,
      1785229117,
      1785229178,
      1785229238,
      1785229298,
      1785229358,
      1785229418,
      1785229478,
      1785229538,
      1785229598,
      1785229658,
      1785229718,
      1785229778,
      1785229838,
      1785229898,
      1785229958,
      1785230018,
      1785230078,
      1785230198,
      1785230258,
      1785230318,
      1785230378,
      1785230416,
      1785230438,
      1785230476,
      1785230498,
      1785230536,
      1785230558,
      1785230596,
      1785230618,
      1785230656,
      1785230678,
      1785230716,
      1785230738,
      1785230776,
      1785230798,
      1785230836,
      1785230858,
      1785230896,
      1785230918,
      1785230957,
      1785230978,
      1785231017,
      1785231038,
      1785231077,
      1785231098,
      1785231137,
      1785231158,
      1785231197,
      1785231218,
      1785231257,
      1785231279,
      1785231317,
      1785231339,
      1785231377,
      1785231399,
      1785231437,
      1785231459,
      1785231497,
      1785231519,
      1785231557,
      1785231579,
      1785231617,
      1785231639,
      1785231677,
      1785231699,
      1785231737,
      1785231797,
      1785231857,
      1785231917,
      1785231977,
      1785232037,
      1785232097,
      1785232157,
      1785232217,
      1785232277,
      1785232337,
      1785232397,
      1785232457,
      1785232517,
      1785232577,
      1785232637,
      1785232697,
      1785232757,
      1785232817,
      1785232997,
      1785233057,
      1785233117,
      1785233178,
      1785233238,
      1785233298,
      1785233358,
      1785233418,
      1785233478,
      1785233538,
      1785233598,
      1785233658,
      1785233718,
      1785233778,
      1785233838,
      1785233898,
      1785233958,
      1785234018,
      1785234078,
      1785234138,
      1785234161,
      1785234198,
      1785234221,
      1785234258,
      1785234281,
      1785234318,
      1785234341,
      1785234378,
      1785234401,
      1785234438,
      1785234461,
      1785234498,
      1785234521,
      1785234558,
      1785234581,
      1785234618,
      1785234641,
      1785234678,
      1785234701,
      1785234738,
      1785234761,
      1785234821,
      1785234881,
      1785234941,
      1785235001,
      1785235061,
      1785235121,
      1785235181,
      1785235241,
      1785235301,
      1785235361,
      1785235421,
      1785235481,
      1785235541,
      1785235602,
      1785235662,
      1785235722,
      1785235782,
      1785235842,
      1785235902,
      1785235962,
      1785235975,
      1785236022,
      1785236037,
      1785236082,
      1785236097,
      1785236142,
      1785236155,
      1785236202,
      1785236215,
      1785236262,
      1785236275,
      1785236322,
      1785236335,
      1785236382,
      1785236442,
      1785236456,
      1785236502,
      1785236516,
      1785236562,
      1785236576,
      1785236636,
      1785236682,
      1785236696,
      1785236742,
      1785236756,
      1785236802,
      1785236818,
      1785236862,
      1785236878,
      1785236922,
      1785236938,
      1785236982,
      1785236998,
      1785237043,
      1785237058,
      1785237103,
      1785237118,
      1785237163,
      1785237178,
      1785237238,
      1785237298,
      1785237358,
      1785237419,
      1785237479,
      1785237539,
      1785237599,
      1785237659,
      1785237776,
      1785237836,
      1785237896,
      1785237957,
      1785238017,
      1785238077,
      1785238121,
      1785238137,
      1785238197,
      1785238206,
      1785238257,
      1785238266,
      1785238317,
      1785238326,
      1785238378,
      1785238438,
      1785238446,
      1785238498,
      1785238566,
      1785238618,
      1785238678,
      1785238738,
      1785238798,
      1785238926,
      1785238990,
      1785239050
    ],
    "wof:geomhash": "b65f43846b48945f9506c6ae4c365fa9",
    "wof:id": 2031995759,
    "wof:repo": "sfomuseum-data-flights-2026-07"
  },
  "bbox": [
    -118.40361111111112,
    38.551944444444445,
    -87.73861111111111,
    41.79527777777778
  ],
  "geometry": {"coordinates":[[-118.40361111111112,38.551944444444445],[-118.29527777777777,38.565],[-118.2213888888889,38.573888888888895],[-118.12194444444444,38.58527777777778],[-118.04555555555555,38.594166666666666],[-117.93861111111111,38.60666666666667],[-117.86861111111111,38.61472222222223],[-117.76222222222222,38.62722222222222],[-117.69361111111111,38.635],[-117.58361111111111,38.6475],[-117.51472222222222,38.655277777777776],[-117.4075,38.66694444444444],[-117.3386111111111,38.67444444444444],[-117.23277777777778,38.69638888888888],[-117.06555555555555,38.74055555555556],[-116.99916666666667,38.757777777777775],[-116.93,38.77583333333333],[-116.8286111111111,38.802499999999995],[-116.66166666666668,38.84583333333334],[-116.5911111111111,38.86416666666667],[-116.49222222222222,38.88972222222222],[-116.4238888888889,38.907222222222224],[-116.32388888888889,38.93277777777777],[-116.23305555555555,38.95583333333334],[-116.15722222222223,38.975],[-116.06638888888888,38.99805555555556],[-115.99055555555556,39.01722222222222],[-115.82388888888889,39.05888888888889],[-115.65805555555556,39.10055555555556],[-115.49138888888889,39.141666666666666],[-115.3411111111111,39.17861111111111],[-115.17611111111111,39.21888888888889],[-115.01305555555555,39.25833333333333],[-114.81277777777777,39.305277777777775],[-114.64361111111111,39.339444444444446],[-114.4738888888889,39.37361111111111],[-114.33916666666666,39.400277777777774],[-114.165,39.43444444444444],[-113.99472222222222,39.467777777777776],[-113.82777777777777,39.500277777777775],[-113.65722222222223,39.532777777777774],[-113.48416666666667,39.56583333333333],[-113.31333333333333,39.59805555555556],[-113.14222222222223,39.63027777777778],[-112.97055555555556,39.66222222222222],[-112.79972222222221,39.69361111111111],[-112.62694444444443,39.725],[-112.45222222222222,39.75666666666667],[-112.08777777777777,39.82138888888889],[-111.91194444444444,39.852222222222224],[-111.73916666666666,39.882222222222225],[-111.58527777777778,39.90888888888889],[-111.44611111111111,39.9325],[-111.40833333333335,39.939166666666665],[-111.26888888888888,39.96277777777778],[-111.23361111111112,39.968611111111116],[-111.0936111111111,39.992222222222225],[-111.05722222222222,39.998333333333335],[-110.91638888888889,40.02166666666667],[-110.88,40.02777777777778],[-110.73972222222223,40.050555555555555],[-110.70444444444445,40.05638888888888],[-110.565,40.07888888888889],[-110.5286111111111,40.084722222222226],[-110.39194444444445,40.106944444444444],[-110.35638888888889,40.112500000000004],[-110.21833333333333,40.13472222222222],[-110.18388888888889,40.14],[-110.04277777777777,40.16277777777778],[-110.00694444444444,40.16861111111111],[-109.87055555555555,40.19138888888889],[-109.83333333333333,40.1975],[-109.69666666666667,40.219722222222224],[-109.66027777777778,40.22555555555556],[-109.52055555555556,40.24805555555556],[-109.48583333333333,40.25361111111111],[-109.345,40.27583333333333],[-109.31222222222222,40.280833333333334],[-109.17194444444445,40.30277777777778],[-109.13388888888889,40.30888888888889],[-109.0286111111111,40.32527777777778],[-108.95722222222223,40.336666666666666],[-108.85111111111111,40.35305555555556],[-108.77416666666666,40.36472222222223],[-108.67555555555556,40.37972222222222],[-108.59666666666666,40.391666666666666],[-108.49583333333334,40.402499999999996],[-108.41722222222222,40.407222222222224],[-108.31222222222222,40.413888888888884],[-108.23944444444444,40.41694444444444],[-108.13055555555555,40.41722222222222],[-108.05888888888889,40.41722222222222],[-107.95444444444445,40.41777777777777],[-107.88305555555554,40.418055555555554],[-107.77638888888889,40.41833333333333],[-107.70361111111112,40.41833333333333],[-107.60027777777778,40.41833333333333],[-107.38722222222223,40.418055555555554],[-107.20916666666668,40.41916666666666],[-107.03055555555555,40.439166666666665],[-106.84972222222221,40.46027777777778],[-106.67333333333333,40.48027777777778],[-106.49305555555556,40.500277777777775],[-106.33611111111111,40.51722222222222],[-106.13861111111112,40.53861111111111],[-105.95666666666666,40.55777777777777],[-105.77555555555556,40.57666666666667],[-105.59722222222221,40.594722222222224],[-105.41527777777779,40.613055555555555],[-105.2363888888889,40.63111111111111],[-105.06027777777777,40.64805555555556],[-104.88277777777778,40.665],[-104.70861111111111,40.681666666666665],[-104.53583333333333,40.69777777777777],[-104.3586111111111,40.71388888888889],[-103.83277777777778,40.76027777777778],[-103.65777777777778,40.775277777777774],[-103.47944444444444,40.79],[-103.30277777777778,40.80444444444444],[-103.1236111111111,40.81888888888889],[-102.98083333333334,40.83027777777778],[-102.79388888888889,40.844722222222224],[-102.61277777777777,40.858333333333334],[-102.42944444444444,40.87222222222222],[-102.24777777777778,40.88527777777778],[-102.06638888888888,40.89805555555556],[-101.88416666666667,40.91083333333333],[-101.69972222222222,40.92333333333333],[-101.51722222222222,40.93527777777778],[-101.33333333333333,40.947222222222216],[-101.14888888888889,40.95888888888889],[-100.96000000000001,40.97027777777778],[-100.7713888888889,40.98166666666667],[-100.57916666666667,40.99277777777778],[-100.39333333333335,41.00333333333333],[-100.30444444444444,41.00833333333333],[-100.20611111111111,41.01361111111111],[-100.12055555555555,41.018055555555556],[-100.01805555555555,41.02361111111111],[-99.93555555555555,41.02777777777778],[-99.8325,41.033055555555556],[-99.74916666666667,41.03722222222222],[-99.64666666666668,41.04222222222222],[-99.56444444444445,41.046388888888885],[-99.46166666666667,41.05138888888889],[-99.38111111111111,41.055],[-99.27694444444444,41.059999999999995],[-99.19416666666667,41.06361111111111],[-99.09416666666667,41.06805555555556],[-99.0111111111111,41.07194444444445],[-98.91083333333334,41.07805555555556],[-98.83,41.084722222222226],[-98.72972222222222,41.09277777777778],[-98.65166666666667,41.09861111111111],[-98.55277777777778,41.105555555555554],[-98.47194444444445,41.111111111111114],[-98.2936111111111,41.123333333333335],[-98.11305555555555,41.13527777777778],[-97.9325,41.14722222222222],[-97.75194444444445,41.15888888888889],[-97.5675,41.17055555555555],[-97.38444444444445,41.181666666666665],[-97.20222222222222,41.192499999999995],[-97.01944444444445,41.20333333333333],[-96.83611111111111,41.21361111111111],[-96.65444444444445,41.22361111111111],[-96.47500000000001,41.233333333333334],[-96.30388888888889,41.24166666666667],[-96.12583333333333,41.25055555555556],[-95.94861111111112,41.25944444444445],[-95.77111111111111,41.26777777777777],[-95.59666666666666,41.27583333333333],[-95.4238888888889,41.28333333333333],[-95.24777777777778,41.29055555555556],[-95.06888888888888,41.29805555555556],[-94.88833333333334,41.305277777777775],[-94.84527777777777,41.30694444444444],[-94.70527777777778,41.31222222222222],[-94.66111111111111,41.31388888888888],[-94.51777777777778,41.31888888888889],[-94.47305555555556,41.32027777777778],[-94.32694444444444,41.32527777777778],[-94.28305555555555,41.32666666666667],[-94.13222222222221,41.331944444444446],[-94.09472222222222,41.33305555555556],[-93.94555555555556,41.33777777777778],[-93.90777777777778,41.33888888888889],[-93.75638888888889,41.343333333333334],[-93.71833333333333,41.34444444444445],[-93.56777777777778,41.34861111111111],[-93.37666666666667,41.353611111111114],[-93.3386111111111,41.35444444444445],[-93.18722222222223,41.35805555555556],[-93.15166666666667,41.35888888888889],[-92.99555555555555,41.362500000000004],[-92.95944444444444,41.36333333333334],[-92.76694444444445,41.367222222222225],[-92.61416666666666,41.37027777777778],[-92.57666666666667,41.37111111111111],[-92.42750000000001,41.37361111111111],[-92.38861111111112,41.37444444444444],[-92.2375,41.376666666666665],[-92.21805555555555,41.37722222222222],[-92.05,41.379444444444445],[-92.03194444444445,41.38],[-91.86,41.38194444444444],[-91.84388888888888,41.382222222222225],[-91.66972222222223,41.38333333333333],[-91.655,41.384166666666665],[-91.48083333333334,41.38583333333333],[-91.46694444444445,41.38638888888889],[-91.29083333333332,41.386944444444445],[-91.27527777777777,41.3875],[-91.1036111111111,41.38777777777778],[-91.08749999999999,41.38861111111111],[-90.90555555555557,41.38972222222222],[-90.72527777777778,41.390277777777776],[-90.5461111111111,41.39055555555556],[-90.36916666666666,41.39055555555556],[-90.19638888888889,41.390277777777776],[-90.02944444444444,41.39],[-89.86583333333333,41.38916666666667],[-89.7063888888889,41.38777777777778],[-89.39916666666667,41.38583333333333],[-89.25222222222222,41.384166666666665],[-89.09222222222222,41.3825],[-88.95444444444445,41.38055555555555],[-88.81694444444445,41.37861111111111],[-88.68833333333333,41.37694444444445],[-88.6,41.38333333333333],[-88.57277777777777,41.375277777777775],[-88.47361111111111,41.39611111111111],[-88.46666666666667,41.4],[-88.39250000000001,41.44],[-88.38333333333334,41.45],[-88.3086111111111,41.46],[-88.3,41.46666666666667],[-88.23555555555555,41.47666666666667],[-88.17027777777778,41.49194444444444],[-88.16666666666667,41.5],[-88.10888888888888,41.51083333333333],[-88.05,41.55],[-88.01888888888888,41.573888888888895],[-87.97555555555556,41.6075],[-87.93333333333334,41.64111111111111],[-87.89027777777778,41.675555555555555],[-87.8,41.733333333333334],[-87.77333333333333,41.768055555555556],[-87.73861111111111,41.79527777777778]],"type":"LineString"}
}
