{
  "id": 2031961773,
  "type": "Feature",
  "properties": {
    "geom:area": 0,
    "geom:bbox": "-122.354470,37.445180,-121.249310,37.612430",
    "geom:latitude": 37.53799883203646,
    "geom:longitude": -121.80998897589123,
    "src:alt_label": "swim-approach",
    "src:geom": "swim",
    "swim:elevations": [
      4793,
      4490,
      4441,
      4411,
      4258,
      4183,
      4061,
      3808,
      3482,
      3354,
      3209,
      3091,
      3047,
      3018,
      2916,
      2460,
      2200,
      2166,
      2134,
      2134,
      2134,
      2134,
      2019,
      1847,
      1781,
      1677,
      1519,
      1398,
      1323,
      1103,
      986,
      853,
      783,
      615,
      561,
      398,
      285,
      225,
      149,
      30
    ],
    "swim:geom": "approach",
    "swim:timestamps": [
      1785019134,
      1785019168,
      1785019177,
      1785019187,
      1785019213,
      1785019225,
      1785019242,
      1785019271,
      1785019313,
      1785019345,
      1785019376,
      1785019396,
      1785019417,
      1785019466,
      1785019482,
      1785019528,
      1785019557,
      1785019563,
      1785019594,
      1785019606,
      1785019636,
      1785019654,
      1785019686,
      1785019711,
      1785019750,
      1785019765,
      1785019796,
      1785019817,
      1785019832,
      1785019886,
      1785019915,
      1785019945,
      1785019966,
      1785020005,
      1785020020,
      1785020068,
      1785020096,
      1785020114,
      1785020136,
      1785020163
    ],
    "wof:geomhash": "79f2a9c3bc59ee922b551a2da8cc01ed",
    "wof:id": 2031961773,
    "wof:repo": "sfomuseum-data-flights-2026-07"
  },
  "bbox": [
    -122.35447,
    37.44518,
    -121.24931,
    37.61243
  ],
  "geometry": {"coordinates":[[-121.24931,37.59482],[-121.31129,37.58701],[-121.32737,37.58537],[-121.34358,37.58365],[-121.38735,37.57862],[-121.40678,37.57642],[-121.43334,37.57336],[-121.48099,37.56774],[-121.5461,37.56009],[-121.59679,37.55421],[-121.64066,37.55789],[-121.6689,37.56444],[-121.69772,37.57085],[-121.76686,37.58049],[-121.78446,37.57215],[-121.79061,37.52392],[-121.79238,37.49271],[-121.79701,37.48731],[-121.83042,37.46632],[-121.84355,37.4585],[-121.882,37.44924],[-121.90627,37.44742],[-121.94803,37.44518],[-121.97956,37.45433],[-122.01979,37.47118],[-122.03569,37.47796],[-122.06618,37.49085],[-122.0867,37.49956],[-122.10055,37.50541],[-122.14676,37.52487],[-122.16989,37.53467],[-122.19412,37.5449],[-122.21132,37.55214],[-122.24219,37.56523],[-122.25332,37.56991],[-122.28613,37.58369],[-122.3061,37.59209],[-122.31883,37.59745],[-122.33494,37.60418],[-122.35447,37.61243]],"type":"LineString"}
}
