{
  "id": 2032053797,
  "type": "Feature",
  "properties": {
    "geom:area": 0,
    "geom:bbox": "-122.550000,33.819722,-104.660278,39.853889",
    "geom:latitude": 36.623844241633954,
    "geom:longitude": -114.24159697239145,
    "src:alt_label": "swim-path",
    "src:geom": "swim",
    "swim:altitudes": [
      "005",
      "007",
      "019",
      "027",
      "040",
      "051",
      "063",
      "077",
      "087",
      "100",
      "122",
      "147",
      "171",
      "190",
      "210",
      "230",
      "253",
      "270",
      "285",
      "299",
      "315",
      "333",
      "349C",
      "350C",
      "350C",
      "350C",
      "350C",
      "350C",
      "350C",
      "350C",
      "350C",
      "350C",
      "350",
      "350",
      "350",
      "350",
      "350",
      "350",
      "330",
      "296",
      "272",
      "258",
      "239",
      "213",
      "204",
      "192",
      "168",
      "147",
      "130",
      "121",
      "120",
      "104",
      "092",
      "078",
      "071",
      "057",
      "041",
      "031",
      "023",
      "022",
      "022",
      "013",
      "005",
      "001",
      "008",
      "023",
      "046",
      "066",
      "088",
      "107",
      "128",
      "149",
      "166",
      "187",
      "216",
      "229",
      "241",
      "253",
      "265",
      "276",
      "285",
      "295",
      "305",
      "314",
      "322",
      "332",
      "338",
      "345",
      "354",
      "361",
      "367",
      "370C",
      "370C",
      "370C",
      "370C",
      "370C",
      "370C",
      "370C",
      "370C",
      "370C",
      "370C",
      "370C",
      "370C",
      "370C",
      "370C",
      "370C",
      "370C",
      "370C",
      "370C",
      "370C",
      "370C",
      "370C",
      "370C",
      "370C",
      "370C",
      "370C",
      "370C",
      "370C",
      "370C",
      "370C",
      "370C",
      "370C",
      "370C",
      "370C",
      "370C",
      "370C",
      "370C",
      "370C",
      "370C",
      "370C",
      "370C",
      "370C",
      "370C",
      "370C",
      "370C",
      "370C",
      "370C",
      "370C",
      "370C",
      "370C",
      "370C",
      "370C",
      "370C",
      "370C",
      "370C",
      "370C",
      "370C",
      "370C",
      "370C",
      "370C",
      "370C",
      "370C",
      "370C",
      "370C",
      "370C",
      "370C",
      "370C",
      "370C",
      "365",
      "356",
      "348",
      "338",
      "328",
      "313",
      "294",
      "275",
      "257",
      "242",
      "239",
      "222",
      "206",
      "191",
      "180",
      "179",
      "176",
      "174",
      "162",
      "158",
      "141",
      "140",
      "132",
      "129",
      "113",
      "105",
      "099",
      "098",
      "090",
      "089",
      "078",
      "069",
      "060",
      "054",
      "054"
    ],
    "swim:geom": "path",
    "swim:speeds": [
      155,
      155,
      158,
      199,
      217,
      248,
      263,
      274,
      290,
      293,
      330,
      341,
      353,
      370,
      383,
      394,
      402,
      413,
      424,
      436,
      442,
      443,
      438,
      451,
      455,
      456,
      457,
      457,
      456,
      454,
      451,
      448,
      447,
      447,
      447,
      447,
      447,
      447,
      447,
      456,
      462,
      432,
      412,
      402,
      394,
      381,
      365,
      358,
      346,
      306,
      310,
      304,
      293,
      291,
      261,
      246,
      241,
      218,
      189,
      182,
      178,
      158,
      152,
      148,
      174,
      224,
      262,
      279,
      286,
      297,
      364,
      370,
      375,
      379,
      389,
      397,
      408,
      415,
      420,
      427,
      436,
      441,
      446,
      453,
      463,
      465,
      473,
      478,
      480,
      480,
      482,
      482,
      482,
      482,
      482,
      481,
      480,
      479,
      479,
      479,
      479,
      479,
      478,
      477,
      477,
      476,
      476,
      484,
      479,
      482,
      482,
      481,
      482,
      481,
      482,
      481,
      482,
      480,
      481,
      480,
      481,
      479,
      480,
      478,
      479,
      479,
      479,
      479,
      480,
      480,
      481,
      482,
      483,
      484,
      484,
      482,
      482,
      482,
      482,
      482,
      483,
      482,
      482,
      481,
      480,
      477,
      476,
      474,
      473,
      472,
      471,
      471,
      470,
      469,
      468,
      469,
      469,
      470,
      471,
      489,
      495,
      501,
      510,
      508,
      486,
      463,
      445,
      426,
      428,
      413,
      396,
      375,
      364,
      357,
      349,
      347,
      333,
      335,
      321,
      324,
      296,
      261,
      260,
      252,
      253,
      252,
      224,
      224,
      200,
      177,
      165,
      128,
      71
    ],
    "swim:timestamps": [
      1785503550,
      1785503565,
      1785503580,
      1785503625,
      1785503640,
      1785503685,
      1785503700,
      1785503745,
      1785503760,
      1785503805,
      1785503865,
      1785503925,
      1785503985,
      1785504045,
      1785504106,
      1785504166,
      1785504226,
      1785504286,
      1785504346,
      1785504406,
      1785504466,
      1785504526,
      1785504586,
      1785504646,
      1785504706,
      1785504766,
      1785504826,
      1785504886,
      1785504946,
      1785505006,
      1785505066,
      1785505130,
      1785505186,
      1785505247,
      1785505307,
      1785505367,
      1785505427,
      1785505487,
      1785505547,
      1785505607,
      1785505667,
      1785505727,
      1785505787,
      1785505851,
      1785505876,
      1785505912,
      1785505971,
      1785506031,
      1785506091,
      1785506144,
      1785506152,
      1785506212,
      1785506272,
      1785506332,
      1785506392,
      1785506452,
      1785506512,
      1785506567,
      1785506627,
      1785506687,
      1785506747,
      1785506813,
      1785506873,
      1785506933,
      1785512353,
      1785512413,
      1785512473,
      1785512533,
      1785512593,
      1785512653,
      1785512774,
      1785512834,
      1785512894,
      1785512954,
      1785513074,
      1785513134,
      1785513194,
      1785513254,
      1785513314,
      1785513375,
      1785513435,
      1785513495,
      1785513555,
      1785513615,
      1785513675,
      1785513735,
      1785513795,
      1785513855,
      1785513915,
      1785513975,
      1785514036,
      1785514096,
      1785514156,
      1785514216,
      1785514276,
      1785514336,
      1785514396,
      1785514456,
      1785514516,
      1785514576,
      1785514636,
      1785514697,
      1785514757,
      1785514817,
      1785514877,
      1785514937,
      1785514997,
      1785515128,
      1785515177,
      1785515189,
      1785515249,
      1785515297,
      1785515309,
      1785515358,
      1785515369,
      1785515418,
      1785515429,
      1785515478,
      1785515489,
      1785515538,
      1785515549,
      1785515598,
      1785515609,
      1785515658,
      1785515669,
      1785515718,
      1785515729,
      1785515778,
      1785515789,
      1785515838,
      1785515849,
      1785515898,
      1785515910,
      1785515970,
      1785516030,
      1785516090,
      1785516150,
      1785516210,
      1785516270,
      1785516330,
      1785516390,
      1785516450,
      1785516510,
      1785516570,
      1785516630,
      1785516691,
      1785516751,
      1785516811,
      1785516871,
      1785516931,
      1785516991,
      1785517051,
      1785517111,
      1785517171,
      1785517231,
      1785517291,
      1785517351,
      1785517412,
      1785517472,
      1785517532,
      1785517592,
      1785517652,
      1785517712,
      1785517772,
      1785517832,
      1785517892,
      1785517952,
      1785518002,
      1785518012,
      1785518072,
      1785518133,
      1785518193,
      1785518239,
      1785518253,
      1785518296,
      1785518313,
      1785518359,
      1785518373,
      1785518426,
      1785518433,
      1785518493,
      1785518553,
      1785518613,
      1785518673,
      1785518720,
      1785518733,
      1785518783,
      1785518793,
      1785518849,
      1785518914,
      1785518969,
      1785519034,
      1785519094
    ],
    "wof:geomhash": "2ba4baea6c2d595ab9f131f34a62936e",
    "wof:id": 2032053797,
    "wof:repo": "sfomuseum-data-flights-2026-07"
  },
  "bbox": [
    -122.55,
    33.819722222222225,
    -104.66027777777778,
    39.85388888888889
  ],
  "geometry": {"coordinates":[[-122.38333333333334,37.61666666666667],[-122.38611111111112,37.623333333333335],[-122.4,37.63333333333333],[-122.43972222222223,37.64694444444444],[-122.46666666666667,37.666666666666664],[-122.51388888888889,37.66833333333333],[-122.55,37.65],[-122.54527777777777,37.60861111111111],[-122.53333333333333,37.583333333333336],[-122.50138888888888,37.53638888888889],[-122.43805555555556,37.46361111111111],[-122.35083333333333,37.39888888888889],[-122.26083333333334,37.33277777777778],[-122.16805555555555,37.263888888888886],[-122.07444444444444,37.18694444444444],[-121.97777777777777,37.10777777777778],[-121.86138888888888,37.01305555555555],[-121.76,36.93],[-121.65833333333335,36.846111111111114],[-121.55361111111111,36.75972222222222],[-121.44805555555556,36.6725],[-121.34138888888889,36.58361111111111],[-121.23611111111111,36.495555555555555],[-121.12916666666666,36.40611111111111],[-121.02083333333333,36.315],[-120.91083333333334,36.222500000000004],[-120.8025,36.130833333333335],[-120.69416666666667,36.03861111111111],[-120.58666666666666,35.947222222222216],[-120.47972222222222,35.855555555555554],[-120.37416666666665,35.765],[-120.2713888888889,35.67666666666666],[-120.1825,35.60027777777778],[-120.07638888888889,35.50833333333333],[-119.97111111111111,35.41694444444444],[-119.86722222222221,35.32611111111112],[-119.77,35.23083333333334],[-119.67694444444444,35.13138888888889],[-119.58444444444444,35.031666666666666],[-119.49027777777778,34.930277777777775],[-119.39666666666668,34.82694444444445],[-119.3086111111111,34.72694444444445],[-119.22777777777777,34.63388888888889],[-119.13416666666667,34.52638888888889],[-119.1,34.483333333333334],[-119.05,34.43333333333333],[-118.98555555555555,34.35722222222223],[-118.91388888888889,34.27722222222222],[-118.84305555555555,34.2],[-118.78333333333333,34.13333333333333],[-118.77666666666667,34.13361111111111],[-118.70916666666668,34.07138888888889],[-118.63027777777778,34.02638888888889],[-118.53361111111111,34.01722222222222],[-118.44444444444444,34.01222222222222],[-118.36416666666666,34.02611111111111],[-118.28388888888888,34.03472222222222],[-118.21666666666667,34.05],[-118.18333333333334,34.016666666666666],[-118.21666666666667,33.96666666666667],[-118.26666666666667,33.96666666666667],[-118.33166666666666,33.95916666666667],[-118.38111111111111,33.95416666666667],[-118.42333333333333,33.95],[-118.44055555555556,33.94611111111111],[-118.5075,33.93861111111111],[-118.6061111111111,33.92583333333333],[-118.65833333333335,33.87972222222222],[-118.58555555555554,33.831388888888895],[-118.48805555555556,33.819722222222225],[-118.35444444444444,33.94611111111111],[-118.26666666666667,34.026944444444446],[-118.16361111111112,34.08555555555556],[-118.05722222222222,34.14555555555555],[-117.84277777777777,34.26611111111111],[-117.73138888888889,34.32833333333333],[-117.60555555555555,34.401944444444446],[-117.49361111111111,34.469166666666666],[-117.37888888888888,34.53722222222222],[-117.26083333333334,34.606944444444444],[-117.14166666666668,34.677499999999995],[-117.0213888888889,34.74805555555556],[-116.89944444444446,34.819722222222225],[-116.77444444444444,34.89277777777778],[-116.65527777777778,34.97555555555556],[-116.53833333333333,35.064166666666665],[-116.42027777777778,35.15361111111111],[-116.30166666666666,35.24277777777778],[-116.18111111111112,35.33305555555556],[-116.05944444444444,35.42388888888889],[-115.93861111111111,35.513333333333335],[-115.81388888888888,35.60583333333334],[-115.69166666666668,35.69583333333333],[-115.57,35.784166666666664],[-115.44722222222222,35.87305555555555],[-115.32638888888889,35.96],[-115.20361111111112,36.04833333333333],[-115.0611111111111,36.11],[-114.90944444444445,36.15694444444444],[-114.7575,36.203611111111115],[-114.60333333333332,36.250277777777775],[-114.44861111111112,36.2975],[-114.2961111111111,36.343611111111116],[-114.11194444444443,36.399166666666666],[-113.95861111111111,36.44472222222222],[-113.80499999999999,36.49055555555556],[-113.64944444444446,36.53638888888889],[-113.3286111111111,36.62916666666667],[-113.18333333333334,36.6725],[-113.1725,36.67444444444444],[-113.01555555555555,36.719166666666666],[-112.86916666666666,36.76277777777778],[-112.86333333333333,36.76444444444444],[-112.71277777777777,36.80722222222222],[-112.70694444444445,36.80888888888889],[-112.55555555555556,36.85194444444445],[-112.5525,36.85277777777778],[-112.39583333333334,36.89666666666667],[-112.39055555555557,36.89805555555556],[-112.24027777777778,36.94027777777777],[-112.2375,36.941111111111105],[-112.08305555555555,36.98416666666667],[-112.07888888888888,36.98555555555556],[-111.92444444444445,37.02833333333333],[-111.92083333333333,37.029444444444444],[-111.7675,37.07138888888889],[-111.765,37.07222222222222],[-111.61,37.11472222222223],[-111.60638888888889,37.11555555555556],[-111.45027777777779,37.158055555555556],[-111.44777777777779,37.15888888888889],[-111.29194444444444,37.200833333333335],[-111.28944444444444,37.20166666666667],[-111.13361111111112,37.25555555555555],[-110.98194444444445,37.315555555555555],[-110.8325,37.374722222222225],[-110.68305555555555,37.433611111111105],[-110.53138888888888,37.49333333333333],[-110.38111111111111,37.55166666666666],[-110.23138888888889,37.609722222222224],[-110.07944444444443,37.66861111111111],[-109.9263888888889,37.7275],[-109.7725,37.78638888888889],[-109.62138888888889,37.843611111111116],[-109.47111111111111,37.90083333333333],[-109.32,37.95777777777778],[-109.16777777777779,38.014722222222225],[-109.01555555555555,38.07138888888889],[-108.86444444444444,38.12861111111111],[-108.71777777777778,38.18722222222222],[-108.57055555555556,38.24472222222222],[-108.42111111111112,38.30305555555555],[-108.27222222222223,38.36055555555556],[-108.12388888888889,38.4175],[-107.97555555555556,38.474444444444444],[-107.82833333333333,38.52972222222222],[-107.67805555555556,38.58638888888889],[-107.49722222222222,38.653888888888886],[-107.34777777777778,38.71055555555556],[-107.18972222222223,38.77027777777778],[-107.05305555555556,38.82138888888889],[-106.89083333333333,38.88166666666667],[-106.705,38.95055555555556],[-106.54277777777777,39.01083333333333],[-106.38527777777779,39.06805555555556],[-106.23416666666667,39.12277777777778],[-106.08666666666666,39.17638888888889],[-105.96666666666667,39.21666666666667],[-105.94722222222222,39.22638888888889],[-105.81305555555555,39.27444444444444],[-105.68416666666667,39.321111111111115],[-105.56083333333333,39.36611111111111],[-105.46666666666667,39.4],[-105.44527777777778,39.407777777777774],[-105.35,39.416666666666664],[-105.32416666666666,39.41722222222222],[-105.23333333333333,39.416666666666664],[-105.20277777777778,39.41777777777777],[-105.1,39.416666666666664],[-105.08722222222222,39.41861111111111],[-104.98027777777779,39.426944444444445],[-104.88611111111112,39.44222222222222],[-104.79944444444445,39.468333333333334],[-104.7538888888889,39.528055555555554],[-104.71666666666667,39.583333333333336],[-104.7125,39.59],[-104.68333333333334,39.63333333333333],[-104.67527777777778,39.64694444444444],[-104.66666666666667,39.7],[-104.6613888888889,39.75361111111111],[-104.66666666666667,39.8],[-104.66027777777778,39.845555555555556],[-104.66333333333334,39.85388888888889]],"type":"LineString"}
}
