{
  "id": 2031982725,
  "type": "Feature",
  "properties": {
    "geom:area": 0,
    "geom:bbox": "-114.293333,30.006389,-93.230278,45.057778",
    "geom:latitude": 40.813376371537686,
    "geom:longitude": -100.20204515322298,
    "src:alt_label": "swim-path",
    "src:geom": "swim",
    "swim:altitudes": [
      "350C",
      "350C",
      "350C",
      "350C",
      "350C",
      "350C",
      "350C",
      "350C",
      "350C",
      "350C",
      "350C",
      "350C",
      "350C",
      "350C",
      "350C",
      "350C",
      "350C",
      "350C",
      "350C",
      "350C",
      "350C",
      "350C",
      "350C",
      "350C",
      "350C",
      "350C",
      "350C",
      "350C",
      "350C",
      "350C",
      "350C",
      "350C",
      "350C",
      "350C",
      "350C",
      "350C",
      "350C",
      "350C",
      "350C",
      "350",
      "350",
      "350",
      "350",
      "356",
      "363",
      "365",
      "370C",
      "370C",
      "370C",
      "370C",
      "370C",
      "370C",
      "370C",
      "370C",
      "370C",
      "370C",
      "370C",
      "370C",
      "370C",
      "370C",
      "370C",
      "370C",
      "370C",
      "370C",
      "370C",
      "370C",
      "370C",
      "370C",
      "370C",
      "370C",
      "370C",
      "370C",
      "370C",
      "370C",
      "370C",
      "370C",
      "370C",
      "370C",
      "370C",
      "370C",
      "370C",
      "370C",
      "370C",
      "370C",
      "370C",
      "370C",
      "370C",
      "370C",
      "370C",
      "370C",
      "370C",
      "370C",
      "370C",
      "370C",
      "370C",
      "370C",
      "370C",
      "370C",
      "370",
      "364",
      "353",
      "330C",
      "330",
      "315",
      "289",
      "259",
      "235",
      "206",
      "170",
      "152",
      "141",
      "126",
      "115",
      "106",
      "102",
      "089",
      "082",
      "078",
      "074",
      "070",
      "070",
      "070",
      "070",
      "069",
      "063",
      "058",
      "047",
      "040",
      "035",
      "031",
      "027",
      "023",
      "020",
      "016",
      "023",
      "025",
      "088",
      "111",
      "122",
      "160",
      "201",
      "228",
      "240",
      "282",
      "291",
      "302",
      "327",
      "335",
      "340",
      "343",
      "350",
      "356",
      "360C",
      "360C",
      "360C",
      "360C",
      "360C",
      "360C",
      "360C",
      "361C",
      "360C",
      "360C",
      "360C",
      "360C",
      "360C",
      "360C",
      "360C",
      "360C",
      "360C",
      "360C",
      "360C",
      "360C",
      "360C",
      "360C",
      "360C",
      "360C",
      "360C",
      "360C",
      "360C",
      "360",
      "370",
      "380C",
      "380C",
      "380C",
      "380C",
      "380C",
      "380C",
      "380C",
      "380C",
      "380C",
      "380C",
      "380C",
      "380C",
      "380C",
      "380C",
      "380C",
      "380C",
      "380C",
      "380C",
      "380C",
      "380C",
      "380C",
      "380C",
      "380C",
      "380C",
      "380C",
      "380C",
      "380C",
      "380C",
      "380C",
      "380C",
      "380C",
      "380C",
      "380C",
      "380C",
      "380C",
      "380C",
      "380C",
      "380C",
      "380C",
      "380C",
      "380C",
      "380C",
      "380C",
      "381C",
      "381C",
      "380C",
      "380C",
      "380C",
      "380C",
      "380C",
      "380C",
      "380C",
      "380C",
      "380C",
      "380C",
      "380C",
      "380",
      "367",
      "363",
      "357",
      "343",
      "333",
      "322",
      "314",
      "301",
      "292",
      "280",
      "272",
      "260",
      "252",
      "240",
      "231",
      "218",
      "210",
      "198",
      "190",
      "178",
      "171",
      "160",
      "155",
      "146",
      "141",
      "132",
      "128",
      "120",
      "115",
      "106",
      "100",
      "091",
      "088",
      "080",
      "077",
      "062",
      "058",
      "050",
      "050",
      "037",
      "029",
      "026",
      "023",
      "021",
      "016",
      "014",
      "009"
    ],
    "swim:geom": "path",
    "swim:speeds": [
      512,
      511,
      510,
      509,
      510,
      510,
      510,
      510,
      510,
      510,
      510,
      510,
      509,
      509,
      509,
      509,
      510,
      512,
      512,
      511,
      511,
      511,
      512,
      513,
      512,
      511,
      511,
      504,
      511,
      511,
      512,
      514,
      512,
      511,
      511,
      510,
      511,
      510,
      510,
      510,
      510,
      510,
      510,
      509,
      507,
      506,
      502,
      502,
      503,
      504,
      504,
      505,
      505,
      506,
      507,
      505,
      505,
      501,
      499,
      498,
      500,
      499,
      500,
      499,
      499,
      501,
      500,
      499,
      499,
      499,
      498,
      496,
      497,
      497,
      498,
      498,
      498,
      499,
      500,
      501,
      501,
      501,
      500,
      499,
      498,
      499,
      500,
      501,
      502,
      502,
      503,
      504,
      504,
      504,
      504,
      502,
      502,
      504,
      506,
      507,
      506,
      510,
      496,
      490,
      477,
      461,
      430,
      410,
      404,
      403,
      394,
      376,
      372,
      351,
      339,
      317,
      270,
      248,
      248,
      236,
      238,
      239,
      237,
      245,
      253,
      254,
      235,
      212,
      179,
      173,
      149,
      146,
      141,
      144,
      161,
      160,
      280,
      292,
      353,
      383,
      413,
      446,
      447,
      464,
      474,
      483,
      482,
      486,
      488,
      488,
      493,
      489,
      494,
      493,
      489,
      492,
      490,
      492,
      490,
      493,
      491,
      493,
      490,
      490,
      495,
      494,
      495,
      494,
      495,
      494,
      493,
      494,
      493,
      494,
      493,
      494,
      494,
      495,
      496,
      496,
      494,
      489,
      489,
      489,
      489,
      490,
      490,
      490,
      493,
      493,
      492,
      491,
      490,
      487,
      488,
      488,
      489,
      488,
      491,
      489,
      490,
      489,
      490,
      489,
      490,
      489,
      488,
      488,
      487,
      487,
      486,
      485,
      486,
      485,
      481,
      481,
      481,
      481,
      479,
      476,
      475,
      473,
      472,
      474,
      475,
      471,
      465,
      461,
      459,
      459,
      458,
      460,
      461,
      459,
      459,
      459,
      459,
      458,
      453,
      451,
      450,
      451,
      452,
      453,
      454,
      450,
      444,
      434,
      428,
      419,
      414,
      408,
      405,
      396,
      397,
      391,
      387,
      379,
      374,
      365,
      359,
      353,
      335,
      321,
      316,
      313,
      310,
      303,
      306,
      300,
      286,
      269,
      275,
      275,
      249,
      241,
      243,
      238,
      218,
      221,
      199,
      193,
      154,
      153,
      136
    ],
    "swim:timestamps": [
      1785085580,
      1785085640,
      1785085700,
      1785085760,
      1785085820,
      1785085880,
      1785085940,
      1785086000,
      1785086061,
      1785086121,
      1785086181,
      1785086241,
      1785086421,
      1785086481,
      1785086601,
      1785086661,
      1785086721,
      1785086782,
      1785086842,
      1785086902,
      1785086962,
      1785087022,
      1785087082,
      1785087142,
      1785087202,
      1785087262,
      1785087322,
      1785087368,
      1785087382,
      1785087442,
      1785087502,
      1785087548,
      1785087563,
      1785087623,
      1785087668,
      1785087683,
      1785087728,
      1785087743,
      1785087803,
      1785087849,
      1785087863,
      1785087909,
      1785087923,
      1785087983,
      1785088029,
      1785088043,
      1785088115,
      1785088149,
      1785088175,
      1785088209,
      1785088235,
      1785088269,
      1785088296,
      1785088329,
      1785088389,
      1785088569,
      1785088630,
      1785088870,
      1785088990,
      1785089138,
      1785089170,
      1785089198,
      1785089230,
      1785089258,
      1785089318,
      1785089351,
      1785089378,
      1785089438,
      1785089471,
      1785089498,
      1785089558,
      1785089591,
      1785089618,
      1785089678,
      1785089739,
      1785089771,
      1785089831,
      1785089859,
      1785089919,
      1785090039,
      1785090099,
      1785090159,
      1785090219,
      1785090279,
      1785090339,
      1785090399,
      1785090520,
      1785090580,
      1785090640,
      1785090700,
      1785090760,
      1785090820,
      1785090880,
      1785090940,
      1785091000,
      1785091060,
      1785091120,
      1785091181,
      1785091241,
      1785091301,
      1785091361,
      1785091541,
      1785091601,
      1785091661,
      1785091721,
      1785091781,
      1785091841,
      1785091902,
      1785091962,
      1785091986,
      1785092022,
      1785092047,
      1785092082,
      1785092107,
      1785092142,
      1785092202,
      1785092262,
      1785092287,
      1785092322,
      1785092347,
      1785092407,
      1785092442,
      1785092467,
      1785092502,
      1785092562,
      1785092587,
      1785092641,
      1785092683,
      1785092707,
      1785092743,
      1785092761,
      1785092803,
      1785092821,
      1785092863,
      1785105961,
      1785105973,
      1785106153,
      1785106213,
      1785106273,
      1785106394,
      1785106514,
      1785106634,
      1785106694,
      1785106874,
      1785106934,
      1785106994,
      1785107115,
      1785107175,
      1785107216,
      1785107235,
      1785107295,
      1785107336,
      1785107355,
      1785107415,
      1785107456,
      1785107475,
      1785107516,
      1785107535,
      1785107576,
      1785107595,
      1785107636,
      1785107655,
      1785107697,
      1785107757,
      1785107817,
      1785107836,
      1785107877,
      1785107896,
      1785107937,
      1785107956,
      1785108016,
      1785108057,
      1785108196,
      1785108237,
      1785108316,
      1785108358,
      1785108376,
      1785108418,
      1785108436,
      1785108478,
      1785108538,
      1785108658,
      1785108677,
      1785108718,
      1785108838,
      1785108958,
      1785109019,
      1785109079,
      1785109259,
      1785109319,
      1785109379,
      1785109439,
      1785109559,
      1785109575,
      1785109635,
      1785109695,
      1785109740,
      1785109800,
      1785109815,
      1785109860,
      1785109875,
      1785109920,
      1785109995,
      1785110040,
      1785110055,
      1785110100,
      1785110160,
      1785110176,
      1785110220,
      1785110236,
      1785110280,
      1785110341,
      1785110356,
      1785110401,
      1785110476,
      1785110536,
      1785110581,
      1785110596,
      1785110776,
      1785110897,
      1785110957,
      1785111017,
      1785111257,
      1785111317,
      1785111377,
      1785111437,
      1785111558,
      1785111618,
      1785111738,
      1785111798,
      1785111821,
      1785111858,
      1785111918,
      1785111941,
      1785112001,
      1785112038,
      1785112061,
      1785112121,
      1785112218,
      1785112242,
      1785112279,
      1785112362,
      1785112422,
      1785112459,
      1785112482,
      1785112519,
      1785112542,
      1785112579,
      1785112602,
      1785112639,
      1785112662,
      1785112699,
      1785112722,
      1785112752,
      1785112782,
      1785112819,
      1785112842,
      1785112879,
      1785112902,
      1785112939,
      1785112963,
      1785113000,
      1785113023,
      1785113060,
      1785113083,
      1785113120,
      1785113143,
      1785113176,
      1785113203,
      1785113236,
      1785113263,
      1785113296,
      1785113323,
      1785113383,
      1785113443,
      1785113482,
      1785113503,
      1785113563,
      1785113603,
      1785113624,
      1785113657,
      1785113684,
      1785113726,
      1785113744,
      1785113786
    ],
    "wof:geomhash": "512d043f1bdc95d0ed268c55f1f1dd4f",
    "wof:id": 2031982725,
    "wof:repo": "sfomuseum-data-flights-2026-07"
  },
  "bbox": [
    -114.29333333333334,
    30.00638888888889,
    -93.23027777777779,
    45.05777777777777
  ],
  "geometry": {"coordinates":[[-114.29333333333334,41.587500000000006],[-114.11138888888888,41.632777777777775],[-113.93444444444445,41.67666666666666],[-113.75444444444445,41.72083333333334],[-113.57694444444444,41.763888888888886],[-113.39166666666668,41.808611111111105],[-113.21138888888889,41.85194444444445],[-113.03,41.894999999999996],[-112.85583333333332,41.93583333333333],[-112.67055555555557,41.97916666666667],[-112.4863888888889,42.02194444444444],[-112.30388888888889,42.06388888888888],[-111.75805555555556,42.1875],[-111.57555555555555,42.22805555555556],[-111.21055555555556,42.308055555555555],[-111.02555555555556,42.348333333333336],[-110.84138888888889,42.38777777777778],[-110.6575,42.42722222222222],[-110.46972222222223,42.466944444444444],[-110.28472222222221,42.50555555555555],[-110.10166666666666,42.54361111111111],[-109.91638888888889,42.58166666666667],[-109.72805555555556,42.62],[-109.54194444444444,42.657777777777774],[-109.35583333333332,42.69499999999999],[-109.1675,42.73222222222223],[-108.98138888888889,42.76861111111111],[-108.83333333333333,42.79833333333333],[-108.79555555555555,42.80472222222222],[-108.6086111111111,42.840833333333336],[-108.41916666666667,42.87694444444445],[-108.27027777777778,42.905],[-108.23277777777778,42.91222222222222],[-108.045,42.947222222222216],[-107.89527777777778,42.975],[-107.84138888888889,42.984722222222224],[-107.70777777777778,43.009166666666665],[-107.65277777777779,43.019444444444446],[-107.46888888888888,43.05277777777778],[-107.35666666666665,43.07277777777778],[-107.28,43.086666666666666],[-107.16166666666668,43.10777777777778],[-107.0936111111111,43.11972222222222],[-106.90611111111112,43.15277777777778],[-106.78583333333333,43.17361111111111],[-106.74861111111112,43.180277777777775],[-106.52694444444444,43.218333333333334],[-106.41611111111112,43.23722222222222],[-106.33805555555556,43.25055555555556],[-106.22694444444444,43.269444444444446],[-106.15138888888889,43.282222222222224],[-106.03833333333333,43.301111111111105],[-105.96222222222222,43.31361111111111],[-105.85,43.33222222222223],[-105.66333333333334,43.363055555555555],[-105.09416666666667,43.45416666666667],[-104.9075,43.48361111111111],[-104.15111111111112,43.59861111111111],[-103.7786111111111,43.65333333333333],[-103.33416666666666,43.717222222222226],[-103.21333333333334,43.73388888888889],[-103.14666666666668,43.74444444444445],[-103.02388888888889,43.76027777777778],[-102.95805555555556,43.769444444444446],[-102.77055555555556,43.794999999999995],[-102.64722222222223,43.81166666666666],[-102.53916666666666,43.82611111111112],[-102.35222222222221,43.850833333333334],[-102.27027777777778,43.861666666666665],[-102.1675,43.875],[-101.97916666666667,43.89944444444444],[-101.90055555555556,43.909444444444446],[-101.78999999999999,43.92333333333333],[-101.60111111111111,43.94694444444444],[-101.41333333333334,43.97027777777778],[-101.33805555555556,43.97944444444445],[-101.14777777777779,44.0025],[-101.03333333333333,44.01638888888889],[-100.84277777777777,44.03916666666667],[-100.46305555555556,44.08305555555556],[-100.27388888888889,44.10444444444445],[-100.08388888888888,44.12583333333333],[-99.89611111111111,44.14666666666667],[-99.70722222222223,44.16722222222222],[-99.515,44.1875],[-99.32444444444444,44.2075],[-98.94416666666667,44.24638888888889],[-98.75333333333333,44.26555555555556],[-98.56055555555555,44.28444444444444],[-98.36861111111111,44.30277777777778],[-98.18305555555555,44.32027777777778],[-97.99027777777778,44.33833333333334],[-97.79527777777777,44.35611111111111],[-97.60138888888888,44.373333333333335],[-97.40861111111111,44.39],[-97.21416666666667,44.406666666666666],[-97.01916666666666,44.42305555555555],[-96.82583333333334,44.439166666666665],[-96.62833333333333,44.455000000000005],[-96.42972222222222,44.470555555555556],[-96.23138888888889,44.486111111111114],[-95.62805555555555,44.4775],[-95.43722222222223,44.46944444444445],[-95.24416666666667,44.46555555555556],[-95.06027777777777,44.48722222222222],[-94.8913888888889,44.52638888888889],[-94.72722222222222,44.564166666666665],[-94.58333333333333,44.59722222222222],[-94.43444444444445,44.63111111111111],[-94.35,44.65],[-94.28527777777778,44.664722222222224],[-94.2,44.68333333333333],[-94.14666666666668,44.69611111111111],[-94.06666666666666,44.71666666666667],[-94.01638888888888,44.72527777777778],[-93.89833333333334,44.75194444444445],[-93.82166666666666,44.808611111111105],[-93.8,44.85],[-93.77972222222222,44.87111111111111],[-93.76666666666667,44.9],[-93.73333333333333,44.96666666666667],[-93.72833333333334,44.99944444444444],[-93.71666666666667,45.03333333333333],[-93.69055555555556,45.05777777777777],[-93.59527777777777,45.04277777777778],[-93.55,45.016666666666666],[-93.48333333333333,45],[-93.43555555555555,44.974722222222226],[-93.4,44.96666666666667],[-93.37444444444444,44.94833333333333],[-93.35,44.93333333333333],[-93.325,44.926944444444445],[-93.3,44.916666666666664],[-93.2775,44.906388888888884],[-93.23333333333333,44.85],[-93.23027777777779,44.83777777777778],[-93.38694444444445,44.67194444444444],[-93.4475,44.60861111111111],[-93.52027777777778,44.53138888888889],[-93.6613888888889,44.375277777777775],[-93.83388888888888,44.16083333333333],[-94.00194444444445,43.94972222222222],[-94.06972222222223,43.86416666666667],[-94.35972222222222,43.49472222222222],[-94.44805555555556,43.38111111111111],[-94.52444444444444,43.2575],[-94.61749999999999,42.99777777777778],[-94.66277777777778,42.86694444444444],[-94.68722222222223,42.78777777777778],[-94.70944444444444,42.733333333333334],[-94.75083333333333,42.61277777777778],[-94.77916666666667,42.5225],[-94.79583333333333,42.480555555555554],[-94.84138888888889,42.346944444444446],[-94.87027777777777,42.25694444444444],[-94.8863888888889,42.215],[-94.91638888888889,42.12444444444444],[-94.93194444444445,42.080555555555556],[-94.96027777777778,41.99138888888889],[-94.97638888888889,41.94833333333333],[-95.00583333333333,41.858333333333334],[-95.01194444444444,41.84138888888889],[-95.04833333333333,41.727222222222224],[-95.08111111111111,41.594722222222224],[-95.08305555555555,41.45722222222223],[-95.08611111111111,41.40694444444444],[-95.08722222222222,41.319722222222225],[-95.08972222222222,41.26861111111111],[-95.09222222222222,41.18194444444444],[-95.09583333333333,41.130833333333335],[-95.1236111111111,40.994166666666665],[-95.14055555555557,40.9125],[-95.20916666666668,40.586666666666666],[-95.22638888888889,40.50555555555555],[-95.26666666666667,40.31444444444444],[-95.28361111111111,40.235],[-95.28944444444444,40.206944444444446],[-95.3125,40.10055555555556],[-95.325,40.043055555555554],[-95.34277777777777,39.963055555555556],[-95.375,39.828611111111115],[-95.4388888888889,39.56305555555555],[-95.4525,39.505833333333335],[-95.47055555555556,39.43083333333333],[-95.53972222222222,39.14111111111111],[-95.60194444444444,38.876666666666665],[-95.63361111111112,38.74194444444444],[-95.66472222222222,38.60805555555556],[-95.75833333333334,38.205555555555556],[-95.78944444444444,38.06944444444445],[-95.82027777777778,37.936388888888885],[-95.84916666666666,37.80916666666666],[-95.91055555555556,37.54055555555556],[-95.91638888888889,37.514722222222225],[-95.94694444444445,37.38055555555555],[-95.97611111111111,37.24722222222222],[-96.00083333333333,37.13972222222222],[-96.03083333333333,37.00527777777778],[-96.03694444444444,36.97805555555556],[-96.06055555555555,36.87277777777778],[-96.06638888888888,36.84583333333334],[-96.09027777777777,36.73833333333334],[-96.13194444444444,36.55027777777777],[-96.14916666666667,36.472500000000004],[-96.16111111111111,36.41861111111111],[-96.17861111111111,36.338055555555556],[-96.20777777777778,36.205000000000005],[-96.21916666666667,36.15277777777778],[-96.2363888888889,36.073888888888895],[-96.24833333333333,36.01916666666666],[-96.26555555555555,35.94027777777777],[-96.29444444444444,35.8075],[-96.30138888888888,35.775277777777774],[-96.32444444444444,35.666666666666664],[-96.35833333333333,35.50888888888889],[-96.38722222222223,35.375277777777775],[-96.40944444444445,35.27166666666667],[-96.41527777777779,35.244166666666665],[-96.49944444444445,34.84861111111111],[-96.55472222222222,34.58555555555556],[-96.58194444444445,34.45638888888889],[-96.60916666666667,34.32638888888889],[-96.71638888888889,33.80916666666666],[-96.74305555555556,33.67972222222222],[-96.77,33.54888888888889],[-96.77416666666666,33.41722222222222],[-96.73861111111111,33.16138888888889],[-96.72083333333333,33.032777777777774],[-96.68527777777778,32.776666666666664],[-96.66777777777779,32.65083333333333],[-96.6588888888889,32.60333333333333],[-96.65027777777779,32.52111111111111],[-96.63277777777778,32.39361111111111],[-96.62777777777777,32.34777777777778],[-96.60944444444443,32.22222222222222],[-96.59833333333333,32.13944444444444],[-96.59222222222222,32.095555555555556],[-96.57527777777777,31.96944444444444],[-96.54722222222222,31.761666666666667],[-96.54138888888889,31.718055555555555],[-96.53111111111112,31.64361111111111],[-96.48194444444445,31.472499999999997],[-96.41583333333334,31.359166666666667],[-96.37444444444444,31.291111111111114],[-96.34666666666666,31.24527777777778],[-96.30722222222222,31.180833333333336],[-96.27944444444444,31.134999999999998],[-96.24027777777778,31.070555555555554],[-96.21583333333334,31.030277777777776],[-96.17694444444444,30.96722222222222],[-96.15055555555556,30.927222222222223],[-96.11222222222221,30.868333333333332],[-96.08722222222222,30.829166666666666],[-96.04972222222221,30.769444444444442],[-96.02416666666666,30.731388888888887],[-95.98861111111111,30.675833333333333],[-95.96555555555555,30.639444444444443],[-95.92861111111111,30.581944444444446],[-95.9063888888889,30.546666666666667],[-95.87138888888889,30.493055555555557],[-95.84333333333333,30.46388888888889],[-95.79694444444445,30.416666666666668],[-95.77166666666666,30.390555555555554],[-95.73055555555555,30.348888888888887],[-95.70555555555556,30.323333333333334],[-95.66611111111112,30.28222222222222],[-95.64250000000001,30.25777777777778],[-95.60083333333333,30.21388888888889],[-95.58,30.192777777777778],[-95.53833333333333,30.149444444444445],[-95.51861111111111,30.128611111111113],[-95.47722222222222,30.09361111111111],[-95.4475,30.092499999999998],[-95.35749999999999,30.092777777777776],[-95.27638888888889,30.092777777777776],[-95.21666666666667,30.092777777777776],[-95.19833333333334,30.092499999999998],[-95.12194444444444,30.080833333333334],[-95.12444444444444,30.03805555555556],[-95.13861111111112,30.030833333333334],[-95.17805555555556,30.01361111111111],[-95.19638888888889,30.008055555555554],[-95.23916666666666,30.006666666666668],[-95.24972222222222,30.00722222222222],[-95.28277777777778,30.00638888888889]],"type":"LineString"}
}
