{
  "id": 2031944779,
  "type": "Feature",
  "properties": {
    "geom:area": 0,
    "geom:bbox": "-119.988611,35.998889,-114.907500,36.921389",
    "geom:latitude": 36.57525293107935,
    "geom:longitude": -117.30413195572127,
    "src:alt_label": "swim-path",
    "src:geom": "swim",
    "swim:altitudes": [
      "330C",
      "330C",
      "330C",
      "330C",
      "330C",
      "330C",
      "330C",
      "330C",
      "330C",
      "330C",
      "330C",
      "330C",
      "330C",
      "330C",
      "330",
      "330",
      "330",
      "330",
      "330",
      "330",
      "330",
      "330",
      "330",
      "330",
      "330",
      "330",
      "330",
      "321",
      "319",
      "299",
      "290",
      "290",
      "290",
      "290",
      "290",
      "290",
      "287",
      "287",
      "266",
      "266",
      "247",
      "226",
      "207",
      "200",
      "192",
      "190",
      "190",
      "190",
      "184",
      "174",
      "169",
      "161",
      "155",
      "145",
      "141",
      "131",
      "127",
      "115",
      "112",
      "100",
      "099",
      "093",
      "093",
      "085",
      "083",
      "072",
      "070",
      "060",
      "058",
      "049",
      "048",
      "040",
      "032",
      "031",
      "025"
    ],
    "swim:geom": "path",
    "swim:speeds": [
      461,
      458,
      461,
      463,
      463,
      464,
      464,
      465,
      465,
      465,
      464,
      464,
      463,
      461,
      458,
      460,
      460,
      458,
      459,
      459,
      459,
      458,
      458,
      457,
      457,
      458,
      457,
      457,
      457,
      454,
      445,
      447,
      447,
      449,
      449,
      450,
      446,
      446,
      427,
      427,
      416,
      402,
      389,
      381,
      372,
      336,
      337,
      331,
      329,
      322,
      325,
      317,
      317,
      306,
      307,
      298,
      301,
      294,
      297,
      295,
      296,
      261,
      262,
      259,
      257,
      241,
      241,
      221,
      214,
      175,
      174,
      163,
      160,
      162,
      165
    ],
    "swim:timestamps": [
      1784873465,
      1784873474,
      1784873525,
      1784873594,
      1784873645,
      1784873705,
      1784873714,
      1784873765,
      1784873825,
      1784873834,
      1784873885,
      1784873894,
      1784873954,
      1784874005,
      1784874027,
      1784874066,
      1784874075,
      1784874081,
      1784874126,
      1784874141,
      1784874186,
      1784874195,
      1784874246,
      1784874306,
      1784874327,
      1784874366,
      1784874375,
      1784874426,
      1784874435,
      1784874486,
      1784874555,
      1784874606,
      1784874615,
      1784874666,
      1784874675,
      1784874726,
      1784874786,
      1784874795,
      1784874846,
      1784874855,
      1784874906,
      1784874966,
      1784875027,
      1784875047,
      1784875087,
      1784875119,
      1784875147,
      1784875180,
      1784875207,
      1784875245,
      1784875267,
      1784875299,
      1784875327,
      1784875365,
      1784875387,
      1784875425,
      1784875447,
      1784875492,
      1784875507,
      1784875552,
      1784875567,
      1784875618,
      1784875627,
      1784875672,
      1784875687,
      1784875732,
      1784875747,
      1784875786,
      1784875807,
      1784875852,
      1784875867,
      1784875927,
      1784875972,
      1784875988,
      1784876020
    ],
    "wof:geomhash": "ff225a6b4106119fdfc720789749596a",
    "wof:id": 2031944779,
    "wof:repo": "sfomuseum-data-flights-2026-07"
  },
  "bbox": [
    -119.98861111111111,
    35.99888888888889,
    -114.9075,
    36.921388888888885
  ],
  "geometry": {"coordinates":[[-119.98861111111111,36.921388888888885],[-119.95277777777778,36.913333333333334],[-119.83333333333333,36.896388888888886],[-119.63444444444445,36.88444444444444],[-119.51222222222222,36.87694444444445],[-119.34888888888888,36.86666666666667],[-119.31444444444445,36.864444444444445],[-119.18833333333333,36.85638888888889],[-119.02722222222222,36.84583333333334],[-118.9925,36.843611111111116],[-118.8461111111111,36.83361111111111],[-118.83111111111111,36.83277777777778],[-118.6725,36.82194444444445],[-118.53055555555555,36.81194444444444],[-118.47166666666666,36.806666666666665],[-118.37305555555555,36.80083333333333],[-118.37305555555555,36.80083333333333],[-118.32888888888888,36.7975],[-118.21416666666667,36.78916666666667],[-118.17305555555556,36.78611111111111],[-118.07333333333332,36.778888888888886],[-118.05722222222222,36.77777777777778],[-117.91666666666667,36.76722222222222],[-117.7575,36.755],[-117.68277777777779,36.74916666666667],[-117.60138888888888,36.74277777777778],[-117.585,36.74166666666667],[-117.44194444444445,36.73027777777778],[-117.42888888888889,36.72916666666667],[-117.28722222222223,36.71805555555556],[-117.12027777777777,36.70416666666667],[-116.97888888888889,36.692499999999995],[-116.96666666666667,36.69138888888889],[-116.8125,36.67833333333333],[-116.8125,36.67833333333333],[-116.65805555555556,36.665277777777774],[-116.50555555555556,36.64722222222222],[-116.50555555555556,36.64722222222222],[-116.3863888888889,36.577222222222225],[-116.3863888888889,36.577222222222225],[-116.28555555555555,36.50555555555555],[-116.16972222222223,36.42305555555555],[-116.06805555555555,36.350833333333334],[-116.03444444444445,36.325833333333335],[-115.97222222222223,36.282222222222224],[-115.9238888888889,36.24777777777778],[-115.88277777777778,36.22222222222222],[-115.83277777777778,36.18944444444444],[-115.79277777777777,36.165277777777774],[-115.73305555555555,36.13388888888889],[-115.69722222222222,36.12222222222222],[-115.64277777777778,36.10527777777778],[-115.59666666666666,36.09111111111111],[-115.53305555555555,36.07138888888889],[-115.49944444444445,36.061388888888885],[-115.43527777777778,36.04138888888889],[-115.40277777777779,36.03138888888889],[-115.33194444444445,36.014722222222225],[-115.30527777777777,36.013888888888886],[-115.23111111111112,36.00944444444445],[-115.20694444444445,36.00888888888889],[-115.12527777777777,36.00361111111111],[-115.11472222222221,36.004444444444445],[-115.04777777777778,35.999722222222225],[-115.02777777777777,35.999722222222225],[-114.96166666666667,35.99888888888889],[-114.94472222222223,35.99888888888889],[-114.90777777777778,36.02638888888889],[-114.9075,36.04555555555555],[-114.94388888888889,36.072500000000005],[-114.95416666666667,36.07361111111111],[-115.00888888888889,36.07361111111111],[-115.05361111111111,36.073055555555555],[-115.06416666666667,36.07361111111111],[-115.09805555555555,36.07361111111111]],"type":"LineString"}
}
