{
  "id": 2032024825,
  "type": "Feature",
  "properties": {
    "geom:area": 0,
    "geom:bbox": "-122.552250,36.761860,-121.514160,37.666860",
    "geom:latitude": 37.23681145498877,
    "geom:longitude": -122.1028488945524,
    "src:alt_label": "swim-takeoff",
    "src:geom": "swim",
    "swim:elevations": [
      152,
      506,
      690,
      751,
      910,
      1566,
      1724,
      2170,
      2849,
      3187,
      3639,
      3767,
      4218,
      4511,
      4968,
      5166,
      5367,
      5540,
      6134,
      6349,
      6502,
      6838,
      7035,
      7200,
      7490,
      7758,
      7859,
      8039,
      8447,
      8548,
      8713,
      8810,
      8953
    ],
    "swim:geom": "takeoff",
    "swim:timestamps": [
      1785392546,
      1785392568,
      1785392583,
      1785392587,
      1785392602,
      1785392666,
      1785392678,
      1785392705,
      1785392747,
      1785392772,
      1785392818,
      1785392828,
      1785392864,
      1785392889,
      1785392930,
      1785392948,
      1785392964,
      1785392976,
      1785393026,
      1785393046,
      1785393062,
      1785393099,
      1785393122,
      1785393140,
      1785393172,
      1785393205,
      1785393220,
      1785393243,
      1785393291,
      1785393306,
      1785393332,
      1785393347,
      1785393365
    ],
    "wof:geomhash": "e2f19fc8c3635a3cbe1e07bc864207f3",
    "wof:id": 2032024825,
    "wof:repo": "sfomuseum-data-flights-2026-07"
  },
  "bbox": [
    -122.55225,
    36.76186,
    -121.51416,
    37.66686
  ],
  "geometry": {"coordinates":[[-122.39092,37.62781],[-122.41005,37.63576],[-122.42247,37.64055],[-122.42614,37.64195],[-122.43968,37.64732],[-122.51827,37.66686],[-122.53371,37.65965],[-122.55225,37.62958],[-122.52845,37.57844],[-122.5086,37.54767],[-122.46903,37.48784],[-122.45643,37.47622],[-122.4023,37.43627],[-122.36445,37.4084],[-122.29838,37.35999],[-122.27022,37.33937],[-122.2436,37.3199],[-122.22242,37.30426],[-122.1393,37.24288],[-122.10452,37.21709],[-122.07805,37.19751],[-122.01234,37.14852],[-121.97124,37.11785],[-121.93756,37.09285],[-121.87997,37.0499],[-121.81682,37.00249],[-121.78805,36.9809],[-121.74433,36.94841],[-121.65065,36.87746],[-121.62307,36.85509],[-121.57578,36.81453],[-121.54787,36.79072],[-121.51416,36.76186]],"type":"LineString"}
}
