{
  "id": 2031956277,
  "type": "Feature",
  "properties": {
    "geom:area": 0,
    "geom:bbox": "-122.225590,36.729970,-121.883000,37.287480",
    "geom:latitude": 37.032283787066646,
    "geom:longitude": -122.01851069605448,
    "src:alt_label": "swim-approach",
    "src:geom": "swim",
    "swim:elevations": [
      5234,
      4976,
      4621,
      4590,
      4451,
      4308,
      4169,
      3871,
      3553,
      3488,
      3380,
      3261,
      3136,
      2970,
      2821,
      2687,
      2538,
      2347,
      2217,
      1992,
      1931,
      1828
    ],
    "swim:geom": "approach",
    "swim:timestamps": [
      1784962338,
      1784962362,
      1784962398,
      1784962401,
      1784962416,
      1784962431,
      1784962443,
      1784962476,
      1784962527,
      1784962539,
      1784962564,
      1784962582,
      1784962595,
      1784962614,
      1784962643,
      1784962667,
      1784962692,
      1784962715,
      1784962737,
      1784962765,
      1784962774,
      1784962792
    ],
    "wof:geomhash": "92c7e65e742acd3b2d37fbd3e3aab529",
    "wof:id": 2031956277,
    "wof:repo": "sfomuseum-data-flights-2026-07"
  },
  "bbox": [
    -122.22559,
    36.72997,
    -121.883,
    37.28748
  ],
  "geometry": {"coordinates":[[-121.883,36.72997],[-121.90132,36.76928],[-121.91889,36.83122],[-121.92035,36.83633],[-121.92769,36.86174],[-121.93498,36.88708],[-121.94087,36.90775],[-121.9576,36.96209],[-121.98666,37.03689],[-121.99355,37.05458],[-122.00579,37.08687],[-122.0211,37.10748],[-122.03463,37.11933],[-122.05504,37.13725],[-122.08578,37.16469],[-122.10905,37.18546],[-122.13268,37.20679],[-122.154,37.22558],[-122.17472,37.24359],[-122.20015,37.2656],[-122.20834,37.27268],[-122.22559,37.28748]],"type":"LineString"}
}
