{
  "id": 2031954623,
  "type": "Feature",
  "properties": {
    "geom:area": 0,
    "geom:bbox": "-122.355670,37.441130,-121.247370,37.612880",
    "geom:latitude": 37.52903691597447,
    "geom:longitude": -121.80874552769512,
    "src:alt_label": "swim-approach",
    "src:geom": "swim",
    "swim:elevations": [
      4714,
      4654,
      4424,
      3735,
      3489,
      3411,
      3259,
      2994,
      2676,
      2458,
      2438,
      2438,
      2438,
      2315,
      2134,
      1866,
      1829,
      1759,
      1379,
      1154,
      1097,
      901,
      829,
      703,
      628,
      524,
      428,
      360,
      188,
      139,
      15
    ],
    "swim:geom": "approach",
    "swim:timestamps": [
      1784914762,
      1784914774,
      1784914810,
      1784914883,
      1784914917,
      1784914926,
      1784914950,
      1784914989,
      1784915062,
      1784915098,
      1784915119,
      1784915187,
      1784915201,
      1784915225,
      1784915282,
      1784915336,
      1784915362,
      1784915385,
      1784915443,
      1784915483,
      1784915498,
      1784915540,
      1784915550,
      1784915578,
      1784915592,
      1784915608,
      1784915632,
      1784915648,
      1784915696,
      1784915706,
      1784915737
    ],
    "wof:geomhash": "adc6434bbb8c2e5a9aad206cd2455d92",
    "wof:id": 2031954623,
    "wof:repo": "sfomuseum-data-flights-2026-07"
  },
  "bbox": [
    -122.35567,
    37.44113,
    -121.24737,
    37.61288
  ],
  "geometry": {"coordinates":[[-121.24737,37.59497],[-121.27029,37.5918],[-121.33682,37.58421],[-121.46309,37.5698],[-121.52285,37.56276],[-121.53852,37.56081],[-121.57915,37.55605],[-121.6429,37.54629],[-121.74898,37.53666],[-121.79448,37.5353],[-121.80132,37.51621],[-121.77256,37.45447],[-121.78425,37.44367],[-121.81337,37.44113],[-121.88817,37.44652],[-121.95757,37.45138],[-121.98997,37.45886],[-122.01681,37.46971],[-122.08429,37.49857],[-122.12999,37.51781],[-122.14667,37.52491],[-122.19336,37.54457],[-122.20365,37.54891],[-122.23217,37.56096],[-122.24585,37.56675],[-122.26,37.57268],[-122.27846,37.58048],[-122.2906,37.58553],[-122.32531,37.60016],[-122.33257,37.60331],[-122.35567,37.61288]],"type":"LineString"}
}
