{
  "id": 2031977839,
  "type": "Feature",
  "properties": {
    "geom:area": 0,
    "geom:bbox": "-122.352580,37.491630,-121.276820,37.611630",
    "geom:latitude": 37.54158586333261,
    "geom:longitude": -121.82141228102465,
    "src:alt_label": "swim-approach",
    "src:geom": "swim",
    "swim:elevations": [
      4648,
      4580,
      4480,
      4239,
      4193,
      3729,
      3599,
      3414,
      3382,
      3290,
      3156,
      3104,
      2754,
      2495,
      2357,
      2254,
      2227,
      2103,
      1995,
      1887,
      1780,
      1729,
      1412,
      1358,
      1249,
      1219,
      1216,
      1043,
      976,
      911,
      743,
      667,
      452,
      420,
      365,
      305,
      293,
      192,
      123,
      40
    ],
    "swim:geom": "approach",
    "swim:timestamps": [
      1785103436,
      1785103445,
      1785103462,
      1785103496,
      1785103502,
      1785103554,
      1785103570,
      1785103601,
      1785103625,
      1785103654,
      1785103676,
      1785103683,
      1785103728,
      1785103766,
      1785103792,
      1785103824,
      1785103833,
      1785103850,
      1785103865,
      1785103880,
      1785103913,
      1785103920,
      1785103968,
      1785103977,
      1785104001,
      1785104014,
      1785104017,
      1785104067,
      1785104079,
      1785104091,
      1785104118,
      1785104133,
      1785104179,
      1785104188,
      1785104200,
      1785104216,
      1785104220,
      1785104243,
      1785104259,
      1785104282
    ],
    "wof:geomhash": "d7cc62c9f32dcac69d599b7674d1d4a7",
    "wof:id": 2031977839,
    "wof:repo": "sfomuseum-data-flights-2026-07"
  },
  "bbox": [
    -122.35258,
    37.49163,
    -121.27682,
    37.61163
  ],
  "geometry": {"coordinates":[[-121.27682,37.59091],[-121.29365,37.5887],[-121.32444,37.58533],[-121.38377,37.57898],[-121.39419,37.57778],[-121.48606,37.56686],[-121.51258,37.56368],[-121.56608,37.55785],[-121.60513,37.55299],[-121.64898,37.54559],[-121.67855,37.53831],[-121.688,37.53591],[-121.74913,37.52133],[-121.80158,37.5088],[-121.8361,37.50057],[-121.87828,37.49169],[-121.89038,37.49163],[-121.91289,37.4927],[-121.93292,37.49405],[-121.95295,37.49561],[-121.99741,37.49835],[-122.00603,37.4989],[-122.06896,37.50269],[-122.08071,37.50341],[-122.11011,37.51069],[-122.12419,37.51625],[-122.1283,37.51802],[-122.17432,37.53796],[-122.18552,37.54278],[-122.19651,37.54735],[-122.22137,37.5573],[-122.23436,37.56267],[-122.27291,37.57839],[-122.28037,37.58149],[-122.29043,37.58569],[-122.30388,37.59128],[-122.30683,37.59252],[-122.32389,37.59972],[-122.33563,37.60459],[-122.35258,37.61163]],"type":"LineString"}
}
