{
  "id": 2031977935,
  "type": "Feature",
  "properties": {
    "geom:area": 0,
    "geom:bbox": "-122.346680,37.484140,-121.334290,37.606750",
    "geom:latitude": 37.54396511823211,
    "geom:longitude": -121.84659044975633,
    "src:alt_label": "swim-approach",
    "src:geom": "swim",
    "swim:elevations": [
      4910,
      4621,
      4408,
      4143,
      3891,
      3774,
      3592,
      3436,
      3245,
      3048,
      3048,
      2918,
      2827,
      2666,
      2394,
      2198,
      1972,
      1871,
      1819,
      1792,
      1441,
      1341,
      1057,
      1098,
      947,
      772,
      670,
      632,
      468,
      272,
      110,
      158
    ],
    "swim:geom": "approach",
    "swim:timestamps": [
      1785064660,
      1785064699,
      1785064720,
      1785064763,
      1785064793,
      1785064809,
      1785064839,
      1785064860,
      1785064905,
      1785064945,
      1785064964,
      1785065002,
      1785065015,
      1785065035,
      1785065062,
      1785065082,
      1785065114,
      1785065132,
      1785065139,
      1785065143,
      1785065203,
      1785065234,
      1785065264,
      1785065289,
      1785065324,
      1785065365,
      1785065388,
      1785065402,
      1785065445,
      1785065503,
      1785065538,
      1785065565
    ],
    "wof:geomhash": "e6851fed964d1a743211a0502de81bfd",
    "wof:id": 2031977935,
    "wof:repo": "sfomuseum-data-flights-2026-07"
  },
  "bbox": [
    -122.34668,
    37.48414,
    -121.33429,
    37.60675
  ],
  "geometry": {"coordinates":[[-121.33429,37.58465],[-121.39744,37.5774],[-121.43073,37.57348],[-121.49805,37.56571],[-121.54588,37.5601],[-121.57079,37.5571],[-121.61653,37.55211],[-121.64939,37.55687],[-121.71355,37.57308],[-121.76922,37.58296],[-121.79209,37.57308],[-121.82017,37.53911],[-121.82937,37.52808],[-121.84367,37.51082],[-121.86669,37.4888],[-121.89116,37.48414],[-121.93452,37.48629],[-121.95954,37.48764],[-121.9678,37.48802],[-121.97304,37.48824],[-122.05253,37.49153],[-122.08761,37.49814],[-122.11765,37.51028],[-122.14093,37.52019],[-122.17099,37.53298],[-122.20518,37.54742],[-122.22435,37.55542],[-122.23559,37.5602],[-122.26642,37.57325],[-122.30596,37.58967],[-122.32868,37.59923],[-122.34668,37.60675]],"type":"LineString"}
}
