{
  "id": 2032034097,
  "type": "Feature",
  "properties": {
    "geom:area": 0,
    "geom:bbox": "-122.350000,37.492778,-70.810556,43.146667",
    "geom:latitude": 40.57132765479727,
    "geom:longitude": -96.45889734959908,
    "src:alt_label": "swim-path",
    "src:geom": "swim",
    "swim:altitudes": [
      "023",
      "028",
      "045",
      "051",
      "076",
      "097",
      "108",
      "120",
      "138",
      "156",
      "171",
      "186",
      "200",
      "223",
      "235",
      "249",
      "261",
      "269",
      "280",
      "287",
      "294",
      "302",
      "311",
      "319C",
      "320C",
      "320C",
      "320C",
      "320C",
      "320C",
      "320C",
      "320C",
      "320C",
      "320C",
      "320C",
      "321C",
      "321C",
      "320C",
      "320C",
      "320C",
      "320C",
      "320C",
      "320C",
      "320C",
      "320C",
      "320C",
      "320C",
      "320C",
      "320C",
      "320C",
      "320C",
      "320C",
      "320C",
      "321C",
      "321C",
      "320C",
      "320C",
      "320C",
      "320C",
      "320C",
      "320C",
      "320C",
      "320C",
      "320C",
      "320C",
      "320C",
      "320C",
      "320C",
      "320C",
      "320C",
      "320C",
      "320C",
      "320C",
      "320C",
      "320C",
      "320C",
      "321C",
      "320C",
      "320C",
      "320C",
      "320C",
      "320C",
      "320C",
      "320C",
      "320C",
      "320C",
      "320C",
      "320C",
      "320C",
      "320C",
      "320C",
      "320C",
      "321C",
      "320C",
      "316",
      "299",
      "282C",
      "280C",
      "280C",
      "280C",
      "280C",
      "280C",
      "280C",
      "280C",
      "280C",
      "280C",
      "280C",
      "280C",
      "280C",
      "280C",
      "280C",
      "280C",
      "280C",
      "280C",
      "280C",
      "280C",
      "280C",
      "280C",
      "280C",
      "280C",
      "280C",
      "280C",
      "280C",
      "280C",
      "280C",
      "280C",
      "280C",
      "280C",
      "280C",
      "280C",
      "280C",
      "280C",
      "280C",
      "280C",
      "280C",
      "280C",
      "280C",
      "280C",
      "280C",
      "280C",
      "280C",
      "280C",
      "280C",
      "280C",
      "280C",
      "280C",
      "280C",
      "280C",
      "280C",
      "280C",
      "280C",
      "280C",
      "280C",
      "280C",
      "280C",
      "280C",
      "280C",
      "280C",
      "280C",
      "280C",
      "280C",
      "280C",
      "280C",
      "280C",
      "280C",
      "280C",
      "280C",
      "280C",
      "280C",
      "280C",
      "280C",
      "280C",
      "280C",
      "280C",
      "280C",
      "280C",
      "280C",
      "280C",
      "280C",
      "280C",
      "280C",
      "281C",
      "280C",
      "280C",
      "280C",
      "280C",
      "280C",
      "280C",
      "280C",
      "280C",
      "280C",
      "280C",
      "280C",
      "280C",
      "280C",
      "280C",
      "280C",
      "280C",
      "280C",
      "280C",
      "280C",
      "280C",
      "280C",
      "280C",
      "280C",
      "280C",
      "280C",
      "280C",
      "280C",
      "280C",
      "280C",
      "280C",
      "280C",
      "280C",
      "280C",
      "280C",
      "280C",
      "280",
      "280",
      "280",
      "280",
      "280",
      "281",
      "285",
      "286",
      "289",
      "293",
      "296",
      "300",
      "305",
      "306",
      "313",
      "316",
      "318",
      "319",
      "324",
      "326",
      "334",
      "335",
      "340C",
      "340C",
      "340C",
      "340C",
      "340C",
      "340C",
      "340C",
      "340C",
      "340C",
      "340C",
      "340C",
      "340C",
      "340C",
      "340C",
      "340C",
      "340C",
      "340C",
      "340C",
      "340C",
      "340C",
      "340C",
      "340C",
      "340C",
      "340C",
      "340C",
      "340C",
      "340C",
      "340C",
      "340C",
      "340C",
      "340C",
      "340C",
      "340C",
      "340C",
      "340C",
      "340C",
      "340C",
      "340C",
      "340C",
      "340C",
      "340C",
      "340C",
      "340C",
      "340C",
      "340C",
      "340C",
      "340C",
      "340C",
      "340C",
      "340C",
      "340C",
      "340C",
      "340C",
      "340C",
      "340C",
      "340C",
      "341C",
      "341C",
      "340C",
      "340C",
      "340C",
      "340C",
      "340C",
      "340C",
      "340C",
      "340C",
      "340C",
      "340C",
      "341C",
      "340C",
      "340C",
      "340C",
      "340C",
      "340C",
      "340C",
      "341C",
      "340C",
      "340C",
      "340C",
      "340C",
      "340C",
      "340C",
      "340C",
      "341C",
      "340C",
      "340C",
      "340C",
      "341C",
      "340C",
      "340C",
      "340C",
      "340C",
      "340C",
      "340C",
      "340C",
      "340C",
      "341C",
      "340C",
      "340C",
      "340C",
      "340C",
      "340C",
      "340C",
      "340C",
      "340C",
      "341C",
      "340C",
      "340C",
      "340C",
      "340C",
      "340C",
      "340C",
      "340C",
      "341C",
      "341C",
      "341C",
      "340C",
      "340C",
      "340C",
      "340C",
      "340C",
      "340C",
      "340C",
      "340C",
      "340C",
      "340C",
      "340C",
      "340C",
      "340C",
      "340C",
      "340C",
      "340C",
      "340C",
      "340C",
      "340C",
      "340C",
      "340C",
      "340C",
      "341C",
      "341C",
      "341C",
      "340C",
      "340C",
      "340C",
      "340C",
      "340C",
      "340C",
      "340C",
      "340C",
      "340C",
      "340C",
      "340C",
      "340C",
      "340C",
      "340C",
      "340C",
      "340C",
      "340C",
      "340C",
      "340C",
      "340C",
      "340C",
      "340C",
      "340C",
      "340",
      "342",
      "347",
      "350",
      "356",
      "359C",
      "360C",
      "360C",
      "360C",
      "360C",
      "360C",
      "360C",
      "360C",
      "360C",
      "360C",
      "360C",
      "361C",
      "360C",
      "360C",
      "360C",
      "360C",
      "360C",
      "361C",
      "361C",
      "360C",
      "360C",
      "360C",
      "360C",
      "360C",
      "360C",
      "360C",
      "360C",
      "360C",
      "360C",
      "360C",
      "360C",
      "360C",
      "360C",
      "360C",
      "360C",
      "360C",
      "360C",
      "360C",
      "360C",
      "360C",
      "360C",
      "360C",
      "360C",
      "360C",
      "360C",
      "360C",
      "361C",
      "360C",
      "360C",
      "360C",
      "360C",
      "360C",
      "360C",
      "360C",
      "360C",
      "360C",
      "360C",
      "360C",
      "360C",
      "360C",
      "360C",
      "360C",
      "360C",
      "360C",
      "360C",
      "360C",
      "360C",
      "360C",
      "360C",
      "360C",
      "360C",
      "360C",
      "360C",
      "360C",
      "360C",
      "360C",
      "360C",
      "360C",
      "360C",
      "360C",
      "360C",
      "360C",
      "361C",
      "360C",
      "360C",
      "360C",
      "360C",
      "360C",
      "360C",
      "360",
      "352",
      "342",
      "332",
      "308",
      "303",
      "285",
      "274",
      "262",
      "251",
      "239",
      "232",
      "221",
      "212",
      "201",
      "185",
      "170",
      "163",
      "150",
      "143",
      "130",
      "123",
      "110",
      "106",
      "101",
      "097",
      "082",
      "080",
      "080",
      "076",
      "070",
      "066",
      "060",
      "060",
      "053",
      "049",
      "042",
      "040",
      "034",
      "031",
      "024",
      "022",
      "016",
      "014",
      "009",
      "006",
      "002"
    ],
    "swim:geom": "path",
    "swim:speeds": [
      246,
      260,
      251,
      253,
      258,
      272,
      310,
      350,
      368,
      378,
      387,
      400,
      412,
      403,
      402,
      403,
      404,
      408,
      413,
      415,
      420,
      425,
      426,
      425,
      426,
      431,
      431,
      431,
      430,
      428,
      436,
      430,
      441,
      439,
      444,
      445,
      446,
      445,
      447,
      446,
      448,
      447,
      447,
      446,
      445,
      445,
      444,
      445,
      445,
      445,
      446,
      446,
      447,
      447,
      447,
      447,
      448,
      447,
      448,
      448,
      449,
      450,
      450,
      451,
      451,
      451,
      451,
      452,
      453,
      452,
      452,
      452,
      452,
      454,
      457,
      459,
      460,
      458,
      452,
      450,
      456,
      460,
      462,
      462,
      460,
      457,
      457,
      457,
      457,
      457,
      457,
      457,
      460,
      495,
      489,
      474,
      439,
      439,
      438,
      437,
      427,
      435,
      432,
      434,
      433,
      433,
      432,
      432,
      432,
      432,
      432,
      432,
      432,
      431,
      431,
      431,
      432,
      432,
      432,
      432,
      433,
      433,
      433,
      433,
      433,
      433,
      433,
      433,
      432,
      432,
      432,
      432,
      431,
      431,
      429,
      429,
      428,
      428,
      427,
      426,
      426,
      426,
      428,
      430,
      431,
      431,
      431,
      430,
      430,
      430,
      429,
      428,
      427,
      427,
      427,
      427,
      427,
      427,
      428,
      429,
      429,
      429,
      429,
      430,
      429,
      430,
      429,
      430,
      430,
      430,
      430,
      430,
      430,
      430,
      429,
      426,
      429,
      426,
      430,
      429,
      430,
      429,
      429,
      431,
      429,
      431,
      430,
      432,
      430,
      432,
      430,
      432,
      430,
      433,
      431,
      432,
      432,
      432,
      432,
      432,
      432,
      432,
      432,
      432,
      432,
      432,
      431,
      431,
      431,
      430,
      428,
      428,
      426,
      425,
      425,
      425,
      425,
      427,
      428,
      429,
      428,
      427,
      426,
      425,
      426,
      427,
      429,
      430,
      431,
      433,
      436,
      436,
      439,
      440,
      442,
      443,
      442,
      441,
      440,
      440,
      439,
      439,
      438,
      437,
      437,
      435,
      434,
      433,
      432,
      432,
      432,
      432,
      432,
      432,
      432,
      433,
      433,
      433,
      433,
      433,
      433,
      433,
      434,
      434,
      434,
      434,
      433,
      433,
      433,
      433,
      433,
      433,
      433,
      433,
      434,
      434,
      434,
      434,
      434,
      434,
      434,
      435,
      435,
      435,
      434,
      432,
      431,
      430,
      430,
      430,
      430,
      431,
      432,
      434,
      435,
      436,
      435,
      436,
      435,
      432,
      425,
      424,
      420,
      421,
      423,
      423,
      424,
      424,
      423,
      424,
      424,
      426,
      427,
      427,
      426,
      425,
      424,
      420,
      417,
      415,
      416,
      418,
      418,
      419,
      422,
      423,
      431,
      423,
      430,
      423,
      425,
      423,
      424,
      423,
      424,
      421,
      424,
      420,
      424,
      420,
      420,
      420,
      421,
      420,
      420,
      421,
      421,
      422,
      421,
      421,
      421,
      422,
      421,
      422,
      421,
      420,
      419,
      420,
      418,
      419,
      418,
      419,
      417,
      419,
      419,
      419,
      419,
      421,
      419,
      422,
      423,
      423,
      424,
      423,
      425,
      424,
      426,
      425,
      425,
      424,
      423,
      423,
      422,
      422,
      422,
      422,
      422,
      422,
      422,
      423,
      423,
      423,
      424,
      424,
      425,
      425,
      427,
      427,
      429,
      429,
      430,
      430,
      429,
      429,
      429,
      429,
      428,
      427,
      423,
      421,
      420,
      421,
      423,
      424,
      425,
      427,
      428,
      430,
      430,
      430,
      428,
      425,
      423,
      422,
      422,
      422,
      421,
      421,
      420,
      419,
      419,
      419,
      420,
      421,
      421,
      420,
      419,
      420,
      419,
      419,
      417,
      420,
      418,
      420,
      418,
      421,
      419,
      421,
      419,
      422,
      419,
      422,
      421,
      423,
      422,
      422,
      422,
      422,
      421,
      421,
      421,
      421,
      421,
      422,
      422,
      423,
      423,
      424,
      424,
      425,
      425,
      425,
      425,
      425,
      425,
      424,
      423,
      422,
      421,
      420,
      420,
      420,
      420,
      420,
      420,
      421,
      422,
      423,
      424,
      426,
      428,
      427,
      426,
      425,
      424,
      421,
      420,
      419,
      420,
      422,
      424,
      425,
      421,
      412,
      410,
      403,
      402,
      382,
      379,
      371,
      370,
      364,
      358,
      361,
      354,
      357,
      349,
      352,
      342,
      337,
      297,
      296,
      292,
      282,
      243,
      242,
      228,
      233,
      224,
      223,
      214,
      217,
      198,
      196,
      181,
      182,
      171,
      170,
      145,
      144,
      138,
      141,
      138
    ],
    "swim:timestamps": [
      1785451725,
      1785451744,
      1785451785,
      1785451804,
      1785451864,
      1785451924,
      1785451984,
      1785452045,
      1785452105,
      1785452165,
      1785452225,
      1785452285,
      1785452345,
      1785452405,
      1785452465,
      1785452525,
      1785452585,
      1785452645,
      1785452706,
      1785452766,
      1785452826,
      1785452886,
      1785452946,
      1785453006,
      1785453066,
      1785453126,
      1785453186,
      1785453246,
      1785453306,
      1785453322,
      1785453367,
      1785453383,
      1785453427,
      1785453443,
      1785453487,
      1785453503,
      1785453547,
      1785453563,
      1785453607,
      1785453623,
      1785453667,
      1785453683,
      1785453727,
      1785453743,
      1785453787,
      1785453803,
      1785453847,
      1785453863,
      1785453907,
      1785453923,
      1785453967,
      1785453984,
      1785454027,
      1785454044,
      1785454088,
      1785454104,
      1785454148,
      1785454164,
      1785454208,
      1785454224,
      1785454268,
      1785454284,
      1785454328,
      1785454344,
      1785454388,
      1785454404,
      1785454448,
      1785454464,
      1785454524,
      1785454584,
      1785454645,
      1785454705,
      1785454765,
      1785454825,
      1785454885,
      1785454945,
      1785455005,
      1785455065,
      1785455125,
      1785455185,
      1785455245,
      1785455306,
      1785455366,
      1785455426,
      1785455486,
      1785455546,
      1785455606,
      1785455666,
      1785455726,
      1785455786,
      1785455846,
      1785455907,
      1785455967,
      1785456027,
      1785456087,
      1785456147,
      1785456207,
      1785456267,
      1785456327,
      1785456387,
      1785456411,
      1785456447,
      1785456471,
      1785456507,
      1785456567,
      1785456591,
      1785456628,
      1785456651,
      1785456688,
      1785456748,
      1785456771,
      1785456808,
      1785456831,
      1785456868,
      1785456892,
      1785456928,
      1785456952,
      1785456988,
      1785457012,
      1785457048,
      1785457072,
      1785457108,
      1785457132,
      1785457168,
      1785457192,
      1785457228,
      1785457252,
      1785457289,
      1785457312,
      1785457349,
      1785457372,
      1785457409,
      1785457432,
      1785457469,
      1785457493,
      1785457529,
      1785457553,
      1785457589,
      1785457646,
      1785457673,
      1785457706,
      1785457733,
      1785457793,
      1785457853,
      1785457913,
      1785457973,
      1785458033,
      1785458093,
      1785458154,
      1785458214,
      1785458274,
      1785458334,
      1785458394,
      1785458454,
      1785458514,
      1785458574,
      1785458634,
      1785458694,
      1785458755,
      1785458815,
      1785458875,
      1785458935,
      1785458995,
      1785459019,
      1785459055,
      1785459079,
      1785459115,
      1785459139,
      1785459175,
      1785459199,
      1785459235,
      1785459259,
      1785459295,
      1785459319,
      1785459355,
      1785459380,
      1785459416,
      1785459440,
      1785459476,
      1785459500,
      1785459536,
      1785459560,
      1785459620,
      1785459656,
      1785459680,
      1785459716,
      1785459740,
      1785459776,
      1785459800,
      1785459836,
      1785459860,
      1785459896,
      1785459920,
      1785459956,
      1785459980,
      1785460017,
      1785460040,
      1785460077,
      1785460101,
      1785460137,
      1785460161,
      1785460221,
      1785460281,
      1785460317,
      1785460341,
      1785460377,
      1785460401,
      1785460425,
      1785460437,
      1785460461,
      1785460497,
      1785460521,
      1785460557,
      1785460581,
      1785460605,
      1785460618,
      1785460641,
      1785460678,
      1785460701,
      1785460726,
      1785460738,
      1785460761,
      1785460786,
      1785460798,
      1785460822,
      1785460858,
      1785460882,
      1785460906,
      1785460942,
      1785460966,
      1785461002,
      1785461026,
      1785461062,
      1785461086,
      1785461122,
      1785461146,
      1785461182,
      1785461206,
      1785461242,
      1785461266,
      1785461302,
      1785461326,
      1785461362,
      1785461387,
      1785461422,
      1785461447,
      1785461482,
      1785461507,
      1785461542,
      1785461567,
      1785461603,
      1785461627,
      1785461663,
      1785461687,
      1785461723,
      1785461747,
      1785461783,
      1785461807,
      1785461843,
      1785461867,
      1785461903,
      1785461927,
      1785461963,
      1785461987,
      1785462023,
      1785462048,
      1785462083,
      1785462108,
      1785462143,
      1785462168,
      1785462203,
      1785462228,
      1785462263,
      1785462293,
      1785462323,
      1785462348,
      1785462384,
      1785462408,
      1785462444,
      1785462468,
      1785462504,
      1785462528,
      1785462564,
      1785462581,
      1785462624,
      1785462642,
      1785462684,
      1785462702,
      1785462744,
      1785462762,
      1785462804,
      1785462822,
      1785462864,
      1785462882,
      1785462924,
      1785462942,
      1785462984,
      1785463002,
      1785463044,
      1785463062,
      1785463104,
      1785463122,
      1785463182,
      1785463242,
      1785463302,
      1785463363,
      1785463423,
      1785463483,
      1785463543,
      1785463603,
      1785463663,
      1785463723,
      1785463783,
      1785463843,
      1785463903,
      1785463963,
      1785464023,
      1785464084,
      1785464144,
      1785464204,
      1785464264,
      1785464324,
      1785464384,
      1785464444,
      1785464504,
      1785464564,
      1785464578,
      1785464624,
      1785464638,
      1785464684,
      1785464698,
      1785464744,
      1785464759,
      1785464804,
      1785464819,
      1785464865,
      1785464879,
      1785464925,
      1785464939,
      1785464985,
      1785465045,
      1785465059,
      1785465105,
      1785465119,
      1785465179,
      1785465225,
      1785465239,
      1785465285,
      1785465299,
      1785465359,
      1785465419,
      1785465465,
      1785465479,
      1785465525,
      1785465540,
      1785465600,
      1785465646,
      1785465660,
      1785465706,
      1785465720,
      1785465766,
      1785465780,
      1785465826,
      1785465840,
      1785465886,
      1785465900,
      1785465960,
      1785466006,
      1785466020,
      1785466066,
      1785466080,
      1785466140,
      1785466186,
      1785466200,
      1785466246,
      1785466261,
      1785466307,
      1785466321,
      1785466367,
      1785466381,
      1785466427,
      1785466441,
      1785466487,
      1785466501,
      1785466547,
      1785466561,
      1785466607,
      1785466621,
      1785466667,
      1785466693,
      1785466727,
      1785466753,
      1785466787,
      1785466813,
      1785466847,
      1785466873,
      1785466907,
      1785466933,
      1785466994,
      1785467027,
      1785467054,
      1785467088,
      1785467114,
      1785467148,
      1785467174,
      1785467208,
      1785467234,
      1785467268,
      1785467294,
      1785467328,
      1785467354,
      1785467414,
      1785467474,
      1785467534,
      1785467594,
      1785467654,
      1785467715,
      1785467775,
      1785467835,
      1785467895,
      1785467955,
      1785468015,
      1785468075,
      1785468135,
      1785468195,
      1785468255,
      1785468315,
      1785468375,
      1785468435,
      1785468496,
      1785468556,
      1785468616,
      1785468676,
      1785468736,
      1785468796,
      1785468856,
      1785468916,
      1785468976,
      1785469036,
      1785469096,
      1785469117,
      1785469156,
      1785469177,
      1785469217,
      1785469237,
      1785469277,
      1785469297,
      1785469337,
      1785469357,
      1785469397,
      1785469417,
      1785469457,
      1785469477,
      1785469517,
      1785469537,
      1785469577,
      1785469598,
      1785469637,
      1785469658,
      1785469697,
      1785469718,
      1785469757,
      1785469778,
      1785469817,
      1785469838,
      1785469877,
      1785469898,
      1785469937,
      1785469958,
      1785469998,
      1785470018,
      1785470058,
      1785470078,
      1785470118,
      1785470138,
      1785470178,
      1785470198,
      1785470238,
      1785470258,
      1785470298,
      1785470318,
      1785470358,
      1785470378,
      1785470418,
      1785470438,
      1785470478,
      1785470499,
      1785470538,
      1785470559,
      1785470619,
      1785470679,
      1785470739,
      1785470799,
      1785470859,
      1785470919,
      1785470979,
      1785471039,
      1785471099,
      1785471159,
      1785471219,
      1785471279,
      1785471296,
      1785471339,
      1785471368,
      1785471400,
      1785471428,
      1785471460,
      1785471488,
      1785471520,
      1785471548,
      1785471580,
      1785471640,
      1785471668,
      1785471700,
      1785471728,
      1785471760,
      1785471788,
      1785471820,
      1785471848,
      1785471880,
      1785471908,
      1785471940,
      1785471968,
      1785472000,
      1785472028,
      1785472060,
      1785472088,
      1785472120,
      1785472148,
      1785472180,
      1785472214,
      1785472240,
      1785472275,
      1785472300,
      1785472329,
      1785472361,
      1785472394,
      1785472421,
      1785472449,
      1785472481,
      1785472508,
      1785472541,
      1785472569
    ],
    "wof:geomhash": "9956a3b91fe8acdb9ee4c2ec46e8fa9f",
    "wof:id": 2032034097,
    "wof:repo": "sfomuseum-data-flights-2026-07"
  },
  "bbox": [
    -122.35,
    37.49277777777778,
    -70.81055555555555,
    43.14666666666667
  ],
  "geometry": {"coordinates":[[-70.9,42.333333333333336],[-70.86277777777777,42.32222222222222],[-70.81666666666666,42.35],[-70.81055555555555,42.36694444444444],[-70.84833333333333,42.43583333333333],[-70.92583333333334,42.484722222222224],[-71.00555555555556,42.54055555555556],[-71.08749999999999,42.61361111111111],[-71.17611111111111,42.69333333333333],[-71.27055555555556,42.77222222222222],[-71.41083333333334,42.795833333333334],[-71.56138888888889,42.812777777777775],[-71.71583333333334,42.83027777777778],[-71.85916666666667,42.8675],[-71.99722222222222,42.91166666666666],[-72.13527777777779,42.95888888888889],[-72.27277777777778,43.00666666666667],[-72.41083333333334,43.04361111111111],[-72.56888888888888,43.04972222222222],[-72.72222222222223,43.05361111111111],[-72.88111111111111,43.05583333333333],[-73.05166666666666,43.05777777777777],[-73.21555555555555,43.05916666666666],[-73.36888888888888,43.07055555555556],[-73.53472222222221,43.091944444444444],[-73.69694444444445,43.111111111111114],[-73.86027777777777,43.120555555555555],[-74.02361111111111,43.13055555555555],[-74.18527777777778,43.14361111111111],[-74.21861111111112,43.14611111111111],[-74.34777777777778,43.14666666666667],[-74.3825,43.14388888888889],[-74.51694444444445,43.13111111111111],[-74.55111111111111,43.128055555555555],[-74.68416666666667,43.115833333333335],[-74.71944444444445,43.11194444444445],[-74.85499999999999,43.1],[-74.89,43.09666666666667],[-75.02583333333334,43.08361111111111],[-75.06083333333333,43.08027777777778],[-75.19611111111111,43.06722222222223],[-75.23,43.06388888888888],[-75.36611111111111,43.05972222222222],[-75.39833333333334,43.06083333333333],[-75.5363888888889,43.06444444444444],[-75.57166666666666,43.06527777777777],[-75.70611111111111,43.06888888888889],[-75.73805555555556,43.069722222222225],[-75.87444444444444,43.073055555555555],[-75.90666666666667,43.073888888888895],[-76.0436111111111,43.07694444444445],[-76.07972222222222,43.07777777777778],[-76.21555555555555,43.080555555555556],[-76.24916666666667,43.081388888888895],[-76.38388888888889,43.08416666666667],[-76.42166666666667,43.085],[-76.55666666666666,43.087500000000006],[-76.58916666666666,43.088055555555556],[-76.7238888888889,43.08777777777778],[-76.76083333333334,43.08527777777778],[-76.89305555555556,43.07638888888889],[-76.9325,43.07416666666667],[-77.06638888888888,43.065555555555555],[-77.10111111111111,43.06305555555555],[-77.23555555555555,43.05416666666667],[-77.2725,43.05166666666666],[-77.40833333333335,43.0425],[-77.44277777777778,43.04],[-77.61222222222221,43.028055555555554],[-77.77055555555556,43.01694444444444],[-77.93972222222223,43.00472222222222],[-78.1086111111111,42.99138888888889],[-78.27722222222222,42.976111111111116],[-78.44861111111112,42.96055555555556],[-78.61999999999999,42.94499999999999],[-78.79305555555555,42.928888888888885],[-78.96611111111112,42.91222222222222],[-79.13694444444445,42.89555555555555],[-79.30277777777778,42.879444444444445],[-79.47027777777778,42.86277777777778],[-79.64222222222223,42.845555555555556],[-79.81694444444445,42.827222222222225],[-80.0038888888889,42.8075],[-80.17805555555556,42.78916666666667],[-80.34833333333333,42.77055555555555],[-80.51916666666666,42.75194444444445],[-80.68944444444445,42.73305555555556],[-80.85888888888888,42.71388888888889],[-81.02805555555555,42.69444444444444],[-81.1975,42.67472222222222],[-81.37027777777777,42.655833333333334],[-81.53916666666666,42.63944444444444],[-81.71055555555556,42.61833333333333],[-81.86777777777777,42.53444444444444],[-81.99888888888889,42.43888888888888],[-82.11361111111111,42.35583333333334],[-82.2825,42.309444444444445],[-82.44638888888889,42.30222222222222],[-82.61027777777777,42.29472222222222],[-82.77083333333333,42.28722222222222],[-82.8236111111111,42.28638888888889],[-82.93444444444445,42.279444444444444],[-82.97666666666667,42.27777777777778],[-83.09555555555555,42.271388888888886],[-83.2363888888889,42.26416666666667],[-83.29861111111111,42.26111111111111],[-83.39722222222223,42.255833333333335],[-83.49111111111111,42.25111111111111],[-83.55777777777777,42.24722222222222],[-83.72083333333333,42.23833333333334],[-83.81361111111111,42.23305555555556],[-83.88333333333334,42.22888888888889],[-83.97472222222223,42.223888888888894],[-84.04277777777777,42.22],[-84.13694444444445,42.214444444444446],[-84.20361111111112,42.21027777777778],[-84.29555555555555,42.20472222222222],[-84.36444444444444,42.20055555555556],[-84.46027777777778,42.19444444444444],[-84.52666666666667,42.19027777777777],[-84.62166666666666,42.18444444444444],[-84.69166666666668,42.18],[-84.7825,42.17388888888889],[-84.85305555555556,42.169444444444444],[-84.94527777777778,42.163333333333334],[-85.01388888888889,42.15861111111111],[-85.10583333333332,42.152499999999996],[-85.1725,42.14805555555556],[-85.26805555555555,42.14138888888889],[-85.33166666666666,42.13666666666666],[-85.42722222222223,42.13],[-85.48916666666666,42.12555555555556],[-85.58944444444444,42.11833333333333],[-85.67888888888889,42.11194444444445],[-85.74694444444445,42.10666666666667],[-85.83527777777778,42.10027777777778],[-85.90527777777778,42.095],[-85.99111111111111,42.08861111111111],[-86.11972222222222,42.07888888888889],[-86.21583333333334,42.071111111111115],[-86.28388888888888,42.06583333333333],[-86.37305555555555,42.05888888888889],[-86.53194444444445,42.04611111111111],[-86.69083333333333,42.03333333333333],[-86.8425,42.020833333333336],[-87.00138888888888,42.007222222222225],[-87.15916666666668,41.993611111111115],[-87.31694444444445,41.980000000000004],[-87.47555555555556,41.965833333333336],[-87.63416666666667,41.95166666666667],[-87.78972222222222,41.9375],[-87.9475,41.922777777777775],[-88.10222222222221,41.908055555555556],[-88.29027777777777,41.890277777777776],[-88.44527777777778,41.875],[-88.60277777777777,41.859722222222224],[-88.75888888888889,41.84388888888889],[-88.91527777777779,41.82805555555556],[-89.07222222222222,41.81194444444444],[-89.22972222222222,41.79555555555555],[-89.38694444444445,41.778888888888886],[-89.54388888888889,41.76222222222222],[-89.68472222222222,41.74666666666667],[-89.75055555555555,41.73888888888889],[-89.84444444444443,41.72916666666667],[-89.9075,41.721111111111114],[-90.00138888888888,41.711666666666666],[-90.08722222222222,41.70027777777778],[-90.1588888888889,41.693888888888885],[-90.245,41.68277777777777],[-90.31583333333333,41.67611111111111],[-90.40333333333334,41.66444444444444],[-90.47305555555556,41.657777777777774],[-90.56055555555555,41.645833333333336],[-90.65166666666667,41.636944444444445],[-90.71527777777779,41.62916666666667],[-90.8086111111111,41.61833333333333],[-90.87305555555555,41.61055555555556],[-90.96916666666667,41.598888888888894],[-91.03194444444445,41.59111111111111],[-91.12555555555555,41.580000000000005],[-91.19027777777778,41.57138888888889],[-91.34722222222221,41.552499999999995],[-91.44083333333333,41.54111111111111],[-91.50611111111111,41.532777777777774],[-91.60055555555554,41.520833333333336],[-91.66333333333334,41.510555555555555],[-91.75638888888889,41.49],[-91.80361111111111,41.48027777777778],[-91.91083333333334,41.458333333333336],[-91.9575,41.448611111111106],[-92.06333333333333,41.42666666666666],[-92.11,41.41611111111111],[-92.21972222222223,41.39416666666666],[-92.26555555555555,41.38472222222222],[-92.37277777777777,41.36222222222222],[-92.41833333333334,41.35277777777778],[-92.50972222222222,41.333333333333336],[-92.57138888888889,41.32],[-92.66000000000001,41.30138888888889],[-92.72361111111111,41.28777777777778],[-92.87583333333333,41.255],[-93.02833333333334,41.221944444444446],[-93.12027777777777,41.20194444444445],[-93.18111111111112,41.18888888888888],[-93.27,41.16916666666666],[-93.33166666666666,41.15555555555555],[-93.39166666666668,41.14138888888889],[-93.4213888888889,41.132777777777775],[-93.4786111111111,41.11527777777778],[-93.56583333333333,41.08916666666667],[-93.62416666666665,41.072500000000005],[-93.71027777777778,41.047777777777775],[-93.76888888888888,41.030833333333334],[-93.8261111111111,41.01416666666667],[-93.85555555555555,41.00555555555555],[-93.915,40.98833333333334],[-94.00166666666667,40.963055555555556],[-94.0611111111111,40.94555555555555],[-94.11861111111111,40.92861111111111],[-94.14750000000001,40.919999999999995],[-94.20555555555556,40.903055555555554],[-94.265,40.885555555555555],[-94.29138888888889,40.87777777777778],[-94.35249999999999,40.859722222222224],[-94.43777777777778,40.83444444444444],[-94.49694444444445,40.816944444444445],[-94.55777777777777,40.79861111111111],[-94.67333333333333,40.76416666666667],[-94.70555555555556,40.754444444444445],[-94.82138888888889,40.71944444444445],[-94.85416666666666,40.70944444444445],[-94.97194444444445,40.67388888888889],[-95.00305555555556,40.66444444444444],[-95.12249999999999,40.628055555555555],[-95.155,40.61805555555556],[-95.27388888888889,40.58166666666667],[-95.30111111111111,40.57333333333334],[-95.4213888888889,40.53638888888889],[-95.44833333333334,40.528055555555554],[-95.57083333333333,40.49],[-95.59555555555555,40.4825],[-95.7175,40.44444444444444],[-95.77111111111111,40.427499999999995],[-95.83611111111111,40.407222222222224],[-95.91777777777779,40.38166666666667],[-95.98111111111112,40.361666666666665],[-96.06,40.33694444444445],[-96.1261111111111,40.31583333333333],[-96.18944444444445,40.295833333333334],[-96.27166666666666,40.26972222222222],[-96.33361111111111,40.25],[-96.41611111111112,40.223888888888894],[-96.4775,40.20416666666667],[-96.56222222222222,40.176944444444445],[-96.63916666666667,40.151944444444446],[-96.70611111111111,40.13055555555555],[-96.78277777777778,40.105555555555554],[-96.85166666666666,40.083333333333336],[-96.92611111111111,40.05888888888889],[-96.99555555555555,40.03611111111111],[-97.07277777777777,40.01083333333333],[-97.13972222222223,39.98916666666667],[-97.21222222222222,39.965],[-97.28555555555555,39.94083333333333],[-97.35583333333332,39.91777777777777],[-97.42805555555556,39.89361111111111],[-97.49805555555555,39.87027777777778],[-97.57083333333333,39.846111111111114],[-97.64222222222223,39.82222222222222],[-97.71583333333334,39.7975],[-97.785,39.774166666666666],[-97.85805555555555,39.749722222222225],[-97.94416666666667,39.72083333333334],[-98.00138888888888,39.70138888888889],[-98.05805555555555,39.68222222222222],[-98.14416666666668,39.653055555555554],[-98.20055555555555,39.63388888888889],[-98.28777777777778,39.60388888888889],[-98.34277777777777,39.585],[-98.43055555555556,39.555],[-98.48527777777778,39.53611111111111],[-98.5736111111111,39.50555555555555],[-98.63111111111111,39.48555555555556],[-98.71916666666667,39.46083333333333],[-98.77916666666667,39.46055555555556],[-98.86999999999999,39.46388888888889],[-98.93388888888889,39.46555555555556],[-99.02388888888889,39.46361111111111],[-99.08611111111111,39.45444444444445],[-99.17916666666667,39.44083333333333],[-99.23861111111111,39.43277777777777],[-99.33083333333333,39.41972222222222],[-99.39500000000001,39.41083333333333],[-99.48611111111111,39.39805555555556],[-99.54722222222222,39.38916666666667],[-99.6413888888889,39.376111111111115],[-99.70055555555555,39.367777777777775],[-99.80638888888889,39.35305555555556],[-99.85555555555555,39.34638888888889],[-99.95805555555556,39.33361111111111],[-100.00333333333333,39.32777777777778],[-100.15277777777779,39.30888888888889],[-100.30305555555556,39.31388888888888],[-100.4538888888889,39.32083333333334],[-100.60722222222222,39.32777777777778],[-100.75861111111111,39.334722222222226],[-100.9113888888889,39.34111111111111],[-101.0625,39.347500000000004],[-101.21388888888889,39.353611111111114],[-101.36805555555554,39.359722222222224],[-101.51944444444445,39.36527777777778],[-101.67305555555556,39.37083333333334],[-101.82833333333333,39.37638888888889],[-101.97972222222222,39.38166666666667],[-102.13222222222221,39.38638888888889],[-102.2825,39.39083333333333],[-102.41388888888889,39.394999999999996],[-102.56305555555555,39.39944444444444],[-102.71111111111111,39.40333333333333],[-102.86,39.40694444444444],[-103.01,39.41083333333333],[-103.1613888888889,39.41444444444444],[-103.31138888888889,39.41777777777777],[-103.46388888888889,39.420833333333334],[-103.61583333333333,39.42388888888889],[-103.66972222222223,39.42388888888889],[-103.76777777777778,39.426944444444445],[-103.81888888888888,39.427499999999995],[-103.92055555555557,39.42944444444444],[-103.9675,39.42972222222222],[-104.07166666666666,39.431666666666665],[-104.11944444444444,39.43222222222222],[-104.22500000000001,39.43388888888889],[-104.27361111111111,39.433611111111105],[-104.37666666666667,39.43583333333333],[-104.42277777777778,39.43555555555555],[-104.52694444444444,39.437777777777775],[-104.57527777777777,39.43722222222222],[-104.67944444444444,39.439166666666665],[-104.83416666666666,39.440555555555555],[-104.88111111111111,39.440555555555555],[-104.9875,39.44166666666666],[-105.03222222222222,39.44194444444444],[-105.18388888888889,39.44277777777778],[-105.29083333333332,39.44333333333333],[-105.33472222222221,39.44277777777778],[-105.44166666666668,39.44416666666666],[-105.48611111111111,39.44361111111111],[-105.63722222222223,39.44472222222222],[-105.78861111111111,39.443888888888885],[-105.89833333333334,39.44472222222222],[-105.93972222222223,39.44333333333333],[-106.04888888888888,39.44444444444444],[-106.0911111111111,39.44333333333333],[-106.24,39.44277777777778],[-106.34527777777777,39.44361111111111],[-106.38861111111112,39.44361111111111],[-106.49416666666667,39.44277777777778],[-106.53972222222222,39.44194444444444],[-106.65972222222223,39.44166666666666],[-106.69027777777778,39.440555555555555],[-106.80805555555555,39.44027777777777],[-106.83944444444444,39.43861111111111],[-106.96027777777778,39.43583333333333],[-106.98972222222223,39.43527777777778],[-107.14055555555557,39.42583333333333],[-107.26166666666667,39.41888888888889],[-107.29194444444444,39.41611111111111],[-107.4075,39.41027777777778],[-107.44333333333334,39.4075],[-107.5961111111111,39.39805555555556],[-107.71277777777777,39.391666666666666],[-107.74833333333333,39.388888888888886],[-107.86416666666666,39.38194444444444],[-107.91111111111111,39.37916666666667],[-108.01916666666666,39.371944444444445],[-108.05416666666666,39.36972222222222],[-108.16972222222223,39.36222222222222],[-108.205,39.36],[-108.325,39.35166666666667],[-108.35694444444444,39.349722222222226],[-108.47666666666667,39.34138888888889],[-108.5075,39.33916666666667],[-108.62833333333333,39.33083333333334],[-108.66055555555556,39.328611111111115],[-108.78111111111112,39.32],[-108.81027777777777,39.31777777777778],[-108.93222222222222,39.30916666666666],[-108.99333333333334,39.30472222222222],[-109.08416666666666,39.297777777777775],[-109.14666666666668,39.293055555555554],[-109.23611111111111,39.28638888888889],[-109.29861111111111,39.281666666666666],[-109.39111111111112,39.27472222222222],[-109.4525,39.269999999999996],[-109.54166666666667,39.26277777777778],[-109.60499999999999,39.257777777777775],[-109.75777777777778,39.245555555555555],[-109.81861111111111,39.240833333333335],[-109.91166666666668,39.233333333333334],[-110.00416666666666,39.23111111111111],[-110.06555555555555,39.23416666666667],[-110.1261111111111,39.23638888888889],[-110.21972222222223,39.23972222222222],[-110.27916666666667,39.24166666666667],[-110.37249999999999,39.24388888888889],[-110.43166666666667,39.236666666666665],[-110.52,39.225833333333334],[-110.60749999999999,39.215],[-110.66861111111112,39.2075],[-110.81805555555555,39.18861111111111],[-110.93694444444445,39.17333333333333],[-111.11666666666666,39.150555555555556],[-111.26861111111111,39.130833333333335],[-111.39611111111111,39.11416666666667],[-111.54777777777778,39.094166666666666],[-111.69916666666667,39.073888888888895],[-111.85083333333333,39.05333333333333],[-112,39.033055555555556],[-112.18027777777779,39.00833333333333],[-112.32805555555555,38.98777777777778],[-112.44527777777778,38.971111111111114],[-112.62055555555555,38.94638888888888],[-112.76972222222223,38.925],[-112.91638888888889,38.903888888888886],[-113.06305555555555,38.8825],[-113.20916666666668,38.861111111111114],[-113.35444444444444,38.839444444444446],[-113.49972222222222,38.8175],[-113.64527777777778,38.79555555555555],[-113.79333333333334,38.77305555555555],[-113.93944444444445,38.75055555555556],[-114.08611111111111,38.72777777777778],[-114.23222222222222,38.705000000000005],[-114.3761111111111,38.68222222222222],[-114.52194444444444,38.65888888888889],[-114.66777777777779,38.635555555555555],[-114.81194444444444,38.61222222222222],[-114.95916666666668,38.588055555555556],[-114.98944444444444,38.584722222222226],[-115.10388888888889,38.564166666666665],[-115.13555555555556,38.55916666666666],[-115.24944444444445,38.540277777777774],[-115.30777777777777,38.532222222222224],[-115.39250000000001,38.51638888888889],[-115.45305555555557,38.50666666666667],[-115.53999999999999,38.49138888888889],[-115.59972222222221,38.481388888888894],[-115.68527777777778,38.46666666666667],[-115.74555555555555,38.45611111111111],[-115.83111111111111,38.44166666666666],[-115.89194444444445,38.43111111111111],[-115.9786111111111,38.41611111111111],[-116.03916666666666,38.40555555555555],[-116.12333333333332,38.39083333333333],[-116.18416666666667,38.38027777777778],[-116.26833333333333,38.36555555555556],[-116.32833333333333,38.35472222222222],[-116.41527777777779,38.339444444444446],[-116.47500000000001,38.32888888888889],[-116.55888888888889,38.31388888888888],[-116.61972222222222,38.30305555555555],[-116.70444444444445,38.28777777777778],[-116.76694444444445,38.27638888888889],[-116.85027777777778,38.26138888888889],[-116.91194444444444,38.25],[-116.9975,38.23444444444444],[-117.05722222222222,38.223333333333336],[-117.14277777777778,38.20777777777778],[-117.19611111111111,38.19777777777777],[-117.28055555555555,38.18222222222222],[-117.34416666666667,38.17027777777778],[-117.42361111111111,38.15555555555555],[-117.48472222222222,38.14388888888889],[-117.56944444444444,38.128055555555555],[-117.62805555555555,38.11694444444444],[-117.71277777777777,38.10111111111111],[-117.77027777777778,38.09],[-117.85555555555555,38.073888888888895],[-117.915,38.0625],[-117.99833333333333,38.046388888888885],[-118.05777777777777,38.035],[-118.14361111111111,38.01833333333333],[-118.20305555555557,38.00666666666667],[-118.28722222222223,37.99055555555556],[-118.3475,37.978611111111114],[-118.43472222222222,37.96138888888889],[-118.49444444444444,37.94972222222222],[-118.64027777777778,37.92055555555555],[-118.7863888888889,37.89277777777778],[-118.9363888888889,37.87638888888889],[-119.0925,37.85861111111111],[-119.2388888888889,37.84166666666667],[-119.3875,37.82416666666667],[-119.53277777777778,37.80694444444444],[-119.67805555555556,37.78944444444444],[-119.82277777777777,37.77194444444444],[-119.96888888888888,37.75388888888889],[-120.11749999999999,37.73555555555556],[-120.26416666666667,37.717222222222226],[-120.3,37.71666666666667],[-120.4113888888889,37.698611111111106],[-120.48333333333333,37.68333333333333],[-120.55444444444444,37.681666666666665],[-120.61666666666666,37.68333333333333],[-120.69222222222223,37.66583333333333],[-120.75,37.65],[-120.8261111111111,37.65],[-120.88333333333334,37.65],[-120.95222222222222,37.63444444444444],[-121.05416666666666,37.62111111111111],[-121.13333333333334,37.61666666666667],[-121.18138888888889,37.60388888888889],[-121.25,37.6],[-121.30638888888889,37.58722222222222],[-121.38333333333334,37.583333333333336],[-121.42666666666668,37.573888888888895],[-121.5,37.56666666666667],[-121.54388888888889,37.56027777777778],[-121.61666666666666,37.55],[-121.64916666666667,37.54555555555555],[-121.7,37.53333333333333],[-121.74583333333334,37.52166666666667],[-121.8,37.516666666666666],[-121.82805555555555,37.50222222222222],[-121.88333333333334,37.5],[-121.90583333333333,37.49277777777778],[-121.95,37.5],[-121.98444444444445,37.49722222222222],[-122.03333333333333,37.5],[-122.05916666666667,37.501666666666665],[-122.11666666666666,37.516666666666666],[-122.12833333333333,37.51694444444444],[-122.16666666666667,37.53333333333333],[-122.18361111111112,37.540277777777774],[-122.21666666666667,37.55],[-122.23666666666666,37.562777777777775],[-122.26666666666667,37.56666666666667],[-122.28222222222222,37.581944444444446],[-122.3,37.6],[-122.32472222222222,37.599722222222226],[-122.35,37.61666666666667]],"type":"LineString"}
}
