{
  "id": 2031964775,
  "type": "Feature",
  "properties": {
    "geom:area": 0,
    "geom:bbox": "-122.358889,32.753056,-117.236389,37.614167",
    "geom:latitude": 35.03583233082389,
    "geom:longitude": -119.99743736257201,
    "src:alt_label": "swim-path",
    "src:geom": "swim",
    "swim:altitudes": [
      "017",
      "039",
      "055",
      "077",
      "101",
      "116",
      "131",
      "168",
      "189",
      "202",
      "219",
      "250",
      "263",
      "273",
      "282",
      "303",
      "313",
      "324",
      "337",
      "340C",
      "340C",
      "340C",
      "340C",
      "340C",
      "340C",
      "340C",
      "340C",
      "340C",
      "340C",
      "340C",
      "340C",
      "340C",
      "340C",
      "340C",
      "340",
      "340",
      "332",
      "306",
      "278",
      "253",
      "225",
      "182",
      "162",
      "142",
      "107",
      "099",
      "070",
      "061",
      "049",
      "038",
      "015",
      "008",
      "001"
    ],
    "swim:geom": "path",
    "swim:speeds": [
      189,
      224,
      272,
      291,
      301,
      330,
      360,
      394,
      396,
      420,
      428,
      448,
      458,
      473,
      483,
      498,
      499,
      500,
      504,
      505,
      506,
      507,
      506,
      506,
      505,
      505,
      505,
      505,
      505,
      505,
      507,
      509,
      510,
      511,
      511,
      508,
      502,
      492,
      492,
      477,
      427,
      396,
      381,
      368,
      346,
      309,
      237,
      215,
      215,
      203,
      169,
      144,
      141
    ],
    "swim:timestamps": [
      1785019335,
      1785019395,
      1785019455,
      1785019515,
      1785019575,
      1785019635,
      1785019695,
      1785019816,
      1785019876,
      1785019936,
      1785019996,
      1785020116,
      1785020176,
      1785020236,
      1785020296,
      1785020416,
      1785020477,
      1785020529,
      1785020597,
      1785020657,
      1785020717,
      1785020769,
      1785020837,
      1785020890,
      1785020897,
      1785020950,
      1785020957,
      1785021017,
      1785021077,
      1785021137,
      1785021198,
      1785021258,
      1785021310,
      1785021370,
      1785021438,
      1785021498,
      1785021550,
      1785021610,
      1785021671,
      1785021731,
      1785021851,
      1785021971,
      1785022031,
      1785022091,
      1785022211,
      1785022271,
      1785022448,
      1785022508,
      1785022569,
      1785022632,
      1785022752,
      1785022812,
      1785022872
    ],
    "wof:geomhash": "acb3db6d652825d2b0598f9011131caa",
    "wof:id": 2031964775,
    "wof:repo": "sfomuseum-data-flights-2026-07"
  },
  "bbox": [
    -122.35888888888888,
    32.753055555555555,
    -117.2363888888889,
    37.61416666666667
  ],
  "geometry": {"coordinates":[[-117.2363888888889,32.753055555555555],[-117.29777777777778,32.78722222222222],[-117.36611111111111,32.83027777777778],[-117.44194444444445,32.87916666666667],[-117.52361111111111,32.931666666666665],[-117.60722222222222,32.98527777777778],[-117.70138888888889,33.04555555555555],[-117.8736111111111,33.20388888888889],[-117.96805555555555,33.282777777777774],[-118.06611111111111,33.36472222222223],[-118.1675,33.44944444444444],[-118.37777777777777,33.62416666666667],[-118.49027777777778,33.717222222222226],[-118.60499999999999,33.81166666666666],[-118.6975,33.8875],[-118.93444444444445,34.08111111111111],[-119.06388888888888,34.17055555555555],[-119.20111111111112,34.24166666666667],[-119.35777777777777,34.35277777777778],[-119.45222222222222,34.43527777777778],[-119.59222222222222,34.558055555555555],[-119.68472222222222,34.63861111111111],[-119.82277777777777,34.75861111111111],[-119.91888888888889,34.842222222222226],[-119.9388888888889,34.859722222222224],[-120.03777777777778,34.945277777777775],[-120.05805555555555,34.962500000000006],[-120.17055555555557,35.05972222222222],[-120.28777777777778,35.160555555555554],[-120.40666666666667,35.2625],[-120.52583333333334,35.36388888888889],[-120.64611111111111,35.465833333333336],[-120.76361111111112,35.56527777777777],[-120.88388888888889,35.666666666666664],[-121.00333333333333,35.76694444444444],[-121.12277777777777,35.86694444444444],[-121.24555555555555,35.96944444444445],[-121.36194444444443,36.06944444444445],[-121.45444444444445,36.183611111111105],[-121.54222222222222,36.295833333333334],[-121.70777777777778,36.506388888888885],[-121.84722222222221,36.68194444444444],[-121.90361111111112,36.775555555555556],[-121.93194444444445,36.876666666666665],[-121.99666666666667,37.06444444444444],[-122.03027777777778,37.14944444444444],[-122.11666666666666,37.36666666666667],[-122.13333333333334,37.43333333333333],[-122.13333333333334,37.483333333333334],[-122.15944444444445,37.530833333333334],[-122.27194444444444,37.57777777777778],[-122.31638888888888,37.59638888888889],[-122.35888888888888,37.61416666666667]],"type":"LineString"}
}
