{
  "id": 2032031339,
  "type": "Feature",
  "properties": {
    "geom:area": 0,
    "geom:bbox": "-122.344690,37.492580,-121.273970,37.608380",
    "geom:latitude": 37.5409519314415,
    "geom:longitude": -121.8159854457705,
    "src:alt_label": "swim-approach",
    "src:geom": "swim",
    "swim:elevations": [
      4497,
      4316,
      4111,
      3729,
      3537,
      3343,
      3114,
      2904,
      2785,
      2586,
      2438,
      2314,
      2285,
      2073,
      1977,
      1802,
      1516,
      1320,
      1124,
      1064,
      801,
      757,
      554,
      456,
      397,
      252,
      105,
      85
    ],
    "swim:geom": "approach",
    "swim:timestamps": [
      1785416905,
      1785416925,
      1785416948,
      1785416994,
      1785417016,
      1785417038,
      1785417071,
      1785417114,
      1785417130,
      1785417150,
      1785417184,
      1785417233,
      1785417240,
      1785417287,
      1785417301,
      1785417357,
      1785417410,
      1785417435,
      1785417470,
      1785417483,
      1785417533,
      1785417543,
      1785417590,
      1785417616,
      1785417634,
      1785417673,
      1785417710,
      1785417721
    ],
    "wof:geomhash": "110c6e3f8f4384f18cd7a017e7948ac1",
    "wof:id": 2032031339,
    "wof:repo": "sfomuseum-data-flights-2026-07"
  },
  "bbox": [
    -122.34469,
    37.49258,
    -121.27397,
    37.60838
  ],
  "geometry": {"coordinates":[[-121.27397,37.59129],[-121.31126,37.58685],[-121.35444,37.5822],[-121.43872,37.57233],[-121.4793,37.56767],[-121.52046,37.56293],[-121.58026,37.55592],[-121.65249,37.54397],[-121.67847,37.53772],[-121.71033,37.5302],[-121.76172,37.51789],[-121.83338,37.50086],[-121.8433,37.49847],[-121.91039,37.49258],[-121.9299,37.49389],[-122.00704,37.49852],[-122.07435,37.50239],[-122.10522,37.50811],[-122.14283,37.52328],[-122.15557,37.52868],[-122.20205,37.54823],[-122.21111,37.55209],[-122.25361,37.57001],[-122.27267,37.57805],[-122.28538,37.58332],[-122.31304,37.59501],[-122.33707,37.60524],[-122.34469,37.60838]],"type":"LineString"}
}
