{
  "id": 2032036123,
  "type": "Feature",
  "properties": {
    "geom:area": 0,
    "geom:bbox": "-122.392760,37.627170,-121.253350,38.420800",
    "geom:latitude": 38.026338699788816,
    "geom:longitude": -121.83623817928402,
    "src:alt_label": "swim-takeoff",
    "src:geom": "swim",
    "swim:elevations": [
      244,
      668,
      801,
      823,
      963,
      1287,
      1941,
      2266,
      2624,
      2846,
      3060,
      3327,
      3660,
      3970,
      4369,
      4457,
      4642,
      4776,
      5159,
      5211,
      5849,
      5945,
      6088,
      6409,
      6470
    ],
    "swim:geom": "takeoff",
    "swim:timestamps": [
      1785447883,
      1785447927,
      1785447954,
      1785447965,
      1785447991,
      1785448013,
      1785448071,
      1785448103,
      1785448136,
      1785448155,
      1785448178,
      1785448218,
      1785448277,
      1785448329,
      1785448371,
      1785448382,
      1785448405,
      1785448419,
      1785448469,
      1785448478,
      1785448571,
      1785448585,
      1785448609,
      1785448646,
      1785448658
    ],
    "wof:geomhash": "c897b190d1ef8dc67205a92501ceb449",
    "wof:id": 2032036123,
    "wof:repo": "sfomuseum-data-flights-2026-07"
  },
  "bbox": [
    -122.39276,
    37.62717,
    -121.25335,
    38.4208
  ],
  "geometry": {"coordinates":[[-122.38928,37.62717],[-122.39276,37.65574],[-122.36179,37.66805],[-122.34806,37.67236],[-122.31096,37.68411],[-122.27723,37.69569],[-122.19991,37.73461],[-122.16883,37.7686],[-122.13613,37.80445],[-122.11606,37.8267],[-122.0934,37.85169],[-122.04501,37.89527],[-121.9547,37.95698],[-121.86682,38.01643],[-121.79318,38.06602],[-121.7736,38.07933],[-121.73297,38.1068],[-121.70811,38.12349],[-121.6185,38.18359],[-121.60161,38.19486],[-121.42695,38.31137],[-121.39848,38.33039],[-121.35251,38.3602],[-121.27805,38.40559],[-121.25335,38.4208]],"type":"LineString"}
}
