{
  "id": 2032036639,
  "type": "Feature",
  "properties": {
    "geom:area": 0,
    "geom:bbox": "-122.526700,37.624000,-122.159900,37.970440",
    "geom:latitude": 37.81789019121351,
    "geom:longitude": -122.38515531809334,
    "src:alt_label": "swim-takeoff",
    "src:geom": "swim",
    "swim:elevations": [
      122,
      182,
      1581,
      2160,
      2314,
      3402,
      3505
    ],
    "swim:geom": "takeoff",
    "swim:timestamps": [
      1785399579,
      1785399585,
      1785399776,
      1785399842,
      1785399859,
      1785400022,
      1785400042
    ],
    "wof:geomhash": "2d3304c23160270494751f90aa28f063",
    "wof:id": 2032036639,
    "wof:repo": "sfomuseum-data-flights-2026-07"
  },
  "bbox": [
    -122.5267,
    37.624,
    -122.1599,
    37.97044
  ],
  "geometry": {"coordinates":[[-122.38769,37.624],[-122.39284,37.6262],[-122.5267,37.75679],[-122.47462,37.82361],[-122.44915,37.83265],[-122.19513,37.95353],[-122.1599,37.97044]],"type":"LineString"}
}
