{
  "id": 2031962363,
  "type": "Feature",
  "properties": {
    "geom:area": 0,
    "geom:bbox": "-122.360450,36.718160,-121.875660,37.612850",
    "geom:latitude": 37.222694932683304,
    "geom:longitude": -122.0914519565475,
    "src:alt_label": "swim-approach",
    "src:geom": "swim",
    "swim:elevations": [
      5269,
      5226,
      4901,
      4620,
      4498,
      4373,
      4177,
      3876,
      3657,
      3511,
      3215,
      3091,
      2963,
      2886,
      2742,
      2605,
      2561,
      2421,
      2202,
      2080,
      1828,
      1814,
      1635,
      1451,
      1246,
      1217,
      1209,
      954,
      914,
      850,
      792,
      792,
      790,
      695,
      611,
      554,
      433,
      332,
      191,
      38,
      10
    ],
    "swim:geom": "approach",
    "swim:timestamps": [
      1785018928,
      1785018932,
      1785018973,
      1785019008,
      1785019024,
      1785019037,
      1785019064,
      1785019100,
      1785019129,
      1785019142,
      1785019180,
      1785019195,
      1785019225,
      1785019252,
      1785019283,
      1785019313,
      1785019326,
      1785019360,
      1785019391,
      1785019417,
      1785019462,
      1785019485,
      1785019519,
      1785019549,
      1785019582,
      1785019591,
      1785019603,
      1785019642,
      1785019666,
      1785019695,
      1785019727,
      1785019745,
      1785019768,
      1785019793,
      1785019817,
      1785019832,
      1785019869,
      1785019893,
      1785019936,
      1785019978,
      1785019987
    ],
    "wof:geomhash": "d549c7097af37ea49e44533d5370a660",
    "wof:id": 2031962363,
    "wof:repo": "sfomuseum-data-flights-2026-07"
  },
  "bbox": [
    -122.36045,
    36.71816,
    -121.87566,
    37.61285
  ],
  "geometry": {"coordinates":[[-121.87566,36.71816],[-121.87963,36.72346],[-121.90666,36.78705],[-121.92233,36.8426],[-121.92883,36.86576],[-121.93456,36.88611],[-121.94641,36.92804],[-121.96472,36.98167],[-121.98109,37.02377],[-121.98851,37.04276],[-122.00953,37.09657],[-122.0175,37.11688],[-122.0329,37.15635],[-122.05483,37.18526],[-122.08604,37.21163],[-122.11443,37.23569],[-122.12704,37.24621],[-122.1557,37.2704],[-122.18185,37.29242],[-122.20298,37.31009],[-122.22965,37.34387],[-122.21471,37.36138],[-122.18105,37.38014],[-122.15693,37.39943],[-122.14586,37.42798],[-122.14284,37.43562],[-122.13879,37.44568],[-122.12571,37.47812],[-122.12879,37.497],[-122.14493,37.5154],[-122.16672,37.53078],[-122.18065,37.53729],[-122.1995,37.54493],[-122.21907,37.55319],[-122.2376,37.561],[-122.24864,37.56561],[-122.27451,37.57652],[-122.29176,37.58373],[-122.32341,37.59709],[-122.35374,37.60976],[-122.36045,37.61285]],"type":"LineString"}
}
