{
  "id": 2031990143,
  "type": "Feature",
  "properties": {
    "geom:area": 0,
    "geom:bbox": "-122.360300,37.491590,-121.248120,37.615600",
    "geom:latitude": 37.5431522438271,
    "geom:longitude": -121.81148994281452,
    "src:alt_label": "swim-approach",
    "src:geom": "swim",
    "swim:elevations": [
      4749,
      4642,
      4517,
      4451,
      4294,
      4135,
      3776,
      3498,
      3373,
      3345,
      3285,
      3165,
      3024,
      2774,
      2533,
      2337,
      2240,
      2026,
      1968,
      1896,
      1829,
      1829,
      1829,
      1829,
      1725,
      1528,
      1481,
      1265,
      1204,
      1094,
      977,
      829,
      664,
      549,
      392,
      305,
      271,
      186,
      99,
      0
    ],
    "swim:geom": "approach",
    "swim:timestamps": [
      1785197933,
      1785197949,
      1785197966,
      1785197972,
      1785197991,
      1785198009,
      1785198048,
      1785198087,
      1785198118,
      1785198130,
      1785198153,
      1785198174,
      1785198198,
      1785198235,
      1785198265,
      1785198296,
      1785198311,
      1785198341,
      1785198353,
      1785198363,
      1785198385,
      1785198400,
      1785198406,
      1785198425,
      1785198463,
      1785198505,
      1785198516,
      1785198556,
      1785198568,
      1785198586,
      1785198616,
      1785198637,
      1785198670,
      1785198694,
      1785198739,
      1785198763,
      1785198772,
      1785198796,
      1785198818,
      1785198844
    ],
    "wof:geomhash": "b412b740e4b092abbff7530123a1aabd",
    "wof:id": 2031990143,
    "wof:repo": "sfomuseum-data-flights-2026-07"
  },
  "bbox": [
    -122.3603,
    37.49159,
    -121.24812,
    37.6156
  ],
  "geometry": {"coordinates":[[-121.24812,37.5947],[-121.27851,37.59045],[-121.31265,37.58635],[-121.3242,37.58518],[-121.36042,37.58186],[-121.39426,37.57834],[-121.46592,37.56988],[-121.53539,37.56137],[-121.58576,37.55527],[-121.60467,37.55306],[-121.63848,37.54743],[-121.66878,37.53998],[-121.70106,37.53247],[-121.75004,37.52042],[-121.79007,37.51116],[-121.8307,37.50161],[-121.85051,37.49683],[-121.89068,37.49159],[-121.90725,37.49266],[-121.92109,37.49347],[-121.94994,37.49498],[-121.96876,37.49594],[-121.97606,37.4963],[-121.99762,37.49761],[-122.04263,37.50024],[-122.09074,37.50348],[-122.10165,37.50644],[-122.13915,37.52164],[-122.15018,37.5264],[-122.16679,37.53332],[-122.1931,37.54445],[-122.21066,37.55186],[-122.23776,37.56327],[-122.25533,37.57065],[-122.28666,37.58383],[-122.30293,37.59073],[-122.30915,37.59343],[-122.32622,37.60052],[-122.34266,37.60743],[-122.3603,37.6156]],"type":"LineString"}
}
