{
  "id": 2031975829,
  "type": "Feature",
  "properties": {
    "geom:area": 0,
    "geom:bbox": "-122.351389,37.494167,-73.750000,40.566667",
    "geom:latitude": 39.15743763271342,
    "geom:longitude": -98.04634684449698,
    "src:alt_label": "swim-path",
    "src:geom": "swim",
    "swim:altitudes": [
      "020",
      "042",
      "074",
      "098",
      "111",
      "126",
      "148",
      "203",
      "231",
      "242",
      "253",
      "273",
      "287",
      "300",
      "311",
      "320C",
      "320C",
      "320C",
      "320C",
      "320C",
      "320C",
      "320C",
      "320C",
      "320C",
      "320C",
      "320C",
      "320C",
      "320C",
      "320C",
      "320C",
      "320C",
      "320C",
      "320C",
      "320C",
      "320C",
      "320C",
      "320C",
      "320C",
      "320C",
      "320C",
      "320C",
      "320C",
      "320C",
      "320C",
      "320C",
      "320C",
      "320C",
      "320C",
      "320C",
      "320C",
      "320C",
      "320C",
      "320C",
      "320C",
      "320C",
      "320C",
      "320C",
      "320C",
      "320C",
      "320C",
      "320C",
      "320C",
      "320C",
      "320C",
      "320C",
      "320C",
      "320C",
      "320C",
      "320C",
      "320C",
      "320C",
      "320C",
      "320",
      "324",
      "336",
      "340C",
      "340C",
      "340C",
      "340C",
      "340C",
      "340C",
      "340C",
      "340C",
      "340C",
      "340C",
      "340C",
      "340C",
      "340C",
      "340C",
      "340C",
      "340C",
      "340C",
      "340C",
      "340C",
      "340C",
      "340C",
      "340C",
      "340C",
      "340C",
      "340C",
      "340C",
      "340C",
      "340C",
      "340C",
      "340C",
      "340C",
      "340C",
      "340C",
      "340C",
      "340C",
      "340C",
      "340C",
      "340C",
      "340C",
      "340C",
      "340C",
      "340C",
      "340C",
      "340C",
      "340C",
      "340C",
      "340C",
      "340C",
      "340C",
      "340C",
      "340C",
      "340C",
      "340C",
      "340C",
      "340C",
      "340C",
      "340C",
      "340C",
      "340C",
      "340C",
      "340C",
      "340C",
      "340C",
      "340C",
      "340C",
      "340C",
      "340C",
      "340C",
      "340C",
      "340C",
      "340C",
      "340C",
      "340C",
      "340C",
      "340C",
      "340C",
      "340C",
      "340C",
      "340C",
      "340C",
      "340C",
      "340C",
      "340C",
      "340C",
      "340C",
      "340C",
      "340C",
      "340C",
      "340C",
      "340C",
      "340C",
      "340C",
      "340C",
      "340C",
      "340C",
      "340C",
      "340C",
      "340C",
      "340C",
      "340C",
      "340C",
      "340C",
      "340C",
      "340C",
      "340C",
      "340C",
      "340C",
      "340C",
      "340C",
      "340C",
      "340C",
      "340C",
      "340C",
      "340C",
      "340C",
      "340C",
      "340C",
      "340C",
      "340C",
      "340C",
      "340C",
      "340C",
      "340C",
      "340C",
      "340C",
      "340C",
      "340C",
      "340C",
      "340C",
      "340C",
      "340C",
      "340C",
      "340C",
      "340C",
      "340C",
      "340C",
      "340C",
      "340C",
      "340C",
      "340C",
      "340C",
      "340C",
      "340C",
      "340C",
      "340C",
      "340C",
      "340C",
      "340C",
      "340C",
      "340C",
      "340C",
      "340C",
      "340C",
      "340C",
      "340C",
      "340C",
      "340C",
      "340C",
      "340C",
      "340C",
      "340C",
      "340C",
      "340C",
      "340C",
      "340C",
      "340C",
      "340C",
      "340C",
      "340C",
      "340C",
      "340C",
      "340C",
      "340C",
      "340C",
      "340C",
      "340C",
      "340C",
      "340C",
      "340C",
      "340C",
      "340C",
      "340C",
      "340C",
      "340C",
      "340C",
      "340C",
      "340C",
      "340C",
      "340C",
      "340C",
      "340C",
      "340C",
      "340C",
      "340C",
      "340C",
      "340C",
      "340C",
      "340C",
      "340C",
      "340C",
      "340C",
      "340C",
      "340C",
      "340C",
      "340C",
      "340C",
      "340C",
      "340C",
      "340C",
      "340C",
      "340C",
      "340C",
      "340",
      "340",
      "340",
      "321",
      "274",
      "261",
      "253",
      "230",
      "213",
      "194",
      "177",
      "175",
      "163",
      "161",
      "147",
      "134",
      "125",
      "121",
      "112",
      "099",
      "096",
      "086",
      "083",
      "071",
      "062",
      "061",
      "051",
      "043",
      "036",
      "026",
      "017",
      "009",
      "001"
    ],
    "swim:geom": "path",
    "swim:speeds": [
      245,
      284,
      284,
      287,
      337,
      379,
      386,
      403,
      414,
      428,
      433,
      447,
      448,
      445,
      441,
      439,
      436,
      437,
      438,
      440,
      440,
      444,
      446,
      446,
      445,
      445,
      446,
      445,
      446,
      445,
      444,
      445,
      443,
      443,
      442,
      441,
      440,
      439,
      436,
      430,
      428,
      426,
      425,
      425,
      425,
      425,
      424,
      423,
      423,
      423,
      423,
      422,
      421,
      420,
      419,
      418,
      417,
      416,
      414,
      414,
      414,
      414,
      415,
      415,
      415,
      415,
      416,
      418,
      419,
      420,
      420,
      420,
      421,
      421,
      421,
      420,
      420,
      421,
      423,
      425,
      426,
      431,
      429,
      425,
      425,
      429,
      428,
      428,
      428,
      431,
      429,
      433,
      434,
      432,
      435,
      433,
      436,
      434,
      436,
      435,
      435,
      452,
      447,
      452,
      450,
      454,
      456,
      455,
      454,
      455,
      453,
      447,
      444,
      443,
      442,
      442,
      441,
      441,
      440,
      440,
      440,
      438,
      439,
      438,
      439,
      441,
      446,
      447,
      447,
      447,
      447,
      446,
      446,
      446,
      447,
      446,
      445,
      446,
      448,
      449,
      450,
      452,
      454,
      454,
      453,
      451,
      451,
      452,
      454,
      455,
      454,
      452,
      451,
      452,
      454,
      455,
      454,
      453,
      452,
      451,
      450,
      450,
      447,
      450,
      449,
      451,
      453,
      454,
      454,
      453,
      452,
      452,
      451,
      451,
      452,
      452,
      453,
      454,
      454,
      455,
      457,
      457,
      458,
      457,
      455,
      455,
      454,
      455,
      455,
      456,
      457,
      457,
      458,
      458,
      458,
      458,
      458,
      458,
      460,
      459,
      458,
      457,
      455,
      455,
      456,
      457,
      454,
      452,
      451,
      449,
      453,
      454,
      455,
      455,
      459,
      459,
      460,
      460,
      457,
      452,
      452,
      452,
      453,
      453,
      451,
      444,
      443,
      443,
      446,
      448,
      449,
      449,
      452,
      453,
      452,
      452,
      451,
      450,
      450,
      449,
      447,
      443,
      438,
      436,
      437,
      430,
      432,
      425,
      425,
      423,
      423,
      423,
      423,
      423,
      423,
      423,
      423,
      424,
      421,
      418,
      416,
      416,
      415,
      414,
      412,
      411,
      410,
      409,
      408,
      407,
      407,
      407,
      407,
      407,
      407,
      406,
      407,
      407,
      408,
      409,
      410,
      410,
      410,
      409,
      410,
      411,
      412,
      412,
      413,
      412,
      410,
      406,
      397,
      397,
      381,
      375,
      365,
      351,
      344,
      325,
      311,
      284,
      265,
      269,
      271,
      270,
      268,
      262,
      264,
      260,
      254,
      252,
      247,
      208,
      209,
      202,
      190,
      163,
      149,
      148
    ],
    "swim:timestamps": [
      1785081588,
      1785081647,
      1785081719,
      1785081779,
      1785081839,
      1785081899,
      1785081959,
      1785082140,
      1785082260,
      1785082320,
      1785082380,
      1785082500,
      1785082560,
      1785082620,
      1785082681,
      1785082741,
      1785082819,
      1785082861,
      1785082880,
      1785082921,
      1785082940,
      1785082981,
      1785083120,
      1785083221,
      1785083300,
      1785083342,
      1785083420,
      1785083462,
      1785083481,
      1785083522,
      1785083582,
      1785083635,
      1785083661,
      1785083695,
      1785083721,
      1785083755,
      1785083781,
      1785083815,
      1785083841,
      1785083875,
      1785083935,
      1785084021,
      1785084055,
      1785084082,
      1785084116,
      1785084142,
      1785084176,
      1785084356,
      1785084382,
      1785084476,
      1785084502,
      1785084536,
      1785084562,
      1785084596,
      1785084622,
      1785084656,
      1785084716,
      1785084743,
      1785084803,
      1785084837,
      1785084863,
      1785084923,
      1785084957,
      1785084983,
      1785085017,
      1785085043,
      1785085077,
      1785085137,
      1785085223,
      1785085257,
      1785085283,
      1785085317,
      1785085344,
      1785085378,
      1785085464,
      1785085524,
      1785085558,
      1785085618,
      1785085678,
      1785085738,
      1785085858,
      1785085875,
      1785085935,
      1785085978,
      1785086038,
      1785086055,
      1785086115,
      1785086175,
      1785086235,
      1785086279,
      1785086295,
      1785086339,
      1785086399,
      1785086416,
      1785086459,
      1785086476,
      1785086519,
      1785086536,
      1785086579,
      1785086596,
      1785086656,
      1785086716,
      1785086760,
      1785086776,
      1785086820,
      1785086896,
      1785087000,
      1785087017,
      1785087060,
      1785087077,
      1785087120,
      1785087240,
      1785087257,
      1785087317,
      1785087360,
      1785087377,
      1785087421,
      1785087437,
      1785087481,
      1785087497,
      1785087541,
      1785087617,
      1785087661,
      1785087678,
      1785087721,
      1785087781,
      1785087918,
      1785087978,
      1785088098,
      1785088218,
      1785088278,
      1785088339,
      1785088399,
      1785088459,
      1785088519,
      1785088759,
      1785088819,
      1785089120,
      1785089180,
      1785089240,
      1785089300,
      1785089360,
      1785089420,
      1785089480,
      1785089601,
      1785089721,
      1785089781,
      1785089841,
      1785089961,
      1785090021,
      1785090078,
      1785090211,
      1785090331,
      1785090391,
      1785090511,
      1785090571,
      1785090631,
      1785090691,
      1785090751,
      1785090811,
      1785090872,
      1785090932,
      1785090961,
      1785090992,
      1785091021,
      1785091081,
      1785091141,
      1785091201,
      1785091232,
      1785091261,
      1785091292,
      1785091321,
      1785091352,
      1785091412,
      1785091533,
      1785091561,
      1785091593,
      1785091653,
      1785091682,
      1785091713,
      1785091773,
      1785091833,
      1785091862,
      1785091893,
      1785092073,
      1785092134,
      1785092162,
      1785092194,
      1785092222,
      1785092282,
      1785092343,
      1785092463,
      1785092523,
      1785092583,
      1785092643,
      1785092703,
      1785092763,
      1785092823,
      1785093063,
      1785093184,
      1785093244,
      1785093304,
      1785093364,
      1785093484,
      1785093544,
      1785093664,
      1785093905,
      1785093965,
      1785094025,
      1785094147,
      1785094265,
      1785094325,
      1785094388,
      1785094448,
      1785094565,
      1785094746,
      1785094868,
      1785094928,
      1785094986,
      1785095166,
      1785095226,
      1785095347,
      1785095407,
      1785095467,
      1785095647,
      1785095770,
      1785095890,
      1785095950,
      1785096010,
      1785096130,
      1785096190,
      1785096310,
      1785096430,
      1785096611,
      1785096671,
      1785096731,
      1785096791,
      1785096851,
      1785096911,
      1785096971,
      1785097211,
      1785097332,
      1785097452,
      1785097512,
      1785097540,
      1785097572,
      1785097600,
      1785097632,
      1785097660,
      1785097721,
      1785097752,
      1785097781,
      1785097812,
      1785097841,
      1785097872,
      1785097901,
      1785097932,
      1785097961,
      1785098021,
      1785098053,
      1785098113,
      1785098141,
      1785098173,
      1785098201,
      1785098261,
      1785098321,
      1785098413,
      1785098442,
      1785098473,
      1785098502,
      1785098533,
      1785098593,
      1785098622,
      1785098653,
      1785098713,
      1785098742,
      1785098774,
      1785098802,
      1785098862,
      1785098922,
      1785098982,
      1785099042,
      1785099102,
      1785099163,
      1785099223,
      1785099283,
      1785099343,
      1785099403,
      1785099463,
      1785099523,
      1785099583,
      1785099703,
      1785099739,
      1785099763,
      1785099829,
      1785099884,
      1785099944,
      1785100004,
      1785100010,
      1785100064,
      1785100070,
      1785100130,
      1785100190,
      1785100244,
      1785100250,
      1785100304,
      1785100364,
      1785100370,
      1785100424,
      1785100430,
      1785100490,
      1785100544,
      1785100550,
      1785100611,
      1785100665,
      1785100725,
      1785100785,
      1785100845,
      1785100905,
      1785100965
    ],
    "wof:geomhash": "e7ee5bb431eac0d0755b7e5adc65f043",
    "wof:id": 2031975829,
    "wof:repo": "sfomuseum-data-flights-2026-07"
  },
  "bbox": [
    -122.35138888888888,
    37.494166666666665,
    -73.75,
    40.56666666666667
  ],
  "geometry": {"coordinates":[[-73.75,40.56666666666667],[-73.75,40.5],[-73.83583333333333,40.442499999999995],[-73.93027777777779,40.40888888888889],[-74.03527777777778,40.37083333333334],[-74.15777777777778,40.325833333333335],[-74.2863888888889,40.278888888888886],[-74.70027777777779,40.18611111111111],[-74.98944444444444,40.16305555555555],[-75.14555555555556,40.15],[-75.30222222222221,40.136944444444445],[-75.62138888888889,40.10944444444445],[-75.77972222222222,40.096111111111114],[-75.93861111111111,40.081388888888895],[-76.09666666666666,40.066944444444445],[-76.25305555555556,40.052499999999995],[-76.44916666666667,40.034166666666664],[-76.5736111111111,40.0225],[-76.60499999999999,40.019444444444446],[-76.73361111111112,40.00666666666667],[-76.76722222222222,40.00361111111111],[-76.89333333333335,39.99111111111111],[-77.24388888888889,39.95611111111111],[-77.53444444444445,39.958333333333336],[-77.72416666666666,39.964444444444446],[-77.85388888888889,39.96805555555556],[-78.04694444444445,39.97361111111111],[-78.17166666666667,39.97694444444445],[-78.20722222222223,39.97805555555556],[-78.3275,39.98166666666667],[-78.4863888888889,39.98527777777778],[-78.62722222222222,39.98833333333334],[-78.68111111111112,39.989444444444445],[-78.80055555555555,39.99194444444444],[-78.84222222222222,39.99305555555556],[-78.96083333333334,39.99527777777778],[-79.00027777777778,39.99611111111111],[-79.11999999999999,39.998333333333335],[-79.15722222222223,39.99916666666667],[-79.27333333333333,40.00111111111111],[-79.42916666666667,40.003055555555555],[-79.62055555555555,40.003055555555555],[-79.73694444444445,40.003055555555555],[-79.77527777777777,40.003055555555555],[-79.88944444444445,40.003055555555555],[-79.93,40.003055555555555],[-80.04472222222222,40.003055555555555],[-80.48583333333333,40.00083333333333],[-80.54666666666667,40.00055555555556],[-80.79388888888889,39.99861111111111],[-80.85277777777777,39.99805555555556],[-80.94500000000001,39.99722222222222],[-81.00666666666666,39.99666666666667],[-81.09694444444445,39.995555555555555],[-81.15694444444445,39.995],[-81.24888888888889,39.99388888888889],[-81.39833333333334,39.99166666666667],[-81.47,39.99055555555556],[-81.61861111111111,39.98833333333334],[-81.6975,39.98722222222222],[-81.76861111111111,39.98583333333333],[-81.91861111111112,39.983333333333334],[-82.00527777777778,39.98166666666667],[-82.06611111111111,39.98027777777778],[-82.155,39.978611111111114],[-82.21777777777778,39.9775],[-82.30499999999999,39.97527777777778],[-82.45805555555556,39.971944444444446],[-82.67277777777778,39.966944444444444],[-82.7611111111111,39.96472222222223],[-82.82388888888889,39.963055555555556],[-82.91555555555556,39.96055555555556],[-82.9775,39.95888888888889],[-83.07111111111111,39.95611111111111],[-83.27305555555556,39.95027777777778],[-83.42305555555556,39.94583333333333],[-83.52444444444444,39.942499999999995],[-83.67833333333334,39.93722222222222],[-83.83138888888888,39.931666666666665],[-83.97166666666666,39.926944444444445],[-84.27805555555555,39.915277777777774],[-84.32194444444444,39.91583333333333],[-84.47500000000001,39.909166666666664],[-84.58333333333333,39.903055555555554],[-84.7375,39.896388888888886],[-84.78138888888888,39.895833333333336],[-84.935,39.88944444444444],[-85.08944444444444,39.88166666666667],[-85.24555555555555,39.87444444444444],[-85.36999999999999,39.8675],[-85.40111111111112,39.865833333333335],[-85.52666666666667,39.859722222222224],[-85.68472222222222,39.85194444444445],[-85.71694444444445,39.85111111111111],[-85.84083333333332,39.84388888888889],[-85.87194444444444,39.84305555555556],[-86.0075,39.834722222222226],[-86.02916666666667,39.83305555555556],[-86.16583333333334,39.82611111111112],[-86.18694444444445,39.82472222222223],[-86.34416666666667,39.81666666666667],[-86.50138888888888,39.78666666666666],[-86.63138888888888,39.75861111111111],[-86.65805555555556,39.75222222222222],[-86.79027777777777,39.724444444444444],[-86.97555555555556,39.68444444444444],[-87.26222222222222,39.621944444444445],[-87.28972222222222,39.615833333333335],[-87.40777777777778,39.58972222222222],[-87.44722222222222,39.58083333333334],[-87.56305555555555,39.555277777777775],[-87.87249999999999,39.49444444444445],[-87.91388888888889,39.49305555555556],[-88.07138888888889,39.48833333333334],[-88.18583333333333,39.48444444444444],[-88.23194444444445,39.48305555555556],[-88.36777777777777,39.478611111111114],[-88.39,39.47777777777778],[-88.5225,39.473333333333336],[-88.54694444444445,39.472500000000004],[-88.68083333333334,39.467777777777776],[-88.85694444444444,39.46083333333333],[-88.99555555555555,39.455555555555556],[-89.0125,39.455000000000005],[-89.15,39.44944444444444],[-89.31277777777777,39.44277777777778],[-89.66305555555556,39.427499999999995],[-89.82472222222222,39.42027777777778],[-90.14333333333335,39.405277777777776],[-90.46138888888889,39.388888888888886],[-90.61972222222222,39.38055555555555],[-90.77888888888889,39.37222222222222],[-90.93527777777778,39.36333333333334],[-91.09444444444443,39.35416666666667],[-91.25333333333333,39.345],[-91.8938888888889,39.30583333333333],[-92.0525,39.29527777777778],[-92.84972222222221,39.24027777777778],[-93.00833333333334,39.228611111111114],[-93.1713888888889,39.21638888888889],[-93.33194444444445,39.20416666666667],[-93.50694444444444,39.19027777777777],[-93.66722222222222,39.18083333333333],[-93.82916666666667,39.17305555555555],[-94.15194444444445,39.15694444444444],[-94.47444444444444,39.13972222222222],[-94.63583333333334,39.130833333333335],[-94.79694444444445,39.12166666666667],[-95.12444444444444,39.1025],[-95.28555555555555,39.09277777777778],[-95.44111111111111,39.08277777777778],[-95.7475,39.06333333333333],[-96.09833333333333,39.03972222222222],[-96.26,39.02833333333333],[-96.58305555555555,39.00527777777778],[-96.74638888888889,38.99333333333333],[-96.92555555555556,38.980000000000004],[-97.08722222222222,38.967777777777776],[-97.24555555555555,38.95527777777778],[-97.375,38.94499999999999],[-97.54388888888889,38.93138888888889],[-97.70472222222223,38.92194444444444],[-97.78277777777778,38.91861111111111],[-97.88055555555555,38.91444444444444],[-97.94583333333334,38.911944444444444],[-98.10555555555555,38.905],[-98.265,38.897777777777776],[-98.42833333333334,38.89],[-98.52555555555556,38.885555555555555],[-98.58972222222222,38.8825],[-98.68527777777778,38.87777777777778],[-98.74861111111112,38.874722222222225],[-98.845,38.87],[-99.00277777777778,38.86222222222222],[-99.32388888888889,38.848333333333336],[-99.41861111111112,38.84916666666667],[-99.48416666666667,38.849722222222226],[-99.64472222222223,38.85111111111111],[-99.74416666666667,38.85194444444445],[-99.80638888888889,38.8525],[-99.96888888888888,38.853611111111114],[-100.12972222222221,38.85444444444445],[-100.22916666666667,38.85472222222222],[-100.28861111111111,38.855000000000004],[-100.77333333333333,38.85527777777778],[-100.935,38.855000000000004],[-101.035,38.85472222222222],[-101.1286111111111,38.85444444444445],[-101.19638888888889,38.85416666666667],[-101.35833333333333,38.85333333333333],[-101.52027777777778,38.85194444444445],[-101.84388888888888,38.84916666666667],[-102.00583333333333,38.847500000000004],[-102.1675,38.845555555555556],[-102.32944444444443,38.84305555555556],[-102.49222222222222,38.840833333333336],[-102.65472222222223,38.838055555555556],[-102.83,38.835],[-103.46944444444445,38.82138888888889],[-103.79333333333334,38.82916666666667],[-103.95416666666667,38.84],[-104.11722222222221,38.85055555555556],[-104.29583333333333,38.86222222222222],[-104.61972222222222,38.882222222222225],[-104.78388888888888,38.89222222222222],[-105.10666666666665,38.939166666666665],[-105.735,39.07027777777778],[-105.89444444444445,39.08361111111111],[-106.05333333333333,39.07694444444445],[-106.35555555555555,39.04666666666667],[-106.67555555555556,39.001666666666665],[-106.83722222222222,39.0075],[-106.99861111111112,39.01277777777778],[-107.16166666666668,39.01833333333333],[-107.49138888888889,39.03055555555555],[-107.98083333333334,39.075833333333335],[-108.295,39.15],[-108.45444444444445,39.183611111111105],[-108.61083333333333,39.21638888888889],[-109.09805555555555,39.21555555555556],[-109.25916666666667,39.211666666666666],[-109.58444444444444,39.21472222222223],[-109.74805555555555,39.22166666666667],[-109.90972222222223,39.22805555555556],[-110.39333333333335,39.24638888888889],[-110.71000000000001,39.240833333333335],[-111.015,39.16888888888889],[-111.16611111111112,39.13361111111111],[-111.32666666666667,39.10777777777778],[-111.6463888888889,39.066111111111105],[-111.80333333333333,39.04527777777778],[-112.11749999999999,39.003055555555555],[-112.43388888888889,38.96],[-112.91111111111111,38.8925],[-113.06666666666666,38.87027777777778],[-113.22500000000001,38.846944444444446],[-113.38166666666666,38.82416666666667],[-113.53722222222223,38.80083333333333],[-113.69305555555556,38.77777777777778],[-113.85055555555554,38.75388888888889],[-114.47,38.658055555555556],[-114.77805555555555,38.60944444444445],[-115.07972222222222,38.56027777777778],[-115.22972222222222,38.53583333333333],[-115.30722222222222,38.52388888888889],[-115.39333333333335,38.50888888888889],[-115.45555555555556,38.49944444444444],[-115.54166666666667,38.48416666666667],[-115.60111111111111,38.475833333333334],[-115.74666666666667,38.45111111111111],[-115.83222222222221,38.434999999999995],[-115.89333333333335,38.42444444444444],[-115.97972222222222,38.40972222222222],[-116.03916666666666,38.39972222222222],[-116.125,38.38472222222222],[-116.18666666666667,38.37416666666667],[-116.27333333333333,38.35916666666667],[-116.33222222222221,38.348888888888894],[-116.47722222222222,38.32333333333334],[-116.56083333333333,38.308611111111105],[-116.705,38.283055555555556],[-116.76472222222222,38.27222222222222],[-116.84638888888888,38.2575],[-116.9038888888889,38.24722222222222],[-117.04638888888888,38.22166666666667],[-117.19083333333333,38.195277777777775],[-117.39861111111112,38.15694444444444],[-117.45527777777778,38.14666666666667],[-117.53666666666666,38.13138888888889],[-117.59527777777777,38.120555555555555],[-117.67666666666668,38.10527777777778],[-117.81555555555555,38.07916666666667],[-117.87222222222222,38.068333333333335],[-117.95277777777778,38.05305555555555],[-118.09527777777777,38.02611111111111],[-118.15027777777779,38.015277777777776],[-118.23333333333333,37.99916666666667],[-118.29194444444444,37.988055555555555],[-118.42972222222222,37.96138888888889],[-118.57222222222222,37.933611111111105],[-118.71194444444444,37.90611111111111],[-118.85222222222221,37.88583333333333],[-119.01527777777778,37.86694444444444],[-119.1588888888889,37.85055555555556],[-119.3,37.83416666666667],[-119.44444444444444,37.81722222222223],[-119.58694444444444,37.8],[-119.73166666666667,37.7825],[-119.87416666666665,37.765277777777776],[-120.01777777777778,37.74777777777778],[-120.15833333333335,37.73027777777778],[-120.44250000000001,37.69444444444444],[-120.51666666666667,37.68333333333333],[-120.58055555555555,37.67861111111111],[-120.73333333333333,37.666666666666664],[-120.84472222222222,37.64722222222222],[-120.9725,37.63194444444444],[-121.09416666666667,37.61527777777778],[-121.1,37.61666666666667],[-121.19666666666667,37.60111111111111],[-121.21666666666667,37.6],[-121.31666666666666,37.583333333333336],[-121.41666666666667,37.583333333333336],[-121.48805555555556,37.56722222222223],[-121.5,37.56666666666667],[-121.58111111111111,37.55583333333333],[-121.67305555555556,37.53944444444444],[-121.68333333333334,37.53333333333333],[-121.76083333333334,37.51833333333333],[-121.78333333333333,37.516666666666666],[-121.86666666666666,37.5],[-121.93305555555555,37.494166666666665],[-121.95,37.5],[-122.03333333333333,37.5],[-122.08305555555555,37.50277777777778],[-122.14861111111112,37.525555555555556],[-122.20777777777778,37.550555555555555],[-122.2611111111111,37.57333333333334],[-122.30638888888889,37.592222222222226],[-122.35138888888888,37.611111111111114]],"type":"LineString"}
}
