{
  "id": 2031956345,
  "type": "Feature",
  "properties": {
    "geom:area": 0,
    "geom:bbox": "-122.322778,34.138889,-118.363611,37.599167",
    "geom:latitude": 35.76954502770906,
    "geom:longitude": -120.50131324409334,
    "src:alt_label": "swim-path",
    "src:geom": "swim",
    "swim:altitudes": [
      "024",
      "035",
      "052",
      "078",
      "106",
      "131",
      "153",
      "160",
      "166",
      "181",
      "194",
      "203",
      "214",
      "223",
      "234",
      "289",
      "299C",
      "300C",
      "300C",
      "300C",
      "300C",
      "300C",
      "300",
      "286",
      "280",
      "280",
      "280",
      "280",
      "280",
      "280",
      "280",
      "280",
      "267",
      "234",
      "224",
      "208",
      "190",
      "187",
      "173",
      "127",
      "111",
      "096",
      "083",
      "078",
      "060",
      "050",
      "037",
      "030",
      "021",
      "006"
    ],
    "swim:geom": "path",
    "swim:speeds": [
      163,
      222,
      277,
      296,
      310,
      316,
      336,
      353,
      392,
      446,
      454,
      466,
      472,
      480,
      488,
      411,
      400,
      399,
      401,
      401,
      402,
      406,
      400,
      395,
      388,
      387,
      386,
      384,
      383,
      394,
      414,
      417,
      418,
      401,
      390,
      384,
      364,
      359,
      359,
      330,
      331,
      314,
      305,
      284,
      249,
      234,
      228,
      188,
      192,
      121
    ],
    "swim:timestamps": [
      1784938374,
      1784938434,
      1784938494,
      1784938554,
      1784938614,
      1784938674,
      1784938734,
      1784938794,
      1784938854,
      1784938915,
      1784938975,
      1784939034,
      1784939095,
      1784939154,
      1784939214,
      1784939335,
      1784939395,
      1784939456,
      1784939575,
      1784939636,
      1784939696,
      1784939755,
      1784939815,
      1784939876,
      1784939936,
      1784939995,
      1784940056,
      1784940115,
      1784940176,
      1784940237,
      1784940296,
      1784940356,
      1784940416,
      1784940536,
      1784940575,
      1784940656,
      1784940716,
      1784940726,
      1784940776,
      1784940956,
      1784941017,
      1784941077,
      1784941137,
      1784941257,
      1784941320,
      1784941375,
      1784941437,
      1784941495,
      1784941557,
      1784941677
    ],
    "wof:geomhash": "924653fbfa98e70a562ec36080dd2fd3",
    "wof:id": 2031956345,
    "wof:repo": "sfomuseum-data-flights-2026-07"
  },
  "bbox": [
    -122.32277777777777,
    34.138888888888886,
    -118.36361111111111,
    37.59916666666667
  ],
  "geometry": {"coordinates":[[-118.36361111111111,34.17527777777777],[-118.41416666666667,34.138888888888886],[-118.46916666666667,34.18472222222222],[-118.51805555555555,34.25527777777778],[-118.57583333333334,34.32694444444445],[-118.64361111111111,34.40472222222222],[-118.71277777777777,34.49305555555556],[-118.77472222222222,34.56861111111112],[-118.84388888888888,34.66416666666667],[-118.92833333333334,34.78722222222222],[-119.00638888888889,34.896388888888886],[-119.07916666666667,34.998333333333335],[-119.15805555555556,35.10805555555556],[-119.24361111111111,35.22694444444445],[-119.32666666666667,35.342222222222226],[-119.49555555555555,35.54527777777778],[-119.62222222222222,35.57805555555556],[-119.75666666666666,35.59777777777778],[-120.02833333333334,35.63777777777778],[-120.1575,35.656666666666666],[-120.29055555555556,35.67583333333333],[-120.42361111111111,35.71388888888889],[-120.55694444444444,35.725833333333334],[-120.71222222222222,35.7175],[-120.84166666666667,35.71055555555556],[-120.95111111111112,35.70444444444445],[-121.10305555555556,35.69638888888888],[-121.2363888888889,35.689166666666665],[-121.36583333333333,35.68277777777777],[-121.4925,35.6975],[-121.57166666666666,35.78944444444444],[-121.5925,35.906666666666666],[-121.61333333333333,36.021388888888886],[-121.65361111111112,36.24611111111111],[-121.66666666666667,36.31666666666667],[-121.68833333333333,36.43722222222222],[-121.74138888888889,36.54944444444444],[-121.75,36.56666666666667],[-121.80833333333334,36.634166666666665],[-121.93222222222222,36.88055555555555],[-121.96000000000001,36.97222222222222],[-121.99416666666667,37.05888888888889],[-122.02361111111111,37.13444444444444],[-122.08805555555556,37.29805555555556],[-122.11666666666666,37.36666666666667],[-122.13333333333334,37.43333333333333],[-122.15555555555557,37.48444444444444],[-122.18333333333334,37.53333333333333],[-122.23666666666666,37.562777777777775],[-122.32277777777777,37.59916666666667]],"type":"LineString"}
}
