{
  "id": 2032010265,
  "type": "Feature",
  "properties": {
    "geom:area": 0,
    "geom:bbox": "-122.562730,36.725610,-122.286040,37.665670",
    "geom:latitude": 37.21735724042506,
    "geom:longitude": -122.50218474210685,
    "src:alt_label": "swim-takeoff",
    "src:geom": "swim",
    "swim:elevations": [
      335,
      675,
      1130,
      1397,
      1707,
      2860,
      3484,
      3866,
      4267,
      4651,
      5090,
      5604,
      5764,
      6173,
      6511,
      6884,
      7030,
      7269,
      7501,
      7746,
      7986,
      8288,
      8535
    ],
    "swim:geom": "takeoff",
    "swim:timestamps": [
      1785229874,
      1785229901,
      1785229933,
      1785229966,
      1785229994,
      1785230055,
      1785230110,
      1785230140,
      1785230180,
      1785230217,
      1785230241,
      1785230276,
      1785230288,
      1785230326,
      1785230356,
      1785230386,
      1785230396,
      1785230414,
      1785230435,
      1785230462,
      1785230494,
      1785230535,
      1785230568
    ],
    "wof:geomhash": "cd1a102fda539305cf07d5bd5a13e286",
    "wof:id": 2032010265,
    "wof:repo": "sfomuseum-data-flights-2026-07"
  },
  "bbox": [
    -122.56273,
    36.72561,
    -122.28604,
    37.66567
  ],
  "geometry": {"coordinates":[[-122.39659,37.62787],[-122.41805,37.63706],[-122.44532,37.64921],[-122.48037,37.66447],[-122.52142,37.66567],[-122.55402,37.59534],[-122.55556,37.5181],[-122.55638,37.47018],[-122.55764,37.40191],[-122.55815,37.33667],[-122.55836,37.29267],[-122.55884,37.22867],[-122.55914,37.20818],[-122.56116,37.13698],[-122.56273,37.07945],[-122.56038,37.0217],[-122.55444,37.00339],[-122.53612,36.97171],[-122.50429,36.93882],[-122.46069,36.89601],[-122.40944,36.84561],[-122.34127,36.77915],[-122.28604,36.72561]],"type":"LineString"}
}
