{
  "id": 2031995927,
  "type": "Feature",
  "properties": {
    "geom:area": 0,
    "geom:bbox": "-126.974444,37.710556,-123.304722,38.128889",
    "geom:latitude": 37.928018875680316,
    "geom:longitude": -125.13834518167361,
    "src:alt_label": "swim-path",
    "src:geom": "swim",
    "swim:altitudes": [
      "171",
      "187C",
      "204C",
      "233",
      "247",
      "260",
      "297",
      "313",
      "334",
      "347",
      "357",
      "365",
      "377",
      "393",
      "400C",
      "400C",
      "400C",
      "400C",
      "400C",
      "400C",
      "400C"
    ],
    "swim:geom": "path",
    "swim:speeds": [
      400,
      410,
      420,
      438,
      447,
      456,
      479,
      481,
      469,
      467,
      467,
      473,
      473,
      455,
      447,
      444,
      441,
      441,
      442,
      442,
      442
    ],
    "swim:timestamps": [
      1785200609,
      1785200671,
      1785200731,
      1785200850,
      1785200910,
      1785200970,
      1785201150,
      1785201210,
      1785201270,
      1785201330,
      1785201390,
      1785201450,
      1785201510,
      1785201571,
      1785201631,
      1785201691,
      1785201751,
      1785201823,
      1785201883,
      1785201943,
      1785202003
    ],
    "wof:geomhash": "3b1a545fd29329c60b813e84c13a20eb",
    "wof:id": 2031995927,
    "wof:repo": "sfomuseum-data-flights-2026-07"
  },
  "bbox": [
    -126.97444444444444,
    37.71055555555556,
    -123.30472222222222,
    38.12888888888889
  ],
  "geometry": {"coordinates":[[-123.30472222222222,37.71055555555556],[-123.43333333333334,37.71666666666667],[-123.58333333333333,37.733333333333334],[-123.89166666666668,37.785555555555554],[-124.04666666666667,37.80472222222222],[-124.20416666666667,37.82416666666667],[-124.69666666666667,37.88305555555556],[-124.86638888888888,37.903055555555554],[-125.02916666666667,37.92194444444444],[-125.19083333333333,37.94],[-125.35388888888889,37.95861111111111],[-125.51888888888888,37.97694444444445],[-125.68333333333334,37.995],[-125.84527777777777,38.0125],[-125.99916666666667,38.028888888888886],[-126.15277777777779,38.044999999999995],[-126.32472222222222,38.06305555555555],[-126.47916666666667,38.07888888888889],[-126.66555555555556,38.09777777777778],[-126.82,38.113055555555555],[-126.97444444444444,38.12888888888889]],"type":"LineString"}
}
