{
  "id": 2032007651,
  "type": "Feature",
  "properties": {
    "geom:area": 0,
    "geom:bbox": "-114.844722,41.100833,-87.170556,46.474167",
    "geom:latitude": 44.3107585533917,
    "geom:longitude": -101.08529072242081,
    "src:alt_label": "swim-path",
    "src:geom": "swim",
    "swim:altitudes": [
      "350C",
      "350C",
      "350C",
      "350C",
      "350C",
      "350C",
      "350C",
      "350C",
      "350C",
      "350C",
      "350C",
      "350C",
      "350C",
      "350C",
      "350C",
      "350C",
      "350C",
      "350C",
      "350C",
      "350C",
      "350C",
      "350C",
      "350C",
      "350C",
      "350C",
      "350C",
      "350C",
      "350C",
      "350C",
      "350C",
      "350C",
      "350C",
      "350C",
      "350C",
      "350C",
      "350C",
      "350C",
      "350C",
      "350C",
      "350C",
      "350C",
      "350C",
      "350C",
      "350C",
      "350C",
      "350C",
      "350C",
      "350C",
      "350C",
      "350C",
      "350C",
      "350C",
      "350C",
      "350C",
      "350C",
      "350C",
      "350C",
      "350C",
      "350C",
      "350C",
      "350C",
      "350C",
      "350C",
      "350C",
      "350C",
      "350C",
      "350C",
      "350C",
      "350C",
      "350C",
      "350C",
      "350C",
      "350C",
      "350C",
      "350C",
      "350C",
      "350C",
      "350C",
      "350C",
      "350C",
      "350C",
      "350C",
      "350C",
      "350C",
      "350C",
      "350C",
      "350C",
      "350C",
      "350C",
      "350C",
      "350C",
      "350C",
      "350C",
      "350C",
      "350C",
      "350C",
      "350C",
      "350C",
      "350C",
      "350C",
      "350C",
      "350C",
      "350C",
      "350C",
      "350C",
      "350C",
      "350C",
      "350C",
      "350C",
      "350C",
      "350C",
      "350C",
      "350C",
      "350C",
      "350C",
      "350C",
      "350C",
      "356",
      "367",
      "370C",
      "370C",
      "370C",
      "370C",
      "370C",
      "370C",
      "370C",
      "370C",
      "370C",
      "370C",
      "370C",
      "370C",
      "370C",
      "370C",
      "370C",
      "370C",
      "370C",
      "370C",
      "370C",
      "370C",
      "370C",
      "370C",
      "370C",
      "370C",
      "370C",
      "370C",
      "370C",
      "370C",
      "370C",
      "370C",
      "370C",
      "370C",
      "370C",
      "370C",
      "370C",
      "370C",
      "370C"
    ],
    "swim:geom": "path",
    "swim:speeds": [
      508,
      506,
      506,
      506,
      506,
      506,
      507,
      507,
      507,
      506,
      505,
      501,
      500,
      500,
      501,
      501,
      502,
      502,
      503,
      503,
      503,
      503,
      503,
      503,
      504,
      504,
      504,
      504,
      503,
      503,
      504,
      482,
      505,
      508,
      513,
      511,
      514,
      515,
      517,
      518,
      519,
      520,
      521,
      522,
      522,
      522,
      522,
      522,
      522,
      522,
      522,
      522,
      522,
      523,
      523,
      523,
      524,
      524,
      524,
      525,
      525,
      525,
      525,
      525,
      526,
      526,
      526,
      526,
      526,
      527,
      527,
      532,
      528,
      535,
      530,
      528,
      529,
      528,
      528,
      527,
      527,
      519,
      526,
      521,
      525,
      521,
      524,
      522,
      523,
      522,
      523,
      522,
      522,
      522,
      522,
      522,
      522,
      522,
      523,
      523,
      523,
      524,
      524,
      525,
      526,
      527,
      528,
      529,
      529,
      528,
      527,
      527,
      526,
      526,
      528,
      532,
      534,
      534,
      521,
      520,
      521,
      523,
      525,
      526,
      527,
      527,
      529,
      530,
      513,
      511,
      496,
      495,
      494,
      539,
      542,
      542,
      542,
      541,
      540,
      539,
      537,
      536,
      535,
      534,
      532,
      529,
      523,
      520,
      517,
      514,
      510,
      507,
      504,
      503,
      503,
      503
    ],
    "swim:timestamps": [
      1785254724,
      1785254844,
      1785254904,
      1785254964,
      1785255024,
      1785255084,
      1785255144,
      1785255204,
      1785255264,
      1785255384,
      1785255444,
      1785255565,
      1785255625,
      1785255685,
      1785255745,
      1785255805,
      1785255865,
      1785255925,
      1785255985,
      1785256045,
      1785256105,
      1785256165,
      1785256226,
      1785256286,
      1785256346,
      1785256406,
      1785256466,
      1785256526,
      1785256586,
      1785256646,
      1785256706,
      1785256733,
      1785256766,
      1785256826,
      1785256853,
      1785256886,
      1785256913,
      1785256946,
      1785256973,
      1785257007,
      1785257033,
      1785257067,
      1785257093,
      1785257127,
      1785257153,
      1785257187,
      1785257213,
      1785257247,
      1785257274,
      1785257307,
      1785257334,
      1785257367,
      1785257394,
      1785257427,
      1785257454,
      1785257487,
      1785257514,
      1785257547,
      1785257574,
      1785257607,
      1785257634,
      1785257667,
      1785257694,
      1785257728,
      1785257754,
      1785257788,
      1785257814,
      1785257848,
      1785257874,
      1785257968,
      1785257994,
      1785258028,
      1785258055,
      1785258088,
      1785258148,
      1785258175,
      1785258208,
      1785258235,
      1785258295,
      1785258355,
      1785258415,
      1785258455,
      1785258475,
      1785258515,
      1785258535,
      1785258575,
      1785258595,
      1785258635,
      1785258655,
      1785258695,
      1785258715,
      1785258755,
      1785258775,
      1785258836,
      1785258896,
      1785258956,
      1785259016,
      1785259080,
      1785259136,
      1785259200,
      1785259256,
      1785259320,
      1785259380,
      1785259440,
      1785259500,
      1785259560,
      1785259620,
      1785259680,
      1785259740,
      1785259861,
      1785259981,
      1785260101,
      1785260161,
      1785260221,
      1785260341,
      1785260473,
      1785260534,
      1785260594,
      1785260654,
      1785260714,
      1785260774,
      1785260834,
      1785260894,
      1785260954,
      1785261014,
      1785261074,
      1785261194,
      1785261255,
      1785261315,
      1785261375,
      1785261555,
      1785261615,
      1785261675,
      1785261795,
      1785261855,
      1785261915,
      1785261976,
      1785262036,
      1785262096,
      1785262156,
      1785262216,
      1785262276,
      1785262336,
      1785262396,
      1785262516,
      1785262576,
      1785262697,
      1785262757,
      1785262817,
      1785262877,
      1785262937,
      1785262997,
      1785263117,
      1785263177,
      1785263309,
      1785263369
    ],
    "wof:geomhash": "075c80eece9a7c76cbee28084a274e3e",
    "wof:id": 2032007651,
    "wof:repo": "sfomuseum-data-flights-2026-07"
  },
  "bbox": [
    -114.84472222222222,
    41.100833333333334,
    -87.17055555555557,
    46.47416666666667
  ],
  "geometry": {"coordinates":[[-114.84472222222222,41.100833333333334],[-114.49472222222222,41.19361111111111],[-114.32111111111111,41.23888888888889],[-114.14416666666668,41.28472222222222],[-113.96694444444445,41.330555555555556],[-113.79138888888889,41.37861111111111],[-113.61777777777777,41.433611111111105],[-113.44472222222223,41.488055555555555],[-113.27166666666666,41.54222222222222],[-112.92611111111111,41.649166666666666],[-112.75416666666666,41.70166666666667],[-112.41222222222223,41.80611111111111],[-112.23833333333333,41.85805555555556],[-112.06444444444445,41.90972222222222],[-111.89027777777778,41.96138888888889],[-111.71388888888889,42.013333333333335],[-111.53999999999999,42.06444444444444],[-111.36611111111111,42.11472222222223],[-111.19083333333333,42.16555555555556],[-111.01388888888889,42.21611111111111],[-110.83722222222222,42.26638888888889],[-110.6613888888889,42.316111111111105],[-110.48583333333333,42.36527777777778],[-110.3086111111111,42.414722222222224],[-110.1286111111111,42.464444444444446],[-109.95194444444445,42.51277777777778],[-109.77305555555556,42.561388888888885],[-109.59527777777777,42.60888888888889],[-109.41611111111112,42.65694444444444],[-109.23611111111111,42.70416666666667],[-109.0936111111111,42.74194444444444],[-108.98555555555555,42.771388888888886],[-108.91055555555556,42.78972222222222],[-108.72972222222222,42.83638888888889],[-108.61888888888888,42.86555555555556],[-108.54527777777777,42.88361111111111],[-108.43416666666667,42.911944444444444],[-108.3586111111111,42.93111111111111],[-108.24944444444445,42.95888888888889],[-108.15666666666667,42.98222222222223],[-108.06083333333333,43.00611111111111],[-107.96861111111112,43.02916666666667],[-107.87222222222222,43.05305555555555],[-107.78111111111112,43.075833333333335],[-107.68583333333333,43.099444444444444],[-107.59222222222222,43.1225],[-107.51972222222223,43.140277777777776],[-107.40722222222223,43.16777777777777],[-107.33083333333333,43.186388888888885],[-107.21805555555555,43.21361111111111],[-107.14500000000001,43.231388888888894],[-107.03333333333333,43.25861111111111],[-106.95527777777778,43.27722222222222],[-106.83138888888888,43.30638888888888],[-106.75638888888889,43.324444444444445],[-106.64111111111112,43.35138888888889],[-106.56861111111111,43.36805555555556],[-106.45138888888889,43.39555555555555],[-106.37638888888888,43.41305555555555],[-106.26166666666667,43.439722222222215],[-106.185,43.4575],[-106.06944444444444,43.48416666666667],[-105.99194444444444,43.50194444444445],[-105.87555555555555,43.524166666666666],[-105.79666666666667,43.53944444444444],[-105.68194444444445,43.56166666666666],[-105.6036111111111,43.57666666666667],[-105.48333333333333,43.6],[-105.40777777777778,43.614444444444445],[-105.09388888888888,43.67361111111111],[-105.01833333333333,43.691111111111105],[-104.89888888888889,43.71944444444445],[-104.82444444444444,43.73638888888889],[-104.70333333333333,43.76444444444444],[-104.51027777777777,43.8075],[-104.43583333333333,43.82472222222223],[-104.31611111111111,43.85166666666667],[-104.24111111111111,43.868611111111115],[-104.04777777777778,43.911944444444444],[-103.85277777777777,43.955000000000005],[-103.65972222222223,43.99722222222222],[-103.5475,44.02166666666667],[-103.46555555555555,44.03944444444444],[-103.35416666666666,44.06361111111111],[-103.27055555555556,44.081388888888895],[-103.16166666666668,44.10472222222222],[-103.07777777777777,44.1225],[-102.96972222222223,44.14555555555555],[-102.88277777777778,44.163888888888884],[-102.77583333333334,44.186388888888885],[-102.69555555555556,44.20305555555556],[-102.5775,44.2275],[-102.50111111111111,44.24305555555556],[-102.30666666666666,44.283055555555556],[-102.11194444444443,44.322500000000005],[-101.92055555555557,44.361111111111114],[-101.7225,44.400555555555556],[-101.565,44.43194444444444],[-101.335,44.47694444444445],[-101.13694444444445,44.515277777777776],[-100.94027777777778,44.55277777777778],[-100.7425,44.59027777777778],[-100.50583333333333,44.63444444444444],[-100.30944444444444,44.67111111111111],[-100.11472222222221,44.70666666666667],[-99.91638888888889,44.7425],[-99.72055555555556,44.77777777777778],[-99.51972222222223,44.81333333333333],[-99.32333333333332,44.84777777777778],[-98.92333333333333,44.91694444444444],[-98.52333333333333,44.98416666666667],[-98.12222222222222,45.05027777777777],[-97.92333333333333,45.0825],[-97.72027777777778,45.115],[-97.31472222222222,45.17861111111111],[-96.86166666666666,45.24777777777778],[-96.65583333333333,45.27861111111111],[-96.44916666666667,45.30916666666666],[-96.24722222222222,45.33888888888889],[-96.04666666666667,45.367777777777775],[-95.84444444444443,45.39611111111111],[-95.63944444444445,45.425],[-95.43666666666667,45.45277777777778],[-95.27277777777778,45.47527777777778],[-95.02361111111111,45.50888888888889],[-94.81777777777778,45.53611111111111],[-94.40833333333335,45.58888888888889],[-94.24138888888889,45.61],[-94.00583333333333,45.660555555555554],[-93.845,45.719166666666666],[-93.3411111111111,45.93861111111111],[-93.18333333333334,46.019444444444446],[-93.02277777777778,46.10138888888889],[-92.66000000000001,46.21555555555556],[-92.4025,46.23361111111111],[-92.18805555555556,46.24805555555556],[-91.97083333333333,46.26222222222222],[-91.75638888888889,46.27583333333333],[-91.55055555555555,46.288888888888884],[-91.33611111111111,46.30166666666666],[-91.12083333333332,46.31444444444444],[-90.90694444444445,46.32666666666667],[-90.69333333333334,46.33833333333334],[-90.47944444444444,46.35],[-90.05444444444444,46.37138888888889],[-89.84222222222222,46.38111111111111],[-89.42416666666666,46.39972222222222],[-89.20777777777778,46.40888888888889],[-89.04194444444444,46.41555555555556],[-88.835,46.42333333333333],[-88.62972222222221,46.43111111111111],[-88.42777777777778,46.43805555555555],[-88.02027777777778,46.45111111111111],[-87.82055555555556,46.45722222222223],[-87.375,46.469166666666666],[-87.17055555555557,46.47416666666667]],"type":"LineString"}
}
