{
  "id": 2032039949,
  "type": "Feature",
  "properties": {
    "geom:area": 0,
    "geom:bbox": "-156.466667,20.800000,-122.458889,37.658056",
    "geom:latitude": 29.20341962695681,
    "geom:longitude": -139.49966421769952,
    "src:alt_label": "swim-path",
    "src:geom": "swim",
    "swim:altitudes": [
      "030",
      "047",
      "069",
      "109",
      "121",
      "144",
      "160",
      "194",
      "209",
      "224",
      "238",
      "265",
      "274",
      "283",
      "292",
      "300",
      "308",
      "317",
      "327",
      "337",
      "346",
      "350C",
      "350C",
      "350C",
      "350C",
      "350C",
      "350",
      "350",
      "350",
      "350",
      "350",
      "350",
      "350",
      "350",
      "350",
      "350",
      "350",
      "350",
      "350",
      "350",
      "350",
      "350",
      "350T",
      "350T",
      "350T",
      "350T",
      "350T",
      "348T",
      "320T",
      "299T",
      "277T",
      "256T",
      "235T",
      "214T",
      "193T",
      "172T",
      "151T",
      "130T",
      "119T",
      "104T",
      "098T",
      "084T",
      "071T",
      "057T",
      "051T",
      "040T",
      "030T",
      "020T",
      "013T",
      "005T",
      "003"
    ],
    "swim:geom": "path",
    "swim:speeds": [
      187,
      240,
      270,
      313,
      341,
      350,
      352,
      364,
      369,
      375,
      379,
      391,
      401,
      409,
      413,
      417,
      423,
      429,
      431,
      430,
      428,
      425,
      423,
      422,
      421,
      421,
      450,
      450,
      450,
      450,
      450,
      450,
      450,
      450,
      450,
      450,
      450,
      450,
      450,
      450,
      450,
      450,
      450,
      450,
      450,
      450,
      450,
      440,
      450,
      450,
      430,
      420,
      410,
      410,
      400,
      390,
      380,
      370,
      350,
      330,
      300,
      290,
      290,
      280,
      250,
      220,
      200,
      180,
      150,
      140,
      140
    ],
    "swim:timestamps": [
      1785432094,
      1785432154,
      1785432214,
      1785432334,
      1785432394,
      1785432454,
      1785432514,
      1785432634,
      1785432694,
      1785432754,
      1785432815,
      1785432935,
      1785432995,
      1785433055,
      1785433115,
      1785433175,
      1785433235,
      1785433295,
      1785433355,
      1785433415,
      1785433476,
      1785433536,
      1785433656,
      1785433776,
      1785433836,
      1785433956,
      1785446643,
      1785446686,
      1785446746,
      1785446807,
      1785446866,
      1785446926,
      1785446986,
      1785447047,
      1785447107,
      1785447167,
      1785447227,
      1785447287,
      1785447347,
      1785447407,
      1785447467,
      1785447528,
      1785447588,
      1785447648,
      1785447708,
      1785447768,
      1785447828,
      1785447888,
      1785447949,
      1785448009,
      1785448069,
      1785448129,
      1785448189,
      1785448249,
      1785448309,
      1785448370,
      1785448430,
      1785448490,
      1785448550,
      1785448610,
      1785448670,
      1785448730,
      1785448790,
      1785448851,
      1785448911,
      1785448971,
      1785449031,
      1785449091,
      1785449152,
      1785449211,
      1785449229
    ],
    "wof:geomhash": "8902302275be6a2b9fb79127a02ace0c",
    "wof:id": 2032039949,
    "wof:repo": "sfomuseum-data-flights-2026-07"
  },
  "bbox": [
    -156.46666666666667,
    20.8,
    -122.4588888888889,
    37.658055555555556
  ],
  "geometry": {"coordinates":[[-122.4588888888889,37.654444444444444],[-122.53,37.658055555555556],[-122.60222222222221,37.61138888888889],[-122.76138888888889,37.50944444444445],[-122.83666666666666,37.46055555555556],[-122.94944444444445,37.3875],[-123.02722222222222,37.33722222222222],[-123.22416666666666,37.20861111111111],[-123.32527777777777,37.1425],[-123.42666666666668,37.07611111111112],[-123.5286111111111,37.00888888888889],[-123.75833333333334,36.85666666666667],[-123.86638888888888,36.785],[-123.97444444444444,36.71277777777778],[-124.08638888888889,36.63805555555555],[-124.19638888888889,36.564166666666665],[-124.30916666666667,36.488055555555555],[-124.42472222222223,36.40972222222222],[-124.53722222222223,36.333333333333336],[-124.65055555555556,36.256388888888885],[-124.76361111111112,36.18055555555555],[-124.8863888888889,36.12],[-125.13361111111112,35.99861111111111],[-125.38027777777778,35.876666666666665],[-125.50472222222223,35.81472222222222],[-125.75,35.692499999999995],[-152.35,23.133333333333333],[-152.43333333333334,23.083333333333332],[-152.55,23.016666666666666],[-152.66666666666666,22.966666666666665],[-152.78333333333333,22.9],[-152.91666666666666,22.85],[-153.03333333333333,22.783333333333335],[-153.15,22.716666666666665],[-153.26666666666668,22.666666666666668],[-153.38333333333333,22.6],[-153.5,22.533333333333335],[-153.63333333333333,22.483333333333334],[-153.75,22.416666666666668],[-153.86666666666667,22.35],[-153.98333333333332,22.3],[-154.1,22.233333333333334],[-154.21666666666667,22.166666666666668],[-154.33333333333334,22.116666666666667],[-154.45,22.05],[-154.56666666666666,21.983333333333334],[-154.68333333333334,21.933333333333334],[-154.8,21.866666666666667],[-154.91666666666666,21.8],[-155.03333333333333,21.75],[-155.15,21.683333333333334],[-155.26666666666668,21.616666666666667],[-155.36666666666667,21.566666666666666],[-155.46666666666667,21.516666666666666],[-155.58333333333334,21.45],[-155.68333333333334,21.4],[-155.78333333333333,21.35],[-155.86666666666667,21.3],[-155.95,21.233333333333334],[-156.01666666666668,21.166666666666668],[-156.08333333333334,21.1],[-156.15,21.05],[-156.21666666666667,21],[-156.26666666666668,20.933333333333334],[-156.33333333333334,20.883333333333333],[-156.36666666666667,20.833333333333332],[-156.4,20.8],[-156.45,20.8],[-156.46666666666667,20.833333333333332],[-156.43333333333334,20.866666666666667],[-156.43333333333334,20.866666666666667]],"type":"LineString"}
}
