{
  "id": 2032023233,
  "type": "Feature",
  "properties": {
    "geom:area": 0,
    "geom:bbox": "-122.543030,36.721760,-121.414820,37.664690",
    "geom:latitude": 37.22615589138607,
    "geom:longitude": -122.03819433237608,
    "src:alt_label": "swim-takeoff",
    "src:geom": "swim",
    "swim:elevations": [
      404,
      699,
      847,
      1028,
      1129,
      1366,
      1399,
      1747,
      2317,
      2531,
      3034,
      3379,
      3804,
      4027,
      4555,
      5003,
      5059,
      5142,
      5271,
      5466,
      5668,
      6081,
      6430,
      6540,
      6725,
      6824,
      7186,
      7483,
      7636,
      7821,
      8205,
      8300,
      8611
    ],
    "swim:geom": "takeoff",
    "swim:timestamps": [
      1785309146,
      1785309170,
      1785309186,
      1785309207,
      1785309223,
      1785309266,
      1785309271,
      1785309307,
      1785309355,
      1785309372,
      1785309416,
      1785309444,
      1785309477,
      1785309494,
      1785309532,
      1785309578,
      1785309597,
      1785309616,
      1785309630,
      1785309651,
      1785309670,
      1785309705,
      1785309738,
      1785309751,
      1785309770,
      1785309782,
      1785309829,
      1785309868,
      1785309886,
      1785309907,
      1785309956,
      1785309970,
      1785310016
    ],
    "wof:geomhash": "aa21bf1e2311c7a044b1324eeb199f30",
    "wof:id": 2032023233,
    "wof:repo": "sfomuseum-data-flights-2026-07"
  },
  "bbox": [
    -122.54303,
    36.72176,
    -121.41482,
    37.66469
  ],
  "geometry": {"coordinates":[[-122.41043,37.63397],[-122.43089,37.64295],[-122.4455,37.64937],[-122.46472,37.65794],[-122.48038,37.66469],[-122.53523,37.65903],[-122.54027,37.6549],[-122.54303,37.61103],[-122.50686,37.5538],[-122.49371,37.53304],[-122.44481,37.48912],[-122.39713,37.47832],[-122.33917,37.46381],[-122.31477,37.45012],[-122.26394,37.4084],[-122.20127,37.35868],[-122.17312,37.33632],[-122.14275,37.31195],[-122.11922,37.29304],[-122.08463,37.26534],[-122.05307,37.2401],[-121.9932,37.19196],[-121.93647,37.1463],[-121.91406,37.12832],[-121.88008,37.10086],[-121.85873,37.0836],[-121.77253,37.01378],[-121.69962,36.95462],[-121.66553,36.92682],[-121.62732,36.89493],[-121.53232,36.81733],[-121.50407,36.79454],[-121.41482,36.72176]],"type":"LineString"}
}
