{
  "id": 2031963603,
  "type": "Feature",
  "properties": {
    "geom:area": 0,
    "geom:bbox": "-122.936110,37.527660,-122.083760,38.494070",
    "geom:latitude": 37.87642649765427,
    "geom:longitude": -122.51306568225856,
    "src:alt_label": "swim-approach",
    "src:geom": "swim",
    "swim:elevations": [
      7309,
      7290,
      7273,
      6969,
      6856,
      6494,
      6275,
      6201,
      5960,
      5893,
      5674,
      5615,
      5363,
      5001,
      4824,
      4703,
      4629,
      4563,
      4430,
      4384,
      4021,
      3901,
      3712,
      3576,
      3480,
      3423,
      3356,
      3348,
      3170,
      3020,
      2814,
      2661,
      2578,
      2480,
      2336,
      2129,
      1993,
      1727,
      1526,
      1433,
      1199,
      1071,
      930,
      759,
      575,
      542,
      364,
      309,
      236,
      100,
      0
    ],
    "swim:geom": "approach",
    "swim:timestamps": [
      1785014545,
      1785014548,
      1785014554,
      1785014598,
      1785014613,
      1785014664,
      1785014689,
      1785014697,
      1785014725,
      1785014731,
      1785014757,
      1785014765,
      1785014798,
      1785014841,
      1785014865,
      1785014878,
      1785014888,
      1785014897,
      1785014912,
      1785014918,
      1785014968,
      1785014993,
      1785015020,
      1785015058,
      1785015083,
      1785015092,
      1785015111,
      1785015120,
      1785015159,
      1785015181,
      1785015214,
      1785015244,
      1785015260,
      1785015278,
      1785015297,
      1785015322,
      1785015341,
      1785015379,
      1785015408,
      1785015425,
      1785015464,
      1785015478,
      1785015493,
      1785015527,
      1785015568,
      1785015577,
      1785015620,
      1785015635,
      1785015653,
      1785015686,
      1785015715
    ],
    "wof:geomhash": "88e8d99df8b8f6a361a09bfecf57a96c",
    "wof:id": 2031963603,
    "wof:repo": "sfomuseum-data-flights-2026-07"
  },
  "bbox": [
    -122.93611,
    37.52766,
    -122.08376,
    38.49407
  ],
  "geometry": {"coordinates":[[-122.93611,38.49407],[-122.93315,38.48934],[-122.92725,38.47988],[-122.88381,38.41041],[-122.86918,38.38683],[-122.82717,38.30459],[-122.81063,38.26308],[-122.80571,38.25013],[-122.7887,38.20403],[-122.78512,38.19426],[-122.7697,38.15245],[-122.76521,38.14028],[-122.74551,38.08818],[-122.71944,38.02026],[-122.70553,37.98396],[-122.69772,37.96356],[-122.69189,37.94842],[-122.6867,37.93465],[-122.67696,37.9121],[-122.67174,37.90349],[-122.61114,37.84062],[-122.58107,37.81242],[-122.54954,37.78298],[-122.50903,37.74461],[-122.48012,37.72336],[-122.46684,37.71875],[-122.4393,37.71061],[-122.42504,37.70656],[-122.36685,37.68945],[-122.33523,37.6799],[-122.28697,37.66519],[-122.24348,37.65188],[-122.21994,37.64472],[-122.1951,37.63711],[-122.16867,37.6291],[-122.13436,37.61836],[-122.10796,37.60969],[-122.08376,37.57457],[-122.09707,37.54403],[-122.11064,37.52947],[-122.15449,37.52766],[-122.16808,37.53378],[-122.18223,37.53997],[-122.2144,37.5535],[-122.25223,37.5694],[-122.25977,37.57258],[-122.29258,37.58639],[-122.30341,37.59094],[-122.3162,37.59632],[-122.34069,37.60664],[-122.36312,37.61538]],"type":"LineString"}
}
