{
  "id": 2032006063,
  "type": "Feature",
  "properties": {
    "geom:area": 0,
    "geom:bbox": "-123.028056,37.516667,-122.050000,42.485556",
    "geom:latitude": 39.79156798537771,
    "geom:longitude": -122.81060184255483,
    "src:alt_label": "swim-path",
    "src:geom": "swim",
    "swim:altitudes": [
      "023",
      "037",
      "045",
      "070",
      "099",
      "117",
      "121",
      "131",
      "138",
      "149",
      "157",
      "171",
      "178",
      "189",
      "195",
      "205",
      "212",
      "222",
      "228",
      "236",
      "241",
      "248",
      "253",
      "261",
      "266",
      "271",
      "276",
      "282",
      "289",
      "299",
      "309C",
      "310C",
      "310C",
      "310C",
      "310C",
      "310C",
      "310C",
      "310C",
      "310C",
      "310C",
      "310C",
      "310C",
      "310C",
      "310C",
      "310C",
      "310C",
      "310C",
      "310C",
      "310C",
      "310C",
      "310",
      "310",
      "310",
      "310",
      "310",
      "310",
      "310",
      "310",
      "310",
      "293",
      "280",
      "259",
      "238",
      "221",
      "218",
      "197",
      "176",
      "155",
      "131",
      "113",
      "110C",
      "105",
      "083",
      "066",
      "061",
      "058",
      "051",
      "046",
      "042",
      "036",
      "035",
      "028",
      "026",
      "019",
      "016",
      "011",
      "002",
      "001"
    ],
    "swim:geom": "path",
    "swim:speeds": [
      177,
      219,
      227,
      276,
      286,
      330,
      353,
      373,
      381,
      393,
      397,
      400,
      402,
      408,
      413,
      419,
      421,
      426,
      429,
      436,
      443,
      450,
      456,
      464,
      468,
      474,
      478,
      482,
      482,
      481,
      468,
      453,
      441,
      440,
      438,
      437,
      436,
      435,
      433,
      431,
      429,
      428,
      427,
      425,
      424,
      424,
      430,
      431,
      432,
      433,
      433,
      433,
      434,
      434,
      434,
      434,
      433,
      433,
      432,
      426,
      418,
      407,
      399,
      393,
      394,
      388,
      376,
      366,
      362,
      355,
      299,
      261,
      253,
      242,
      246,
      242,
      209,
      206,
      205,
      191,
      195,
      184,
      186,
      181,
      177,
      147,
      139,
      144
    ],
    "swim:timestamps": [
      1785276059,
      1785276099,
      1785276119,
      1785276179,
      1785276239,
      1785276299,
      1785276329,
      1785276359,
      1785276389,
      1785276419,
      1785276449,
      1785276480,
      1785276509,
      1785276540,
      1785276570,
      1785276600,
      1785276630,
      1785276660,
      1785276690,
      1785276720,
      1785276750,
      1785276780,
      1785276810,
      1785276840,
      1785276870,
      1785276900,
      1785276930,
      1785276960,
      1785276990,
      1785277020,
      1785277050,
      1785277080,
      1785277110,
      1785277140,
      1785277170,
      1785277201,
      1785277230,
      1785277261,
      1785277291,
      1785277321,
      1785277351,
      1785277381,
      1785277411,
      1785277441,
      1785277471,
      1785277501,
      1785277531,
      1785277561,
      1785277591,
      1785277621,
      1785277651,
      1785277681,
      1785277711,
      1785277771,
      1785277831,
      1785277891,
      1785277951,
      1785278012,
      1785278072,
      1785278132,
      1785278192,
      1785278252,
      1785278312,
      1785278352,
      1785278372,
      1785278432,
      1785278492,
      1785278552,
      1785278612,
      1785278672,
      1785278733,
      1785278793,
      1785278877,
      1785278917,
      1785278937,
      1785278977,
      1785279037,
      1785279092,
      1785279117,
      1785279157,
      1785279177,
      1785279218,
      1785279237,
      1785279277,
      1785279297,
      1785279338,
      1785279403,
      1785279418
    ],
    "wof:geomhash": "0cc884aaf8ae150d662e5bf1e660dd50",
    "wof:id": 2032006063,
    "wof:repo": "sfomuseum-data-flights-2026-07"
  },
  "bbox": [
    -123.02805555555555,
    37.516666666666666,
    -122.05,
    42.48555555555556
  ],
  "geometry": {"coordinates":[[-122.8863888888889,42.400555555555556],[-122.90305555555557,42.43694444444444],[-122.89972222222222,42.45666666666667],[-122.81277777777777,42.48555555555556],[-122.76888888888888,42.42111111111111],[-122.79138888888889,42.334722222222226],[-122.79972222222221,42.29861111111111],[-122.81305555555555,42.24166666666667],[-122.8236111111111,42.19555555555555],[-122.83777777777777,42.13444444444444],[-122.85,42.08694444444445],[-122.86583333333333,42.02361111111111],[-122.87722222222222,41.976111111111116],[-122.89250000000001,41.91222222222222],[-122.90416666666667,41.86416666666667],[-122.91972222222223,41.7975],[-122.93138888888889,41.74916666666667],[-122.94805555555556,41.678888888888885],[-122.95944444444444,41.630833333333335],[-122.97638888888889,41.559444444444445],[-122.98805555555556,41.51],[-123.00555555555556,41.43611111111111],[-123.01722222222222,41.38583333333333],[-123.02805555555555,41.30083333333333],[-123.0261111111111,41.24194444444444],[-123.02388888888889,41.16916666666666],[-123.02194444444444,41.1075],[-123.01972222222223,41.034166666666664],[-123.01805555555555,40.980000000000004],[-123.01583333333333,40.9],[-123.01444444444445,40.848333333333336],[-123.01305555555555,40.794999999999995],[-123.0111111111111,40.720555555555556],[-123.00944444444444,40.67333333333333],[-123.00722222222223,40.600833333333334],[-123.00555555555556,40.55277777777778],[-123.00333333333333,40.48111111111111],[-123.00222222222222,40.43388888888889],[-123,40.36277777777778],[-122.99861111111112,40.31444444444444],[-122.99666666666667,40.24305555555556],[-122.995,40.19583333333333],[-122.99305555555556,40.12694444444445],[-122.99166666666667,40.0775],[-122.98972222222223,40.01111111111111],[-122.98833333333333,39.95944444444445],[-122.9863888888889,39.891666666666666],[-122.98472222222222,39.83861111111111],[-122.98305555555555,39.771388888888886],[-122.98138888888889,39.717222222222226],[-122.97972222222222,39.651111111111106],[-122.97472222222223,39.59638888888889],[-122.96861111111112,39.532222222222224],[-122.95694444444445,39.408055555555556],[-122.94555555555556,39.28722222222222],[-122.93444444444445,39.16722222222222],[-122.92333333333333,39.047777777777775],[-122.91222222222223,38.926944444444445],[-122.90138888888889,38.8075],[-122.89083333333333,38.69083333333333],[-122.86999999999999,38.575],[-122.83833333333332,38.465833333333336],[-122.80722222222222,38.35916666666667],[-122.78333333333333,38.266666666666666],[-122.77583333333334,38.2525],[-122.74555555555555,38.14888888888889],[-122.71583333333334,38.04722222222222],[-122.68777777777778,37.94916666666666],[-122.62083333333332,37.849722222222226],[-122.54333333333334,37.776666666666664],[-122.46388888888889,37.715],[-122.37583333333333,37.689722222222215],[-122.275,37.66111111111111],[-122.2,37.63333333333333],[-122.17944444444444,37.63444444444444],[-122.11666666666666,37.61666666666667],[-122.05,37.583333333333336],[-122.08333333333333,37.55],[-122.08944444444444,37.52638888888889],[-122.13333333333334,37.516666666666666],[-122.15305555555557,37.527499999999996],[-122.2,37.55],[-122.20972222222223,37.55138888888889],[-122.25,37.56666666666667],[-122.26472222222222,37.57472222222223],[-122.3,37.583333333333336],[-122.35,37.61666666666667],[-122.3561111111111,37.613055555555555]],"type":"LineString"}
}
