{
  "id": 2032010573,
  "type": "Feature",
  "properties": {
    "geom:area": 0,
    "geom:bbox": "-122.387720,37.624250,-121.271230,37.961070",
    "geom:latitude": 37.83286826932644,
    "geom:longitude": -121.84627220563382,
    "src:alt_label": "swim-takeoff",
    "src:geom": "swim",
    "swim:elevations": [
      213,
      1019,
      1038,
      1283,
      1293,
      1370,
      2080,
      2381,
      2959,
      3248,
      3381,
      3625,
      4055,
      4642,
      4745,
      5057,
      5360,
      5796,
      6093,
      6443
    ],
    "swim:geom": "takeoff",
    "swim:timestamps": [
      1785236261,
      1785236337,
      1785236341,
      1785236389,
      1785236393,
      1785236404,
      1785236453,
      1785236472,
      1785236515,
      1785236547,
      1785236570,
      1785236608,
      1785236646,
      1785236707,
      1785236715,
      1785236750,
      1785236782,
      1785236838,
      1785236871,
      1785236907
    ],
    "wof:geomhash": "586000bf6aed0f2f5421632c0fabb519",
    "wof:id": 2032010573,
    "wof:repo": "sfomuseum-data-flights-2026-07"
  },
  "bbox": [
    -122.38772,
    37.62425,
    -121.27123,
    37.96107
  ],
  "geometry": {"coordinates":[[-122.38772,37.62425],[-122.36048,37.66105],[-122.35727,37.66229],[-122.30505,37.6833],[-122.29985,37.68529],[-122.28492,37.69104],[-122.21413,37.71846],[-122.18656,37.73237],[-122.12641,37.76362],[-122.0778,37.78866],[-122.04018,37.80812],[-121.96631,37.83336],[-121.88403,37.84871],[-121.74916,37.8739],[-121.73049,37.87728],[-121.64921,37.89227],[-121.57542,37.90579],[-121.44084,37.93034],[-121.35991,37.94504],[-121.27123,37.96107]],"type":"LineString"}
}
