{
  "id": 2032039517,
  "type": "Feature",
  "properties": {
    "geom:area": 0,
    "geom:bbox": "-123.478900,37.098220,-122.404140,37.667190",
    "geom:latitude": 37.4065573395701,
    "geom:longitude": -122.94469918413424,
    "src:alt_label": "swim-takeoff",
    "src:geom": "swim",
    "swim:elevations": [
      305,
      652,
      843,
      891,
      1174,
      1403,
      1751,
      1862,
      2211,
      2710,
      2963,
      3152,
      3281,
      3503,
      3751,
      3883,
      4302,
      4468,
      4704,
      4972,
      5145,
      5503,
      5723,
      5946,
      6069,
      6322
    ],
    "swim:geom": "takeoff",
    "swim:timestamps": [
      1785398056,
      1785398083,
      1785398101,
      1785398105,
      1785398143,
      1785398179,
      1785398215,
      1785398226,
      1785398259,
      1785398299,
      1785398322,
      1785398355,
      1785398376,
      1785398418,
      1785398447,
      1785398462,
      1785398510,
      1785398531,
      1785398555,
      1785398586,
      1785398610,
      1785398660,
      1785398695,
      1785398726,
      1785398743,
      1785398777
    ],
    "wof:geomhash": "f3265710a091257f1d64013c63bc72dd",
    "wof:id": 2032039517,
    "wof:repo": "sfomuseum-data-flights-2026-07"
  },
  "bbox": [
    -123.4789,
    37.09822,
    -122.40414,
    37.66719
  ],
  "geometry": {"coordinates":[[-122.40414,37.63122],[-122.42921,37.64227],[-122.44592,37.64964],[-122.45024,37.65157],[-122.48919,37.66719],[-122.53461,37.65847],[-122.57581,37.62961],[-122.58806,37.62085],[-122.62841,37.59382],[-122.68084,37.56197],[-122.71074,37.54466],[-122.7558,37.51869],[-122.78827,37.50055],[-122.85508,37.46183],[-122.90219,37.43462],[-122.92848,37.41943],[-123.00994,37.37238],[-123.04471,37.35228],[-123.08703,37.32761],[-123.14005,37.29676],[-123.18158,37.27258],[-123.26945,37.22125],[-123.33105,37.18526],[-123.38679,37.15263],[-123.41878,37.13377],[-123.4789,37.09822]],"type":"LineString"}
}
