{
  "id": 2031952547,
  "type": "Feature",
  "properties": {
    "geom:area": 0,
    "geom:bbox": "-122.355740,37.492610,-121.270980,37.612850",
    "geom:latitude": 37.54196355861748,
    "geom:longitude": -121.82020051940579,
    "src:alt_label": "swim-approach",
    "src:geom": "swim",
    "swim:elevations": [
      4437,
      4016,
      3788,
      3694,
      3586,
      3472,
      3415,
      3309,
      3293,
      3201,
      2967,
      2771,
      2649,
      2515,
      2437,
      2335,
      2167,
      2035,
      1921,
      1760,
      1648,
      1532,
      1404,
      1327,
      1216,
      1187,
      1017,
      931,
      810,
      766,
      724,
      586,
      425,
      337,
      240,
      136,
      105,
      64,
      10
    ],
    "swim:geom": "approach",
    "swim:timestamps": [
      1784934222,
      1784934267,
      1784934290,
      1784934306,
      1784934326,
      1784934352,
      1784934360,
      1784934379,
      1784934393,
      1784934432,
      1784934466,
      1784934485,
      1784934500,
      1784934518,
      1784934542,
      1784934567,
      1784934588,
      1784934628,
      1784934647,
      1784934687,
      1784934703,
      1784934721,
      1784934745,
      1784934764,
      1784934801,
      1784934815,
      1784934851,
      1784934871,
      1784934897,
      1784934908,
      1784934914,
      1784934946,
      1784934986,
      1784935016,
      1784935037,
      1784935065,
      1784935074,
      1784935086,
      1784935095
    ],
    "wof:geomhash": "f3449d27c8cfc77b631866b03a99b881",
    "wof:id": 2031952547,
    "wof:repo": "sfomuseum-data-flights-2026-07"
  },
  "bbox": [
    -122.35574,
    37.49261,
    -121.27098,
    37.61285
  ],
  "geometry": {"coordinates":[[-121.27098,37.59184],[-121.35988,37.58176],[-121.4043,37.5766],[-121.43496,37.57311],[-121.47236,37.56879],[-121.51826,37.56348],[-121.53063,37.56199],[-121.56338,37.55814],[-121.58635,37.55546],[-121.64686,37.54565],[-121.69555,37.53393],[-121.72347,37.52724],[-121.74419,37.52228],[-121.76953,37.51624],[-121.80116,37.50876],[-121.83132,37.50161],[-121.85634,37.49557],[-121.9081,37.49261],[-121.93316,37.49386],[-121.98142,37.49727],[-122.00151,37.49834],[-122.02453,37.49965],[-122.05407,37.50126],[-122.07713,37.50249],[-122.11675,37.51264],[-122.13032,37.51808],[-122.16472,37.53248],[-122.18347,37.54044],[-122.20663,37.55024],[-122.21652,37.55437],[-122.2216,37.5565],[-122.24779,37.56757],[-122.27989,37.5811],[-122.30071,37.58984],[-122.3158,37.59614],[-122.33456,37.6041],[-122.34076,37.60672],[-122.34923,37.61025],[-122.35574,37.61285]],"type":"LineString"}
}
