{
  "id": 2032037359,
  "type": "Feature",
  "properties": {
    "geom:area": 0,
    "geom:bbox": "-122.551530,36.721560,-121.423280,37.663490",
    "geom:latitude": 37.225781729235685,
    "geom:longitude": -122.04620756969587,
    "src:alt_label": "swim-takeoff",
    "src:geom": "swim",
    "swim:elevations": [
      122,
      183,
      627,
      972,
      1617,
      2176,
      2430,
      2759,
      2948,
      3198,
      3235,
      3393,
      3754,
      4025,
      4314,
      4573,
      4731,
      5030,
      5300,
      5563,
      5759,
      6076,
      6222,
      6618,
      6825,
      7122,
      7185,
      7531,
      7594,
      7916,
      7999
    ],
    "swim:geom": "takeoff",
    "swim:timestamps": [
      1785433048,
      1785433051,
      1785433099,
      1785433143,
      1785433207,
      1785433251,
      1785433277,
      1785433307,
      1785433323,
      1785433346,
      1785433358,
      1785433386,
      1785433433,
      1785433456,
      1785433478,
      1785433506,
      1785433523,
      1785433551,
      1785433583,
      1785433613,
      1785433637,
      1785433670,
      1785433688,
      1785433730,
      1785433754,
      1785433796,
      1785433804,
      1785433856,
      1785433866,
      1785433913,
      1785433926
    ],
    "wof:geomhash": "0fb30640a99eda012853c4d8ac91e464",
    "wof:id": 2032037359,
    "wof:repo": "sfomuseum-data-flights-2026-07"
  },
  "bbox": [
    -122.55153,
    36.72156,
    -121.42328,
    37.66349
  ],
  "geometry": {"coordinates":[[-122.38647,37.62383],[-122.38889,37.62503],[-122.43041,37.64289],[-122.47829,37.66349],[-122.55153,37.63811],[-122.52669,37.58841],[-122.49372,37.56393],[-122.45554,37.53509],[-122.43607,37.51987],[-122.40681,37.49702],[-122.391,37.48478],[-122.35242,37.45479],[-122.28197,37.40003],[-122.24688,37.3726],[-122.21168,37.34515],[-122.16785,37.31101],[-122.14093,37.28992],[-122.09606,37.25481],[-122.04374,37.21378],[-121.9937,37.17457],[-121.95264,37.14223],[-121.89414,37.09617],[-121.86375,37.07231],[-121.78835,37.01272],[-121.74515,36.97861],[-121.66943,36.91855],[-121.65442,36.90665],[-121.55649,36.82865],[-121.53851,36.81425],[-121.44763,36.74112],[-121.42328,36.72156]],"type":"LineString"}
}
