{
  "id": 2032023271,
  "type": "Feature",
  "properties": {
    "geom:area": 0,
    "geom:bbox": "-122.400000,37.633333,-73.533333,42.904444",
    "geom:latitude": 41.89628794516218,
    "geom:longitude": -97.9960789705743,
    "src:alt_label": "swim-path",
    "src:geom": "swim",
    "swim:altitudes": [
      "007",
      "023",
      "056",
      "084",
      "108",
      "120",
      "139",
      "160",
      "185",
      "203",
      "249",
      "262",
      "285",
      "319",
      "328",
      "352",
      "362",
      "372",
      "383",
      "386",
      "390C",
      "390C",
      "390C",
      "390C",
      "390C",
      "390C",
      "390C",
      "390C",
      "390C",
      "390C",
      "390C",
      "390C",
      "390C",
      "390C",
      "390C",
      "390C",
      "390C",
      "390C",
      "390C",
      "390C",
      "390C",
      "390C",
      "390C",
      "390C",
      "390C",
      "390C",
      "390C",
      "390C",
      "390C",
      "390C",
      "396",
      "400C",
      "400C",
      "400C",
      "400C",
      "400C",
      "400C",
      "400C",
      "400C",
      "400C",
      "400C",
      "400C",
      "400C",
      "400C",
      "400C",
      "400C",
      "400C",
      "400C",
      "400C",
      "400C",
      "400C",
      "400C",
      "400C",
      "400C",
      "400C",
      "400C",
      "400C",
      "400C",
      "400C",
      "400C",
      "400C",
      "400C",
      "400C",
      "400C",
      "400C",
      "400C",
      "400C",
      "400C",
      "400C",
      "400C",
      "400C",
      "400C",
      "400C",
      "400C",
      "400C",
      "400C",
      "400C",
      "400C",
      "400C",
      "400C",
      "400C",
      "400C",
      "400",
      "397",
      "390C",
      "390C",
      "390C",
      "390C",
      "390C",
      "390C",
      "390C",
      "390C",
      "390C",
      "390C",
      "390C",
      "390C",
      "390C",
      "390C",
      "390C",
      "390C",
      "390C",
      "390C",
      "390C",
      "390C",
      "392",
      "399",
      "406",
      "410C",
      "410C",
      "410C",
      "410C",
      "410C",
      "410C",
      "410C",
      "410C",
      "410C",
      "410C",
      "410C",
      "410C",
      "410C",
      "410C",
      "410C",
      "410C",
      "410C",
      "410C",
      "410C",
      "410C",
      "410C",
      "410C",
      "410C",
      "410C",
      "410C",
      "410C",
      "410C",
      "410C",
      "410C",
      "410C",
      "410C",
      "410C",
      "410C",
      "410C",
      "410C",
      "410C",
      "410C",
      "410C",
      "410C",
      "410C",
      "410C",
      "410C",
      "410C",
      "410C",
      "410C",
      "410C",
      "410C",
      "410C",
      "410C",
      "410C",
      "410C",
      "410C",
      "410C",
      "410C",
      "410C",
      "410C",
      "410C",
      "410C",
      "410C",
      "410C",
      "410C",
      "410C",
      "410C",
      "410C",
      "410C",
      "410C",
      "410C",
      "410C",
      "410C",
      "410C",
      "410C",
      "410C",
      "410C",
      "410C",
      "410C",
      "410C",
      "410C",
      "410C",
      "410C",
      "410C",
      "410C",
      "410C",
      "410C",
      "410C",
      "410C",
      "410C",
      "410C",
      "410C",
      "410C",
      "410C",
      "410C",
      "410C",
      "410C",
      "410C",
      "410C",
      "410C",
      "410C",
      "410C",
      "410C",
      "410C",
      "410C",
      "410C",
      "410C",
      "410C",
      "410C",
      "410C",
      "410C",
      "410C",
      "410C",
      "410C",
      "410C",
      "410C",
      "410C",
      "410C",
      "410C",
      "410C",
      "410C",
      "410C",
      "410C",
      "410C",
      "410C",
      "410C",
      "410C",
      "410C",
      "410C",
      "410C",
      "410C",
      "410C",
      "410C",
      "410C",
      "410C",
      "410C",
      "410C",
      "410C",
      "410C",
      "410C",
      "410C",
      "410C",
      "410C",
      "410C",
      "410C",
      "410C",
      "410C",
      "410C",
      "410C",
      "410C",
      "410C",
      "410C",
      "410C",
      "410C",
      "410C",
      "410C",
      "410C",
      "410C",
      "410C",
      "410C",
      "410C",
      "410C",
      "410C",
      "410C",
      "410C",
      "410C",
      "410C",
      "410C",
      "410C",
      "410C",
      "410C",
      "410C",
      "410C",
      "410C",
      "410C",
      "410C",
      "410C",
      "410C",
      "410",
      "410",
      "410",
      "410",
      "410",
      "410",
      "410",
      "410",
      "410",
      "409",
      "399",
      "394",
      "372",
      "355",
      "346",
      "328",
      "299",
      "273",
      "249",
      "230",
      "230",
      "227",
      "207",
      "190C",
      "190C",
      "190",
      "190C",
      "190",
      "190C",
      "189",
      "184",
      "174",
      "169",
      "159",
      "145",
      "139",
      "130",
      "124",
      "112",
      "093",
      "086",
      "070",
      "063",
      "053",
      "050",
      "038",
      "035",
      "030",
      "030",
      "030",
      "027",
      "020",
      "018",
      "014",
      "012",
      "007",
      "005"
    ],
    "swim:geom": "path",
    "swim:speeds": [
      153,
      182,
      268,
      286,
      303,
      370,
      400,
      414,
      433,
      449,
      486,
      499,
      514,
      516,
      519,
      523,
      523,
      523,
      522,
      523,
      523,
      527,
      529,
      530,
      532,
      532,
      535,
      535,
      534,
      532,
      532,
      532,
      530,
      530,
      529,
      527,
      525,
      523,
      521,
      520,
      518,
      516,
      516,
      514,
      497,
      489,
      488,
      487,
      497,
      504,
      506,
      504,
      504,
      508,
      517,
      524,
      528,
      529,
      519,
      506,
      500,
      500,
      505,
      510,
      512,
      514,
      515,
      514,
      512,
      507,
      504,
      505,
      506,
      506,
      506,
      507,
      507,
      507,
      506,
      505,
      505,
      505,
      505,
      507,
      507,
      508,
      508,
      508,
      508,
      505,
      504,
      504,
      503,
      503,
      501,
      500,
      498,
      497,
      496,
      495,
      493,
      492,
      491,
      490,
      490,
      494,
      495,
      493,
      489,
      486,
      485,
      484,
      486,
      488,
      490,
      497,
      498,
      499,
      501,
      503,
      503,
      507,
      507,
      503,
      504,
      505,
      505,
      505,
      505,
      506,
      506,
      506,
      506,
      507,
      508,
      509,
      510,
      514,
      516,
      516,
      515,
      515,
      514,
      513,
      513,
      515,
      517,
      517,
      516,
      515,
      515,
      516,
      517,
      518,
      519,
      518,
      517,
      516,
      516,
      515,
      515,
      515,
      515,
      525,
      519,
      518,
      519,
      519,
      519,
      519,
      520,
      519,
      519,
      519,
      519,
      519,
      520,
      520,
      520,
      520,
      520,
      520,
      520,
      519,
      519,
      519,
      518,
      518,
      518,
      517,
      517,
      516,
      516,
      516,
      516,
      517,
      518,
      517,
      518,
      519,
      518,
      518,
      518,
      518,
      516,
      515,
      514,
      515,
      514,
      513,
      512,
      511,
      508,
      505,
      503,
      501,
      501,
      501,
      503,
      501,
      503,
      502,
      505,
      501,
      501,
      500,
      499,
      498,
      497,
      496,
      496,
      496,
      496,
      497,
      497,
      497,
      498,
      498,
      499,
      500,
      500,
      501,
      501,
      502,
      502,
      503,
      503,
      503,
      503,
      504,
      505,
      506,
      507,
      506,
      495,
      497,
      491,
      492,
      491,
      492,
      492,
      492,
      493,
      492,
      493,
      492,
      493,
      493,
      492,
      484,
      485,
      490,
      491,
      492,
      493,
      493,
      496,
      501,
      499,
      501,
      500,
      501,
      500,
      505,
      503,
      504,
      507,
      504,
      505,
      500,
      496,
      492,
      487,
      483,
      482,
      481,
      477,
      477,
      475,
      474,
      474,
      474,
      474,
      474,
      475,
      476,
      479,
      480,
      481,
      482,
      483,
      483,
      483,
      479,
      478,
      477,
      477,
      476,
      470,
      459,
      444,
      444,
      442,
      429,
      420,
      415,
      409,
      402,
      359,
      349,
      344,
      346,
      340,
      340,
      332,
      324,
      327,
      311,
      312,
      306,
      302,
      306,
      299,
      302,
      265,
      255,
      232,
      222,
      201,
      200,
      183,
      187,
      165,
      152,
      122,
      124,
      121,
      123
    ],
    "swim:timestamps": [
      1785367958,
      1785367994,
      1785368102,
      1785368162,
      1785368222,
      1785368282,
      1785368342,
      1785368414,
      1785368474,
      1785368534,
      1785368715,
      1785368775,
      1785368890,
      1785369015,
      1785369071,
      1785369195,
      1785369251,
      1785369311,
      1785369375,
      1785369431,
      1785369491,
      1785369556,
      1785369611,
      1785369671,
      1785369732,
      1785369792,
      1785369912,
      1785369972,
      1785370032,
      1785370092,
      1785370212,
      1785370272,
      1785370404,
      1785370465,
      1785370525,
      1785370585,
      1785370645,
      1785370705,
      1785370765,
      1785370825,
      1785370885,
      1785371005,
      1785371065,
      1785371125,
      1785371186,
      1785371246,
      1785371306,
      1785371366,
      1785371426,
      1785371486,
      1785371606,
      1785371666,
      1785371726,
      1785371786,
      1785371846,
      1785371906,
      1785371967,
      1785372027,
      1785372087,
      1785372147,
      1785372207,
      1785372267,
      1785372327,
      1785372387,
      1785372447,
      1785372507,
      1785372567,
      1785372627,
      1785372688,
      1785372748,
      1785372808,
      1785372868,
      1785372928,
      1785372952,
      1785372988,
      1785373012,
      1785373072,
      1785373108,
      1785373192,
      1785373228,
      1785373252,
      1785373312,
      1785373348,
      1785373408,
      1785373433,
      1785373469,
      1785373493,
      1785373529,
      1785373553,
      1785373613,
      1785373649,
      1785373673,
      1785373709,
      1785373733,
      1785373769,
      1785373793,
      1785373829,
      1785373853,
      1785373889,
      1785373913,
      1785373949,
      1785373973,
      1785374009,
      1785374033,
      1785374093,
      1785374154,
      1785374214,
      1785374274,
      1785374334,
      1785374394,
      1785374454,
      1785374514,
      1785374574,
      1785374634,
      1785374694,
      1785374754,
      1785374814,
      1785374875,
      1785374935,
      1785375055,
      1785375115,
      1785375165,
      1785375225,
      1785375235,
      1785375295,
      1785375355,
      1785375415,
      1785375465,
      1785375475,
      1785375535,
      1785375585,
      1785375596,
      1785375645,
      1785375656,
      1785375716,
      1785375765,
      1785375776,
      1785375825,
      1785375896,
      1785375956,
      1785376006,
      1785376016,
      1785376076,
      1785376126,
      1785376136,
      1785376196,
      1785376246,
      1785376306,
      1785376366,
      1785376426,
      1785376486,
      1785376546,
      1785376607,
      1785376667,
      1785376727,
      1785376847,
      1785376907,
      1785376967,
      1785377027,
      1785377087,
      1785377147,
      1785377207,
      1785377267,
      1785377317,
      1785377377,
      1785377388,
      1785377437,
      1785377448,
      1785377508,
      1785377568,
      1785377628,
      1785377688,
      1785377738,
      1785377748,
      1785377798,
      1785377808,
      1785377868,
      1785377928,
      1785377979,
      1785377988,
      1785378048,
      1785378099,
      1785378108,
      1785378169,
      1785378229,
      1785378279,
      1785378289,
      1785378339,
      1785378349,
      1785378409,
      1785378469,
      1785378529,
      1785378589,
      1785378640,
      1785378649,
      1785378709,
      1785378760,
      1785378769,
      1785378829,
      1785378889,
      1785378940,
      1785378949,
      1785379010,
      1785379070,
      1785379120,
      1785379180,
      1785379240,
      1785379301,
      1785379361,
      1785379421,
      1785379481,
      1785379541,
      1785379601,
      1785379661,
      1785379721,
      1785379781,
      1785379841,
      1785379901,
      1785379944,
      1785379962,
      1785380004,
      1785380022,
      1785380065,
      1785380082,
      1785380125,
      1785380142,
      1785380185,
      1785380202,
      1785380245,
      1785380262,
      1785380305,
      1785380322,
      1785380382,
      1785380442,
      1785380485,
      1785380502,
      1785380562,
      1785380605,
      1785380623,
      1785380665,
      1785380683,
      1785380725,
      1785380743,
      1785380786,
      1785380803,
      1785380863,
      1785380906,
      1785380966,
      1785381026,
      1785381086,
      1785381206,
      1785381266,
      1785381326,
      1785381447,
      1785381507,
      1785381541,
      1785381567,
      1785381601,
      1785381627,
      1785381661,
      1785381687,
      1785381721,
      1785381747,
      1785381781,
      1785381807,
      1785381841,
      1785381867,
      1785381901,
      1785381927,
      1785381962,
      1785382022,
      1785382082,
      1785382108,
      1785382142,
      1785382168,
      1785382202,
      1785382228,
      1785382262,
      1785382288,
      1785382322,
      1785382348,
      1785382382,
      1785382408,
      1785382442,
      1785382468,
      1785382528,
      1785382562,
      1785382588,
      1785382622,
      1785382648,
      1785382682,
      1785382709,
      1785382743,
      1785382766,
      1785382803,
      1785382826,
      1785382863,
      1785382886,
      1785382923,
      1785382946,
      1785382983,
      1785383006,
      1785383043,
      1785383066,
      1785383103,
      1785383126,
      1785383186,
      1785383223,
      1785383246,
      1785383283,
      1785383307,
      1785383343,
      1785383367,
      1785383427,
      1785383463,
      1785383487,
      1785383523,
      1785383584,
      1785383644,
      1785383704,
      1785383824,
      1785383884,
      1785383944,
      1785384004,
      1785384064,
      1785384124,
      1785384144,
      1785384184,
      1785384210,
      1785384244,
      1785384276,
      1785384304,
      1785384330,
      1785384364,
      1785384396,
      1785384456,
      1785384484,
      1785384522,
      1785384545,
      1785384576,
      1785384642,
      1785384665,
      1785384702,
      1785384725,
      1785384762,
      1785384785,
      1785384822,
      1785384845,
      1785384876,
      1785384905,
      1785384936,
      1785384965,
      1785385002,
      1785385025,
      1785385056,
      1785385085,
      1785385116,
      1785385145
    ],
    "wof:geomhash": "b9d097ac9631eb61b778e88794c3084f",
    "wof:id": 2032023271,
    "wof:repo": "sfomuseum-data-flights-2026-07"
  },
  "bbox": [
    -122.4,
    37.63333333333333,
    -73.53333333333333,
    42.904444444444444
  ],
  "geometry": {"coordinates":[[-122.38333333333334,37.63333333333333],[-122.4,37.65],[-122.28138888888888,37.693888888888885],[-122.19833333333334,37.735],[-122.1375,37.80333333333333],[-122.06472222222222,37.88027777777778],[-121.96083333333334,37.95277777777778],[-121.85027777777778,38.02722222222222],[-121.70305555555557,38.12638888888889],[-121.58194444444445,38.20777777777778],[-121.19888888888889,38.45416666666667],[-121.06166666666667,38.53861111111111],[-120.78888888888889,38.70305555555556],[-120.4863888888889,38.89],[-120.35111111111111,38.970555555555556],[-120.02333333333333,39.168055555555554],[-119.90472222222223,39.237500000000004],[-119.75583333333333,39.32666666666667],[-119.57694444444444,39.43222222222222],[-119.45722222222223,39.501666666666665],[-119.30611111111111,39.59138888888889],[-119.14861111111112,39.68222222222222],[-118.99805555555555,39.76916666666666],[-118.84416666666667,39.85722222222223],[-118.67416666666666,39.934999999999995],[-118.50555555555556,40.00333333333333],[-118.16333333333334,40.14111111111111],[-117.99083333333333,40.20666666666667],[-117.80944444444444,40.2625],[-117.63166666666666,40.31527777777777],[-117.26944444444445,40.42222222222222],[-117.08638888888889,40.47555555555556],[-116.67944444444444,40.593333333333334],[-116.49666666666667,40.64555555555555],[-116.31722222222221,40.69638888888888],[-116.13527777777779,40.7475],[-115.95416666666667,40.79833333333333],[-115.77555555555556,40.84777777777778],[-115.5975,40.89694444444444],[-115.41888888888889,40.94583333333333],[-115.24194444444444,40.99388888888889],[-114.885,41.09],[-114.70694444444445,41.13722222222222],[-114.52833333333334,41.18444444444444],[-114.35527777777777,41.230000000000004],[-114.18416666666667,41.27444444444444],[-114.01527777777778,41.31805555555556],[-113.84638888888888,41.361666666666665],[-113.67527777777778,41.41138888888889],[-113.49944444444445,41.46277777777778],[-113.15944444444445,41.57805555555556],[-112.99055555555556,41.636944444444445],[-112.82111111111111,41.69583333333333],[-112.64222222222223,41.75555555555555],[-112.46138888888889,41.8125],[-112.27833333333334,41.867222222222225],[-112.10472222222222,41.918055555555554],[-111.91638888888889,41.96527777777778],[-111.72888888888889,42.00083333333333],[-111.54527777777777,42.02722222222222],[-111.35944444444443,42.04555555555555],[-111.17527777777778,42.06583333333333],[-110.9863888888889,42.08694444444445],[-110.79833333333333,42.10777777777778],[-110.60527777777777,42.12861111111111],[-110.41416666666667,42.14888888888889],[-110.2238888888889,42.16861111111111],[-110.03305555555555,42.187777777777775],[-109.84472222222222,42.20583333333334],[-109.65416666666667,42.22361111111111],[-109.47,42.24055555555556],[-109.28,42.257777777777775],[-109.08944444444444,42.27472222222222],[-109.01527777777778,42.281666666666666],[-108.90194444444445,42.29111111111111],[-108.82777777777777,42.2975],[-108.63611111111112,42.31361111111111],[-108.52388888888889,42.323055555555555],[-108.25777777777778,42.344722222222224],[-108.1438888888889,42.35388888888889],[-108.06888888888888,42.359722222222224],[-107.88138888888888,42.37444444444444],[-107.76555555555555,42.38305555555556],[-107.57722222222222,42.3975],[-107.50111111111111,42.403055555555554],[-107.38805555555557,42.41138888888889],[-107.31194444444444,42.416666666666664],[-107.19555555555556,42.425],[-107.12138888888889,42.430277777777775],[-106.93444444444445,42.44333333333333],[-106.84277777777777,42.44944444444444],[-106.76916666666666,42.45444444444445],[-106.6538888888889,42.46222222222222],[-106.58027777777778,42.466944444444444],[-106.46833333333333,42.474444444444444],[-106.39444444444445,42.47916666666667],[-106.28138888888888,42.486111111111114],[-106.21000000000001,42.49055555555556],[-106.09777777777778,42.4975],[-106.0261111111111,42.50194444444445],[-105.915,42.50861111111111],[-105.84166666666667,42.51305555555555],[-105.73361111111112,42.51916666666666],[-105.66027777777778,42.52361111111111],[-105.4775,42.53388888888889],[-105.28916666666666,42.54416666666666],[-105.10499999999999,42.55416666666667],[-104.9213888888889,42.56361111111111],[-104.73722222222223,42.57277777777778],[-104.53555555555555,42.5825],[-104.3561111111111,42.58972222222222],[-104.17416666666666,42.59277777777778],[-103.99111111111111,42.594722222222224],[-103.8086111111111,42.58222222222223],[-103.62277777777777,42.564166666666665],[-103.43861111111111,42.55083333333333],[-103.25138888888888,42.559444444444445],[-103.06388888888888,42.56722222222223],[-102.875,42.575],[-102.49694444444445,42.594166666666666],[-102.3086111111111,42.599722222222226],[-102.16472222222222,42.60111111111111],[-101.97944444444444,42.608333333333334],[-101.92944444444444,42.611666666666665],[-101.75916666666667,42.61694444444444],[-101.56694444444445,42.62222222222222],[-101.3775,42.62722222222222],[-101.21972222222223,42.63111111111111],[-101.18583333333333,42.63194444444444],[-100.99583333333334,42.63638888888889],[-100.83833333333332,42.63972222222222],[-100.80555555555556,42.640277777777776],[-100.64833333333334,42.64333333333333],[-100.615,42.64416666666666],[-100.42222222222223,42.6475],[-100.26777777777778,42.65],[-100.22777777777777,42.65083333333333],[-100.03166666666667,42.65361111111111],[-99.83694444444444,42.65611111111111],[-99.64444444444445,42.65833333333333],[-99.44972222222222,42.66027777777778],[-99.44805555555556,42.66],[-99.25694444444444,42.66916666666666],[-99.06805555555555,42.68277777777777],[-99.06944444444444,42.68277777777777],[-98.87305555555555,42.69472222222222],[-98.69638888888889,42.70472222222222],[-98.49972222222222,42.71555555555556],[-98.30749999999999,42.726111111111116],[-98.11555555555555,42.736666666666665],[-97.92194444444445,42.74666666666667],[-97.72805555555556,42.756388888888885],[-97.5325,42.76583333333333],[-97.33583333333333,42.775],[-97.1413888888889,42.78388888888889],[-96.75194444444445,42.800555555555555],[-96.55944444444444,42.808611111111105],[-96.36555555555555,42.81638888888889],[-96.17305555555556,42.823888888888895],[-95.98,42.83083333333334],[-95.7863888888889,42.837500000000006],[-95.59305555555555,42.844166666666666],[-95.39944444444446,42.85027777777778],[-95.21027777777778,42.85861111111111],[-95.01527777777778,42.86138888888889],[-95.00472222222223,42.861666666666665],[-94.81944444444444,42.86694444444444],[-94.80944444444444,42.86694444444444],[-94.61305555555555,42.87166666666667],[-94.38611111111112,42.87694444444445],[-94.19,42.88111111111111],[-93.99583333333334,42.88472222222222],[-93.84083333333332,42.8875],[-93.7975,42.888333333333335],[-93.64222222222223,42.89083333333333],[-93.60249999999999,42.89138888888889],[-93.4075,42.89416666666666],[-93.20916666666668,42.89666666666667],[-93.05222222222221,42.89833333333333],[-93.01277777777777,42.89888888888889],[-92.81777777777778,42.900555555555556],[-92.6613888888889,42.901666666666664],[-92.61916666666666,42.901944444444446],[-92.42416666666666,42.903055555555554],[-92.2286111111111,42.903888888888886],[-92.06972222222223,42.904444444444444],[-92.03138888888888,42.904444444444444],[-91.875,42.904444444444444],[-91.83361111111111,42.904444444444444],[-91.63222222222221,42.90416666666667],[-91.47361111111111,42.903888888888886],[-91.27527777777777,42.90277777777778],[-91.07888888888888,42.901666666666664],[-90.9238888888889,42.900555555555556],[-90.88527777777779,42.900277777777774],[-90.68777777777778,42.89833333333333],[-90.53138888888888,42.896388888888886],[-90.4925,42.89611111111111],[-90.29388888888889,42.89361111111111],[-90.10777777777777,42.89083333333333],[-89.94333333333334,42.88805555555555],[-89.91222222222223,42.8875],[-89.71666666666667,42.88444444444444],[-89.52111111111111,42.88055555555555],[-89.32638888888889,42.876111111111115],[-89.1325,42.87166666666667],[-88.9388888888889,42.86666666666667],[-88.74722222222222,42.861666666666665],[-88.55305555555556,42.85611111111111],[-88.36416666666666,42.85055555555556],[-88.17277777777778,42.84444444444445],[-87.98194444444445,42.838055555555556],[-87.78972222222222,42.831388888888895],[-87.6036111111111,42.82472222222223],[-87.41361111111112,42.8175],[-87.23555555555555,42.81027777777778],[-87.04833333333333,42.802499999999995],[-86.85666666666665,42.79416666666666],[-86.70944444444444,42.786944444444444],[-86.67166666666667,42.78583333333333],[-86.52111111111111,42.77722222222222],[-86.4825,42.77722222222222],[-86.33388888888888,42.769999999999996],[-86.29638888888888,42.768055555555556],[-86.14972222222222,42.76083333333333],[-86.10944444444443,42.75888888888889],[-85.96444444444445,42.75138888888889],[-85.9263888888889,42.74944444444444],[-85.78,42.74166666666667],[-85.70472222222223,42.73777777777778],[-85.59555555555555,42.73166666666667],[-85.52166666666666,42.72777777777778],[-85.33638888888889,42.717222222222226],[-85.14833333333334,42.70638888888889],[-85.03972222222222,42.69972222222222],[-84.96166666666667,42.69499999999999],[-84.77416666666666,42.683611111111105],[-84.66388888888889,42.67666666666666],[-84.58916666666666,42.67194444444444],[-84.47694444444444,42.664722222222224],[-84.40027777777779,42.65972222222222],[-84.27694444444444,42.65138888888889],[-84.21194444444444,42.64722222222222],[-84.0886111111111,42.638888888888886],[-84.02361111111111,42.634166666666665],[-83.83277777777778,42.62083333333334],[-83.7075,42.61194444444445],[-83.51916666666666,42.598333333333336],[-83.32916666666667,42.58416666666667],[-83.13555555555556,42.56944444444445],[-82.75611111111111,42.53972222222222],[-82.56527777777778,42.524166666666666],[-82.37638888888888,42.50861111111111],[-81.99777777777778,42.476111111111116],[-81.81444444444445,42.46],[-81.7075,42.44833333333333],[-81.64888888888889,42.44555555555555],[-81.5261111111111,42.431666666666665],[-81.46611111111112,42.428888888888885],[-81.34222222222222,42.41555555555556],[-81.27944444444444,42.41138888888889],[-81.15805555555556,42.39722222222222],[-81.09527777777777,42.39416666666666],[-80.97444444444444,42.38111111111111],[-80.91194444444444,42.37638888888889],[-80.7911111111111,42.36277777777778],[-80.72888888888889,42.35861111111111],[-80.60666666666665,42.34583333333334],[-80.54527777777777,42.34027777777778],[-80.42916666666667,42.32666666666667],[-80.24666666666667,42.30916666666666],[-80.06333333333333,42.28916666666667],[-80.00083333333333,42.28444444444444],[-79.87944444444443,42.27111111111111],[-79.80638888888889,42.263888888888886],[-79.69555555555556,42.25083333333333],[-79.61888888888888,42.24388888888889],[-79.50416666666666,42.23111111111111],[-79.43472222222222,42.22361111111111],[-79.32,42.21027777777778],[-79.24722222222222,42.20277777777778],[-79.13666666666667,42.18888888888888],[-79.06444444444445,42.17611111111111],[-78.95694444444445,42.149166666666666],[-78.88333333333334,42.12972222222222],[-78.70666666666666,42.08416666666667],[-78.60083333333333,42.0575],[-78.52638888888889,42.03861111111111],[-78.42472222222223,42.01277777777778],[-78.35055555555554,41.99388888888889],[-78.25194444444445,41.968611111111116],[-78.17833333333334,41.94972222222222],[-78.08166666666666,41.92472222222222],[-78.01444444444445,41.9075],[-77.91416666666667,41.88138888888889],[-77.83805555555556,41.861111111111114],[-77.74861111111112,41.83777777777778],[-77.67194444444445,41.8175],[-77.58666666666666,41.794999999999995],[-77.50555555555556,41.77333333333333],[-77.42194444444445,41.75138888888889],[-77.35194444444444,41.7325],[-77.25472222222223,41.70638888888889],[-77.1875,41.68833333333333],[-77.09083333333332,41.6625],[-77.02027777777778,41.64333333333333],[-76.83694444444444,41.593333333333334],[-76.75527777777778,41.571111111111115],[-76.66972222222223,41.5475],[-76.56333333333333,41.51833333333333],[-76.5,41.50083333333333],[-76.39583333333334,41.471944444444446],[-76.36055555555555,41.46222222222222],[-76.19527777777778,41.41611111111111],[-76.08666666666666,41.385555555555555],[-76.03138888888888,41.37],[-75.92583333333334,41.34027777777778],[-75.76333333333334,41.29416666666666],[-75.59583333333333,41.24194444444444],[-75.44388888888889,41.19083333333333],[-75.13583333333334,41.08694444444445],[-74.98,41.03388888888889],[-74.83194444444445,40.99194444444444],[-74.67722222222223,40.973055555555554],[-74.52305555555556,40.955555555555556],[-74.37527777777777,40.937777777777775],[-74.31666666666666,40.93333333333333],[-74.2275,40.91972222222222],[-74.16666666666667,40.916666666666664],[-74.10138888888888,40.89277777777778],[-74.06666666666666,40.85],[-74.05,40.80722222222222],[-74.03333333333333,40.766666666666666],[-74.01833333333333,40.71611111111111],[-74,40.666666666666664],[-73.96666666666667,40.583333333333336],[-73.95305555555557,40.54055555555556],[-73.93333333333334,40.483333333333334],[-73.9225,40.45583333333334],[-73.9,40.416666666666664],[-73.8,40.36666666666667],[-73.76138888888889,40.36083333333333],[-73.68333333333334,40.36666666666667],[-73.65833333333335,40.38111111111111],[-73.61666666666666,40.416666666666664],[-73.59555555555555,40.43666666666666],[-73.56666666666666,40.483333333333334],[-73.55166666666666,40.49666666666667],[-73.53333333333333,40.516666666666666],[-73.55416666666666,40.544999999999995],[-73.58333333333333,40.56666666666667],[-73.60916666666667,40.57555555555556],[-73.65,40.6],[-73.66166666666668,40.599444444444444],[-73.68333333333334,40.61666666666667],[-73.70055555555555,40.61666666666667],[-73.71666666666667,40.63333333333333],[-73.73833333333333,40.634166666666665]],"type":"LineString"}
}
