{
  "id": 2031991697,
  "type": "Feature",
  "properties": {
    "geom:area": 0,
    "geom:bbox": "-122.849500,37.412750,-122.092630,38.503320",
    "geom:latitude": 37.83331891728235,
    "geom:longitude": -122.50282900199485,
    "src:alt_label": "swim-approach",
    "src:geom": "swim",
    "swim:elevations": [
      8341,
      8077,
      7558,
      7231,
      7062,
      6601,
      6281,
      6170,
      5896,
      5728,
      5326,
      5232,
      4940,
      4718,
      4447,
      4298,
      4028,
      3773,
      3719,
      3414,
      3322,
      3281,
      3194,
      3029,
      2837,
      2473,
      2374,
      1853,
      1661,
      1489,
      1262,
      1219,
      1219,
      1219,
      1218,
      1219,
      1219,
      1219,
      1023,
      913,
      914,
      914,
      879,
      803,
      734,
      631
    ],
    "swim:geom": "approach",
    "swim:timestamps": [
      1785220823,
      1785220843,
      1785220886,
      1785220916,
      1785220931,
      1785220971,
      1785221001,
      1785221011,
      1785221036,
      1785221051,
      1785221091,
      1785221101,
      1785221128,
      1785221150,
      1785221176,
      1785221191,
      1785221218,
      1785221245,
      1785221251,
      1785221290,
      1785221329,
      1785221368,
      1785221389,
      1785221414,
      1785221437,
      1785221482,
      1785221491,
      1785221544,
      1785221562,
      1785221578,
      1785221603,
      1785221623,
      1785221656,
      1785221695,
      1785221719,
      1785221743,
      1785221758,
      1785221761,
      1785221816,
      1785221847,
      1785221871,
      1785221902,
      1785221920,
      1785221932,
      1785221950,
      1785221980
    ],
    "wof:geomhash": "94eee248d7e0530134290e97827bb77f",
    "wof:id": 2031991697,
    "wof:repo": "sfomuseum-data-flights-2026-07"
  },
  "bbox": [
    -122.8495,
    37.41275,
    -122.09263,
    38.50332
  ],
  "geometry": {"coordinates":[[-122.8495,38.50332],[-122.83863,38.46657],[-122.81479,38.38632],[-122.79966,38.33455],[-122.79169,38.30718],[-122.77165,38.23866],[-122.75673,38.18759],[-122.75138,38.16947],[-122.73966,38.12906],[-122.73247,38.10458],[-122.71363,38.03915],[-122.70909,38.02319],[-122.69624,37.97895],[-122.68635,37.94451],[-122.67174,37.90512],[-122.656,37.88374],[-122.62261,37.85177],[-122.58826,37.8192],[-122.58059,37.81197],[-122.53088,37.76494],[-122.48494,37.72179],[-122.44441,37.6838],[-122.42396,37.66444],[-122.39963,37.64142],[-122.37702,37.61979],[-122.34391,37.575],[-122.33974,37.56524],[-122.30893,37.51065],[-122.29817,37.49234],[-122.28794,37.47579],[-122.26542,37.45375],[-122.24068,37.44422],[-122.19832,37.42778],[-122.14679,37.41275],[-122.11834,37.42364],[-122.10287,37.44468],[-122.09429,37.45699],[-122.09263,37.45939],[-122.10122,37.50137],[-122.12585,37.51594],[-122.14769,37.52563],[-122.1754,37.53703],[-122.19178,37.54398],[-122.20287,37.5487],[-122.21852,37.55528],[-122.24206,37.5651]],"type":"LineString"}
}
