{
  "id": 2032007887,
  "type": "Feature",
  "properties": {
    "geom:area": 0,
    "geom:bbox": "-123.500710,37.027290,-122.405650,37.666390",
    "geom:latitude": 37.375527821467735,
    "geom:longitude": -122.9595915427148,
    "src:alt_label": "swim-takeoff",
    "src:geom": "swim",
    "swim:elevations": [
      327,
      701,
      843,
      969,
      1150,
      1279,
      1518,
      1774,
      1861,
      1960,
      2310,
      2666,
      2889,
      3152,
      3220,
      3271,
      3458,
      3529,
      3694,
      3748,
      4020,
      4184,
      4681,
      4755,
      4893,
      5050,
      5324,
      5482
    ],
    "swim:geom": "takeoff",
    "swim:timestamps": [
      1785277422,
      1785277456,
      1785277473,
      1785277494,
      1785277515,
      1785277540,
      1785277584,
      1785277610,
      1785277620,
      1785277630,
      1785277664,
      1785277700,
      1785277721,
      1785277767,
      1785277784,
      1785277805,
      1785277858,
      1785277877,
      1785277917,
      1785277931,
      1785277972,
      1785277991,
      1785278033,
      1785278042,
      1785278061,
      1785278085,
      1785278118,
      1785278144
    ],
    "wof:geomhash": "7e59747265713be92abfe7fb31a0f184",
    "wof:id": 2032007887,
    "wof:repo": "sfomuseum-data-flights-2026-07"
  },
  "bbox": [
    -123.50071,
    37.02729,
    -122.40565,
    37.66639
  ],
  "geometry": {"coordinates":[[-122.40565,37.6312],[-122.43635,37.6452],[-122.45252,37.65257],[-122.47476,37.66234],[-122.49997,37.66639],[-122.52979,37.65825],[-122.58162,37.62479],[-122.6137,37.60406],[-122.62721,37.59529],[-122.6391,37.58758],[-122.68422,37.55878],[-122.73358,37.52704],[-122.76263,37.50834],[-122.8276,37.46649],[-122.85445,37.44922],[-122.88601,37.42878],[-122.97253,37.37268],[-123.00575,37.35109],[-123.07695,37.30477],[-123.10282,37.28798],[-123.17933,37.23795],[-123.21664,37.21361],[-123.29476,37.16267],[-123.31178,37.15156],[-123.34609,37.12903],[-123.3905,37.09987],[-123.45197,37.05948],[-123.50071,37.02729]],"type":"LineString"}
}
