{
  "id": 2031992845,
  "type": "Feature",
  "properties": {
    "geom:area": 0,
    "geom:bbox": "-122.400000,37.650000,-87.566667,43.504167",
    "geom:latitude": 42.03218462554715,
    "geom:longitude": -103.98455340214277,
    "src:alt_label": "swim-path",
    "src:geom": "swim",
    "swim:altitudes": [
      "015",
      "015",
      "039",
      "091",
      "109",
      "124",
      "140",
      "158",
      "174",
      "207",
      "248",
      "255",
      "257",
      "265",
      "268",
      "275",
      "289",
      "303",
      "304",
      "309",
      "312",
      "319",
      "322",
      "328",
      "339",
      "343",
      "348C",
      "350C",
      "350C",
      "350C",
      "350C",
      "350C",
      "350C",
      "350C",
      "350C",
      "350C",
      "350C",
      "350C",
      "350C",
      "350C",
      "350C",
      "350C",
      "350C",
      "350C",
      "350C",
      "350C",
      "350C",
      "350C",
      "350C",
      "350C",
      "350C",
      "350C",
      "350C",
      "350C",
      "350C",
      "350C",
      "350C",
      "350C",
      "350C",
      "350C",
      "350C",
      "350C",
      "350C",
      "350C",
      "350C",
      "350C",
      "350C",
      "350C",
      "350C",
      "350C",
      "350C",
      "350C",
      "350C",
      "350C",
      "350C",
      "350C",
      "350C",
      "350C",
      "350C",
      "350C",
      "350C",
      "350C",
      "350C",
      "350C",
      "350C",
      "350C",
      "350C",
      "350C",
      "350C",
      "350C",
      "350C",
      "350C",
      "350C",
      "350C",
      "350C",
      "350C",
      "350C",
      "350C",
      "350C",
      "350C",
      "350C",
      "350C",
      "350C",
      "350C",
      "350C",
      "350C",
      "350C",
      "350C",
      "350C",
      "350C",
      "350",
      "354",
      "355",
      "361",
      "368C",
      "369C",
      "370C",
      "370C",
      "370C",
      "370C",
      "370C",
      "370C",
      "370C",
      "370C",
      "370C",
      "370C",
      "370C",
      "370C",
      "370C",
      "370C",
      "370C",
      "370C",
      "370C",
      "370C",
      "370C",
      "370C",
      "370C",
      "370C",
      "370C",
      "370C",
      "370C",
      "370C",
      "370C",
      "370C",
      "370C",
      "370C",
      "370C",
      "370C",
      "370C",
      "370C",
      "370C",
      "370C",
      "370C",
      "370C",
      "370C",
      "370C",
      "370C",
      "370C",
      "370C",
      "370C",
      "370C",
      "370C",
      "370C",
      "370C",
      "370C",
      "370C",
      "370C",
      "370C",
      "370C",
      "370C",
      "370C",
      "370C",
      "370C",
      "370C",
      "370C",
      "370C",
      "370C",
      "370C",
      "370C",
      "370C",
      "370C",
      "370C",
      "370C",
      "370C",
      "370C",
      "370C",
      "370C",
      "370C",
      "370C",
      "370C",
      "370C",
      "370C",
      "370C",
      "370C",
      "370C",
      "370C",
      "370C",
      "370C",
      "370C",
      "370C",
      "370C",
      "370C",
      "370C",
      "368",
      "366",
      "360C",
      "360C",
      "358",
      "330C",
      "330",
      "321",
      "314",
      "312",
      "305",
      "293",
      "283",
      "273",
      "270",
      "270",
      "270",
      "270",
      "270",
      "270",
      "270",
      "270",
      "270",
      "270",
      "270",
      "270",
      "270",
      "270",
      "270",
      "270",
      "270",
      "270",
      "270",
      "270",
      "270",
      "270",
      "162",
      "138",
      "137",
      "115",
      "110",
      "110",
      "110",
      "110",
      "110",
      "110",
      "111",
      "101",
      "092",
      "081",
      "077",
      "071",
      "066",
      "061",
      "052",
      "046",
      "041",
      "040",
      "035",
      "033",
      "033",
      "033",
      "033",
      "028",
      "025",
      "018",
      "015",
      "009"
    ],
    "swim:geom": "path",
    "swim:speeds": [
      217,
      215,
      268,
      287,
      328,
      373,
      399,
      418,
      432,
      454,
      485,
      499,
      500,
      510,
      511,
      510,
      515,
      519,
      518,
      519,
      523,
      521,
      525,
      525,
      524,
      519,
      520,
      514,
      510,
      511,
      513,
      511,
      512,
      511,
      510,
      511,
      509,
      508,
      509,
      508,
      509,
      509,
      510,
      510,
      511,
      511,
      511,
      511,
      510,
      510,
      510,
      509,
      508,
      507,
      507,
      505,
      504,
      503,
      503,
      503,
      504,
      505,
      506,
      507,
      508,
      508,
      506,
      503,
      501,
      501,
      504,
      505,
      507,
      508,
      508,
      509,
      509,
      509,
      508,
      508,
      508,
      509,
      510,
      513,
      515,
      515,
      515,
      515,
      514,
      512,
      510,
      509,
      508,
      508,
      508,
      499,
      508,
      505,
      507,
      506,
      505,
      505,
      505,
      505,
      505,
      505,
      504,
      504,
      504,
      504,
      504,
      504,
      504,
      503,
      502,
      502,
      503,
      503,
      504,
      504,
      505,
      505,
      506,
      506,
      507,
      508,
      508,
      508,
      509,
      510,
      510,
      510,
      510,
      509,
      507,
      507,
      506,
      506,
      506,
      507,
      505,
      508,
      509,
      509,
      508,
      509,
      508,
      507,
      507,
      504,
      502,
      500,
      499,
      498,
      498,
      498,
      498,
      497,
      498,
      498,
      498,
      498,
      499,
      499,
      500,
      500,
      501,
      500,
      498,
      496,
      494,
      491,
      490,
      490,
      489,
      489,
      487,
      485,
      456,
      406,
      377,
      376,
      389,
      408,
      472,
      493,
      496,
      498,
      501,
      505,
      507,
      509,
      509,
      509,
      506,
      503,
      502,
      499,
      475,
      469,
      465,
      465,
      464,
      465,
      465,
      467,
      468,
      465,
      463,
      450,
      434,
      460,
      464,
      471,
      466,
      459,
      450,
      411,
      392,
      390,
      387,
      385,
      385,
      336,
      300,
      306,
      306,
      305,
      363,
      410,
      387,
      375,
      315,
      291,
      302,
      303,
      303,
      305,
      375,
      408,
      388,
      394,
      372,
      342,
      347,
      341,
      344,
      342,
      341,
      342,
      344,
      345,
      327,
      326,
      299,
      276,
      271,
      264,
      263,
      246,
      248,
      242,
      230,
      201,
      191,
      185,
      188,
      187,
      179,
      166,
      168
    ],
    "swim:timestamps": [
      1785166558,
      1785166566,
      1785166626,
      1785166747,
      1785166807,
      1785166867,
      1785166927,
      1785166987,
      1785167047,
      1785167167,
      1785167347,
      1785167388,
      1785167407,
      1785167448,
      1785167468,
      1785167508,
      1785167568,
      1785167628,
      1785167648,
      1785167688,
      1785167708,
      1785167748,
      1785167768,
      1785167808,
      1785167868,
      1785167888,
      1785167928,
      1785167948,
      1785167988,
      1785168048,
      1785168068,
      1785168108,
      1785168128,
      1785168189,
      1785168249,
      1785168289,
      1785168349,
      1785168369,
      1785168409,
      1785168429,
      1785168469,
      1785168529,
      1785168549,
      1785168589,
      1785168649,
      1785168669,
      1785168709,
      1785168729,
      1785168769,
      1785168789,
      1785168829,
      1785168849,
      1785168890,
      1785168950,
      1785168970,
      1785169030,
      1785169070,
      1785169130,
      1785169190,
      1785169250,
      1785169310,
      1785169370,
      1785169430,
      1785169490,
      1785169550,
      1785169671,
      1785169731,
      1785169791,
      1785169851,
      1785169911,
      1785169971,
      1785170031,
      1785170091,
      1785170151,
      1785170211,
      1785170271,
      1785170331,
      1785170392,
      1785170452,
      1785170512,
      1785170632,
      1785170752,
      1785170872,
      1785170992,
      1785171052,
      1785171112,
      1785171173,
      1785171233,
      1785171293,
      1785171353,
      1785171413,
      1785171473,
      1785171533,
      1785171593,
      1785171653,
      1785171696,
      1785171713,
      1785171756,
      1785171773,
      1785171833,
      1785171876,
      1785171936,
      1785171954,
      1785171996,
      1785172014,
      1785172074,
      1785172134,
      1785172176,
      1785172194,
      1785172236,
      1785172254,
      1785172296,
      1785172314,
      1785172357,
      1785172417,
      1785172434,
      1785172477,
      1785172494,
      1785172537,
      1785172554,
      1785172597,
      1785172614,
      1785172657,
      1785172675,
      1785172717,
      1785172777,
      1785172837,
      1785172897,
      1785173078,
      1785173138,
      1785173198,
      1785173258,
      1785173318,
      1785173378,
      1785173438,
      1785173498,
      1785173558,
      1785173618,
      1785173678,
      1785173738,
      1785173771,
      1785173798,
      1785173859,
      1785173919,
      1785173951,
      1785173979,
      1785174011,
      1785174039,
      1785174071,
      1785174099,
      1785174159,
      1785174191,
      1785174219,
      1785174279,
      1785174312,
      1785174339,
      1785174372,
      1785174399,
      1785174432,
      1785174459,
      1785174492,
      1785174519,
      1785174552,
      1785174580,
      1785174612,
      1785174640,
      1785174672,
      1785174732,
      1785174792,
      1785174852,
      1785174912,
      1785175033,
      1785175093,
      1785175153,
      1785175213,
      1785175273,
      1785175513,
      1785175573,
      1785175814,
      1785175874,
      1785175934,
      1785175994,
      1785176054,
      1785176174,
      1785176234,
      1785176294,
      1785176354,
      1785176415,
      1785176475,
      1785176535,
      1785176595,
      1785176655,
      1785176715,
      1785176775,
      1785176955,
      1785177058,
      1785177076,
      1785177118,
      1785177178,
      1785177256,
      1785177359,
      1785177376,
      1785177419,
      1785177479,
      1785177496,
      1785177539,
      1785177616,
      1785177659,
      1785177797,
      1785177839,
      1785177917,
      1785177960,
      1785177977,
      1785178020,
      1785178097,
      1785178157,
      1785178217,
      1785178260,
      1785178320,
      1785178380,
      1785178440,
      1785178500,
      1785178560,
      1785178621,
      1785178741,
      1785178801,
      1785178861,
      1785178921,
      1785178981,
      1785179038,
      1785179159,
      1785179219,
      1785179279,
      1785179339,
      1785179399,
      1785179459,
      1785179519,
      1785179579,
      1785179639,
      1785180120,
      1785180174,
      1785180180,
      1785180240,
      1785180271,
      1785180300,
      1785180331,
      1785180360,
      1785180391,
      1785180457,
      1785180481,
      1785180541,
      1785180577,
      1785180637,
      1785180661,
      1785180721,
      1785180757,
      1785180781,
      1785180811,
      1785180841,
      1785180871,
      1785180901,
      1785180931,
      1785180961,
      1785180991,
      1785181034,
      1785181051,
      1785181094,
      1785181111,
      1785181154,
      1785181171,
      1785181214
    ],
    "wof:geomhash": "037f7135b6704716290dccdb38fae76f",
    "wof:id": 2031992845,
    "wof:repo": "sfomuseum-data-flights-2026-07"
  },
  "bbox": [
    -122.4,
    37.65,
    -87.56666666666666,
    43.50416666666667
  ],
  "geometry": {"coordinates":[[-122.4,37.65],[-122.39666666666668,37.65472222222222],[-122.31444444444445,37.684999999999995],[-122.28083333333333,37.825],[-122.25555555555556,37.90361111111111],[-122.14305555555556,37.9525],[-122.0286111111111,38.011944444444445],[-121.90472222222223,38.075],[-121.77833333333334,38.13916666666667],[-121.51416666666667,38.27361111111111],[-121.11805555555554,38.50472222222222],[-121.02555555555556,38.55777777777777],[-120.98194444444445,38.58861111111111],[-120.88444444444445,38.645833333333336],[-120.83999999999999,38.675555555555555],[-120.74055555555556,38.73305555555556],[-120.595,38.82361111111111],[-120.44888888888889,38.91166666666666],[-120.40277777777779,38.94138888888889],[-120.30277777777778,39.00055555555556],[-120.25083333333333,39.03333333333333],[-120.15333333333334,39.08972222222222],[-120.09222222222222,39.12861111111111],[-120.00444444444445,39.18],[-119.85666666666665,39.26777777777777],[-119.79583333333333,39.305277777777775],[-119.71000000000001,39.35638888888889],[-119.64972222222222,39.39194444444444],[-119.56444444444445,39.44083333333333],[-119.4175,39.52861111111111],[-119.35555555555555,39.56527777777777],[-119.26833333333333,39.61416666666667],[-119.20694444444445,39.64944444444444],[-119.05833333333334,39.735],[-118.91000000000001,39.82055555555556],[-118.82388888888889,39.86972222222222],[-118.66361111111112,39.93888888888888],[-118.59277777777777,39.96805555555556],[-118.49833333333333,40.006388888888885],[-118.43083333333334,40.03361111111111],[-118.33722222222222,40.07138888888889],[-118.17444444444445,40.136944444444445],[-118.10222222222221,40.16583333333333],[-118.00888888888889,40.20194444444445],[-117.83694444444444,40.25388888888889],[-117.765,40.275555555555556],[-117.66194444444444,40.30638888888888],[-117.59055555555555,40.3275],[-117.49,40.35722222222223],[-117.41805555555555,40.37861111111111],[-117.31722222222221,40.40833333333333],[-117.24638888888889,40.428888888888885],[-117.14416666666668,40.45888888888889],[-116.96944444444445,40.50972222222222],[-116.93055555555556,40.52111111111111],[-116.75416666666666,40.57194444444445],[-116.61833333333333,40.61055555555556],[-116.44611111111111,40.65972222222222],[-116.27194444444444,40.70916666666667],[-116.09944444444444,40.757777777777775],[-115.92722222222223,40.80583333333333],[-115.75333333333333,40.85388888888889],[-115.57805555555555,40.90222222222222],[-115.40222222222222,40.95055555555556],[-115.22722222222222,40.99805555555556],[-114.87555555555555,41.0925],[-114.70055555555555,41.13916666666667],[-114.52583333333334,41.18527777777778],[-114.3536111111111,41.23027777777778],[-114.17833333333334,41.27611111111111],[-114.00194444444445,41.32138888888889],[-113.825,41.367777777777775],[-113.6525,41.422777777777775],[-113.47888888888889,41.477222222222224],[-113.30333333333333,41.532222222222224],[-113.13027777777778,41.586111111111116],[-112.95666666666666,41.63972222222222],[-112.77972222222222,41.693888888888885],[-112.59805555555555,41.74916666666667],[-112.42361111111111,41.80222222222222],[-112.08277777777778,41.904444444444444],[-111.72722222222222,42.009166666666665],[-111.37388888888889,42.11277777777778],[-111.01472222222222,42.215833333333336],[-110.83472222222221,42.26722222222222],[-110.65333333333334,42.318333333333335],[-110.47194444444445,42.369166666666665],[-110.29055555555556,42.41972222222222],[-110.11,42.469722222222224],[-109.92694444444444,42.51277777777778],[-109.74027777777778,42.54555555555555],[-109.55305555555556,42.57805555555556],[-109.36638888888888,42.609722222222224],[-109.17972222222222,42.64138888888889],[-108.99194444444444,42.67305555555555],[-108.88138888888888,42.69222222222222],[-108.80666666666666,42.703611111111115],[-108.69361111111111,42.723055555555554],[-108.61777777777777,42.734722222222224],[-108.43111111111112,42.765],[-108.32222222222222,42.7825],[-108.13555555555556,42.81222222222222],[-108.06083333333333,42.82416666666667],[-107.94722222222222,42.841944444444444],[-107.8711111111111,42.85388888888889],[-107.68527777777778,42.88305555555556],[-107.50055555555555,42.91111111111111],[-107.37249999999999,42.93055555555555],[-107.33611111111111,42.93611111111111],[-107.18055555555556,42.959722222222226],[-107.14944444444446,42.96416666666667],[-106.99222222222222,42.98777777777778],[-106.96305555555556,42.99194444444444],[-106.80777777777777,43.014722222222225],[-106.61972222222222,43.04194444444444],[-106.58055555555555,43.047777777777775],[-106.43388888888889,43.06861111111112],[-106.39250000000001,43.074444444444445],[-106.24416666666667,43.09527777777778],[-106.20444444444445,43.10027777777778],[-106.05527777777777,43.11638888888889],[-106.01444444444445,43.12083333333334],[-105.86333333333333,43.1375],[-105.82472222222222,43.141666666666666],[-105.6725,43.15861111111111],[-105.47944444444444,43.17972222222222],[-105.28833333333333,43.20027777777778],[-105.09527777777777,43.220555555555556],[-104.5175,43.27916666666667],[-104.32305555555556,43.29805555555556],[-104.16833333333334,43.31333333333333],[-103.97583333333334,43.33166666666667],[-103.78388888888888,43.349444444444444],[-103.58916666666666,43.367222222222225],[-103.39888888888889,43.38444444444444],[-103.20611111111111,43.40138888888889],[-103.01416666666667,43.418055555555554],[-102.82166666666666,43.43416666666666],[-102.63111111111111,43.45027777777778],[-102.43833333333333,43.46555555555556],[-102.33222222222221,43.47416666666667],[-102.24388888888889,43.48111111111111],[-102.02055555555556,43.498333333333335],[-101.8261111111111,43.50138888888889],[-101.75166666666667,43.50194444444445],[-101.63416666666667,43.5025],[-101.55583333333333,43.503055555555555],[-101.44250000000001,43.50333333333333],[-101.36833333333333,43.50361111111111],[-101.24944444444445,43.50388888888889],[-101.05888888888889,43.50416666666667],[-100.98333333333333,43.50416666666667],[-100.87055555555555,43.50416666666667],[-100.68527777777778,43.50388888888889],[-100.56694444444445,43.50361111111111],[-100.49333333333334,43.50333333333333],[-100.38027777777778,43.50277777777778],[-100.30638888888889,43.50222222222222],[-100.18777777777778,43.50138888888889],[-100.1125,43.50083333333333],[-100,43.49861111111111],[-99.92444444444445,43.49],[-99.8125,43.47555555555556],[-99.73944444444444,43.465833333333336],[-99.62333333333332,43.450833333333335],[-99.55222222222221,43.44138888888889],[-99.43583333333333,43.42583333333333],[-99.24888888888889,43.400555555555556],[-99.06527777777778,43.375277777777775],[-98.89555555555556,43.35194444444445],[-98.71194444444444,43.32638888888889],[-98.34666666666666,43.274166666666666],[-98.16388888888889,43.246944444444445],[-98.0025,43.18222222222222],[-97.85,43.10388888888889],[-97.70027777777779,43.026944444444446],[-97.09694444444445,42.71222222222222],[-96.94527777777778,42.63194444444444],[-96.47083333333333,42.2625],[-96.57222222222222,42.17972222222222],[-96.70944444444444,42.18833333333333],[-96.78833333333333,42.27055555555555],[-96.78583333333333,42.38],[-96.75194444444445,42.595555555555556],[-96.61194444444443,42.657222222222224],[-96.42583333333334,42.655833333333334],[-96.23833333333333,42.65361111111111],[-96.04916666666666,42.65083333333333],[-95.85916666666667,42.64805555555556],[-95.66527777777779,42.64472222222222],[-95.4738888888889,42.64083333333333],[-95.28361111111111,42.63722222222222],[-95.0886111111111,42.63305555555556],[-94.89777777777779,42.62861111111111],[-94.31611111111111,42.61277777777778],[-94.01666666666667,42.60333333333333],[-93.93861111111111,42.600833333333334],[-93.82972222222222,42.597500000000004],[-93.64888888888889,42.59111111111111],[-93.40222222222222,42.58222222222223],[-93.1261111111111,42.57138888888889],[-93.05555555555556,42.56861111111112],[-92.95277777777778,42.56444444444444],[-92.77694444444444,42.55694444444444],[-92.74138888888889,42.55555555555555],[-92.60249999999999,42.54944444444444],[-92.35444444444444,42.53805555555555],[-92.25222222222222,42.53333333333333],[-91.83694444444444,42.525277777777774],[-91.73722222222223,42.525555555555556],[-91.51444444444445,42.526666666666664],[-91.37833333333333,42.52722222222222],[-91.34277777777777,42.527499999999996],[-91.20194444444445,42.52722222222222],[-90.99194444444444,42.526666666666664],[-90.82333333333332,42.52638888888889],[-90.65222222222222,42.525555555555556],[-90.52777777777777,42.52444444444444],[-90.38111111111111,42.52361111111111],[-90.23416666666667,42.5225],[-90.09083333333332,42.521388888888886],[-89.94555555555556,42.519999999999996],[-89.79805555555555,42.51861111111111],[-89.68305555555555,42.55888888888889],[-89.77583333333334,42.67916666666667],[-89.89194444444445,42.67916666666667],[-90.00333333333333,42.67861111111111],[-90.11833333333333,42.67833333333333],[-90.21611111111112,42.62861111111111],[-90.17361111111111,42.530833333333334],[-89.88111111111111,42.51833333333333],[-89.73805555555556,42.52333333333333],[-89.66333333333334,42.592222222222226],[-89.69944444444445,42.66583333333333],[-89.80361111111111,42.687777777777775],[-89.91805555555555,42.687777777777775],[-90.03055555555555,42.68722222222222],[-90.14444444444445,42.68472222222222],[-90.2286111111111,42.61694444444444],[-89.01638888888888,42.42444444444444],[-88.86666666666666,42.4],[-88.86999999999999,42.40611111111111],[-88.7325,42.38805555555555],[-88.65,42.36666666666667],[-88.61611111111111,42.349722222222226],[-88.55,42.31666666666667],[-88.51388888888889,42.29555555555555],[-88.45,42.266666666666666],[-88.33333333333333,42.2],[-88.29944444444445,42.178888888888885],[-88.19500000000001,42.12305555555555],[-88.11666666666666,42.083333333333336],[-88.01666666666667,42.03333333333333],[-87.98277777777778,42.02305555555555],[-87.87527777777777,41.98722222222222],[-87.81666666666666,41.96666666666667],[-87.78111111111112,41.95805555555556],[-87.73333333333333,41.95],[-87.69055555555556,41.93277777777777],[-87.65,41.916666666666664],[-87.60194444444444,41.91972222222222],[-87.56666666666666,41.95],[-87.58888888888889,41.975833333333334],[-87.63333333333334,41.983333333333334],[-87.67722222222223,41.98833333333334],[-87.7,41.983333333333334],[-87.74527777777777,41.988055555555555],[-87.76666666666667,41.983333333333334],[-87.81305555555555,41.98833333333334],[-87.83333333333333,41.983333333333334],[-87.87444444444444,41.98833333333334]],"type":"LineString"}
}
