{
  "id": 2032020807,
  "type": "Feature",
  "properties": {
    "geom:area": 0,
    "geom:bbox": "-156.383333,21.016667,-122.114444,37.609167",
    "geom:latitude": 29.83437379057345,
    "geom:longitude": -139.41132298342376,
    "src:alt_label": "swim-path",
    "src:geom": "swim",
    "swim:altitudes": [
      "040C",
      "050C",
      "070C",
      "095C",
      "109C",
      "129C",
      "147C",
      "165C",
      "180C",
      "196C",
      "211C",
      "224T",
      "236T",
      "260T",
      "268T",
      "278C",
      "289C",
      "298C",
      "307C",
      "314C",
      "320C",
      "328C",
      "334C",
      "350",
      "350",
      "350",
      "350",
      "350",
      "350",
      "350",
      "350",
      "350",
      "350",
      "350",
      "350C",
      "350C",
      "350C",
      "350C",
      "350C",
      "350C",
      "350",
      "350C",
      "350",
      "350C",
      "350",
      "350",
      "350",
      "350",
      "350",
      "350",
      "350",
      "350",
      "350",
      "350",
      "350",
      "350",
      "350",
      "341",
      "325C",
      "312",
      "287",
      "274C",
      "251C",
      "242",
      "228C",
      "219",
      "197",
      "174",
      "152",
      "126",
      "102",
      "100",
      "096",
      "090",
      "090",
      "091",
      "085",
      "078",
      "077",
      "071",
      "070",
      "063",
      "063",
      "055",
      "055",
      "045",
      "044",
      "040",
      "041",
      "034",
      "027",
      "024",
      "016",
      "009",
      "009",
      "002"
    ],
    "swim:geom": "path",
    "swim:speeds": [
      250,
      280,
      290,
      290,
      320,
      340,
      360,
      370,
      380,
      390,
      400,
      400,
      410,
      430,
      440,
      450,
      450,
      460,
      460,
      470,
      480,
      480,
      490,
      490,
      490,
      490,
      490,
      490,
      490,
      490,
      490,
      490,
      490,
      490,
      509,
      509,
      509,
      508,
      507,
      506,
      510,
      505,
      500,
      504,
      500,
      504,
      510,
      503,
      503,
      510,
      504,
      510,
      504,
      510,
      505,
      505,
      500,
      504,
      500,
      504,
      505,
      500,
      490,
      476,
      470,
      461,
      445,
      431,
      416,
      399,
      383,
      323,
      276,
      261,
      261,
      260,
      255,
      248,
      251,
      250,
      251,
      245,
      249,
      216,
      218,
      188,
      192,
      185,
      187,
      165,
      156,
      154,
      148,
      151,
      148,
      148
    ],
    "swim:timestamps": [
      1785369918,
      1785369978,
      1785370038,
      1785370098,
      1785370158,
      1785370218,
      1785370279,
      1785370339,
      1785370399,
      1785370459,
      1785370519,
      1785370580,
      1785370640,
      1785370760,
      1785370820,
      1785370880,
      1785370941,
      1785371000,
      1785371061,
      1785371121,
      1785371181,
      1785371241,
      1785371301,
      1785371421,
      1785371482,
      1785371542,
      1785371602,
      1785371662,
      1785371722,
      1785371783,
      1785371834,
      1785371895,
      1785371955,
      1785372015,
      1785383180,
      1785383240,
      1785383300,
      1785383360,
      1785383420,
      1785383480,
      1785383498,
      1785383540,
      1785383558,
      1785383600,
      1785383618,
      1785383660,
      1785383678,
      1785383720,
      1785383780,
      1785383808,
      1785383840,
      1785383868,
      1785383900,
      1785383929,
      1785383961,
      1785384021,
      1785384049,
      1785384081,
      1785384108,
      1785384141,
      1785384201,
      1785384229,
      1785384289,
      1785384321,
      1785384349,
      1785384381,
      1785384441,
      1785384501,
      1785384561,
      1785384621,
      1785384681,
      1785384741,
      1785384801,
      1785384861,
      1785384913,
      1785384922,
      1785384982,
      1785385033,
      1785385042,
      1785385093,
      1785385102,
      1785385153,
      1785385162,
      1785385213,
      1785385222,
      1785385273,
      1785385282,
      1785385333,
      1785385342,
      1785385402,
      1785385462,
      1785385522,
      1785385582,
      1785385633,
      1785385642,
      1785385702
    ],
    "wof:geomhash": "9f68f55b3c468b929a6a2a0b028f664c",
    "wof:id": 2032020807,
    "wof:repo": "sfomuseum-data-flights-2026-07"
  },
  "bbox": [
    -156.38333333333333,
    21.016666666666666,
    -122.11444444444444,
    37.60916666666667
  ],
  "geometry": {"coordinates":[[-156.38333333333333,21.016666666666666],[-156.38333333333333,21.1],[-156.36666666666667,21.166666666666668],[-156.31666666666666,21.233333333333334],[-156.25,21.3],[-156.16666666666666,21.366666666666667],[-156.1,21.433333333333334],[-156.01666666666668,21.5],[-155.93333333333334,21.566666666666666],[-155.85,21.65],[-155.76666666666668,21.716666666666665],[-155.68333333333334,21.8],[-155.58333333333334,21.883333333333333],[-155.4,22.033333333333335],[-155.3,22.116666666666667],[-155.2,22.2],[-155.1,22.283333333333335],[-155,22.383333333333333],[-154.9,22.466666666666665],[-154.8,22.55],[-154.7,22.65],[-154.58333333333334,22.733333333333334],[-154.48333333333332,22.833333333333332],[-154.26666666666668,23.016666666666666],[-154.15,23.1],[-154.05,23.2],[-153.93333333333334,23.283333333333335],[-153.83333333333334,23.383333333333333],[-153.71666666666667,23.466666666666665],[-153.6,23.566666666666666],[-153.51666666666668,23.65],[-153.4,23.733333333333334],[-153.28333333333333,23.816666666666666],[-153.13333333333333,23.866666666666667],[-126.51444444444445,35.57555555555556],[-126.35,35.62305555555555],[-126.18527777777778,35.67055555555555],[-126.03527777777778,35.736666666666665],[-125.88277777777778,35.80416666666667],[-125.73472222222222,35.875277777777775],[-125.7,35.916666666666664],[-125.58888888888889,35.94833333333333],[-125.55,35.983333333333334],[-125.44055555555556,36.02222222222222],[-125.4,36.05],[-125.2936111111111,36.095],[-125.25,36.11666666666667],[-125.14694444444446,36.1675],[-124.99805555555555,36.240833333333335],[-124.9,36.266666666666666],[-124.85194444444444,36.3125],[-124.75,36.333333333333336],[-124.70222222222222,36.385555555555555],[-124.6,36.416666666666664],[-124.55333333333333,36.45805555555556],[-124.40416666666667,36.530833333333334],[-124.31666666666666,36.56666666666667],[-124.25527777777778,36.6025],[-124.16666666666667,36.63333333333333],[-124.10499999999999,36.67472222222222],[-123.95555555555556,36.745555555555555],[-123.86666666666666,36.78333333333333],[-123.71666666666667,36.85],[-123.6675,36.882222222222225],[-123.58333333333333,36.916666666666664],[-123.53,36.94694444444444],[-123.39666666666668,37.00972222222222],[-123.26805555555555,37.07],[-123.14333333333335,37.12777777777778],[-122.99777777777778,37.19555555555555],[-122.8825,37.24861111111111],[-122.76888888888888,37.279444444444444],[-122.67222222222223,37.28444444444444],[-122.58611111111111,37.26694444444444],[-122.51666666666667,37.25],[-122.49916666666667,37.24861111111111],[-122.42083333333333,37.26277777777778],[-122.38333333333334,37.31666666666667],[-122.38277777777778,37.32555555555556],[-122.31666666666666,37.35],[-122.31166666666667,37.35416666666667],[-122.23333333333333,37.36666666666667],[-122.22583333333334,37.36],[-122.15,37.36666666666667],[-122.14777777777779,37.365],[-122.11666666666666,37.4],[-122.12222222222222,37.409166666666664],[-122.11666666666666,37.45],[-122.11444444444444,37.46055555555556],[-122.13277777777778,37.50222222222222],[-122.1713888888889,37.531666666666666],[-122.2175,37.55222222222222],[-122.26194444444444,37.57138888888889],[-122.3,37.583333333333336],[-122.30777777777777,37.59055555555556],[-122.35249999999999,37.60916666666667]],"type":"LineString"}
}
