{
  "id": 2031940725,
  "type": "Feature",
  "properties": {
    "geom:area": 0,
    "geom:bbox": "-122.333333,37.491667,-93.231389,44.840278",
    "geom:latitude": 40.51915207437214,
    "geom:longitude": -107.60596738159866,
    "src:alt_label": "swim-path",
    "src:geom": "swim",
    "swim:altitudes": [
      "024",
      "065",
      "121",
      "146",
      "163",
      "181",
      "197",
      "211",
      "225",
      "237",
      "245",
      "266",
      "274",
      "281",
      "301",
      "314",
      "329",
      "335",
      "340C",
      "340C",
      "340C",
      "340C",
      "340C",
      "340C",
      "340C",
      "340C",
      "340C",
      "340C",
      "340C",
      "340C",
      "340C",
      "340C",
      "340C",
      "340C",
      "340C",
      "340C",
      "340C",
      "340C",
      "340C",
      "340C",
      "340C",
      "340C",
      "340C",
      "340C",
      "340C",
      "340C",
      "340C",
      "340C",
      "340C",
      "340C",
      "340C",
      "340C",
      "340C",
      "340C",
      "340C",
      "340C",
      "340C",
      "340C",
      "340C",
      "340C",
      "340C",
      "340C",
      "340C",
      "340C",
      "340C",
      "340C",
      "340C",
      "340C",
      "340C",
      "340C",
      "340C",
      "340C",
      "340C",
      "340C",
      "340C",
      "340C",
      "340C",
      "340C",
      "340C",
      "340C",
      "340C",
      "340C",
      "340C",
      "340C",
      "340C",
      "340C",
      "340C",
      "340C",
      "340C",
      "340C",
      "340C",
      "340C",
      "340C",
      "340C",
      "340C",
      "340C",
      "340C",
      "340C",
      "340C",
      "340C",
      "340C",
      "340C",
      "340C",
      "340C",
      "340C",
      "340C",
      "340C",
      "340C",
      "340C",
      "340C",
      "340C",
      "340C",
      "340C",
      "340C",
      "340C",
      "340C",
      "340C",
      "340C",
      "340C",
      "340C",
      "340C",
      "340C",
      "340C",
      "340C",
      "340C",
      "340C",
      "340C",
      "340C",
      "340C",
      "340C",
      "340C",
      "340C",
      "340C",
      "340C",
      "340C",
      "340C",
      "340C",
      "340C",
      "340C",
      "340C",
      "340C",
      "340C",
      "340C",
      "340C",
      "340C",
      "340C",
      "340C",
      "340C",
      "340C",
      "340C",
      "340C",
      "340C",
      "340C",
      "340C",
      "340C",
      "340C",
      "340C",
      "340C",
      "340C",
      "340C",
      "340C",
      "334",
      "324",
      "320C",
      "320",
      "285",
      "275",
      "256",
      "250",
      "235",
      "229",
      "167",
      "159",
      "144",
      "131",
      "117",
      "105",
      "091",
      "086",
      "072",
      "068",
      "061",
      "049",
      "041",
      "038",
      "030",
      "030",
      "022",
      "018",
      "013",
      "010",
      "005"
    ],
    "swim:geom": "path",
    "swim:speeds": [
      172,
      274,
      376,
      383,
      393,
      398,
      405,
      416,
      420,
      427,
      435,
      447,
      449,
      456,
      460,
      449,
      443,
      444,
      446,
      440,
      439,
      439,
      438,
      437,
      434,
      433,
      433,
      434,
      437,
      437,
      436,
      435,
      436,
      437,
      447,
      439,
      440,
      444,
      442,
      441,
      440,
      440,
      440,
      440,
      440,
      441,
      441,
      443,
      444,
      442,
      441,
      439,
      439,
      439,
      440,
      442,
      441,
      440,
      437,
      436,
      434,
      436,
      436,
      438,
      440,
      441,
      442,
      441,
      441,
      439,
      437,
      436,
      435,
      433,
      433,
      434,
      434,
      434,
      434,
      434,
      435,
      434,
      433,
      433,
      433,
      433,
      434,
      433,
      434,
      434,
      434,
      435,
      436,
      437,
      438,
      439,
      438,
      438,
      437,
      437,
      436,
      436,
      436,
      435,
      435,
      435,
      436,
      436,
      437,
      437,
      437,
      437,
      437,
      436,
      435,
      434,
      435,
      436,
      436,
      436,
      431,
      435,
      433,
      435,
      433,
      435,
      437,
      437,
      438,
      438,
      441,
      439,
      441,
      442,
      442,
      443,
      443,
      444,
      444,
      444,
      446,
      446,
      447,
      448,
      448,
      447,
      447,
      447,
      446,
      446,
      445,
      445,
      443,
      443,
      440,
      438,
      436,
      435,
      435,
      434,
      434,
      435,
      438,
      440,
      440,
      438,
      438,
      427,
      424,
      406,
      402,
      365,
      368,
      363,
      315,
      298,
      273,
      262,
      264,
      261,
      261,
      254,
      235,
      214,
      216,
      194,
      196,
      184,
      183,
      147,
      151,
      139
    ],
    "swim:timestamps": [
      1784829035,
      1784829155,
      1784829336,
      1784829396,
      1784829456,
      1784829516,
      1784829576,
      1784829636,
      1784829696,
      1784829756,
      1784829816,
      1784829936,
      1784829996,
      1784830056,
      1784830177,
      1784830237,
      1784830357,
      1784830417,
      1784830477,
      1784830537,
      1784830597,
      1784830657,
      1784830778,
      1784830838,
      1784830958,
      1784831018,
      1784831138,
      1784831198,
      1784831316,
      1784831376,
      1784831438,
      1784831499,
      1784831556,
      1784831619,
      1784831677,
      1784831736,
      1784831859,
      1784831917,
      1784831977,
      1784832037,
      1784832099,
      1784832220,
      1784832277,
      1784832337,
      1784832397,
      1784832517,
      1784832578,
      1784832638,
      1784832878,
      1784832938,
      1784832998,
      1784833118,
      1784833178,
      1784833238,
      1784833299,
      1784833419,
      1784833539,
      1784833599,
      1784833719,
      1784833779,
      1784833840,
      1784833899,
      1784833960,
      1784834020,
      1784834080,
      1784834140,
      1784834200,
      1784834260,
      1784834440,
      1784834500,
      1784834560,
      1784834620,
      1784834680,
      1784834741,
      1784834801,
      1784834861,
      1784834921,
      1784834981,
      1784835041,
      1784835101,
      1784835161,
      1784835221,
      1784835281,
      1784835341,
      1784835401,
      1784835462,
      1784835522,
      1784835582,
      1784835642,
      1784835762,
      1784835882,
      1784835942,
      1784836002,
      1784836062,
      1784836182,
      1784836243,
      1784836303,
      1784836363,
      1784836423,
      1784836484,
      1784836544,
      1784836604,
      1784836664,
      1784836724,
      1784836784,
      1784836844,
      1784836904,
      1784836964,
      1784837024,
      1784837084,
      1784837144,
      1784837204,
      1784837265,
      1784837325,
      1784837445,
      1784837565,
      1784837625,
      1784837685,
      1784837745,
      1784837805,
      1784837849,
      1784837925,
      1784837969,
      1784837985,
      1784838030,
      1784838046,
      1784838090,
      1784838106,
      1784838166,
      1784838286,
      1784838330,
      1784838346,
      1784838390,
      1784838450,
      1784838466,
      1784838510,
      1784838526,
      1784838586,
      1784838630,
      1784838646,
      1784838751,
      1784838767,
      1784838811,
      1784838887,
      1784838947,
      1784838991,
      1784839007,
      1784839067,
      1784839111,
      1784839127,
      1784839171,
      1784839187,
      1784839231,
      1784839247,
      1784839291,
      1784839351,
      1784839412,
      1784839472,
      1784839532,
      1784839592,
      1784839652,
      1784839772,
      1784839832,
      1784839952,
      1784840012,
      1784840111,
      1784840133,
      1784840177,
      1784840193,
      1784840231,
      1784840253,
      1784840411,
      1784840433,
      1784840471,
      1784840553,
      1784840613,
      1784840673,
      1784840717,
      1784840733,
      1784840772,
      1784840794,
      1784840832,
      1784840914,
      1784840952,
      1784840974,
      1784841017,
      1784841034,
      1784841072,
      1784841094,
      1784841132,
      1784841154,
      1784841192
    ],
    "wof:geomhash": "2a5651eb8bbea3bcaeb8caf8dd33d3b7",
    "wof:id": 2031940725,
    "wof:repo": "sfomuseum-data-flights-2026-07"
  },
  "bbox": [
    -122.33333333333333,
    37.49166666666667,
    -93.23138888888889,
    44.84027777777778
  ],
  "geometry": {"coordinates":[[-93.23138888888889,44.84027777777778],[-93.32027777777778,44.719722222222224],[-93.6575,44.6],[-93.79166666666667,44.55222222222222],[-93.92583333333334,44.50361111111111],[-94.06666666666666,44.45444444444445],[-94.19833333333334,44.39722222222222],[-94.32777777777777,44.32833333333333],[-94.45833333333334,44.25833333333333],[-94.5911111111111,44.18722222222222],[-94.71000000000001,44.123333333333335],[-94.98833333333333,43.973333333333336],[-95.13,43.900555555555556],[-95.27388888888889,43.82527777777778],[-95.56166666666667,43.67333333333333],[-95.69916666666667,43.60027777777778],[-95.97277777777778,43.45388888888889],[-96.11083333333333,43.37972222222222],[-96.24888888888889,43.305277777777775],[-96.39805555555556,43.25111111111111],[-96.55138888888888,43.200833333333335],[-96.7038888888889,43.150555555555556],[-97.00694444444444,43.05],[-97.15555555555557,43],[-97.455,42.89888888888889],[-97.60277777777777,42.84861111111111],[-97.89944444444446,42.74666666666667],[-98.04805555555555,42.69555555555555],[-98.3275,42.59777777777778],[-98.47333333333333,42.54666666666667],[-98.64250000000001,42.48916666666667],[-98.80027777777778,42.459722222222226],[-98.94250000000001,42.43416666666666],[-99.11694444444444,42.402499999999996],[-99.26222222222222,42.37583333333333],[-99.4225,42.34638888888889],[-99.75583333333333,42.28388888888889],[-99.9025,42.255833333333335],[-100.065,42.225],[-100.22305555555556,42.19472222222222],[-100.41555555555556,42.157222222222224],[-100.72805555555556,42.09527777777778],[-100.88833333333334,42.06388888888888],[-101.0461111111111,42.032222222222224],[-101.20305555555557,42.00055555555556],[-101.51833333333333,41.93583333333333],[-101.67611111111111,41.90333333333333],[-101.83722222222222,41.86972222222222],[-102.46333333333334,41.736666666666665],[-102.61749999999999,41.70333333333333],[-102.77416666666666,41.66888888888889],[-103.08138888888888,41.59],[-103.23472222222222,41.546388888888885],[-103.38583333333334,41.50361111111111],[-103.53944444444444,41.46027777777778],[-103.84805555555555,41.37638888888889],[-104.15527777777778,41.29277777777778],[-104.30666666666666,41.2525],[-104.60916666666667,41.17055555555555],[-104.75916666666667,41.12861111111111],[-104.90694444444445,41.086111111111116],[-105.06222222222222,41.0425],[-105.2063888888889,40.99861111111111],[-105.35972222222222,40.948611111111106],[-105.50666666666666,40.9],[-105.65166666666667,40.84638888888889],[-105.7975,40.793055555555554],[-105.94416666666667,40.74027777777778],[-106.40805555555556,40.63777777777778],[-106.57583333333334,40.605555555555554],[-106.73055555555555,40.575833333333335],[-106.88388888888889,40.546388888888885],[-107.03694444444444,40.516666666666666],[-107.19027777777778,40.486666666666665],[-107.34305555555555,40.45666666666667],[-107.46805555555555,40.431666666666665],[-107.62222222222222,40.40083333333333],[-107.77694444444444,40.36972222222222],[-107.92972222222222,40.33888888888889],[-108.0675,40.29861111111111],[-108.22166666666666,40.24305555555556],[-108.37527777777777,40.18833333333333],[-108.51083333333334,40.140277777777776],[-108.65333333333334,40.09],[-108.79305555555555,40.04055555555556],[-108.93472222222222,39.99111111111111],[-109.07722222222222,39.94194444444444],[-109.2175,39.89416666666666],[-109.35833333333333,39.84638888888889],[-109.67611111111111,39.73972222222222],[-109.9625,39.644999999999996],[-110.10888888888888,39.60166666666667],[-110.26083333333334,39.577222222222225],[-110.41527777777779,39.55916666666666],[-110.72777777777777,39.52305555555555],[-110.88555555555556,39.504444444444445],[-111.03999999999999,39.486111111111114],[-111.19361111111111,39.467777777777776],[-111.35055555555554,39.448611111111106],[-111.5038888888889,39.43],[-111.6575,39.41111111111111],[-111.81083333333333,39.39194444444444],[-111.96666666666667,39.37222222222222],[-112.11916666666666,39.35277777777778],[-112.27277777777778,39.33277777777778],[-112.43194444444445,39.31194444444444],[-112.58472222222221,39.28472222222222],[-112.73416666666667,39.251666666666665],[-112.88333333333334,39.218333333333334],[-113.03333333333333,39.18472222222222],[-113.18194444444445,39.151111111111106],[-113.33166666666666,39.11694444444444],[-113.47944444444444,39.07666666666667],[-113.62333333333332,39.031666666666666],[-113.90055555555556,38.92666666666666],[-114.17944444444444,38.82194444444445],[-114.32027777777778,38.77194444444444],[-114.46138888888889,38.72166666666667],[-114.6,38.67194444444444],[-114.74111111111111,38.62027777777778],[-114.82472222222222,38.58777777777778],[-115.0125,38.51],[-115.10499999999999,38.471944444444446],[-115.15027777777779,38.4525],[-115.24083333333333,38.41638888888889],[-115.285,38.39666666666667],[-115.385,38.37416666666667],[-115.44500000000001,38.3675],[-115.6,38.34777777777778],[-115.90583333333333,38.30722222222222],[-115.99805555555555,38.29527777777778],[-116.05888888888889,38.2875],[-116.15305555555557,38.275],[-116.30638888888889,38.254444444444445],[-116.36805555555554,38.24611111111111],[-116.46305555555556,38.23305555555556],[-116.52194444444444,38.225],[-116.6763888888889,38.20388888888889],[-116.77305555555556,38.190555555555555],[-116.83138888888888,38.1825],[-117.08388888888888,38.14694444444444],[-117.11222222222221,38.143055555555556],[-117.24861111111112,38.123333333333335],[-117.43583333333333,38.09638888888889],[-117.59277777777777,38.07361111111111],[-117.7175,38.055277777777775],[-117.74861111111112,38.050555555555555],[-117.9025,38.02777777777778],[-118.0275,38.00888888888889],[-118.05416666666666,38.00472222222222],[-118.18,37.98583333333333],[-118.20861111111111,37.981388888888894],[-118.33305555555555,37.962500000000006],[-118.36055555555555,37.958333333333336],[-118.48333333333333,37.939722222222215],[-118.63277777777778,37.91638888888889],[-118.78222222222222,37.89333333333333],[-118.93472222222222,37.87638888888889],[-119.08138888888888,37.859722222222224],[-119.23138888888889,37.842222222222226],[-119.38361111111112,37.82416666666667],[-119.68611111111112,37.78805555555555],[-119.83972222222222,37.769444444444446],[-120.14444444444445,37.731944444444444],[-120.29805555555555,37.71277777777778],[-120.55,37.68333333333333],[-120.60111111111111,37.67722222222222],[-120.71666666666667,37.666666666666664],[-120.74805555555555,37.659166666666664],[-120.85,37.65],[-120.89027777777778,37.641666666666666],[-121.23333333333333,37.6],[-121.28305555555555,37.59],[-121.36666666666666,37.583333333333336],[-121.5225,37.562777777777775],[-121.62472222222222,37.550555555555555],[-121.71722222222222,37.528888888888886],[-121.78333333333333,37.516666666666666],[-121.80583333333333,37.5075],[-121.86666666666666,37.5],[-121.89305555555556,37.49166666666667],[-121.95,37.5],[-122.06722222222221,37.501666666666665],[-122.11666666666666,37.516666666666666],[-122.13861111111112,37.52111111111111],[-122.18333333333334,37.53333333333333],[-122.18722222222223,37.54222222222222],[-122.23333333333333,37.56666666666667],[-122.255,37.57055555555556],[-122.28333333333333,37.583333333333336],[-122.30222222222221,37.59055555555556],[-122.33333333333333,37.6]],"type":"LineString"}
}
