{
  "id": 2032035045,
  "type": "Feature",
  "properties": {
    "geom:area": 0,
    "geom:bbox": "-122.303056,37.445000,-111.978056,40.837778",
    "geom:latitude": 38.605331259682664,
    "geom:longitude": -116.85789105321366,
    "src:alt_label": "swim-path",
    "src:geom": "swim",
    "swim:altitudes": [
      "048",
      "060",
      "064",
      "073",
      "092",
      "101",
      "118",
      "127",
      "147",
      "175",
      "186",
      "204",
      "224",
      "237",
      "250",
      "263",
      "289",
      "297",
      "309",
      "320",
      "320",
      "320",
      "321",
      "321",
      "331",
      "339",
      "348",
      "358C",
      "361C",
      "360C",
      "361C",
      "361C",
      "360C",
      "360C",
      "360C",
      "360C",
      "361C",
      "360C",
      "360C",
      "360C",
      "360C",
      "361C",
      "361C",
      "360C",
      "360C",
      "360C",
      "360C",
      "360C",
      "360C",
      "360C",
      "360C",
      "361C",
      "361C",
      "361C",
      "360C",
      "360C",
      "360C",
      "360C",
      "360C",
      "361C",
      "361C",
      "361C",
      "360C",
      "360C",
      "360",
      "352",
      "341",
      "340",
      "340",
      "340",
      "332",
      "314",
      "292",
      "284",
      "274",
      "272",
      "251",
      "240",
      "222",
      "221",
      "214",
      "213",
      "199",
      "197",
      "181",
      "179",
      "164",
      "164",
      "147",
      "137",
      "127",
      "116",
      "106",
      "106",
      "099",
      "092",
      "081",
      "081",
      "070C",
      "068C",
      "053",
      "044",
      "031",
      "024",
      "017",
      "010"
    ],
    "swim:geom": "path",
    "swim:speeds": [
      175,
      219,
      252,
      291,
      289,
      290,
      301,
      306,
      317,
      334,
      386,
      398,
      412,
      416,
      422,
      428,
      435,
      439,
      442,
      442,
      446,
      439,
      434,
      434,
      433,
      434,
      434,
      432,
      424,
      436,
      437,
      416,
      406,
      405,
      405,
      404,
      407,
      407,
      407,
      406,
      407,
      410,
      411,
      411,
      411,
      410,
      409,
      409,
      408,
      409,
      410,
      414,
      416,
      416,
      414,
      410,
      409,
      409,
      410,
      413,
      416,
      418,
      418,
      417,
      416,
      414,
      414,
      416,
      415,
      415,
      415,
      416,
      406,
      397,
      392,
      391,
      382,
      383,
      372,
      376,
      334,
      335,
      317,
      321,
      318,
      320,
      317,
      319,
      317,
      294,
      264,
      252,
      249,
      251,
      246,
      248,
      245,
      247,
      243,
      242,
      225,
      191,
      174,
      162,
      151,
      130
    ],
    "swim:timestamps": [
      1785466229,
      1785466289,
      1785466333,
      1785466350,
      1785466393,
      1785466410,
      1785466453,
      1785466470,
      1785466513,
      1785466573,
      1785466633,
      1785466693,
      1785466753,
      1785466813,
      1785466873,
      1785466933,
      1785467054,
      1785467114,
      1785467174,
      1785467234,
      1785467294,
      1785467354,
      1785467414,
      1785467474,
      1785467534,
      1785467594,
      1785467654,
      1785467714,
      1785467775,
      1785467835,
      1785467895,
      1785467955,
      1785468015,
      1785468075,
      1785468135,
      1785468192,
      1785468255,
      1785468315,
      1785468372,
      1785468435,
      1785468496,
      1785468552,
      1785468616,
      1785468676,
      1785468732,
      1785468793,
      1785468856,
      1785468913,
      1785468976,
      1785469033,
      1785469093,
      1785469156,
      1785469216,
      1785469273,
      1785469337,
      1785469397,
      1785469453,
      1785469517,
      1785469577,
      1785469634,
      1785469694,
      1785469754,
      1785469814,
      1785469874,
      1785469934,
      1785469994,
      1785470054,
      1785470114,
      1785470174,
      1785470234,
      1785470294,
      1785470354,
      1785470414,
      1785470437,
      1785470467,
      1785470475,
      1785470535,
      1785470595,
      1785470647,
      1785470655,
      1785470708,
      1785470715,
      1785470768,
      1785470775,
      1785470828,
      1785470835,
      1785470888,
      1785470895,
      1785470955,
      1785471015,
      1785471075,
      1785471135,
      1785471188,
      1785471195,
      1785471255,
      1785471315,
      1785471368,
      1785471375,
      1785471436,
      1785471496,
      1785471548,
      1785471616,
      1785471676,
      1785471736,
      1785471796,
      1785471856
    ],
    "wof:geomhash": "7e78b92e0cf20fc8842ab4d394465635",
    "wof:id": 2032035045,
    "wof:repo": "sfomuseum-data-flights-2026-07"
  },
  "bbox": [
    -122.30305555555556,
    37.44499999999999,
    -111.97805555555556,
    40.83777777777778
  ],
  "geometry": {"coordinates":[[-111.97805555555556,40.81055555555555],[-112.03222222222222,40.83416666666667],[-112.0775,40.83777777777778],[-112.13083333333333,40.836111111111116],[-112.18944444444445,40.80361111111111],[-112.21694444444445,40.79055555555556],[-112.2713888888889,40.74861111111111],[-112.29305555555555,40.73222222222223],[-112.32972222222222,40.67583333333333],[-112.3611111111111,40.58777777777778],[-112.38833333333334,40.48638888888889],[-112.41027777777778,40.40222222222222],[-112.44694444444445,40.261944444444445],[-112.48833333333333,40.15472222222222],[-112.57472222222222,40.05777777777777],[-112.66361111111112,39.95916666666667],[-112.84194444444444,39.76027777777778],[-112.92,39.672777777777775],[-113.01027777777777,39.571111111111115],[-113.11722222222221,39.450833333333335],[-113.21166666666667,39.35027777777778],[-113.33833333333332,39.277499999999996],[-113.48305555555555,39.23416666666667],[-113.62694444444443,39.19305555555555],[-113.77305555555556,39.15083333333333],[-113.91694444444445,39.109722222222224],[-114.06166666666667,39.0675],[-114.20694444444445,39.025277777777774],[-114.35249999999999,39.00694444444444],[-114.48777777777778,39.0625],[-114.61277777777777,39.13472222222222],[-114.73861111111111,39.19944444444444],[-114.88083333333333,39.20166666666667],[-115.01083333333334,39.15222222222222],[-115.13916666666667,39.100833333333334],[-115.24305555555556,39.05972222222222],[-115.39888888888889,38.996944444444445],[-115.51916666666666,38.94833333333333],[-115.63111111111111,38.90361111111111],[-115.77583333333334,38.84388888888889],[-115.90583333333333,38.79083333333333],[-116.03555555555555,38.737500000000004],[-116.16555555555556,38.68388888888889],[-116.29388888888889,38.630833333333335],[-116.42500000000001,38.57638888888889],[-116.55333333333333,38.5225],[-116.67888888888889,38.47],[-116.80749999999999,38.41583333333333],[-116.93333333333334,38.362500000000004],[-117.06,38.308611111111105],[-117.18916666666667,38.25361111111111],[-117.3111111111111,38.20166666666667],[-117.43833333333333,38.14694444444444],[-117.56638888888888,38.09166666666667],[-117.69416666666667,38.03666666666666],[-117.82833333333333,37.99944444444444],[-117.9725,37.98222222222223],[-118.11333333333333,37.967222222222226],[-118.25583333333333,37.95166666666667],[-118.40361111111112,37.93555555555555],[-118.55,37.919444444444444],[-118.69472222222223,37.90333333333333],[-118.8425,37.88666666666666],[-118.98444444444445,37.870555555555555],[-119.13916666666667,37.85277777777778],[-119.25222222222222,37.83972222222222],[-119.42833333333334,37.81888888888889],[-119.57305555555556,37.80166666666666],[-119.71694444444445,37.78444444444444],[-119.86138888888888,37.766666666666666],[-120.00444444444445,37.74944444444444],[-120.14888888888889,37.731388888888894],[-120.28972222222222,37.71388888888889],[-120.33333333333333,37.7],[-120.41666666666667,37.7],[-120.42722222222223,37.69611111111111],[-120.56027777777777,37.68111111111111],[-120.69416666666667,37.665277777777774],[-120.81666666666666,37.65],[-120.82305555555556,37.65],[-120.93333333333334,37.63333333333333],[-120.94472222222223,37.63527777777778],[-121.05,37.61666666666667],[-121.05527777777777,37.620555555555555],[-121.15,37.6],[-121.16583333333334,37.60583333333334],[-121.26666666666667,37.6],[-121.26194444444444,37.59277777777778],[-121.37055555555555,37.58027777777778],[-121.47527777777778,37.56805555555556],[-121.56722222222221,37.5575],[-121.65138888888889,37.56333333333333],[-121.71666666666667,37.6],[-121.7225,37.60388888888889],[-121.7936111111111,37.59777777777778],[-121.78861111111111,37.528055555555554],[-121.81666666666666,37.46666666666667],[-121.81555555555555,37.46416666666667],[-121.89305555555556,37.44499999999999],[-121.97694444444444,37.45111111111111],[-122.05,37.483333333333334],[-122.1125,37.50833333333333],[-122.16694444444445,37.53111111111111],[-122.21638888888889,37.551944444444445],[-122.26222222222222,37.57138888888889],[-122.30305555555556,37.58833333333334]],"type":"LineString"}
}
