{
  "id": 2031982115,
  "type": "Feature",
  "properties": {
    "geom:area": 0,
    "geom:bbox": "-122.536389,33.274722,-112.014167,37.668333",
    "geom:latitude": 34.95514847393121,
    "geom:longitude": -117.55685605683018,
    "src:alt_label": "swim-path",
    "src:geom": "swim",
    "swim:altitudes": [
      "010",
      "030",
      "047",
      "078",
      "111",
      "113",
      "130",
      "141",
      "164",
      "190",
      "237",
      "258",
      "274",
      "293",
      "312",
      "331",
      "345",
      "360",
      "377",
      "390C",
      "390C",
      "390C",
      "390C",
      "390C",
      "390C",
      "390C",
      "390C",
      "390C",
      "390C",
      "390C",
      "390C",
      "390C",
      "390",
      "390C",
      "390C",
      "390C",
      "390C",
      "390C",
      "390C",
      "390C",
      "390C",
      "390C",
      "390C",
      "390C",
      "390C",
      "390C",
      "390C",
      "390C",
      "390C",
      "390C",
      "390C",
      "390C",
      "390C",
      "390C",
      "390C",
      "390C",
      "390C",
      "390",
      "380",
      "377",
      "370",
      "370",
      "370",
      "370",
      "370",
      "370",
      "356",
      "342",
      "328",
      "313",
      "301",
      "290",
      "279",
      "256",
      "250",
      "250",
      "250",
      "250",
      "250",
      "250",
      "250",
      "242",
      "231",
      "222",
      "209",
      "201",
      "189",
      "179",
      "168",
      "158",
      "154",
      "140",
      "136",
      "122",
      "112",
      "103",
      "101",
      "091",
      "088",
      "083",
      "074",
      "070",
      "064",
      "052",
      "048",
      "040",
      "036",
      "026",
      "017",
      "011"
    ],
    "swim:geom": "path",
    "swim:speeds": [
      150,
      192,
      249,
      282,
      301,
      334,
      374,
      374,
      379,
      392,
      425,
      435,
      442,
      457,
      465,
      460,
      454,
      449,
      447,
      437,
      437,
      437,
      437,
      438,
      438,
      439,
      439,
      441,
      441,
      440,
      439,
      440,
      442,
      441,
      440,
      442,
      444,
      444,
      445,
      447,
      449,
      451,
      452,
      452,
      452,
      450,
      447,
      446,
      444,
      442,
      442,
      444,
      446,
      448,
      450,
      452,
      452,
      441,
      440,
      436,
      437,
      437,
      437,
      437,
      435,
      433,
      433,
      434,
      437,
      440,
      442,
      440,
      431,
      418,
      413,
      411,
      411,
      411,
      410,
      410,
      410,
      405,
      402,
      398,
      391,
      387,
      381,
      376,
      369,
      358,
      342,
      332,
      334,
      317,
      299,
      271,
      273,
      264,
      268,
      253,
      239,
      242,
      242,
      247,
      244,
      228,
      226,
      203,
      159,
      143
    ],
    "swim:timestamps": [
      1785070303,
      1785070363,
      1785070423,
      1785070483,
      1785070543,
      1785070552,
      1785070600,
      1785070612,
      1785070663,
      1785070723,
      1785070843,
      1785070903,
      1785070961,
      1785071023,
      1785071083,
      1785071141,
      1785071201,
      1785071263,
      1785071321,
      1785071443,
      1785071504,
      1785071561,
      1785071624,
      1785071684,
      1785071741,
      1785071804,
      1785071864,
      1785071984,
      1785072044,
      1785072102,
      1785072164,
      1785072224,
      1785072276,
      1785072342,
      1785072402,
      1785072462,
      1785072522,
      1785072582,
      1785072642,
      1785072702,
      1785072822,
      1785072883,
      1785072943,
      1785073003,
      1785073063,
      1785073123,
      1785073183,
      1785073243,
      1785073303,
      1785073363,
      1785073423,
      1785073483,
      1785073543,
      1785073603,
      1785073664,
      1785073784,
      1785073844,
      1785073904,
      1785073940,
      1785073964,
      1785074024,
      1785074060,
      1785074084,
      1785074120,
      1785074144,
      1785074204,
      1785074264,
      1785074297,
      1785074324,
      1785074357,
      1785074385,
      1785074418,
      1785074445,
      1785074505,
      1785074538,
      1785074565,
      1785074598,
      1785074625,
      1785074658,
      1785074685,
      1785074718,
      1785074745,
      1785074778,
      1785074805,
      1785074838,
      1785074865,
      1785074898,
      1785074925,
      1785074958,
      1785074986,
      1785075019,
      1785075058,
      1785075079,
      1785075139,
      1785075178,
      1785075238,
      1785075259,
      1785075298,
      1785075319,
      1785075352,
      1785075412,
      1785075441,
      1785075466,
      1785075532,
      1785075561,
      1785075592,
      1785075621,
      1785075681,
      1785075741,
      1785075801
    ],
    "wof:geomhash": "47b8815121bd0e6750cf4d5538a78569",
    "wof:id": 2031982115,
    "wof:repo": "sfomuseum-data-flights-2026-07"
  },
  "bbox": [
    -122.5363888888889,
    33.27472222222222,
    -112.01416666666667,
    37.66833333333333
  ],
  "geometry": {"coordinates":[[-122.38777777777779,37.62444444444444],[-122.44166666666668,37.647777777777776],[-122.51333333333334,37.66833333333333],[-122.5363888888889,37.605000000000004],[-122.49722222222222,37.530833333333334],[-122.48333333333333,37.516666666666666],[-122.43361111111112,37.46083333333333],[-122.4,37.43333333333333],[-122.31888888888888,37.38944444444444],[-122.21277777777777,37.321111111111115],[-121.98916666666666,37.17611111111111],[-121.86999999999999,37.098333333333336],[-121.76527777777778,37.025277777777774],[-121.62666666666667,36.93861111111111],[-121.50166666666667,36.85638888888889],[-121.39583333333334,36.7825],[-121.27527777777777,36.70416666666667],[-121.14972222222222,36.6225],[-121.02888888888889,36.54194444444444],[-120.80055555555555,36.38944444444444],[-120.68555555555555,36.31166666666666],[-120.57277777777777,36.236111111111114],[-120.4538888888889,36.156388888888884],[-120.33749999999999,36.0775],[-120.22361111111111,36],[-120.10583333333332,35.919444444444444],[-119.98972222222223,35.84027777777778],[-119.75972222222222,35.67777777777778],[-119.64472222222223,35.59666666666667],[-119.53472222222221,35.51861111111111],[-119.41888888888889,35.4375],[-119.28583333333333,35.380833333333335],[-119.15527777777778,35.331388888888895],[-119.01416666666667,35.280277777777776],[-118.88027777777778,35.230555555555554],[-118.74194444444444,35.17916666666667],[-118.60527777777777,35.12777777777778],[-118.4675,35.07611111111112],[-118.32249999999999,35.02111111111111],[-118.18527777777778,34.969166666666666],[-117.91250000000001,34.865],[-117.77555555555556,34.81222222222222],[-117.63861111111112,34.759166666666665],[-117.50111111111111,34.70611111111111],[-117.36666666666666,34.65361111111111],[-117.22972222222222,34.6],[-117.09416666666667,34.54666666666667],[-116.96027777777778,34.49388888888889],[-116.82666666666667,34.441111111111105],[-116.69277777777778,34.38805555555555],[-116.55972222222222,34.334722222222226],[-116.42611111111111,34.28138888888889],[-116.28944444444444,34.22638888888889],[-116.15361111111112,34.171388888888885],[-116.01805555555555,34.11638888888889],[-115.74027777777778,34.003055555555555],[-115.60499999999999,33.9475],[-115.47361111111111,33.89333333333333],[-115.40611111111112,33.86555555555556],[-115.34305555555555,33.839444444444446],[-115.21083333333334,33.78444444444444],[-115.14527777777778,33.757222222222225],[-115.08055555555555,33.730000000000004],[-115.01888888888888,33.70416666666667],[-114.95277777777778,33.67638888888889],[-114.8236111111111,33.62222222222222],[-114.68805555555556,33.58166666666667],[-114.61777777777777,33.56805555555556],[-114.54583333333333,33.553888888888885],[-114.47638888888889,33.54055555555556],[-114.4025,33.52611111111111],[-114.33472222222221,33.51277777777778],[-114.2611111111111,33.498333333333335],[-114.1261111111111,33.47138888888889],[-114.0611111111111,33.45861111111111],[-113.99388888888889,33.44499999999999],[-113.92972222222222,33.43222222222222],[-113.86194444444443,33.41833333333333],[-113.79527777777777,33.405],[-113.73027777777779,33.39222222222222],[-113.66361111111112,33.37833333333333],[-113.59944444444444,33.36527777777778],[-113.53472222222221,33.352222222222224],[-113.48166666666667,33.34138888888889],[-113.40722222222223,33.32805555555556],[-113.35583333333332,33.31916666666667],[-113.28472222222221,33.30694444444444],[-113.23444444444445,33.29833333333333],[-113.16361111111112,33.28777777777778],[-113.1,33.28333333333333],[-113.04694444444445,33.27472222222222],[-112.96666666666667,33.28333333333333],[-112.93805555555556,33.27777777777778],[-112.83083333333333,33.28111111111111],[-112.76666666666667,33.3],[-112.66666666666667,33.333333333333336],[-112.65444444444445,33.343333333333334],[-112.6,33.36666666666667],[-112.57388888888889,33.37416666666667],[-112.51666666666667,33.4],[-112.45,33.416666666666664],[-112.42277777777778,33.427499999999995],[-112.38333333333334,33.43333333333333],[-112.28333333333333,33.43333333333333],[-112.26333333333334,33.42833333333333],[-112.21666666666667,33.43333333333333],[-112.1875,33.42861111111111],[-112.11888888888888,33.428888888888885],[-112.06361111111111,33.428888888888885],[-112.01416666666667,33.428888888888885]],"type":"LineString"}
}
