{
  "id": 2031946851,
  "type": "Feature",
  "properties": {
    "geom:area": 0,
    "geom:bbox": "-122.559240,36.751950,-122.313970,37.667940",
    "geom:latitude": 37.20947527748295,
    "geom:longitude": -122.50956798870402,
    "src:alt_label": "swim-takeoff",
    "src:geom": "swim",
    "swim:elevations": [
      1092,
      1347,
      2134,
      3149,
      3577,
      4469,
      4852,
      5545,
      5718,
      6080,
      6867,
      7556,
      7617,
      8235,
      8367
    ],
    "swim:geom": "takeoff",
    "swim:timestamps": [
      1784828417,
      1784828452,
      1784828506,
      1784828573,
      1784828623,
      1784828692,
      1784828727,
      1784828785,
      1784828799,
      1784828832,
      1784828904,
      1784828971,
      1784828980,
      1784829050,
      1784829065
    ],
    "wof:geomhash": "ba5ee6a2d1cb1b33201ae34c3338dd65",
    "wof:id": 2031946851,
    "wof:repo": "sfomuseum-data-flights-2026-07"
  },
  "bbox": [
    -122.55924,
    36.75195,
    -122.31397,
    37.66794
  ],
  "geometry": {"coordinates":[[-122.4524,37.65184],[-122.49284,37.66794],[-122.54871,37.63038],[-122.54223,37.54249],[-122.54483,37.47138],[-122.54955,37.36085],[-122.5521,37.30293],[-122.55607,37.20466],[-122.55697,37.1817],[-122.55924,37.12418],[-122.55238,36.99584],[-122.45943,36.89383],[-122.44596,36.8807],[-122.33702,36.7745],[-122.31397,36.75195]],"type":"LineString"}
}
