{
  "id": 2032050265,
  "type": "Feature",
  "properties": {
    "geom:area": 0,
    "geom:bbox": "-123.499220,36.931170,-122.059360,37.614240",
    "geom:latitude": 37.291251949680856,
    "geom:longitude": -122.68017374819004,
    "src:alt_label": "swim-approach",
    "src:geom": "swim",
    "swim:elevations": [
      5707,
      5427,
      5179,
      4768,
      4557,
      4097,
      3898,
      3692,
      3604,
      3375,
      3229,
      3142,
      3046,
      3048,
      3042,
      2898,
      2860,
      2801,
      2783,
      2775,
      2680,
      2652,
      2587,
      2554,
      2528,
      2499,
      2465,
      2438,
      2323,
      2046,
      1861,
      1659,
      1630,
      1403,
      1302,
      1262,
      1038,
      929,
      792,
      698,
      621,
      457,
      360,
      214,
      88,
      80
    ],
    "swim:geom": "approach",
    "swim:timestamps": [
      1785565048,
      1785565073,
      1785565097,
      1785565135,
      1785565154,
      1785565196,
      1785565215,
      1785565235,
      1785565244,
      1785565265,
      1785565311,
      1785565340,
      1785565377,
      1785565400,
      1785565410,
      1785565451,
      1785565490,
      1785565514,
      1785565532,
      1785565544,
      1785565586,
      1785565617,
      1785565643,
      1785565674,
      1785565681,
      1785565701,
      1785565722,
      1785565754,
      1785565776,
      1785565820,
      1785565852,
      1785565885,
      1785565892,
      1785565928,
      1785565973,
      1785565982,
      1785566028,
      1785566049,
      1785566079,
      1785566096,
      1785566111,
      1785566150,
      1785566173,
      1785566210,
      1785566239,
      1785566257
    ],
    "wof:geomhash": "68622674f070c0ed4d4c555b9c850e7a",
    "wof:id": 2032050265,
    "wof:repo": "sfomuseum-data-flights-2026-07"
  },
  "bbox": [
    -123.49922,
    36.93117,
    -122.05936,
    37.61424
  ],
  "geometry": {"coordinates":[[-123.49922,36.93117],[-123.44644,36.9575],[-123.39557,36.98299],[-123.31672,37.02434],[-123.2794,37.04399],[-123.19544,37.08745],[-123.15619,37.10769],[-123.11781,37.12741],[-123.10009,37.13647],[-123.05899,37.15753],[-122.97332,37.20144],[-122.92323,37.22703],[-122.86198,37.25647],[-122.82336,37.26688],[-122.80689,37.27065],[-122.74076,37.28627],[-122.67737,37.30111],[-122.63766,37.31029],[-122.60963,37.31675],[-122.59026,37.32125],[-122.52285,37.33687],[-122.47158,37.34877],[-122.42922,37.35855],[-122.38002,37.36982],[-122.36835,37.37255],[-122.3368,37.37972],[-122.3036,37.38738],[-122.25498,37.39848],[-122.22126,37.40617],[-122.15732,37.42068],[-122.11127,37.43123],[-122.06647,37.44418],[-122.0595,37.44976],[-122.05936,37.48539],[-122.10683,37.50809],[-122.11605,37.51195],[-122.16149,37.53113],[-122.18189,37.53974],[-122.21142,37.55224],[-122.22784,37.55915],[-122.24165,37.56496],[-122.27494,37.57901],[-122.29433,37.5871],[-122.32375,37.59949],[-122.34611,37.60887],[-122.35996,37.61424]],"type":"LineString"}
}
