{
  "id": 2032006301,
  "type": "Feature",
  "properties": {
    "geom:area": 0,
    "geom:bbox": "-122.317778,33.916944,-118.453611,37.594722",
    "geom:latitude": 35.49217060007193,
    "geom:longitude": -120.61335207200614,
    "src:alt_label": "swim-path",
    "src:geom": "swim",
    "swim:altitudes": [
      "019",
      "039",
      "069",
      "097",
      "114",
      "137",
      "162",
      "183",
      "205",
      "225",
      "241",
      "258",
      "273",
      "287",
      "298",
      "315",
      "329",
      "341",
      "353",
      "360C",
      "360C",
      "360C",
      "360C",
      "360C",
      "360",
      "360",
      "360",
      "355",
      "329",
      "305",
      "284",
      "264",
      "243",
      "222",
      "201",
      "180",
      "161",
      "141",
      "123",
      "106",
      "094",
      "080",
      "072",
      "056",
      "041",
      "033",
      "023",
      "015",
      "007"
    ],
    "swim:geom": "path",
    "swim:speeds": [
      197,
      255,
      280,
      287,
      333,
      356,
      366,
      388,
      396,
      407,
      415,
      431,
      435,
      453,
      463,
      466,
      465,
      463,
      464,
      461,
      461,
      461,
      462,
      462,
      463,
      463,
      463,
      463,
      462,
      463,
      451,
      437,
      423,
      413,
      398,
      385,
      377,
      365,
      352,
      342,
      306,
      288,
      232,
      193,
      190,
      192,
      193,
      167,
      158
    ],
    "swim:timestamps": [
      1785271091,
      1785271151,
      1785271211,
      1785271272,
      1785271332,
      1785271392,
      1785271452,
      1785271512,
      1785271572,
      1785271632,
      1785271691,
      1785271751,
      1785271811,
      1785271871,
      1785271931,
      1785271991,
      1785272051,
      1785272112,
      1785272172,
      1785272232,
      1785272292,
      1785272352,
      1785272412,
      1785272472,
      1785272533,
      1785272592,
      1785272654,
      1785272712,
      1785272772,
      1785272832,
      1785272893,
      1785272953,
      1785273013,
      1785273073,
      1785273133,
      1785273193,
      1785273253,
      1785273313,
      1785273373,
      1785273433,
      1785273493,
      1785273553,
      1785273674,
      1785273736,
      1785273796,
      1785273854,
      1785273914,
      1785273974,
      1785274034
    ],
    "wof:geomhash": "a9974487ad7161707ad3980064fa3163",
    "wof:id": 2032006301,
    "wof:repo": "sfomuseum-data-flights-2026-07"
  },
  "bbox": [
    -122.31777777777778,
    33.91694444444444,
    -118.45361111111112,
    37.594722222222224
  ],
  "geometry": {"coordinates":[[-118.45361111111112,33.93333333333333],[-118.53166666666667,33.925555555555555],[-118.6236111111111,33.918055555555554],[-118.71888888888888,33.91694444444444],[-118.82527777777777,33.91777777777777],[-118.94027777777778,33.92805555555555],[-119.05194444444444,33.96944444444445],[-119.14833333333334,34.038333333333334],[-119.2388888888889,34.118611111111115],[-119.33333333333333,34.20194444444445],[-119.43583333333333,34.29333333333333],[-119.53777777777778,34.38111111111111],[-119.63805555555557,34.470555555555556],[-119.74944444444445,34.56666666666667],[-119.85666666666665,34.660555555555554],[-119.96583333333334,34.754444444444445],[-120.07305555555556,34.847500000000004],[-120.18138888888889,34.940555555555555],[-120.29055555555556,35.034166666666664],[-120.39833333333334,35.126666666666665],[-120.50972222222222,35.22166666666667],[-120.59833333333333,35.29722222222222],[-120.70833333333334,35.39055555555556],[-120.81722222222221,35.483333333333334],[-120.91833333333334,35.59138888888889],[-121.01027777777777,35.689722222222215],[-121.12388888888889,35.81166666666666],[-121.20361111111112,35.89694444444444],[-121.29861111111111,35.99805555555556],[-121.3913888888889,36.102222222222224],[-121.47472222222223,36.20888888888889],[-121.55444444444444,36.311388888888885],[-121.6325,36.41111111111111],[-121.7088888888889,36.50805555555556],[-121.78388888888888,36.60194444444445],[-121.85749999999999,36.69555555555555],[-121.90777777777778,36.7925],[-121.93583333333333,36.89055555555556],[-121.96638888888889,36.98638888888889],[-122.00138888888888,37.075833333333335],[-122.03527777777778,37.16],[-122.06444444444445,37.23583333333333],[-122.11888888888888,37.37305555555555],[-122.11666666666666,37.43333333333333],[-122.13333333333334,37.483333333333334],[-122.15944444444445,37.524166666666666],[-122.21583333333334,37.55166666666666],[-122.26722222222222,37.57333333333334],[-122.31777777777778,37.594722222222224]],"type":"LineString"}
}
