{
  "id": 2031978119,
  "type": "Feature",
  "properties": {
    "geom:area": 0,
    "geom:bbox": "-122.357090,36.734400,-121.886900,37.611180",
    "geom:latitude": 37.2388260085328,
    "geom:longitude": -122.12929763988605,
    "src:alt_label": "swim-approach",
    "src:geom": "swim",
    "swim:elevations": [
      5791,
      5701,
      5262,
      4859,
      4610,
      4327,
      4108,
      3945,
      3728,
      3548,
      3460,
      3185,
      3116,
      3039,
      2803,
      2776,
      2525,
      2421,
      2338,
      2153,
      2065,
      2027,
      1828,
      1829,
      1829,
      1809,
      1785,
      1661,
      1613,
      1548,
      1439,
      1341,
      1312,
      1058,
      1004,
      950,
      816,
      613,
      465,
      413,
      386,
      204,
      129,
      61,
      32
    ],
    "swim:geom": "approach",
    "swim:timestamps": [
      1785068385,
      1785068401,
      1785068454,
      1785068483,
      1785068501,
      1785068527,
      1785068556,
      1785068573,
      1785068599,
      1785068624,
      1785068633,
      1785068672,
      1785068682,
      1785068701,
      1785068755,
      1785068763,
      1785068807,
      1785068865,
      1785068881,
      1785068914,
      1785068931,
      1785068940,
      1785068990,
      1785069011,
      1785069041,
      1785069060,
      1785069063,
      1785069085,
      1785069095,
      1785069105,
      1785069131,
      1785069166,
      1785069181,
      1785069230,
      1785069240,
      1785069245,
      1785069262,
      1785069303,
      1785069346,
      1785069361,
      1785069370,
      1785069410,
      1785069426,
      1785069443,
      1785069455
    ],
    "wof:geomhash": "346855e51814937f5abde0556e1eb0d5",
    "wof:id": 2031978119,
    "wof:repo": "sfomuseum-data-flights-2026-07"
  },
  "bbox": [
    -122.35709,
    36.7344,
    -121.8869,
    37.61118
  ],
  "geometry": {"coordinates":[[-121.8869,36.7344],[-121.89842,36.75784],[-121.92265,36.84481],[-121.93535,36.8904],[-121.94318,36.91824],[-121.95553,36.95903],[-121.9726,37.00186],[-121.98219,37.02679],[-122.00382,37.06087],[-122.03123,37.08957],[-122.04204,37.09905],[-122.08843,37.14009],[-122.09958,37.15014],[-122.12086,37.16928],[-122.17789,37.21798],[-122.18796,37.22259],[-122.24307,37.24473],[-122.29139,37.29012],[-122.29664,37.30707],[-122.30839,37.34374],[-122.31334,37.36255],[-122.31189,37.37185],[-122.25526,37.39471],[-122.22528,37.39301],[-122.18326,37.39448],[-122.16397,37.40767],[-122.16158,37.41029],[-122.14452,37.42987],[-122.13698,37.43872],[-122.12864,37.44844],[-122.11211,37.47272],[-122.1242,37.50517],[-122.13359,37.51524],[-122.17615,37.53517],[-122.18439,37.53864],[-122.18873,37.54043],[-122.20239,37.54618],[-122.23669,37.56053],[-122.2703,37.57508],[-122.28302,37.58016],[-122.28979,37.58299],[-122.32141,37.59636],[-122.33438,37.60175],[-122.34725,37.60717],[-122.35709,37.61118]],"type":"LineString"}
}
