{
  "id": 2031974459,
  "type": "Feature",
  "properties": {
    "geom:area": 0,
    "geom:bbox": "-122.356111,35.174444,-80.985556,38.240833",
    "geom:latitude": 36.6786650179241,
    "geom:longitude": -101.70092073349747,
    "src:alt_label": "swim-path",
    "src:geom": "swim",
    "swim:altitudes": [
      "028",
      "038",
      "064",
      "085",
      "104",
      "114",
      "129",
      "157",
      "172",
      "196",
      "207",
      "238",
      "247",
      "253",
      "260",
      "267",
      "268",
      "272",
      "276",
      "285",
      "287",
      "291",
      "293",
      "297",
      "299C",
      "300C",
      "300C",
      "300C",
      "300C",
      "300C",
      "300",
      "302",
      "303",
      "310",
      "315",
      "320C",
      "320C",
      "320C",
      "320C",
      "320C",
      "320C",
      "320C",
      "320C",
      "320C",
      "320C",
      "320C",
      "320C",
      "320C",
      "321C",
      "320C",
      "320C",
      "320C",
      "320C",
      "320C",
      "320C",
      "320C",
      "320C",
      "320C",
      "320C",
      "320C",
      "320C",
      "320C",
      "320C",
      "320C",
      "320C",
      "320C",
      "321C",
      "320C",
      "320C",
      "320C",
      "320C",
      "321C",
      "320C",
      "320C",
      "320C",
      "320C",
      "320C",
      "320C",
      "320C",
      "320C",
      "320C",
      "320C",
      "320C",
      "320C",
      "320C",
      "320C",
      "320C",
      "320C",
      "320C",
      "320C",
      "320C",
      "320C",
      "320C",
      "320C",
      "320C",
      "320C",
      "320",
      "325",
      "331",
      "333",
      "336",
      "337",
      "340C",
      "340C",
      "340C",
      "340C",
      "340C",
      "340C",
      "340C",
      "340C",
      "340C",
      "340C",
      "340C",
      "340C",
      "340C",
      "340C",
      "340C",
      "340C",
      "340C",
      "340C",
      "340C",
      "340C",
      "340C",
      "340C",
      "340C",
      "340C",
      "340C",
      "340C",
      "340C",
      "340C",
      "340C",
      "340C",
      "340C",
      "340C",
      "340C",
      "340C",
      "340C",
      "340C",
      "340C",
      "340C",
      "340C",
      "340C",
      "340C",
      "340C",
      "340C",
      "340C",
      "340C",
      "340C",
      "340C",
      "340C",
      "340C",
      "340C",
      "340C",
      "340C",
      "340C",
      "340C",
      "340C",
      "340C",
      "340C",
      "340C",
      "340C",
      "340C",
      "340C",
      "340C",
      "340C",
      "340C",
      "340C",
      "340C",
      "340C",
      "340C",
      "340C",
      "340C",
      "340C",
      "340C",
      "340C",
      "340C",
      "340C",
      "340C",
      "340C",
      "340C",
      "340C",
      "340C",
      "340C",
      "339C",
      "340C",
      "340C",
      "341C",
      "340C",
      "340C",
      "340C",
      "340C",
      "340C",
      "340C",
      "340C",
      "340C",
      "341C",
      "340C",
      "340C",
      "340C",
      "339C",
      "340C",
      "340C",
      "340C",
      "340C",
      "340C",
      "341C",
      "340C",
      "340C",
      "340C",
      "340C",
      "340C",
      "340C",
      "340C",
      "340C",
      "340C",
      "340C",
      "340C",
      "340C",
      "340C",
      "340C",
      "340C",
      "340C",
      "340C",
      "340C",
      "340C",
      "340C",
      "340C",
      "341C",
      "341C",
      "340C",
      "340C",
      "340C",
      "340C",
      "340C",
      "340C",
      "340C",
      "341C",
      "341C",
      "340C",
      "340C",
      "340C",
      "340C",
      "340C",
      "340C",
      "340C",
      "341C",
      "340C",
      "340C",
      "340C",
      "340C",
      "340C",
      "340C",
      "340C",
      "340C",
      "339C",
      "339C",
      "340C",
      "340C",
      "340C",
      "340C",
      "340C",
      "339C",
      "340C",
      "340C",
      "340C",
      "340C",
      "340C",
      "340C",
      "340C",
      "340C",
      "340C",
      "340C",
      "340C",
      "340C",
      "331",
      "321C",
      "320C",
      "320C",
      "320C",
      "320C",
      "320C",
      "320C",
      "320C",
      "320C",
      "320C",
      "320C",
      "320C",
      "320C",
      "320C",
      "320C",
      "320C",
      "320C",
      "320C",
      "320C",
      "316",
      "294",
      "275",
      "255",
      "234",
      "214",
      "181",
      "160",
      "114",
      "105",
      "092",
      "081C",
      "073",
      "048",
      "039",
      "015",
      "008",
      "001"
    ],
    "swim:geom": "path",
    "swim:speeds": [
      204,
      261,
      272,
      277,
      291,
      332,
      350,
      376,
      384,
      391,
      392,
      400,
      406,
      413,
      421,
      432,
      436,
      438,
      439,
      445,
      448,
      449,
      449,
      452,
      455,
      455,
      456,
      455,
      455,
      454,
      454,
      453,
      453,
      453,
      448,
      442,
      436,
      436,
      436,
      436,
      436,
      436,
      436,
      436,
      436,
      436,
      436,
      436,
      436,
      436,
      437,
      438,
      438,
      438,
      438,
      438,
      438,
      438,
      438,
      439,
      439,
      440,
      440,
      440,
      440,
      440,
      439,
      435,
      435,
      437,
      439,
      442,
      444,
      445,
      445,
      445,
      445,
      444,
      446,
      447,
      448,
      448,
      448,
      448,
      446,
      446,
      445,
      445,
      445,
      447,
      446,
      447,
      447,
      447,
      449,
      448,
      449,
      451,
      454,
      453,
      453,
      453,
      453,
      453,
      454,
      454,
      454,
      454,
      455,
      455,
      455,
      455,
      456,
      456,
      456,
      456,
      456,
      456,
      457,
      458,
      458,
      459,
      459,
      459,
      461,
      461,
      460,
      460,
      460,
      460,
      460,
      460,
      462,
      463,
      465,
      465,
      464,
      463,
      463,
      464,
      465,
      466,
      468,
      468,
      468,
      467,
      466,
      464,
      463,
      462,
      462,
      461,
      461,
      467,
      461,
      461,
      464,
      464,
      463,
      463,
      462,
      462,
      463,
      462,
      463,
      464,
      464,
      464,
      464,
      464,
      463,
      463,
      462,
      462,
      462,
      462,
      462,
      462,
      462,
      462,
      462,
      463,
      463,
      464,
      465,
      465,
      466,
      467,
      467,
      467,
      466,
      466,
      465,
      465,
      465,
      464,
      465,
      463,
      464,
      461,
      461,
      459,
      460,
      459,
      464,
      466,
      465,
      465,
      465,
      465,
      465,
      464,
      464,
      463,
      461,
      459,
      458,
      457,
      459,
      457,
      460,
      459,
      458,
      458,
      456,
      457,
      456,
      456,
      455,
      454,
      453,
      451,
      451,
      451,
      452,
      453,
      456,
      456,
      456,
      455,
      455,
      454,
      453,
      451,
      451,
      451,
      450,
      449,
      449,
      449,
      444,
      442,
      440,
      437,
      431,
      432,
      433,
      431,
      431,
      431,
      430,
      431,
      429,
      431,
      431,
      430,
      431,
      432,
      433,
      433,
      432,
      430,
      430,
      429,
      428,
      426,
      425,
      425,
      422,
      420,
      419,
      418,
      419,
      419,
      420,
      420,
      420,
      419,
      418,
      417,
      418,
      422,
      421,
      421,
      419,
      418,
      418,
      405,
      393,
      364,
      353,
      340,
      304,
      267,
      260,
      238,
      238,
      230,
      204,
      163,
      135,
      134
    ],
    "swim:timestamps": [
      1785090123,
      1785090191,
      1785090251,
      1785090311,
      1785090371,
      1785090431,
      1785090491,
      1785090611,
      1785090671,
      1785090792,
      1785090852,
      1785091032,
      1785091092,
      1785091152,
      1785091212,
      1785091272,
      1785091288,
      1785091332,
      1785091348,
      1785091453,
      1785091469,
      1785091513,
      1785091529,
      1785091573,
      1785091589,
      1785091633,
      1785091649,
      1785091693,
      1785091709,
      1785091753,
      1785091769,
      1785091813,
      1785091829,
      1785091873,
      1785091889,
      1785091933,
      1785091993,
      1785092009,
      1785092069,
      1785092113,
      1785092129,
      1785092174,
      1785092189,
      1785092250,
      1785092310,
      1785092414,
      1785092430,
      1785092474,
      1785092490,
      1785092550,
      1785092610,
      1785092654,
      1785092670,
      1785092714,
      1785092730,
      1785092774,
      1785092790,
      1785092834,
      1785092850,
      1785092971,
      1785093031,
      1785093091,
      1785093151,
      1785093211,
      1785093271,
      1785093331,
      1785093391,
      1785093511,
      1785093571,
      1785093631,
      1785093692,
      1785093752,
      1785093812,
      1785093872,
      1785093932,
      1785093992,
      1785094057,
      1785094112,
      1785094232,
      1785094292,
      1785094352,
      1785094412,
      1785094473,
      1785094537,
      1785094593,
      1785094658,
      1785094778,
      1785094838,
      1785094910,
      1785094953,
      1785094970,
      1785095013,
      1785095030,
      1785095090,
      1785095133,
      1785095150,
      1785095210,
      1785095271,
      1785095314,
      1785095331,
      1785095374,
      1785095391,
      1785095434,
      1785095451,
      1785095494,
      1785095511,
      1785095554,
      1785095674,
      1785095734,
      1785095751,
      1785095794,
      1785095811,
      1785095871,
      1785095915,
      1785095932,
      1785095975,
      1785096035,
      1785096052,
      1785096112,
      1785096172,
      1785096215,
      1785096232,
      1785096275,
      1785096335,
      1785096352,
      1785096412,
      1785096472,
      1785096532,
      1785096653,
      1785096713,
      1785096773,
      1785096833,
      1785096953,
      1785097013,
      1785097133,
      1785097254,
      1785097314,
      1785097374,
      1785097432,
      1785097489,
      1785097549,
      1785097609,
      1785097729,
      1785097789,
      1785097850,
      1785097910,
      1785097970,
      1785098150,
      1785098210,
      1785098270,
      1785098330,
      1785098451,
      1785098511,
      1785098555,
      1785098571,
      1785098631,
      1785098675,
      1785098735,
      1785098756,
      1785098795,
      1785098811,
      1785098871,
      1785098915,
      1785098936,
      1785098975,
      1785099035,
      1785099051,
      1785099112,
      1785099172,
      1785099216,
      1785099292,
      1785099336,
      1785099352,
      1785099412,
      1785099456,
      1785099472,
      1785099516,
      1785099532,
      1785099636,
      1785099652,
      1785099696,
      1785099756,
      1785099773,
      1785099877,
      1785099937,
      1785099953,
      1785099997,
      1785100013,
      1785100133,
      1785100177,
      1785100237,
      1785100253,
      1785100313,
      1785100357,
      1785100374,
      1785100417,
      1785100434,
      1785100477,
      1785100494,
      1785100537,
      1785100554,
      1785100598,
      1785100614,
      1785100658,
      1785100720,
      1785100838,
      1785100900,
      1785100961,
      1785101018,
      1785101078,
      1785101138,
      1785101198,
      1785101258,
      1785101318,
      1785101379,
      1785101439,
      1785101559,
      1785101619,
      1785101742,
      1785101773,
      1785101799,
      1785101859,
      1785101919,
      1785102013,
      1785102039,
      1785102073,
      1785102100,
      1785102133,
      1785102160,
      1785102194,
      1785102220,
      1785102280,
      1785102342,
      1785102400,
      1785102460,
      1785102523,
      1785102580,
      1785102640,
      1785102703,
      1785102763,
      1785102823,
      1785102943,
      1785103003,
      1785103063,
      1785103123,
      1785103244,
      1785103304,
      1785103364,
      1785103424,
      1785103484,
      1785103544,
      1785103604,
      1785103664,
      1785103724,
      1785103753,
      1785103813,
      1785103844,
      1785103873,
      1785103905,
      1785103933,
      1785103965,
      1785103993,
      1785104025,
      1785104053,
      1785104113,
      1785104145,
      1785104174,
      1785104265,
      1785104325,
      1785104354,
      1785104385,
      1785104445,
      1785104474,
      1785104505,
      1785104625,
      1785104714,
      1785104746,
      1785104774,
      1785104806,
      1785104866,
      1785104926,
      1785104955,
      1785105015,
      1785105046,
      1785105075,
      1785105106,
      1785105135,
      1785105195,
      1785105255,
      1785105315,
      1785105435,
      1785105555,
      1785105616,
      1785105676,
      1785105796,
      1785105856,
      1785105916,
      1785105976,
      1785106036,
      1785106098,
      1785106216,
      1785106273,
      1785106457,
      1785106517,
      1785106577,
      1785106637,
      1785106697,
      1785106817,
      1785106878,
      1785107058,
      1785107118,
      1785107178
    ],
    "wof:geomhash": "ac6db5f28b4faccd1b80a4f5784b4cfa",
    "wof:id": 2031974459,
    "wof:repo": "sfomuseum-data-flights-2026-07"
  },
  "bbox": [
    -122.3561111111111,
    35.17444444444444,
    -80.98555555555555,
    38.240833333333335
  ],
  "geometry": {"coordinates":[[-80.98555555555555,35.26972222222222],[-81.05722222222222,35.291666666666664],[-81.14944444444446,35.280277777777776],[-81.24333333333334,35.261944444444445],[-81.3386111111111,35.243611111111115],[-81.44583333333334,35.222500000000004],[-81.56138888888889,35.2],[-81.81305555555555,35.18194444444444],[-81.94305555555556,35.17916666666667],[-82.20972222222223,35.17444444444444],[-82.33694444444444,35.20277777777778],[-82.73138888888889,35.294999999999995],[-82.86388888888888,35.325833333333335],[-83.00166666666667,35.3575],[-83.13944444444445,35.38916666666667],[-83.28666666666666,35.41083333333333],[-83.32166666666666,35.409444444444446],[-83.41277777777778,35.40416666666667],[-83.47055555555556,35.401666666666664],[-83.71388888888889,35.386944444444445],[-83.77583333333334,35.3825],[-83.86666666666666,35.37777777777778],[-83.92972222222222,35.37305555555555],[-84.0213888888889,35.36833333333333],[-84.08611111111111,35.36416666666667],[-84.17916666666667,35.358333333333334],[-84.24083333333333,35.35583333333334],[-84.33333333333333,35.35916666666667],[-84.39555555555556,35.36194444444445],[-84.48805555555556,35.36611111111111],[-84.54833333333333,35.368611111111115],[-84.64277777777778,35.37277777777778],[-84.70472222222223,35.37555555555556],[-84.79555555555555,35.38583333333333],[-84.85777777777777,35.39388888888889],[-84.94500000000001,35.405277777777776],[-85.09416666666667,35.42472222222222],[-85.15305555555557,35.4325],[-85.27166666666666,35.44777777777777],[-85.38777777777779,35.462500000000006],[-85.41722222222222,35.46638888888889],[-85.53388888888888,35.48111111111111],[-85.56555555555555,35.48527777777778],[-85.71138888888889,35.50333333333333],[-85.85944444444443,35.52166666666667],[-86.12416666666665,35.553888888888885],[-86.15416666666667,35.5575],[-86.28111111111112,35.57277777777778],[-86.31027777777777,35.57611111111112],[-86.4588888888889,35.59388888888889],[-86.60805555555555,35.611111111111114],[-86.72416666666666,35.624722222222225],[-86.75527777777778,35.62833333333333],[-86.87472222222222,35.64194444444444],[-86.90333333333334,35.64527777777778],[-87.02194444444444,35.65861111111111],[-87.05333333333333,35.66222222222222],[-87.17083333333333,35.675555555555555],[-87.20194444444445,35.678888888888885],[-87.50111111111111,35.71194444444445],[-87.64861111111112,35.72777777777778],[-87.79888888888888,35.74388888888889],[-87.94694444444445,35.75972222222222],[-88.0975,35.775555555555556],[-88.24555555555555,35.79055555555556],[-88.3938888888889,35.80583333333333],[-88.54333333333334,35.82083333333334],[-88.83888888888889,35.85],[-88.9888888888889,35.864444444444445],[-89.13944444444445,35.87888888888889],[-89.2911111111111,35.893055555555556],[-89.44222222222223,35.907222222222224],[-89.5961111111111,35.92111111111111],[-89.75055555555555,35.93527777777778],[-89.90222222222222,35.948611111111106],[-90.05333333333333,35.96194444444445],[-90.20777777777778,35.974722222222226],[-90.3586111111111,35.98833333333334],[-90.63583333333334,36.01138888888889],[-90.78833333333333,36.02388888888889],[-90.94361111111111,36.03638888888889],[-91.12555555555555,36.050555555555555],[-91.27777777777777,36.0625],[-91.42972222222222,36.073888888888895],[-91.57944444444443,36.085],[-91.72694444444444,36.096111111111114],[-92.03222222222222,36.117777777777775],[-92.18277777777779,36.12833333333333],[-92.33555555555554,36.138888888888886],[-92.49111111111111,36.149166666666666],[-92.52027777777778,36.151111111111106],[-92.64333333333335,36.159444444444446],[-92.6738888888889,36.16138888888889],[-92.8261111111111,36.17111111111111],[-92.94916666666667,36.178888888888885],[-92.97833333333334,36.18083333333333],[-93.10277777777777,36.18833333333333],[-93.28416666666666,36.19944444444444],[-93.41222222222223,36.206944444444446],[-93.44444444444444,36.20888888888889],[-93.56638888888888,36.21611111111111],[-93.5975,36.217777777777776],[-93.72083333333333,36.224722222222226],[-93.75027777777778,36.22638888888889],[-93.8761111111111,36.233333333333334],[-93.90611111111112,36.235],[-94.03166666666667,36.24166666666667],[-94.34388888888888,36.25527777777778],[-94.5025,36.26166666666666],[-94.53,36.2625],[-94.65916666666668,36.2675],[-94.68805555555556,36.26833333333333],[-94.84583333333333,36.27388888888889],[-94.97027777777778,36.27833333333333],[-95.00527777777778,36.279444444444444],[-95.13138888888888,36.28361111111111],[-95.28999999999999,36.28861111111111],[-95.31888888888888,36.28944444444444],[-95.47805555555556,36.294444444444444],[-95.63444444444445,36.29888888888889],[-95.74055555555556,36.301944444444445],[-95.80805555555555,36.303888888888885],[-95.89972222222222,36.30611111111111],[-96.0586111111111,36.31027777777778],[-96.12583333333333,36.31166666666666],[-96.28333333333333,36.315555555555555],[-96.44277777777778,36.31916666666667],[-96.60305555555556,36.322500000000005],[-96.89416666666668,36.32805555555556],[-97.05166666666666,36.330555555555556],[-97.20972222222223,36.333333333333336],[-97.36777777777777,36.33527777777778],[-97.71361111111112,36.33972222222222],[-97.82805555555555,36.340833333333336],[-98.18166666666667,36.34388888888889],[-98.50222222222222,36.34583333333334],[-98.66333333333334,36.34638888888889],[-98.8236111111111,36.34666666666667],[-98.97944444444444,36.346944444444446],[-99.13388888888889,36.32055555555556],[-99.285,36.27638888888889],[-99.4363888888889,36.2325],[-99.7388888888889,36.1475],[-99.8913888888889,36.10611111111111],[-100.04805555555555,36.09027777777778],[-100.20055555555555,36.12388888888889],[-100.35666666666665,36.15888888888889],[-100.78222222222222,36.32638888888889],[-100.91833333333334,36.388888888888886],[-101.05694444444444,36.45277777777778],[-101.19166666666668,36.51555555555556],[-101.46638888888889,36.644999999999996],[-101.6036111111111,36.71194444444445],[-101.71388888888889,36.764722222222225],[-101.74305555555556,36.77861111111111],[-101.88083333333333,36.842222222222226],[-102.00666666666666,36.85611111111111],[-102.1675,36.85166666666667],[-102.19500000000001,36.850833333333334],[-102.32472222222222,36.846944444444446],[-102.35166666666666,36.84527777777778],[-102.50861111111111,36.825833333333335],[-102.64750000000001,36.808611111111105],[-102.67,36.80583333333333],[-102.80638888888889,36.78861111111111],[-102.96527777777779,36.76833333333333],[-102.99694444444445,36.76444444444444],[-103.15777777777778,36.74388888888889],[-103.31388888888888,36.717222222222226],[-103.4388888888889,36.696666666666665],[-103.6275,36.6625],[-103.71972222222223,36.64361111111111],[-103.78361111111111,36.63055555555555],[-103.93472222222222,36.59444444444445],[-104.01722222222222,36.556666666666665],[-104.07277777777777,36.53138888888889],[-104.15777777777778,36.492222222222225],[-104.20611111111111,36.47],[-104.4413888888889,36.379444444444445],[-104.49694444444445,36.37388888888889],[-104.60222222222221,36.37388888888889],[-104.7625,36.37583333333333],[-104.81333333333333,36.37694444444445],[-105.08722222222222,36.394444444444446],[-105.24833333333333,36.39722222222222],[-105.29166666666667,36.40083333333333],[-105.405,36.419444444444444],[-105.44916666666667,36.42805555555555],[-105.77833333333334,36.49305555555556],[-105.89777777777779,36.51722222222222],[-106.04472222222222,36.55222222222222],[-106.09055555555555,36.562777777777775],[-106.23722222222223,36.59638888888889],[-106.35749999999999,36.62388888888889],[-106.39,36.63138888888889],[-106.51416666666667,36.66],[-106.54583333333333,36.66722222222222],[-106.63944444444445,36.68861111111111],[-106.70166666666667,36.70277777777778],[-106.79166666666667,36.723333333333336],[-106.84888888888888,36.73638888888889],[-106.97305555555556,36.76444444444444],[-107.00083333333333,36.77055555555555],[-107.1275,36.79888888888889],[-107.27416666666666,36.83222222222223],[-107.59194444444444,36.901666666666664],[-107.7461111111111,36.93472222222222],[-107.90138888888889,36.969166666666666],[-108.06,37.003055555555555],[-108.21444444444445,37.03611111111111],[-108.36972222222222,37.06888888888889],[-108.52527777777777,37.10166666666667],[-108.68027777777779,37.134166666666665],[-108.83333333333333,37.16583333333333],[-108.98805555555556,37.19777777777777],[-109.14194444444445,37.22916666666667],[-109.44833333333334,37.29138888888889],[-109.60388888888889,37.322500000000005],[-109.9213888888889,37.385555555555555],[-110.00083333333333,37.401944444444446],[-110.07055555555556,37.40611111111111],[-110.22916666666667,37.415277777777774],[-110.38722222222223,37.42527777777777],[-110.63833333333334,37.442499999999995],[-110.70416666666667,37.447222222222216],[-110.79694444444445,37.45388888888889],[-110.8625,37.45888888888889],[-110.95277777777778,37.46944444444445],[-111.02055555555556,37.480555555555554],[-111.10833333333333,37.49444444444445],[-111.17305555555556,37.50472222222222],[-111.32694444444444,37.529444444444444],[-111.47222222222223,37.562777777777775],[-111.62916666666666,37.60166666666667],[-111.77972222222222,37.638888888888886],[-111.92555555555556,37.67472222222222],[-112.08638888888889,37.71416666666667],[-112.23833333333333,37.75111111111111],[-112.41305555555556,37.79333333333333],[-112.56611111111111,37.830000000000005],[-112.71555555555555,37.865833333333335],[-113.01833333333333,37.93722222222222],[-113.16916666666667,37.972500000000004],[-113.31972222222223,38.007222222222225],[-113.47194444444445,38.0425],[-113.77666666666667,38.11222222222222],[-113.92805555555556,38.146388888888886],[-114.07972222222222,38.18055555555555],[-114.23222222222222,38.214444444444446],[-114.38527777777779,38.24055555555556],[-114.54222222222222,38.240833333333335],[-114.69638888888889,38.23111111111111],[-114.84888888888888,38.22138888888889],[-115.00055555555555,38.211111111111116],[-115.08277777777778,38.20722222222223],[-115.23583333333333,38.19555555555555],[-115.30444444444444,38.19027777777777],[-115.38611111111112,38.18555555555555],[-115.44472222222223,38.180277777777775],[-115.53666666666666,38.174166666666665],[-115.59666666666666,38.169444444444444],[-115.68722222222223,38.16361111111111],[-115.7461111111111,38.15833333333333],[-115.83833333333332,38.151666666666664],[-115.99083333333333,38.14],[-116.05027777777778,38.135555555555555],[-116.14222222222223,38.12833333333333],[-116.35416666666666,38.111666666666665],[-116.50527777777778,38.099722222222226],[-116.59805555555555,38.092222222222226],[-116.65833333333335,38.08722222222222],[-116.80888888888889,38.07472222222223],[-116.89972222222222,38.06722222222223],[-116.9588888888889,38.0625],[-117.26583333333333,38.03472222222222],[-117.47972222222222,38.014722222222225],[-117.56583333333333,38.006388888888885],[-117.62555555555555,38.00055555555556],[-117.71333333333334,37.99194444444444],[-117.8586111111111,37.97777777777778],[-118.00583333333333,37.96333333333334],[-118.06472222222222,37.9575],[-118.21055555555556,37.94277777777778],[-118.29916666666666,37.933611111111105],[-118.35833333333333,37.92777777777778],[-118.44555555555556,37.91861111111111],[-118.50444444444445,37.9125],[-118.65111111111112,37.89722222222222],[-118.79555555555555,37.88194444444444],[-118.95833333333334,37.864444444444445],[-119.24888888888889,37.83277777777778],[-119.54277777777777,37.8],[-119.6888888888889,37.78333333333333],[-119.83694444444444,37.76638888888889],[-120.12666666666667,37.7325],[-120.27277777777778,37.715],[-120.38805555555557,37.70111111111111],[-120.53,37.68472222222222],[-120.66555555555556,37.66861111111111],[-120.81666666666666,37.65],[-121.04388888888889,37.62222222222222],[-121.18333333333334,37.6],[-121.515,37.56333333333333],[-121.60805555555555,37.55277777777778],[-121.69611111111111,37.53361111111111],[-121.77722222222222,37.51416666666667],[-121.85805555555555,37.49805555555556],[-122.01777777777778,37.51722222222222],[-122.1,37.53333333333333],[-122.27277777777778,37.57805555555556],[-122.31472222222222,37.59583333333334],[-122.3561111111111,37.613055555555555]],"type":"LineString"}
}
