{
  "id": 2031947153,
  "type": "Feature",
  "properties": {
    "geom:area": 0,
    "geom:bbox": "-119.099167,39.711111,-87.533056,42.563611",
    "geom:latitude": 42.063380652416264,
    "geom:longitude": -103.23334318067626,
    "src:alt_label": "swim-path",
    "src:geom": "swim",
    "swim:altitudes": [
      "310C",
      "310C",
      "310C",
      "310C",
      "310",
      "319",
      "326",
      "325",
      "330C",
      "330C",
      "330C",
      "330C",
      "330C",
      "330C",
      "331C",
      "330C",
      "330C",
      "330C",
      "330C",
      "330C",
      "330C",
      "330C",
      "330C",
      "330C",
      "330C",
      "330C",
      "330C",
      "330C",
      "330C",
      "330C",
      "330C",
      "330C",
      "330C",
      "330C",
      "330C",
      "330C",
      "330C",
      "331C",
      "330C",
      "330C",
      "330C",
      "330C",
      "330C",
      "330C",
      "330C",
      "330C",
      "330C",
      "330C",
      "330C",
      "330C",
      "330C",
      "330",
      "335",
      "341",
      "346",
      "350C",
      "350C",
      "350C",
      "350C",
      "350C",
      "350C",
      "350C",
      "350C",
      "350C",
      "350C",
      "350C",
      "350C",
      "350C",
      "350C",
      "350C",
      "350C",
      "350C",
      "350C",
      "350C",
      "350C",
      "350C",
      "350C",
      "350C",
      "350C",
      "350C",
      "350C",
      "350C",
      "350C",
      "350C",
      "350C",
      "350C",
      "350C",
      "350C",
      "350C",
      "350C",
      "350C",
      "350C",
      "350C",
      "350C",
      "350C",
      "350C",
      "350C",
      "350C",
      "350C",
      "350C",
      "350C",
      "350C",
      "350C",
      "350C",
      "350C",
      "350C",
      "350C",
      "350C",
      "350C",
      "350C",
      "350C",
      "350C",
      "350C",
      "350C",
      "350C",
      "350C",
      "350C",
      "350C",
      "350C",
      "350C",
      "350C",
      "350C",
      "350C",
      "350C",
      "350C",
      "350C",
      "350C",
      "350C",
      "350C",
      "350C",
      "350C",
      "350C",
      "350C",
      "350C",
      "350C",
      "350C",
      "350C",
      "350C",
      "350C",
      "350C",
      "350C",
      "350C",
      "350C",
      "350C",
      "350C",
      "350C",
      "350C",
      "350C",
      "350C",
      "350C",
      "350C",
      "350C",
      "350C",
      "350C",
      "350C",
      "350C",
      "350C",
      "350C",
      "350C",
      "350C",
      "350C",
      "350C",
      "350C",
      "350C",
      "350C",
      "350C",
      "350C",
      "350C",
      "350C",
      "350C",
      "350C",
      "350C",
      "350C",
      "350C",
      "350C",
      "350C",
      "350C",
      "350C",
      "350C",
      "350C",
      "350C",
      "350C",
      "350C",
      "350C",
      "350C",
      "350C",
      "350C",
      "350C",
      "350C",
      "350C",
      "350C",
      "350C",
      "350C",
      "347",
      "322",
      "311",
      "287",
      "266",
      "244",
      "225",
      "199",
      "177",
      "159",
      "140",
      "128",
      "123",
      "110",
      "110",
      "110",
      "110",
      "110",
      "110",
      "110",
      "110",
      "108",
      "106",
      "093",
      "085",
      "078",
      "071",
      "066",
      "048",
      "043",
      "040",
      "040",
      "040",
      "040",
      "040",
      "040",
      "036",
      "031",
      "024",
      "020",
      "015",
      "013",
      "006"
    ],
    "swim:geom": "path",
    "swim:speeds": [
      511,
      514,
      515,
      514,
      515,
      515,
      512,
      512,
      510,
      510,
      506,
      503,
      503,
      503,
      504,
      503,
      503,
      502,
      502,
      501,
      501,
      501,
      501,
      501,
      501,
      500,
      499,
      497,
      496,
      495,
      495,
      496,
      497,
      498,
      500,
      504,
      506,
      508,
      508,
      508,
      508,
      508,
      507,
      507,
      507,
      505,
      503,
      502,
      501,
      501,
      501,
      500,
      499,
      500,
      503,
      506,
      509,
      511,
      512,
      505,
      504,
      504,
      504,
      504,
      505,
      504,
      505,
      505,
      507,
      507,
      507,
      507,
      507,
      507,
      507,
      507,
      507,
      506,
      506,
      506,
      506,
      505,
      504,
      504,
      503,
      502,
      502,
      503,
      503,
      504,
      504,
      504,
      505,
      505,
      505,
      505,
      506,
      506,
      506,
      507,
      507,
      507,
      507,
      506,
      504,
      503,
      501,
      500,
      499,
      498,
      499,
      500,
      502,
      503,
      504,
      505,
      505,
      505,
      505,
      506,
      506,
      503,
      507,
      503,
      508,
      504,
      508,
      507,
      508,
      508,
      508,
      507,
      508,
      509,
      509,
      509,
      509,
      509,
      508,
      508,
      508,
      508,
      508,
      509,
      508,
      509,
      509,
      510,
      510,
      510,
      510,
      510,
      509,
      509,
      509,
      509,
      509,
      509,
      510,
      509,
      508,
      508,
      508,
      508,
      509,
      510,
      511,
      512,
      513,
      513,
      513,
      514,
      514,
      515,
      516,
      516,
      516,
      515,
      514,
      513,
      513,
      514,
      514,
      514,
      513,
      512,
      512,
      512,
      512,
      512,
      511,
      511,
      512,
      513,
      514,
      507,
      506,
      493,
      480,
      455,
      435,
      432,
      423,
      405,
      381,
      381,
      367,
      370,
      368,
      369,
      367,
      364,
      366,
      365,
      334,
      320,
      305,
      300,
      298,
      279,
      279,
      270,
      272,
      247,
      249,
      229,
      231,
      228,
      230,
      216,
      209,
      193,
      188,
      144,
      143,
      140
    ],
    "swim:timestamps": [
      1784880558,
      1784880612,
      1784880672,
      1784880678,
      1784880738,
      1784880792,
      1784880852,
      1784880858,
      1784880912,
      1784880919,
      1784880979,
      1784881039,
      1784881092,
      1784881099,
      1784881152,
      1784881212,
      1784881219,
      1784881272,
      1784881279,
      1784881339,
      1784881392,
      1784881399,
      1784881452,
      1784881459,
      1784881513,
      1784881573,
      1784881633,
      1784881693,
      1784881753,
      1784881813,
      1784881873,
      1784881933,
      1784881993,
      1784882053,
      1784882113,
      1784882173,
      1784882245,
      1784882305,
      1784882365,
      1784882425,
      1784882485,
      1784882545,
      1784882605,
      1784882665,
      1784882725,
      1784882785,
      1784882845,
      1784882905,
      1784882965,
      1784883025,
      1784883085,
      1784883145,
      1784883205,
      1784883265,
      1784883325,
      1784883385,
      1784883446,
      1784883506,
      1784883566,
      1784883626,
      1784883686,
      1784883746,
      1784883806,
      1784883866,
      1784883926,
      1784883986,
      1784884008,
      1784884046,
      1784884068,
      1784884106,
      1784884128,
      1784884166,
      1784884188,
      1784884226,
      1784884249,
      1784884286,
      1784884309,
      1784884346,
      1784884369,
      1784884406,
      1784884429,
      1784884466,
      1784884489,
      1784884526,
      1784884549,
      1784884586,
      1784884646,
      1784884669,
      1784884706,
      1784884729,
      1784884766,
      1784884789,
      1784884826,
      1784884849,
      1784884886,
      1784884909,
      1784884946,
      1784884969,
      1784885006,
      1784885029,
      1784885066,
      1784885089,
      1784885149,
      1784885209,
      1784885269,
      1784885329,
      1784885389,
      1784885449,
      1784885509,
      1784885569,
      1784885629,
      1784885689,
      1784885749,
      1784885809,
      1784885869,
      1784885929,
      1784885989,
      1784886049,
      1784886109,
      1784886169,
      1784886229,
      1784886280,
      1784886290,
      1784886340,
      1784886350,
      1784886400,
      1784886410,
      1784886460,
      1784886470,
      1784886520,
      1784886530,
      1784886580,
      1784886640,
      1784886650,
      1784886710,
      1784886760,
      1784886770,
      1784886820,
      1784886830,
      1784886880,
      1784886890,
      1784886940,
      1784886950,
      1784887000,
      1784887010,
      1784887060,
      1784887070,
      1784887120,
      1784887130,
      1784887180,
      1784887190,
      1784887240,
      1784887250,
      1784887310,
      1784887360,
      1784887421,
      1784887481,
      1784887541,
      1784887661,
      1784887721,
      1784887781,
      1784887841,
      1784887901,
      1784887961,
      1784888021,
      1784888081,
      1784888141,
      1784888201,
      1784888261,
      1784888321,
      1784888381,
      1784888441,
      1784888501,
      1784888561,
      1784888621,
      1784888681,
      1784888741,
      1784888801,
      1784888861,
      1784888921,
      1784889043,
      1784889102,
      1784889162,
      1784889224,
      1784889284,
      1784889342,
      1784889404,
      1784889464,
      1784889522,
      1784889583,
      1784889643,
      1784889702,
      1784889764,
      1784889824,
      1784889882,
      1784889944,
      1784890004,
      1784890064,
      1784890124,
      1784890184,
      1784890244,
      1784890304,
      1784890364,
      1784890425,
      1784890461,
      1784890485,
      1784890521,
      1784890545,
      1784890582,
      1784890605,
      1784890665,
      1784890707,
      1784890725,
      1784890785,
      1784890822,
      1784890845,
      1784890905,
      1784890936,
      1784890965,
      1784891007,
      1784891025,
      1784891068,
      1784891086,
      1784891122,
      1784891146,
      1784891182,
      1784891206,
      1784891236,
      1784891266,
      1784891296,
      1784891326,
      1784891362,
      1784891386,
      1784891422,
      1784891446,
      1784891506
    ],
    "wof:geomhash": "3a2555c31cfe0827a05fc4be820bd2fa",
    "wof:id": 2031947153,
    "wof:repo": "sfomuseum-data-flights-2026-07"
  },
  "bbox": [
    -119.09916666666666,
    39.711111111111116,
    -87.53305555555555,
    42.56361111111111
  ],
  "geometry": {"coordinates":[[-119.09916666666666,39.711111111111116],[-118.95138888888889,39.796388888888885],[-118.79694444444445,39.882777777777775],[-118.79694444444445,39.882777777777775],[-118.63194444444444,39.95194444444445],[-118.46833333333333,40.01861111111111],[-118.30777777777777,40.083333333333336],[-118.30222222222221,40.08583333333333],[-118.14416666666668,40.149166666666666],[-118.13833333333334,40.151666666666664],[-117.97416666666666,40.213055555555556],[-117.80777777777777,40.26277777777778],[-117.64166666666668,40.3125],[-117.6388888888889,40.31333333333333],[-117.46916666666667,40.36361111111111],[-117.30027777777778,40.413333333333334],[-117.29722222222222,40.41416666666667],[-117.12722222222222,40.46388888888889],[-117.12472222222222,40.46472222222223],[-116.94972222222222,40.51555555555556],[-116.81055555555555,40.55555555555555],[-116.77388888888889,40.56638888888889],[-116.63833333333334,40.60527777777778],[-116.60194444444444,40.61555555555556],[-116.46527777777779,40.654444444444444],[-116.29472222222222,40.70277777777778],[-116.12472222222222,40.75055555555556],[-115.9538888888889,40.79833333333333],[-115.78416666666666,40.845555555555556],[-115.61388888888888,40.8925],[-115.45361111111112,40.9525],[-115.30166666666666,41.03138888888889],[-115.15111111111112,41.108333333333334],[-114.99694444444445,41.18694444444444],[-114.84388888888888,41.26444444444444],[-114.68861111111111,41.34138888888889],[-114.52916666666667,41.41861111111111],[-114.33916666666666,41.51],[-114.18138888888889,41.585],[-114.02,41.65611111111111],[-113.84194444444444,41.70611111111111],[-113.6588888888889,41.730000000000004],[-113.4738888888889,41.751666666666665],[-113.28361111111111,41.77333333333333],[-113.0975,41.79416666666666],[-112.91305555555556,41.81444444444444],[-112.7286111111111,41.83444444444444],[-112.52222222222223,41.85638888888889],[-112.33777777777777,41.87583333333333],[-112.15194444444445,41.894999999999996],[-111.99027777777778,41.91138888888889],[-111.80805555555555,41.92944444444444],[-111.62444444444444,41.9475],[-111.4375,41.96555555555556],[-111.25166666666667,41.98305555555556],[-111.06138888888889,42.00083333333333],[-110.87305555555555,42.018055555555556],[-110.68194444444445,42.03527777777778],[-110.4925,42.051944444444445],[-110.30583333333333,42.068333333333335],[-110.11972222222222,42.08388888888889],[-109.93222222222222,42.099444444444444],[-109.74194444444444,42.115],[-109.55472222222222,42.13],[-109.36583333333333,42.14472222222222],[-109.17722222222223,42.159166666666664],[-109.10555555555555,42.164722222222224],[-108.98972222222223,42.17333333333333],[-108.91333333333334,42.178888888888885],[-108.79833333333333,42.18722222222222],[-108.7238888888889,42.192499999999995],[-108.60749999999999,42.200833333333335],[-108.53555555555555,42.20583333333334],[-108.42,42.21388888888889],[-108.34388888888888,42.219166666666666],[-108.23,42.22694444444445],[-108.15694444444445,42.23166666666667],[-108.0425,42.239444444444445],[-107.96694444444445,42.24444444444445],[-107.85444444444444,42.251666666666665],[-107.77944444444444,42.256388888888885],[-107.66444444444446,42.26361111111111],[-107.58972222222222,42.268055555555556],[-107.47833333333334,42.275],[-107.40416666666667,42.279444444444444],[-107.28972222222222,42.28611111111111],[-107.10916666666667,42.29666666666667],[-107.02833333333334,42.30138888888889],[-106.915,42.30777777777777],[-106.83749999999999,42.31222222222222],[-106.72583333333334,42.31805555555556],[-106.64944444444446,42.32222222222222],[-106.52055555555556,42.32916666666667],[-106.44583333333334,42.33305555555556],[-106.33166666666666,42.33888888888889],[-106.25805555555556,42.3425],[-106.1438888888889,42.34805555555556],[-106.06916666666666,42.35194444444445],[-105.9525,42.3575],[-105.87666666666667,42.36083333333333],[-105.76333333333334,42.36611111111111],[-105.68694444444445,42.36944444444445],[-105.5,42.37777777777778],[-105.31138888888889,42.38583333333333],[-105.12305555555555,42.39333333333333],[-104.93777777777778,42.40083333333333],[-104.75194444444445,42.407777777777774],[-104.57,42.41444444444444],[-104.38694444444445,42.42055555555555],[-104.20222222222222,42.42666666666666],[-104.015,42.4325],[-103.8275,42.43805555555555],[-103.63916666666667,42.44333333333333],[-103.45083333333334,42.44833333333333],[-103.25944444444444,42.45305555555556],[-103.07,42.45722222222223],[-102.88138888888888,42.46138888888889],[-102.69166666666668,42.465],[-102.5038888888889,42.468611111111116],[-102.31194444444444,42.47138888888889],[-102.12277777777777,42.474444444444444],[-101.94805555555556,42.475833333333334],[-101.9325,42.47694444444445],[-101.75888888888889,42.47972222222222],[-101.72361111111111,42.47916666666667],[-101.56638888888888,42.48083333333334],[-101.53055555555555,42.48083333333334],[-101.3736111111111,42.48111111111111],[-101.34083333333332,42.4825],[-101.18138888888889,42.48222222222223],[-101.14777777777779,42.48361111111111],[-100.99027777777778,42.48444444444444],[-100.79944444444445,42.485],[-100.7675,42.485],[-100.57416666666666,42.48527777777778],[-100.41777777777779,42.48527777777778],[-100.38416666666667,42.48527777777778],[-100.22972222222222,42.485],[-100.19111111111111,42.484722222222224],[-100.03944444444444,42.48416666666667],[-100.00166666666667,42.48416666666667],[-99.84861111111111,42.483333333333334],[-99.80833333333334,42.48305555555556],[-99.65583333333333,42.481944444444444],[-99.61777777777777,42.48166666666667],[-99.48472222222222,42.480555555555554],[-99.42611111111111,42.480000000000004],[-99.29444444444444,42.478611111111114],[-99.23333333333333,42.47805555555556],[-99.10027777777778,42.47638888888889],[-99.04305555555555,42.47555555555556],[-98.91111111111111,42.473888888888894],[-98.85333333333332,42.473055555555554],[-98.66611111111112,42.47138888888889],[-98.52722222222222,42.4775],[-98.33749999999999,42.48555555555556],[-98.14500000000001,42.49388888888889],[-97.95527777777778,42.50111111111111],[-97.5736111111111,42.51555555555556],[-97.38222222222221,42.52194444444444],[-97.19083333333333,42.52833333333333],[-96.99833333333333,42.53444444444444],[-96.80888888888889,42.54],[-96.61555555555555,42.54416666666666],[-96.4225,42.5475],[-96.23111111111112,42.550555555555555],[-96.03666666666666,42.55333333333333],[-95.845,42.55583333333333],[-95.64972222222222,42.55777777777777],[-95.45722222222223,42.55972222222222],[-95.2625,42.56111111111111],[-95.07,42.56222222222222],[-94.87666666666667,42.56305555555555],[-94.67972222222222,42.56333333333333],[-94.47805555555556,42.56361111111111],[-94.28111111111112,42.56333333333333],[-94.09027777777777,42.562777777777775],[-93.89527777777778,42.56194444444444],[-93.70111111111112,42.56083333333333],[-93.51,42.55916666666666],[-93.12666666666667,42.555277777777775],[-92.93027777777779,42.55027777777777],[-92.73916666666666,42.544999999999995],[-92.54666666666667,42.53944444444444],[-92.35555555555555,42.53361111111111],[-92.16472222222222,42.527499999999996],[-91.97361111111111,42.52472222222222],[-91.78472222222221,42.52583333333333],[-91.59416666666667,42.526666666666664],[-91.40527777777778,42.52722222222222],[-91.21694444444445,42.52722222222222],[-91.02305555555556,42.526944444444446],[-90.83194444444445,42.52638888888889],[-90.64027777777778,42.525555555555556],[-90.44416666666667,42.524166666666666],[-90.25777777777778,42.5225],[-90.06583333333333,42.521388888888886],[-89.86416666666666,42.519444444444446],[-89.68666666666667,42.5075],[-89.51722222222222,42.48694444444445],[-89.35416666666666,42.46666666666667],[-89.19611111111111,42.447222222222216],[-89.04166666666667,42.42777777777778],[-88.89166666666668,42.40888888888889],[-88.78333333333333,42.4],[-88.75194444444445,42.39111111111111],[-88.65,42.38333333333333],[-88.61583333333333,42.37361111111111],[-88.51666666666667,42.35],[-88.48722222222223,42.33888888888889],[-88.35388888888889,42.28333333333333],[-88.26666666666667,42.25],[-88.23416666666667,42.23305555555556],[-88.11638888888888,42.18416666666666],[-88.03333333333333,42.15],[-88.00166666666667,42.143055555555556],[-87.9,42.106944444444444],[-87.85,42.083333333333336],[-87.79305555555555,42.09277777777778],[-87.71666666666667,42.1],[-87.68777777777778,42.09916666666667],[-87.61666666666666,42.1],[-87.5886111111111,42.105000000000004],[-87.53333333333333,42.083333333333336],[-87.53305555555555,42.05916666666666],[-87.53333333333333,42.016666666666666],[-87.56361111111111,42.00472222222222],[-87.6,41.983333333333334],[-87.64277777777778,41.988055555555555],[-87.68333333333334,41.983333333333334],[-87.72194444444445,41.988055555555555],[-87.76666666666667,41.983333333333334],[-87.79444444444444,41.98833333333334],[-87.83333333333333,41.983333333333334],[-87.84916666666666,41.98833333333334],[-87.89694444444446,41.98833333333334]],"type":"LineString"}
}
