{
  "id": 2031955197,
  "type": "Feature",
  "properties": {
    "geom:area": 0,
    "geom:bbox": "-122.890278,37.300000,-70.807778,43.585278",
    "geom:latitude": 42.27236314089917,
    "geom:longitude": -98.33370725385583,
    "src:alt_label": "swim-path",
    "src:geom": "swim",
    "swim:altitudes": [
      "006",
      "021",
      "034",
      "054",
      "083",
      "103",
      "112",
      "126",
      "144",
      "160",
      "191",
      "239",
      "248",
      "256",
      "266",
      "274",
      "281",
      "298",
      "311",
      "319C",
      "320C",
      "320C",
      "320C",
      "320C",
      "320C",
      "320C",
      "320C",
      "320C",
      "320C",
      "320C",
      "320C",
      "320C",
      "320C",
      "320C",
      "320C",
      "320C",
      "320C",
      "320C",
      "320C",
      "320C",
      "320C",
      "320C",
      "320C",
      "320C",
      "320C",
      "320C",
      "320C",
      "320C",
      "320C",
      "320C",
      "320C",
      "320C",
      "320C",
      "320C",
      "320C",
      "320C",
      "320C",
      "320C",
      "320C",
      "320C",
      "320C",
      "320C",
      "320C",
      "320C",
      "320C",
      "320C",
      "320C",
      "320C",
      "320C",
      "320C",
      "320C",
      "320C",
      "320C",
      "320C",
      "320C",
      "320C",
      "320C",
      "321C",
      "320C",
      "320C",
      "320C",
      "320C",
      "320C",
      "320C",
      "321C",
      "321C",
      "320C",
      "320C",
      "320C",
      "320C",
      "320C",
      "320C",
      "320C",
      "320C",
      "320C",
      "320C",
      "320C",
      "320C",
      "320C",
      "320C",
      "320C",
      "320C",
      "320C",
      "320C",
      "320C",
      "320C",
      "320C",
      "320C",
      "320C",
      "320C",
      "320C",
      "320C",
      "320C",
      "320C",
      "320C",
      "320C",
      "320C",
      "320C",
      "320C",
      "320C",
      "320C",
      "320C",
      "320",
      "324",
      "335",
      "340C",
      "340C",
      "340C",
      "340C",
      "340C",
      "340C",
      "340C",
      "340C",
      "340C",
      "340C",
      "340C",
      "340C",
      "340C",
      "340C",
      "340C",
      "340C",
      "340C",
      "340C",
      "340C",
      "340C",
      "340C",
      "340C",
      "340C",
      "340C",
      "340C",
      "340C",
      "340C",
      "340C",
      "340C",
      "340C",
      "340C",
      "340C",
      "340C",
      "341C",
      "340C",
      "340C",
      "340C",
      "340C",
      "340C",
      "340C",
      "340C",
      "340C",
      "340C",
      "340C",
      "340C",
      "340C",
      "340C",
      "340C",
      "340C",
      "340C",
      "340C",
      "340C",
      "340C",
      "340C",
      "340C",
      "340C",
      "340C",
      "340C",
      "340C",
      "340C",
      "340C",
      "340C",
      "340C",
      "340C",
      "340C",
      "340C",
      "340C",
      "341C",
      "341C",
      "341C",
      "340C",
      "340C",
      "340C",
      "340C",
      "340C",
      "340C",
      "340C",
      "340C",
      "340C",
      "340C",
      "340C",
      "340C",
      "340C",
      "340C",
      "340C",
      "341C",
      "340C",
      "340C",
      "340C",
      "340C",
      "340C",
      "340C",
      "340C",
      "340C",
      "340C",
      "340C",
      "340C",
      "340C",
      "340C",
      "341C",
      "340C",
      "340C",
      "340C",
      "340C",
      "340C",
      "340C",
      "340C",
      "340C",
      "340C",
      "340C",
      "340C",
      "340C",
      "340C",
      "340C",
      "340C",
      "340C",
      "340C",
      "340C",
      "340C",
      "340C",
      "340C",
      "340C",
      "340C",
      "340C",
      "340C",
      "340C",
      "340C",
      "340C",
      "340C",
      "340",
      "347",
      "353",
      "359C",
      "360C",
      "360C",
      "360C",
      "360C",
      "360C",
      "360C",
      "360C",
      "360C",
      "360C",
      "360C",
      "360C",
      "360C",
      "360C",
      "360C",
      "360C",
      "360C",
      "360C",
      "360C",
      "360C",
      "360C",
      "360C",
      "360C",
      "360C",
      "360C",
      "360C",
      "360C",
      "360C",
      "360C",
      "360C",
      "360C",
      "361C",
      "361C",
      "360C",
      "360C",
      "360C",
      "360C",
      "360C",
      "360C",
      "360C",
      "360C",
      "360C",
      "361C",
      "361C",
      "361C",
      "360C",
      "360C",
      "360C",
      "360C",
      "360C",
      "360C",
      "361C",
      "360C",
      "360C",
      "360C",
      "360C",
      "360C",
      "360C",
      "360C",
      "360C",
      "360C",
      "360C",
      "360C",
      "360C",
      "360C",
      "360C",
      "360C",
      "360",
      "360",
      "351",
      "344",
      "342C",
      "340C",
      "340C",
      "340C",
      "340C",
      "340C",
      "340C",
      "340C",
      "340C",
      "340C",
      "340C",
      "340C",
      "340C",
      "340C",
      "340C",
      "341C",
      "340C",
      "340C",
      "340C",
      "340C",
      "340C",
      "340C",
      "340C",
      "340C",
      "340C",
      "340C",
      "340",
      "329",
      "317",
      "303",
      "290",
      "275",
      "265",
      "254",
      "243",
      "234",
      "224",
      "213",
      "204",
      "194",
      "190",
      "190",
      "190",
      "190",
      "180",
      "173",
      "170",
      "167",
      "156",
      "150",
      "140",
      "135",
      "121",
      "115",
      "112C",
      "110",
      "110C",
      "110",
      "110C",
      "110",
      "110C",
      "110",
      "110C",
      "110",
      "110C",
      "110",
      "109C",
      "103",
      "096",
      "093",
      "085",
      "081",
      "067",
      "060",
      "060",
      "060",
      "060",
      "060",
      "059",
      "054",
      "050",
      "042",
      "040",
      "040",
      "032",
      "028",
      "027",
      "021",
      "019",
      "014",
      "013",
      "007",
      "006",
      "001"
    ],
    "swim:geom": "path",
    "swim:speeds": [
      178,
      216,
      261,
      275,
      270,
      279,
      325,
      358,
      368,
      376,
      388,
      414,
      419,
      426,
      429,
      430,
      433,
      420,
      406,
      397,
      396,
      394,
      394,
      394,
      394,
      394,
      395,
      394,
      396,
      395,
      396,
      396,
      396,
      397,
      398,
      398,
      399,
      399,
      400,
      400,
      400,
      400,
      400,
      400,
      400,
      402,
      404,
      404,
      403,
      403,
      403,
      403,
      403,
      404,
      404,
      405,
      414,
      415,
      416,
      417,
      418,
      418,
      418,
      419,
      419,
      419,
      418,
      417,
      416,
      417,
      421,
      428,
      419,
      418,
      418,
      418,
      419,
      419,
      419,
      419,
      417,
      417,
      417,
      417,
      417,
      417,
      417,
      416,
      415,
      414,
      414,
      414,
      413,
      413,
      413,
      413,
      414,
      414,
      415,
      415,
      416,
      416,
      416,
      415,
      415,
      416,
      420,
      419,
      417,
      417,
      417,
      418,
      417,
      419,
      418,
      418,
      417,
      417,
      417,
      422,
      427,
      426,
      425,
      424,
      423,
      421,
      419,
      417,
      415,
      414,
      413,
      411,
      409,
      407,
      402,
      400,
      400,
      401,
      402,
      403,
      403,
      402,
      401,
      399,
      398,
      397,
      397,
      398,
      398,
      399,
      401,
      402,
      403,
      403,
      404,
      405,
      406,
      408,
      410,
      410,
      408,
      407,
      407,
      408,
      410,
      414,
      411,
      413,
      414,
      412,
      410,
      408,
      408,
      407,
      408,
      411,
      409,
      409,
      410,
      410,
      410,
      410,
      410,
      410,
      411,
      411,
      411,
      412,
      411,
      413,
      414,
      416,
      416,
      417,
      417,
      417,
      416,
      415,
      414,
      414,
      412,
      411,
      410,
      410,
      409,
      409,
      408,
      408,
      410,
      411,
      413,
      414,
      413,
      410,
      408,
      407,
      400,
      400,
      400,
      402,
      403,
      402,
      404,
      407,
      410,
      406,
      403,
      407,
      407,
      405,
      403,
      402,
      402,
      402,
      403,
      404,
      405,
      405,
      404,
      404,
      405,
      407,
      408,
      410,
      410,
      409,
      410,
      413,
      413,
      413,
      414,
      415,
      415,
      416,
      415,
      414,
      414,
      413,
      413,
      412,
      411,
      410,
      410,
      411,
      412,
      413,
      414,
      415,
      416,
      417,
      418,
      417,
      418,
      419,
      419,
      420,
      420,
      419,
      417,
      417,
      419,
      420,
      420,
      419,
      420,
      421,
      422,
      422,
      422,
      422,
      422,
      422,
      422,
      420,
      419,
      414,
      416,
      414,
      414,
      415,
      416,
      418,
      418,
      418,
      418,
      418,
      416,
      416,
      415,
      414,
      414,
      414,
      414,
      415,
      415,
      415,
      415,
      415,
      415,
      414,
      414,
      414,
      414,
      413,
      413,
      413,
      411,
      411,
      412,
      412,
      411,
      412,
      411,
      411,
      412,
      413,
      412,
      410,
      409,
      405,
      403,
      402,
      403,
      434,
      437,
      437,
      437,
      437,
      437,
      438,
      438,
      438,
      416,
      413,
      411,
      382,
      378,
      381,
      356,
      333,
      332,
      332,
      331,
      329,
      327,
      325,
      321,
      315,
      311,
      311,
      311,
      311,
      311,
      310,
      311,
      308,
      309,
      305,
      309,
      308,
      309,
      298,
      281,
      266,
      256,
      249,
      252,
      250,
      251,
      246,
      249,
      248,
      248,
      248,
      241,
      241,
      242,
      237,
      240,
      237,
      233,
      232,
      251,
      248,
      246,
      247,
      252,
      250,
      246,
      241,
      232,
      192,
      186,
      171,
      162,
      151,
      142,
      140,
      136,
      137,
      134,
      136
    ],
    "swim:timestamps": [
      1784932144,
      1784932210,
      1784932270,
      1784932330,
      1784932402,
      1784932463,
      1784932523,
      1784932583,
      1784932643,
      1784932703,
      1784932823,
      1784933063,
      1784933123,
      1784933184,
      1784933244,
      1784933304,
      1784933364,
      1784933424,
      1784933484,
      1784933544,
      1784933604,
      1784933664,
      1784933724,
      1784933784,
      1784933844,
      1784934022,
      1784934037,
      1784934082,
      1784934097,
      1784934142,
      1784934157,
      1784934202,
      1784934262,
      1784934322,
      1784934337,
      1784934382,
      1784934397,
      1784934442,
      1784934457,
      1784934517,
      1784934563,
      1784934623,
      1784934638,
      1784934683,
      1784934698,
      1784934818,
      1784934878,
      1784934923,
      1784934938,
      1784934983,
      1784934998,
      1784935043,
      1784935118,
      1784935163,
      1784935224,
      1784935284,
      1784936065,
      1784936125,
      1784936185,
      1784936305,
      1784936365,
      1784936425,
      1784936485,
      1784936545,
      1784936605,
      1784936665,
      1784936726,
      1784936786,
      1784936846,
      1784936966,
      1784937146,
      1784937253,
      1784937370,
      1784937386,
      1784937447,
      1784937507,
      1784937567,
      1784937627,
      1784937674,
      1784937687,
      1784937747,
      1784937807,
      1784937854,
      1784937867,
      1784937914,
      1784937927,
      1784937974,
      1784937987,
      1784938047,
      1784938094,
      1784938107,
      1784938168,
      1784938215,
      1784938228,
      1784938275,
      1784938288,
      1784938335,
      1784938348,
      1784938395,
      1784938408,
      1784938455,
      1784938515,
      1784938575,
      1784938696,
      1784938756,
      1784938876,
      1784939116,
      1784939173,
      1784939357,
      1784939417,
      1784939477,
      1784939593,
      1784939653,
      1784939714,
      1784939777,
      1784939834,
      1784939958,
      1784940014,
      1784940074,
      1784940194,
      1784940314,
      1784940374,
      1784940435,
      1784940495,
      1784940559,
      1784940615,
      1784940675,
      1784940735,
      1784940855,
      1784940975,
      1784941156,
      1784941216,
      1784941276,
      1784941336,
      1784941456,
      1784941516,
      1784941576,
      1784941636,
      1784941696,
      1784941756,
      1784941816,
      1784941877,
      1784941937,
      1784941997,
      1784942057,
      1784942129,
      1784942189,
      1784942249,
      1784942309,
      1784942369,
      1784942429,
      1784942489,
      1784942549,
      1784942610,
      1784942670,
      1784942730,
      1784942790,
      1784942850,
      1784942910,
      1784942970,
      1784943030,
      1784943090,
      1784943150,
      1784943210,
      1784943270,
      1784943310,
      1784943369,
      1784943391,
      1784943430,
      1784943451,
      1784943511,
      1784943571,
      1784943610,
      1784943631,
      1784943670,
      1784943729,
      1784943751,
      1784943790,
      1784943850,
      1784943871,
      1784943909,
      1784943931,
      1784943969,
      1784943991,
      1784944031,
      1784944051,
      1784944090,
      1784944112,
      1784944150,
      1784944172,
      1784944232,
      1784944270,
      1784944292,
      1784944330,
      1784944352,
      1784944391,
      1784944412,
      1784944451,
      1784944472,
      1784944510,
      1784944532,
      1784944570,
      1784944592,
      1784944630,
      1784944652,
      1784944690,
      1784944712,
      1784944812,
      1784944872,
      1784944932,
      1784944992,
      1784945052,
      1784945112,
      1784945172,
      1784945232,
      1784945291,
      1784945353,
      1784945473,
      1784945531,
      1784945593,
      1784945653,
      1784945712,
      1784945832,
      1784945893,
      1784945952,
      1784946012,
      1784946072,
      1784946132,
      1784946192,
      1784946252,
      1784946314,
      1784946373,
      1784946433,
      1784946493,
      1784946553,
      1784946613,
      1784946673,
      1784946733,
      1784946793,
      1784946853,
      1784946913,
      1784946973,
      1784947033,
      1784947094,
      1784947154,
      1784947214,
      1784947274,
      1784947394,
      1784947454,
      1784947514,
      1784947574,
      1784947634,
      1784947694,
      1784947754,
      1784947814,
      1784947875,
      1784947935,
      1784947995,
      1784948055,
      1784948115,
      1784948175,
      1784948235,
      1784948295,
      1784948355,
      1784948415,
      1784948475,
      1784948535,
      1784948596,
      1784948656,
      1784948716,
      1784948776,
      1784948836,
      1784948896,
      1784948956,
      1784949016,
      1784949076,
      1784949136,
      1784949196,
      1784949316,
      1784949437,
      1784949497,
      1784949557,
      1784949617,
      1784949677,
      1784949737,
      1784949857,
      1784949871,
      1784949917,
      1784949931,
      1784949977,
      1784949991,
      1784950037,
      1784950051,
      1784950098,
      1784950171,
      1784950218,
      1784950231,
      1784950278,
      1784950291,
      1784950338,
      1784950412,
      1784950458,
      1784950518,
      1784950532,
      1784950578,
      1784950592,
      1784950638,
      1784950652,
      1784950712,
      1784950758,
      1784950772,
      1784950818,
      1784950832,
      1784950879,
      1784950939,
      1784950952,
      1784950999,
      1784951012,
      1784951072,
      1784951119,
      1784951132,
      1784951179,
      1784951192,
      1784951253,
      1784951299,
      1784951313,
      1784951373,
      1784951419,
      1784951433,
      1784951493,
      1784951553,
      1784951613,
      1784951660,
      1784951673,
      1784951733,
      1784951793,
      1784951853,
      1784951913,
      1784951973,
      1784952033,
      1784952093,
      1784952153,
      1784952214,
      1784952274,
      1784952334,
      1784952394,
      1784952454,
      1784952514,
      1784952574,
      1784952634,
      1784952694,
      1784952754,
      1784952814,
      1784952874,
      1784952934,
      1784952994,
      1784953054,
      1784953114,
      1784953174,
      1784953234,
      1784953295,
      1784953355,
      1784953415,
      1784953475,
      1784953535,
      1784953595,
      1784953655,
      1784953715,
      1784953775,
      1784953835,
      1784953895,
      1784953955,
      1784954015,
      1784954054,
      1784954075,
      1784954090,
      1784954135,
      1784954150,
      1784954195,
      1784954210,
      1784954255,
      1784954270,
      1784954315,
      1784954330,
      1784954375,
      1784954391,
      1784954436,
      1784954450,
      1784954496,
      1784954511,
      1784954556,
      1784954570,
      1784954616,
      1784954631,
      1784954676,
      1784954691,
      1784954736,
      1784954745,
      1784954796,
      1784954805,
      1784954871,
      1784954916,
      1784954931,
      1784954976,
      1784954997,
      1784955036,
      1784955057,
      1784955096,
      1784955111,
      1784955156,
      1784955177,
      1784955216,
      1784955276,
      1784955336,
      1784955351,
      1784955396,
      1784955411,
      1784955456,
      1784955465,
      1784955517,
      1784955531,
      1784955577
    ],
    "wof:geomhash": "6d38723abb7a6d5098ee73249ca40d2a",
    "wof:id": 2031955197,
    "wof:repo": "sfomuseum-data-flights-2026-07"
  },
  "bbox": [
    -122.89027777777778,
    37.3,
    -70.80777777777777,
    43.58527777777778
  ],
  "geometry": {"coordinates":[[-71,42.38333333333333],[-70.96694444444445,42.43583333333333],[-70.87944444444443,42.45666666666667],[-70.80777777777777,42.49583333333334],[-70.83611111111111,42.583333333333336],[-70.9238888888889,42.62638888888889],[-71.02472222222222,42.669444444444444],[-71.13944444444445,42.720555555555556],[-71.2575,42.77305555555555],[-71.39833333333334,42.79416666666666],[-71.68861111111111,42.82694444444445],[-72.28722222222223,42.890277777777776],[-72.44638888888889,42.906666666666666],[-72.60555555555555,42.922777777777775],[-72.76388888888889,42.93861111111111],[-72.92750000000001,42.95472222222222],[-73.09888888888888,42.97138888888889],[-73.25472222222223,42.986111111111114],[-73.4025,42.99611111111111],[-73.55138888888888,42.99944444444444],[-73.70027777777779,43.003055555555555],[-73.84916666666666,43.006388888888885],[-73.99944444444445,43.009166666666665],[-74.14750000000001,43.01222222222222],[-74.29805555555555,43.015277777777776],[-74.7475,43.035555555555554],[-74.77638888888889,43.03722222222222],[-74.91277777777778,43.04277777777778],[-74.92722222222223,43.04333333333333],[-75.0475,43.04805555555556],[-75.0775,43.049166666666665],[-75.19916666666667,43.053888888888885],[-75.35472222222222,43.059444444444445],[-75.50416666666666,43.06333333333333],[-75.53555555555555,43.064166666666665],[-75.65972222222223,43.0675],[-75.6888888888889,43.068333333333335],[-75.81138888888889,43.07138888888889],[-75.84083333333332,43.07222222222222],[-75.99166666666667,43.075833333333335],[-76.11722222222221,43.07833333333333],[-76.26805555555555,43.08166666666667],[-76.2975,43.08222222222223],[-76.41916666666667,43.084722222222226],[-76.44972222222222,43.08527777777778],[-76.76222222222222,43.07888888888889],[-76.91361111111112,43.05777777777777],[-77.03777777777778,43.06361111111111],[-77.06611111111111,43.065],[-77.18916666666667,43.071111111111115],[-77.21861111111112,43.07277777777778],[-77.3411111111111,43.07944444444445],[-77.52277777777778,43.08861111111111],[-77.64777777777779,43.094722222222224],[-77.795,43.10138888888889],[-77.94777777777779,43.10861111111111],[-79.96861111111112,43.18416666666666],[-80.13555555555556,43.18861111111111],[-80.295,43.19305555555555],[-80.6125,43.200833333333335],[-80.76944444444445,43.20416666666667],[-80.92972222222222,43.20722222222223],[-81.08638888888889,43.21],[-81.24916666666667,43.213055555555556],[-81.4088888888889,43.215833333333336],[-81.57638888888889,43.218333333333334],[-81.73361111111112,43.220555555555556],[-81.89111111111112,43.222500000000004],[-82.05027777777778,43.22416666666667],[-82.36749999999999,43.22694444444445],[-82.84805555555555,43.22944444444445],[-83.11638888888888,43.2275],[-83.43361111111112,43.22972222222222],[-83.48333333333333,43.22944444444445],[-83.63777777777779,43.22888888888889],[-83.79555555555555,43.22805555555556],[-83.95472222222223,43.2275],[-84.1,43.22638888888889],[-84.22777777777777,43.22527777777778],[-84.25777777777778,43.22527777777778],[-84.41777777777779,43.22361111111111],[-84.57527777777777,43.22166666666667],[-84.7038888888889,43.22],[-84.73333333333333,43.219722222222224],[-84.86222222222221,43.217777777777776],[-84.89305555555556,43.2175],[-85.02055555555556,43.21555555555556],[-85.04833333333333,43.215],[-85.2038888888889,43.212500000000006],[-85.33305555555555,43.21],[-85.36194444444443,43.20944444444445],[-85.51916666666666,43.20666666666667],[-85.64444444444445,43.203611111111115],[-85.67472222222223,43.20305555555556],[-85.80111111111111,43.20027777777778],[-85.85888888888888,43.19888888888889],[-85.95472222222223,43.19638888888888],[-86.015,43.19499999999999],[-86.14111111111112,43.19194444444444],[-86.17083333333333,43.19138888888889],[-86.29777777777778,43.18805555555555],[-86.45333333333333,43.18388888888889],[-86.61222222222221,43.17916666666667],[-86.92611111111111,43.169444444444444],[-87.08277777777778,43.16416666666667],[-87.39666666666668,43.153055555555554],[-88.03777777777778,43.1275],[-88.17194444444445,43.12166666666667],[-88.64527777777778,43.1225],[-88.80611111111111,43.125],[-88.96388888888889,43.12694444444445],[-89.28083333333333,43.12972222222222],[-89.43944444444445,43.13111111111111],[-89.60805555555555,43.132777777777775],[-89.75833333333334,43.13361111111111],[-89.92305555555556,43.13444444444444],[-90.23388888888888,43.13444444444444],[-90.39305555555556,43.13472222222222],[-90.55333333333333,43.13444444444444],[-90.8736111111111,43.13305555555556],[-91.19694444444445,43.13138888888889],[-91.35722222222222,43.13],[-91.51694444444445,43.12833333333333],[-91.67361111111111,43.126666666666665],[-91.86305555555555,43.12416666666667],[-91.99166666666667,43.1225],[-92.18055555555556,43.11972222222222],[-92.33749999999999,43.11694444444444],[-92.64944444444446,43.11083333333333],[-92.96277777777777,43.10416666666667],[-93.42861111111111,43.11194444444445],[-93.58138888888888,43.13916666666667],[-93.73111111111112,43.165],[-93.87916666666666,43.191111111111105],[-94.17611111111111,43.24166666666667],[-94.32777777777777,43.26722222222222],[-94.47555555555556,43.29194444444444],[-94.62416666666665,43.31666666666667],[-94.77361111111111,43.34111111111111],[-94.92472222222223,43.36555555555556],[-95.07472222222222,43.38972222222222],[-95.2238888888889,43.413333333333334],[-95.37166666666666,43.43666666666666],[-95.52055555555556,43.46027777777778],[-95.67027777777778,43.483333333333334],[-95.81805555555555,43.50611111111111],[-95.99777777777778,43.53361111111111],[-96.14833333333334,43.55638888888888],[-96.26638888888888,43.57416666666667],[-96.42027777777778,43.58527777777778],[-96.5736111111111,43.58277777777778],[-96.72944444444444,43.58027777777778],[-96.88277777777778,43.5775],[-97.03861111111111,43.57472222222223],[-97.19388888888889,43.571111111111115],[-97.34861111111111,43.56777777777778],[-97.50472222222223,43.56388888888888],[-97.66194444444444,43.55972222222222],[-97.81916666666666,43.55555555555555],[-97.97638888888889,43.551111111111105],[-98.13083333333333,43.54666666666667],[-98.2875,43.54194444444444],[-98.44250000000001,43.53666666666666],[-98.59833333333333,43.531666666666666],[-98.76833333333333,43.52583333333333],[-98.86194444444443,43.5225],[-99.01833333333333,43.51638888888889],[-99.08583333333333,43.51416666666667],[-99.17722222222223,43.510555555555555],[-99.24166666666667,43.50805555555556],[-99.39611111111111,43.501666666666665],[-99.5525,43.49527777777778],[-99.64416666666668,43.49111111111111],[-99.70861111111111,43.48833333333334],[-99.80083333333333,43.48444444444444],[-99.95472222222223,43.477222222222224],[-100.02027777777778,43.474444444444444],[-100.11416666666666,43.47],[-100.27027777777778,43.462500000000006],[-100.33416666666666,43.45916666666667],[-100.4375,43.45277777777778],[-100.48944444444444,43.45138888888889],[-100.59277777777777,43.445277777777775],[-100.64611111111111,43.44333333333333],[-100.73916666666666,43.43833333333333],[-100.80194444444444,43.434999999999995],[-100.90527777777778,43.426944444444445],[-100.96027777777778,43.42666666666666],[-101.06277777777777,43.41861111111111],[-101.11833333333333,43.41777777777777],[-101.27666666666667,43.40861111111111],[-101.38027777777778,43.400555555555556],[-101.4375,43.39944444444444],[-101.53861111111111,43.390277777777776],[-101.59638888888888,43.38972222222222],[-101.68944444444445,43.384166666666665],[-101.75305555555556,43.38027777777778],[-101.84833333333333,43.37444444444444],[-101.9075,43.370555555555555],[-102.0075,43.359722222222224],[-102.06333333333333,43.36055555555556],[-102.16333333333334,43.35111111111111],[-102.21916666666667,43.35027777777778],[-102.31722222222221,43.34055555555556],[-102.37444444444444,43.34],[-102.47111111111111,43.32972222222222],[-102.52944444444444,43.32944444444445],[-102.78166666666667,43.31194444444444],[-102.9388888888889,43.300555555555555],[-103.09472222222222,43.28916666666667],[-103.25138888888888,43.277499999999996],[-103.4075,43.26555555555556],[-103.5625,43.25361111111111],[-103.71805555555555,43.24111111111111],[-103.87055555555555,43.22916666666667],[-104.01861111111111,43.21805555555556],[-104.16833333333334,43.20472222222222],[-104.46944444444445,43.17916666666667],[-104.61749999999999,43.16694444444444],[-104.77222222222223,43.152499999999996],[-104.92333333333333,43.13916666666667],[-105.07111111111111,43.126111111111115],[-105.37583333333333,43.097500000000004],[-105.53027777777778,43.0825],[-105.68388888888889,43.066944444444445],[-105.83749999999999,43.05277777777778],[-105.98527777777778,43.03805555555555],[-106.14,43.0225],[-106.29194444444444,43.00694444444444],[-106.44277777777778,42.99138888888889],[-106.59194444444444,42.975833333333334],[-106.77222222222223,42.956944444444446],[-106.92361111111111,42.94027777777777],[-107.06805555555555,42.92472222222222],[-107.20805555555556,42.909166666666664],[-107.35888888888888,42.8925],[-107.5125,42.875],[-107.66250000000001,42.85777777777778],[-107.8125,42.84027777777778],[-107.9625,42.82277777777778],[-108.11583333333333,42.80472222222222],[-108.2675,42.78638888888889],[-108.42027777777778,42.76777777777777],[-108.57027777777778,42.74944444444444],[-108.72361111111111,42.73027777777778],[-108.87583333333333,42.71138888888889],[-109.02805555555555,42.69194444444444],[-109.33277777777778,42.65277777777778],[-109.4875,42.632222222222225],[-109.64027777777778,42.61222222222222],[-109.79277777777777,42.59166666666667],[-109.94611111111111,42.571111111111115],[-110.08777777777777,42.526666666666664],[-110.21277777777777,42.45777777777778],[-110.33749999999999,42.39083333333333],[-110.46138888888889,42.32361111111111],[-110.58666666666666,42.254444444444445],[-110.71111111111111,42.18666666666666],[-110.85666666666665,42.10333333333333],[-110.97638888888889,42.032222222222224],[-111.09666666666666,41.961666666666666],[-111.215,41.89361111111111],[-111.33611111111111,41.82333333333334],[-111.45777777777778,41.751666666666665],[-111.57833333333333,41.6825],[-111.69916666666667,41.61277777777778],[-111.8275,41.55],[-111.96388888888889,41.49805555555556],[-112.11055555555555,41.45805555555556],[-112.25527777777778,41.41888888888889],[-112.40277777777779,41.37888888888889],[-112.54694444444445,41.34138888888889],[-112.69833333333334,41.31777777777778],[-112.81527777777778,41.29888888888889],[-113.00055555555555,41.26916666666666],[-113.15222222222222,41.24472222222222],[-113.30333333333333,41.22027777777778],[-113.4538888888889,41.19555555555555],[-113.75333333333333,41.14611111111111],[-114.05388888888889,41.095555555555556],[-114.20416666666667,41.07],[-114.35444444444444,41.04416666666666],[-114.50611111111111,41.018055555555556],[-114.65555555555557,40.99166666666667],[-114.80444444444444,40.96555555555556],[-115.10472222222222,40.911944444444444],[-115.1363888888889,40.905833333333334],[-115.25555555555556,40.88444444444444],[-115.28722222222223,40.87861111111111],[-115.40694444444445,40.856944444444444],[-115.43861111111111,40.85111111111111],[-115.55638888888889,40.82944444444445],[-115.58694444444444,40.82416666666667],[-115.705,40.801944444444445],[-115.8825,40.76916666666666],[-115.99805555555555,40.7475],[-116.02833333333334,40.74138888888889],[-116.1438888888889,40.719722222222224],[-116.1738888888889,40.71388888888889],[-116.29055555555556,40.69166666666666],[-116.47083333333333,40.657222222222224],[-116.58611111111111,40.635],[-116.73277777777778,40.60638888888889],[-116.76472222222222,40.6],[-116.87777777777777,40.57777777777778],[-116.90944444444445,40.57166666666667],[-117.01805555555555,40.54388888888889],[-117.04888888888888,40.53611111111111],[-117.1913888888889,40.49888888888889],[-117.3025,40.47],[-117.33027777777778,40.46277777777778],[-117.44222222222223,40.43277777777777],[-117.47222222222223,40.42472222222222],[-117.58555555555554,40.39472222222222],[-117.72888888888889,40.35666666666667],[-117.75944444444444,40.348333333333336],[-117.87083333333332,40.318333333333335],[-117.90055555555556,40.31027777777778],[-118.0425,40.27194444444444],[-118.15444444444445,40.24166666666667],[-118.18611111111112,40.23305555555556],[-118.29472222222222,40.20305555555556],[-118.3261111111111,40.19444444444444],[-118.46777777777778,40.15555555555555],[-118.575,40.12583333333333],[-118.60749999999999,40.11694444444444],[-118.74472222222222,40.07527777777778],[-118.85277777777777,40.0425],[-118.88277777777778,40.03333333333333],[-119.04833333333333,39.983333333333334],[-119.18555555555555,39.94166666666666],[-119.32111111111111,39.9],[-119.43027777777779,39.86638888888889],[-119.46027777777778,39.85722222222223],[-119.59833333333333,39.81444444444444],[-119.73388888888888,39.77222222222222],[-119.87249999999999,39.72888888888889],[-120.00777777777778,39.686388888888885],[-120.14250000000001,39.64388888888889],[-120.25916666666667,39.60666666666667],[-120.39277777777778,39.564166666666665],[-120.52527777777777,39.52194444444444],[-120.6613888888889,39.478611111111114],[-120.81222222222222,39.481944444444444],[-120.965,39.50694444444444],[-121.11888888888888,39.532222222222224],[-121.26805555555555,39.556666666666665],[-121.42361111111111,39.583333333333336],[-121.57638888888889,39.61],[-121.72972222222222,39.6375],[-121.88444444444445,39.665277777777774],[-122.03888888888889,39.693888888888885],[-122.19250000000001,39.70638888888889],[-122.3386111111111,39.69083333333333],[-122.48472222222222,39.674166666666665],[-122.5936111111111,39.61],[-122.6725,39.525],[-122.7525,39.4375],[-122.82666666666667,39.35666666666667],[-122.89027777777778,39.268055555555556],[-122.88,39.176944444444445],[-122.86944444444444,39.08388888888889],[-122.85777777777777,38.98638888888889],[-122.8475,38.901111111111106],[-122.83694444444444,38.81166666666666],[-122.82638888888889,38.722500000000004],[-122.81583333333333,38.63472222222222],[-122.80555555555556,38.5475],[-122.79527777777777,38.462500000000006],[-122.78555555555555,38.37638888888889],[-122.775,38.290277777777774],[-122.76194444444444,38.20444444444445],[-122.7375,38.12111111111111],[-122.71666666666667,38.06666666666667],[-122.71333333333334,38.03722222222222],[-122.7,38],[-122.68972222222223,37.95611111111111],[-122.68333333333334,37.93333333333333],[-122.65305555555557,37.87916666666667],[-122.61666666666666,37.85],[-122.58527777777778,37.81638888888889],[-122.55,37.78333333333333],[-122.52,37.75472222222222],[-122.5,37.733333333333334],[-122.46166666666667,37.69944444444444],[-122.43333333333334,37.68333333333333],[-122.40527777777778,37.64666666666667],[-122.38333333333334,37.61666666666667],[-122.35249999999999,37.590833333333336],[-122.33333333333333,37.56666666666667],[-122.31944444444444,37.528055555555554],[-122.3,37.5],[-122.28166666666667,37.465833333333336],[-122.26666666666667,37.43333333333333],[-122.26194444444444,37.40277777777778],[-122.28333333333333,37.38333333333333],[-122.3386111111111,37.39],[-122.36666666666666,37.4],[-122.42083333333333,37.39805555555556],[-122.45,37.4],[-122.48333333333333,37.35],[-122.45611111111111,37.31861111111112],[-122.43333333333334,37.3],[-122.38138888888888,37.305277777777775],[-122.35,37.333333333333336],[-122.30972222222222,37.34444444444445],[-122.26666666666667,37.36666666666667],[-122.23833333333333,37.384166666666665],[-122.2,37.4],[-122.15472222222223,37.42944444444444],[-122.13333333333334,37.43333333333333],[-122.10472222222222,37.46888888888889],[-122.12916666666666,37.51416666666667],[-122.18277777777779,37.53777777777778],[-122.2,37.55],[-122.23083333333334,37.558055555555555],[-122.25,37.56666666666667],[-122.27361111111111,37.57611111111112],[-122.28333333333333,37.583333333333336],[-122.31472222222222,37.593333333333334],[-122.33333333333333,37.6],[-122.35583333333332,37.61055555555556]],"type":"LineString"}
}
