{
  "id": 2032020583,
  "type": "Feature",
  "properties": {
    "geom:area": 0,
    "geom:bbox": "-122.345690,37.426480,-121.249020,37.608720",
    "geom:latitude": 37.53095884204603,
    "geom:longitude": -121.80492124986279,
    "src:alt_label": "swim-approach",
    "src:geom": "swim",
    "swim:elevations": [
      4722,
      4342,
      4205,
      4113,
      4084,
      4027,
      3839,
      3798,
      3732,
      3484,
      3353,
      3203,
      3049,
      2978,
      2743,
      2472,
      2221,
      2138,
      2096,
      1841,
      1751,
      1645,
      1513,
      1243,
      1126,
      997,
      928,
      693,
      649,
      466,
      426,
      319,
      233,
      124,
      69
    ],
    "swim:geom": "approach",
    "swim:timestamps": [
      1785344353,
      1785344391,
      1785344414,
      1785344437,
      1785344449,
      1785344483,
      1785344513,
      1785344520,
      1785344529,
      1785344562,
      1785344598,
      1785344626,
      1785344656,
      1785344676,
      1785344704,
      1785344746,
      1785344817,
      1785344842,
      1785344934,
      1785344995,
      1785345022,
      1785345046,
      1785345067,
      1785345107,
      1785345142,
      1785345175,
      1785345187,
      1785345238,
      1785345245,
      1785345289,
      1785345302,
      1785345328,
      1785345354,
      1785345379,
      1785345391
    ],
    "wof:geomhash": "f40f364b6b22324beb9569814b471b93",
    "wof:id": 2032020583,
    "wof:repo": "sfomuseum-data-flights-2026-07"
  },
  "bbox": [
    -122.34569,
    37.42648,
    -121.24902,
    37.60872
  ],
  "geometry": {"coordinates":[[-121.24902,37.59456],[-121.32726,37.58507],[-121.37183,37.58028],[-121.4156,37.57543],[-121.43642,37.57308],[-121.49141,37.56652],[-121.53567,37.56124],[-121.54545,37.56012],[-121.5594,37.55847],[-121.60762,37.55278],[-121.658,37.55518],[-121.69541,37.56778],[-121.73471,37.58092],[-121.76242,37.58188],[-121.79131,37.56088],[-121.78879,37.5125],[-121.79079,37.43778],[-121.81607,37.42648],[-121.92929,37.43489],[-121.99485,37.46035],[-122.02116,37.47188],[-122.0455,37.48218],[-122.06626,37.49065],[-122.10625,37.50778],[-122.13952,37.522],[-122.17015,37.53472],[-122.18039,37.53901],[-122.22692,37.5587],[-122.23298,37.56127],[-122.26896,37.57643],[-122.2786,37.58048],[-122.29754,37.58849],[-122.3167,37.59648],[-122.33606,37.6047],[-122.34569,37.60872]],"type":"LineString"}
}
