{
  "id": 2031982107,
  "type": "Feature",
  "properties": {
    "geom:area": 0,
    "geom:bbox": "-122.550310,36.718930,-121.440620,37.657370",
    "geom:latitude": 37.210204612934646,
    "geom:longitude": -122.06827758629744,
    "src:alt_label": "swim-takeoff",
    "src:geom": "swim",
    "swim:elevations": [
      183,
      342,
      463,
      546,
      982,
      1908,
      2420,
      2540,
      2657,
      3171,
      3622,
      4013,
      4178,
      4390,
      4685,
      4792,
      5367,
      5592,
      5959,
      6336,
      6458,
      6715,
      6852,
      7004,
      7312,
      7373,
      7425,
      7811,
      8098,
      8296,
      8386,
      8555,
      8980,
      9121,
      9395,
      9573,
      9700
    ],
    "swim:geom": "takeoff",
    "swim:timestamps": [
      1785101146,
      1785101156,
      1785101164,
      1785101178,
      1785101234,
      1785101315,
      1785101353,
      1785101362,
      1785101370,
      1785101401,
      1785101428,
      1785101457,
      1785101478,
      1785101505,
      1785101526,
      1785101532,
      1785101577,
      1785101599,
      1785101632,
      1785101664,
      1785101674,
      1785101696,
      1785101710,
      1785101726,
      1785101758,
      1785101764,
      1785101770,
      1785101809,
      1785101839,
      1785101857,
      1785101866,
      1785101885,
      1785101935,
      1785101953,
      1785101995,
      1785102027,
      1785102045
    ],
    "wof:geomhash": "991a28e8acf991ac74f4e2cf9bafe045",
    "wof:id": 2031982107,
    "wof:repo": "sfomuseum-data-flights-2026-07"
  },
  "bbox": [
    -122.55031,
    36.71893,
    -121.44062,
    37.65737
  ],
  "geometry": {"coordinates":[[-122.38572,37.62311],[-122.39287,37.62609],[-122.39926,37.62865],[-122.40947,37.63276],[-122.46522,37.65737],[-122.55031,37.63992],[-122.53367,37.59361],[-122.52753,37.58268],[-122.52262,37.57393],[-122.50037,37.53427],[-122.48072,37.50116],[-122.44887,37.47079],[-122.42035,37.44996],[-122.37969,37.41995],[-122.34687,37.3959],[-122.33747,37.38903],[-122.26781,37.33768],[-122.23179,37.31118],[-122.17804,37.27144],[-122.12584,37.23283],[-122.10757,37.21928],[-122.0709,37.19201],[-122.04733,37.17448],[-122.0201,37.15426],[-121.96327,37.11209],[-121.95273,37.10424],[-121.94209,37.09632],[-121.8726,37.04389],[-121.81755,37.0036],[-121.78624,36.97975],[-121.76856,36.96627],[-121.73573,36.94149],[-121.64447,36.87269],[-121.61143,36.8478],[-121.53489,36.79031],[-121.47418,36.74432],[-121.44062,36.71893]],"type":"LineString"}
}
