{
  "id": 2032018165,
  "type": "Feature",
  "properties": {
    "geom:area": 0,
    "geom:bbox": "-122.357100,36.735240,-121.886640,37.611230",
    "geom:latitude": 37.2182390394446,
    "geom:longitude": -122.07226891356387,
    "src:alt_label": "swim-approach",
    "src:geom": "swim",
    "swim:elevations": [
      5551,
      5137,
      4980,
      4665,
      4295,
      4093,
      3878,
      3357,
      3199,
      3107,
      2959,
      2868,
      2509,
      2487,
      2117,
      2053,
      1718,
      1596,
      1441,
      1195,
      1087,
      949,
      924,
      733,
      639,
      415,
      360,
      159,
      146,
      71,
      16
    ],
    "swim:geom": "approach",
    "swim:timestamps": [
      1785312469,
      1785312508,
      1785312524,
      1785312556,
      1785312592,
      1785312613,
      1785312634,
      1785312685,
      1785312704,
      1785312735,
      1785312773,
      1785312786,
      1785312838,
      1785312840,
      1785312893,
      1785312902,
      1785312951,
      1785312971,
      1785312994,
      1785313034,
      1785313054,
      1785313078,
      1785313083,
      1785313118,
      1785313141,
      1785313190,
      1785313207,
      1785313258,
      1785313265,
      1785313284,
      1785313298
    ],
    "wof:geomhash": "8e67da824cf9ed8ca460b58f771a04f4",
    "wof:id": 2032018165,
    "wof:repo": "sfomuseum-data-flights-2026-07"
  },
  "bbox": [
    -122.3571,
    36.73524,
    -121.88664,
    37.61123
  ],
  "geometry": {"coordinates":[[-121.88664,36.73524],[-121.91012,36.79966],[-121.91771,36.82605],[-121.93211,36.87745],[-121.94841,36.93559],[-121.95944,36.96797],[-121.9717,36.99949],[-122.00049,37.07375],[-122.01095,37.10044],[-122.02711,37.14159],[-122.04565,37.18906],[-122.05137,37.20385],[-122.07554,37.26528],[-122.0769,37.26879],[-122.10101,37.32991],[-122.10493,37.3399],[-122.1267,37.39726],[-122.13436,37.42012],[-122.14351,37.44736],[-122.15849,37.49133],[-122.16577,37.51227],[-122.17642,37.53445],[-122.18075,37.53748],[-122.21535,37.55155],[-122.23654,37.56063],[-122.27883,37.57824],[-122.29132,37.58359],[-122.32885,37.59941],[-122.33346,37.60138],[-122.34734,37.60719],[-122.3571,37.61123]],"type":"LineString"}
}
