{
  "id": 2031982595,
  "type": "Feature",
  "properties": {
    "geom:area": 0,
    "geom:bbox": "-122.400000,37.633333,-90.216667,39.095278",
    "geom:latitude": 38.620393844031526,
    "geom:longitude": -106.25094024792605,
    "src:alt_label": "swim-path",
    "src:geom": "swim",
    "swim:altitudes": [
      "009",
      "024",
      "042",
      "061",
      "087",
      "109",
      "130",
      "154",
      "168",
      "180",
      "190",
      "205",
      "219",
      "245",
      "250",
      "250",
      "250",
      "285",
      "300",
      "318",
      "327",
      "339",
      "350C",
      "350C",
      "350C",
      "350C",
      "350C",
      "350C",
      "350C",
      "350C",
      "350C",
      "350C",
      "350C",
      "350C",
      "350C",
      "350C",
      "350C",
      "350C",
      "350C",
      "350C",
      "350C",
      "350C",
      "350C",
      "350C",
      "350C",
      "350C",
      "350C",
      "350C",
      "350C",
      "350C",
      "350C",
      "350C",
      "350C",
      "350C",
      "350C",
      "350C",
      "350C",
      "350C",
      "350C",
      "350C",
      "350C",
      "350C",
      "350C",
      "350C",
      "350C",
      "350C",
      "350C",
      "350C",
      "350C",
      "350C",
      "350C",
      "350C",
      "350C",
      "350C",
      "350C",
      "350C",
      "350C",
      "350C",
      "350C",
      "350C",
      "350C",
      "350C",
      "350C",
      "350C",
      "350C",
      "350C",
      "350C",
      "350C",
      "350C",
      "350C",
      "350C",
      "350C",
      "350C",
      "350C",
      "350C",
      "350C",
      "351",
      "360",
      "367",
      "370C",
      "370C",
      "370C",
      "370C",
      "370C",
      "370C",
      "370C",
      "370C",
      "370C",
      "370C",
      "370C",
      "370C",
      "370C",
      "370C",
      "370C",
      "370C",
      "370C",
      "370C",
      "370C",
      "370C",
      "370C",
      "370C",
      "370C",
      "370C",
      "370C",
      "370C",
      "370C",
      "370C",
      "370C",
      "370C",
      "370C",
      "370C",
      "370C",
      "370C",
      "370C",
      "370C",
      "370C",
      "370C",
      "370C",
      "370C",
      "370C",
      "370C",
      "370C",
      "370C",
      "370C",
      "370C",
      "370C",
      "370C",
      "370C",
      "370C",
      "370C",
      "370C",
      "370C",
      "370C",
      "350",
      "343",
      "324",
      "303",
      "293",
      "283",
      "272",
      "240",
      "215",
      "196",
      "175",
      "152",
      "139",
      "121",
      "105",
      "099",
      "091",
      "080",
      "078",
      "070",
      "069",
      "062",
      "053",
      "041",
      "034",
      "026",
      "021",
      "015",
      "008"
    ],
    "swim:geom": "path",
    "swim:speeds": [
      178,
      203,
      242,
      271,
      292,
      313,
      326,
      335,
      362,
      392,
      423,
      432,
      440,
      457,
      461,
      461,
      461,
      476,
      497,
      506,
      511,
      507,
      500,
      499,
      500,
      501,
      501,
      501,
      501,
      501,
      501,
      497,
      496,
      495,
      495,
      495,
      496,
      497,
      498,
      499,
      498,
      494,
      492,
      491,
      489,
      488,
      489,
      490,
      491,
      492,
      494,
      496,
      495,
      492,
      494,
      491,
      491,
      492,
      492,
      482,
      481,
      480,
      480,
      480,
      480,
      480,
      480,
      479,
      478,
      475,
      470,
      469,
      470,
      470,
      470,
      472,
      474,
      475,
      476,
      477,
      477,
      477,
      479,
      480,
      482,
      482,
      481,
      481,
      480,
      479,
      478,
      477,
      478,
      479,
      481,
      482,
      483,
      484,
      484,
      485,
      485,
      488,
      487,
      486,
      480,
      478,
      478,
      475,
      474,
      474,
      472,
      473,
      473,
      474,
      474,
      474,
      475,
      476,
      477,
      477,
      477,
      478,
      479,
      480,
      480,
      480,
      479,
      479,
      478,
      476,
      476,
      476,
      477,
      478,
      478,
      478,
      477,
      478,
      479,
      479,
      480,
      479,
      480,
      479,
      478,
      477,
      476,
      477,
      478,
      479,
      478,
      479,
      481,
      487,
      488,
      488,
      483,
      473,
      462,
      458,
      438,
      420,
      407,
      399,
      377,
      374,
      361,
      345,
      301,
      290,
      290,
      286,
      272,
      270,
      259,
      262,
      240,
      231,
      198,
      200,
      167,
      152
    ],
    "swim:timestamps": [
      1785095980,
      1785096010,
      1785096070,
      1785096134,
      1785096194,
      1785096254,
      1785096315,
      1785096375,
      1785096435,
      1785096495,
      1785096555,
      1785096615,
      1785096675,
      1785096795,
      1785096855,
      1785096915,
      1785096975,
      1785097211,
      1785097332,
      1785097452,
      1785097512,
      1785097572,
      1785097632,
      1785097752,
      1785097872,
      1785097932,
      1785097993,
      1785098053,
      1785098113,
      1785098173,
      1785098233,
      1785098413,
      1785098473,
      1785098533,
      1785098593,
      1785098653,
      1785098714,
      1785098774,
      1785099014,
      1785099074,
      1785099134,
      1785099254,
      1785099314,
      1785099374,
      1785099434,
      1785099495,
      1785099555,
      1785099615,
      1785099675,
      1785099735,
      1785099855,
      1785099915,
      1785100009,
      1785100035,
      1785100069,
      1785100095,
      1785100155,
      1785100216,
      1785100249,
      1785100309,
      1785100369,
      1785100429,
      1785100456,
      1785100516,
      1785100549,
      1785100576,
      1785100610,
      1785100670,
      1785100730,
      1785100756,
      1785100790,
      1785100816,
      1785100850,
      1785100910,
      1785100970,
      1785101030,
      1785101090,
      1785101150,
      1785101210,
      1785101270,
      1785101331,
      1785101391,
      1785101451,
      1785101511,
      1785101571,
      1785101631,
      1785101691,
      1785101751,
      1785101811,
      1785101871,
      1785101931,
      1785101991,
      1785102052,
      1785102112,
      1785102172,
      1785102232,
      1785102292,
      1785102352,
      1785102412,
      1785102532,
      1785102592,
      1785102649,
      1785102709,
      1785102769,
      1785102833,
      1785102949,
      1785103009,
      1785103069,
      1785103129,
      1785103189,
      1785103253,
      1785103310,
      1785103370,
      1785103430,
      1785103493,
      1785103550,
      1785103610,
      1785103674,
      1785103734,
      1785103790,
      1785103850,
      1785103914,
      1785104031,
      1785104154,
      1785104214,
      1785104331,
      1785104395,
      1785104455,
      1785104515,
      1785104575,
      1785104635,
      1785104695,
      1785104752,
      1785104812,
      1785104872,
      1785104932,
      1785105052,
      1785105173,
      1785105233,
      1785105293,
      1785105353,
      1785105413,
      1785105473,
      1785105533,
      1785105653,
      1785105713,
      1785105773,
      1785105954,
      1785106014,
      1785106134,
      1785106254,
      1785106314,
      1785106374,
      1785106555,
      1785106615,
      1785106735,
      1785106855,
      1785106915,
      1785106975,
      1785107035,
      1785107156,
      1785107216,
      1785107276,
      1785107336,
      1785107411,
      1785107456,
      1785107516,
      1785107576,
      1785107636,
      1785107668,
      1785107728,
      1785107757,
      1785107793,
      1785107817,
      1785107837,
      1785107877,
      1785107937,
      1785107957,
      1785108017,
      1785108057,
      1785108083,
      1785108137
    ],
    "wof:geomhash": "679ecfccc3ac4bcb4924525bf3293b7b",
    "wof:id": 2031982595,
    "wof:repo": "sfomuseum-data-flights-2026-07"
  },
  "bbox": [
    -122.4,
    37.63333333333333,
    -90.21666666666667,
    39.09527777777778
  ],
  "geometry": {"coordinates":[[-122.4,37.63333333333333],[-122.4,37.65],[-122.33333333333333,37.666666666666664],[-122.26055555555556,37.70138888888889],[-122.17194444444445,37.73916666666667],[-122.08083333333333,37.78722222222222],[-121.98194444444445,37.83027777777778],[-121.8425,37.85611111111111],[-121.72444444444444,37.878055555555555],[-121.5936111111111,37.90222222222222],[-121.45111111111112,37.92833333333333],[-121.30277777777778,37.95527777777778],[-121.14944444444446,37.97138888888889],[-120.83527777777778,37.99666666666667],[-120.67444444444445,38.00972222222222],[-120.51222222222222,38.0225],[-120.35277777777777,38.03444444444444],[-119.71083333333334,38.080555555555556],[-119.36361111111111,38.10444444444445],[-119.00361111111111,38.12833333333333],[-118.82277777777777,38.13972222222222],[-118.64583333333334,38.150555555555556],[-118.47333333333333,38.161944444444444],[-118.12388888888889,38.18222222222222],[-117.77,38.20194444444445],[-117.59138888888889,38.21138888888889],[-117.41305555555556,38.220555555555556],[-117.23305555555555,38.22944444444445],[-117.04944444444445,38.23833333333334],[-116.86999999999999,38.24666666666667],[-116.69222222222223,38.25472222222222],[-116.16555555555556,38.276944444444446],[-115.99111111111111,38.28361111111111],[-115.81638888888888,38.290277777777774],[-115.64277777777778,38.29666666666667],[-115.46833333333333,38.30277777777778],[-115.32583333333334,38.3075],[-115.14111111111112,38.31333333333333],[-114.44861111111112,38.382777777777775],[-114.315,38.41833333333333],[-114.11361111111111,38.471944444444446],[-113.7825,38.55833333333333],[-113.61694444444444,38.60055555555556],[-113.45222222222222,38.64277777777778],[-113.28833333333333,38.68444444444444],[-113.12055555555555,38.72694444444445],[-112.95444444444445,38.76833333333333],[-112.78777777777778,38.809999999999995],[-112.61999999999999,38.85111111111111],[-112.45194444444445,38.8925],[-112.11611111111111,38.973888888888894],[-111.94527777777778,39.015],[-111.66833333333334,39.04138888888889],[-111.59944444444444,39.03361111111111],[-111.49416666666667,39.02388888888889],[-111.42500000000001,39.015],[-111.22555555555556,38.99305555555556],[-111.05083333333333,38.973333333333336],[-110.98472222222222,38.965833333333336],[-110.825,38.91555555555556],[-110.67194444444445,38.85777777777778],[-110.51861111111111,38.8],[-110.42805555555556,38.76638888888889],[-110.27277777777778,38.70805555555556],[-110.2125,38.68555555555555],[-110.12055555555555,38.65138888888889],[-110.06083333333333,38.62888888888889],[-109.90833333333335,38.57138888888889],[-109.72500000000001,38.50083333333333],[-109.66694444444445,38.47833333333333],[-109.57666666666667,38.44333333333333],[-109.51527777777778,38.424166666666665],[-109.41861111111112,38.407777777777774],[-109.25583333333333,38.38166666666667],[-109.09444444444443,38.35638888888889],[-108.92972222222222,38.34722222222222],[-108.76305555555555,38.36527777777778],[-108.59638888888888,38.385555555555555],[-108.43111111111112,38.406388888888884],[-108.26611111111112,38.42666666666666],[-108.09916666666666,38.4475],[-107.93361111111112,38.468611111111116],[-107.76666666666667,38.49027777777778],[-107.5961111111111,38.51222222222222],[-107.42833333333334,38.53444444444444],[-107.26083333333334,38.53972222222222],[-107.11444444444444,38.519444444444446],[-106.91333333333334,38.49138888888889],[-106.74527777777777,38.46805555555556],[-106.58305555555555,38.44472222222222],[-106.4113888888889,38.445277777777775],[-106.24555555555555,38.45055555555556],[-106.10333333333332,38.45416666666667],[-105.93388888888889,38.45944444444445],[-105.76305555555555,38.48083333333334],[-105.59055555555555,38.49805555555556],[-105.41944444444445,38.51555555555556],[-105.25027777777778,38.532777777777774],[-105.0825,38.549166666666665],[-104.74166666666667,38.581944444444446],[-104.57083333333333,38.59777777777778],[-104.40444444444445,38.61416666666667],[-104.23583333333333,38.62777777777778],[-104.06555555555555,38.64472222222222],[-103.88916666666667,38.659444444444446],[-103.56194444444444,38.687777777777775],[-103.39444444444445,38.70305555555556],[-103.22916666666667,38.714444444444446],[-103.06277777777777,38.7275],[-102.89722222222223,38.74055555555556],[-102.69388888888889,38.75694444444444],[-102.56333333333333,38.766666666666666],[-102.36999999999999,38.78138888888889],[-102.22666666666667,38.791666666666664],[-102.02555555555556,38.80611111111111],[-101.89250000000001,38.815555555555555],[-101.72194444444445,38.827222222222225],[-101.51694444444445,38.84111111111111],[-101.34805555555555,38.852222222222224],[-101.21583333333334,38.86083333333333],[-101.04444444444444,38.87166666666667],[-100.83749999999999,38.884166666666665],[-100.53333333333333,38.90222222222222],[-100.15361111111112,38.92333333333333],[-99.98388888888888,38.9325],[-99.67750000000001,38.94833333333333],[-99.4713888888889,38.95861111111111],[-99.30277777777778,38.96666666666667],[-99.13194444444444,38.974444444444444],[-98.96277777777777,38.98222222222223],[-98.79333333333334,38.989444444444445],[-98.62472222222222,38.99638888888889],[-98.46583333333334,39.003055555555555],[-98.29444444444444,39.01],[-98.12472222222222,39.01638888888889],[-97.9525,39.0225],[-97.62972222222221,39.03333333333333],[-97.28861111111111,39.04416666666666],[-97.11999999999999,39.049166666666665],[-96.94833333333334,39.05361111111111],[-96.775,39.05833333333333],[-96.60444444444444,39.0625],[-96.43416666666667,39.06638888888889],[-96.26472222222222,39.07027777777778],[-95.92333333333333,39.07666666666667],[-95.75611111111111,39.07972222222222],[-95.58611111111111,39.08222222222223],[-95.05333333333333,39.08916666666667],[-94.8825,39.090833333333336],[-94.54083333333332,39.093611111111116],[-94.20194444444445,39.09527777777778],[-94.03055555555555,39.07972222222222],[-93.86361111111111,39.05305555555555],[-93.36999999999999,38.97277777777778],[-93.19805555555556,38.94416666666666],[-92.85805555555555,38.88666666666666],[-92.5213888888889,38.82916666666667],[-92.35666666666665,38.800555555555555],[-92.19444444444444,38.77194444444444],[-92.03555555555555,38.74388888888889],[-91.7238888888889,38.69277777777778],[-91.57416666666666,38.692499999999995],[-91.43027777777779,38.69333333333333],[-91.27916666666667,38.69416666666666],[-91.1,38.7],[-91.00972222222222,38.69944444444444],[-90.88055555555555,38.702222222222225],[-90.75666666666666,38.70527777777778],[-90.64805555555556,38.70916666666667],[-90.58333333333333,38.71666666666667],[-90.5,38.7],[-90.45555555555556,38.68],[-90.4,38.65],[-90.3775,38.641666666666666],[-90.35,38.63333333333333],[-90.30083333333333,38.603611111111114],[-90.22527777777778,38.605555555555554],[-90.21666666666667,38.63333333333333],[-90.21666666666667,38.68333333333333],[-90.2575,38.69833333333333],[-90.28333333333333,38.71666666666667],[-90.33333333333333,38.733333333333334]],"type":"LineString"}
}
