{
  "id": 2031978021,
  "type": "Feature",
  "properties": {
    "geom:area": 0,
    "geom:bbox": "-122.738611,37.378889,-83.372222,43.469444",
    "geom:latitude": 41.98640657096862,
    "geom:longitude": -104.06073467306186,
    "src:alt_label": "swim-path",
    "src:geom": "swim",
    "swim:altitudes": [
      "013",
      "028",
      "031",
      "044",
      "053",
      "072",
      "084",
      "096",
      "114",
      "132",
      "144",
      "166",
      "176",
      "190",
      "200",
      "213",
      "219",
      "226",
      "231",
      "235",
      "240",
      "242",
      "249",
      "250",
      "254",
      "265",
      "272",
      "275",
      "279",
      "281",
      "287",
      "298C",
      "300C",
      "300",
      "300",
      "302",
      "305",
      "311",
      "319",
      "330",
      "333",
      "340C",
      "340C",
      "340C",
      "340C",
      "340C",
      "341C",
      "340C",
      "340C",
      "340C",
      "340C",
      "340C",
      "340C",
      "341C",
      "341C",
      "340C",
      "340C",
      "340C",
      "340C",
      "340C",
      "340C",
      "340C",
      "340C",
      "340C",
      "340C",
      "340C",
      "340C",
      "340C",
      "340C",
      "340C",
      "340C",
      "340C",
      "340C",
      "340C",
      "340C",
      "340C",
      "341C",
      "341C",
      "340C",
      "340C",
      "340C",
      "340C",
      "340C",
      "340C",
      "340C",
      "341C",
      "341C",
      "340C",
      "340C",
      "340C",
      "340C",
      "340C",
      "340C",
      "340C",
      "341C",
      "341C",
      "341C",
      "341C",
      "340C",
      "340C",
      "340C",
      "340C",
      "341C",
      "341C",
      "340C",
      "340C",
      "340C",
      "340C",
      "340C",
      "340C",
      "340C",
      "340C",
      "340C",
      "340C",
      "340C",
      "340C",
      "340C",
      "340C",
      "340C",
      "340C",
      "340C",
      "340C",
      "340C",
      "340C",
      "340C",
      "340C",
      "340C",
      "340C",
      "340C",
      "340C",
      "340C",
      "340C",
      "340C",
      "340C",
      "340C",
      "340C",
      "340C",
      "340C",
      "340C",
      "340C",
      "340C",
      "340C",
      "340C",
      "341C",
      "341C",
      "341C",
      "340C",
      "340C",
      "340C",
      "340C",
      "340C",
      "340C",
      "340C",
      "340C",
      "340C",
      "341C",
      "340C",
      "340C",
      "340C",
      "340C",
      "340C",
      "340C",
      "340C",
      "340C",
      "340C",
      "340C",
      "340C",
      "340C",
      "340C",
      "340C",
      "340C",
      "341C",
      "341C",
      "340C",
      "340C",
      "340C",
      "340C",
      "340C",
      "340C",
      "341C",
      "341C",
      "341C",
      "340C",
      "340C",
      "340C",
      "346",
      "353",
      "360C",
      "360C",
      "360C",
      "360C",
      "360C",
      "360C",
      "360C",
      "360C",
      "361C",
      "361C",
      "361C",
      "360C",
      "360C",
      "360C",
      "360C",
      "360C",
      "360C",
      "360C",
      "360C",
      "360C",
      "360C",
      "360C",
      "360C",
      "360C",
      "360C",
      "360C",
      "360C",
      "361C",
      "360C",
      "361C",
      "360C",
      "360C",
      "360C",
      "360C",
      "360C",
      "360C",
      "360C",
      "360C",
      "360C",
      "361C",
      "360C",
      "360C",
      "360C",
      "361C",
      "360C",
      "360C",
      "360C",
      "361C",
      "360C",
      "360C",
      "360C",
      "360C",
      "360C",
      "360C",
      "361C",
      "361C",
      "360C",
      "360C",
      "360C",
      "360C",
      "360C",
      "360C",
      "361C",
      "360C",
      "360C",
      "360C",
      "361C",
      "360C",
      "360C",
      "360C",
      "361C",
      "360C",
      "360C",
      "360C",
      "360C",
      "360C",
      "361C",
      "361C",
      "360C",
      "360C",
      "360C",
      "360C",
      "360C",
      "360C",
      "360C",
      "361C",
      "360C",
      "360C",
      "360C",
      "360C",
      "360C",
      "360C",
      "360C",
      "360C",
      "360C",
      "360C",
      "360C",
      "361C",
      "361C",
      "361C",
      "361C",
      "360C",
      "360C",
      "360C",
      "360C",
      "360C",
      "361C",
      "361C",
      "361C",
      "361C",
      "360C",
      "360C",
      "360C",
      "361C",
      "361C",
      "360C",
      "360C",
      "360C",
      "360C",
      "360C",
      "361C",
      "361C",
      "361C",
      "360C",
      "360C",
      "360C",
      "360C",
      "360C",
      "349",
      "339",
      "329",
      "319",
      "299",
      "280",
      "238",
      "193",
      "150",
      "137",
      "129",
      "114",
      "110",
      "110C",
      "110",
      "110C",
      "110",
      "110C",
      "110",
      "093",
      "088",
      "084",
      "080",
      "063",
      "060",
      "060",
      "059",
      "049",
      "041",
      "040",
      "040",
      "038",
      "032",
      "027",
      "026",
      "025",
      "021",
      "017",
      "014",
      "008",
      "005",
      "002"
    ],
    "swim:geom": "path",
    "swim:speeds": [
      173,
      200,
      213,
      255,
      262,
      270,
      266,
      267,
      298,
      337,
      343,
      347,
      346,
      355,
      356,
      368,
      370,
      370,
      371,
      371,
      371,
      374,
      378,
      388,
      392,
      410,
      412,
      414,
      413,
      421,
      421,
      417,
      415,
      416,
      416,
      417,
      418,
      405,
      403,
      392,
      392,
      390,
      390,
      389,
      389,
      389,
      389,
      389,
      389,
      389,
      389,
      389,
      389,
      389,
      389,
      388,
      388,
      388,
      388,
      395,
      396,
      394,
      392,
      392,
      394,
      392,
      393,
      393,
      393,
      394,
      394,
      395,
      395,
      396,
      397,
      400,
      401,
      402,
      402,
      402,
      402,
      402,
      414,
      415,
      415,
      417,
      409,
      406,
      403,
      402,
      402,
      401,
      401,
      402,
      404,
      404,
      404,
      403,
      403,
      406,
      407,
      408,
      409,
      409,
      409,
      410,
      410,
      411,
      412,
      413,
      414,
      413,
      414,
      415,
      416,
      416,
      417,
      416,
      416,
      416,
      417,
      418,
      419,
      421,
      423,
      424,
      424,
      426,
      424,
      425,
      424,
      425,
      424,
      424,
      424,
      424,
      425,
      425,
      425,
      424,
      425,
      424,
      427,
      425,
      427,
      425,
      427,
      425,
      425,
      424,
      425,
      423,
      423,
      423,
      424,
      424,
      423,
      423,
      423,
      423,
      423,
      423,
      422,
      422,
      420,
      418,
      417,
      414,
      415,
      413,
      419,
      419,
      424,
      422,
      425,
      422,
      422,
      415,
      415,
      421,
      420,
      423,
      423,
      423,
      422,
      419,
      418,
      417,
      417,
      417,
      417,
      417,
      417,
      418,
      419,
      420,
      420,
      422,
      423,
      423,
      423,
      424,
      424,
      424,
      424,
      424,
      424,
      423,
      422,
      421,
      420,
      420,
      421,
      421,
      423,
      423,
      424,
      423,
      422,
      421,
      421,
      421,
      421,
      421,
      421,
      420,
      419,
      418,
      417,
      417,
      417,
      416,
      415,
      415,
      415,
      414,
      412,
      413,
      413,
      412,
      412,
      412,
      413,
      412,
      410,
      408,
      406,
      402,
      406,
      406,
      405,
      403,
      403,
      407,
      408,
      410,
      407,
      411,
      411,
      410,
      410,
      410,
      411,
      411,
      411,
      410,
      408,
      406,
      405,
      404,
      405,
      405,
      405,
      405,
      405,
      406,
      406,
      406,
      406,
      406,
      407,
      407,
      407,
      407,
      407,
      407,
      406,
      405,
      401,
      399,
      397,
      398,
      398,
      398,
      399,
      402,
      403,
      403,
      402,
      402,
      403,
      403,
      397,
      392,
      392,
      392,
      390,
      390,
      391,
      391,
      391,
      390,
      389,
      389,
      389,
      389,
      394,
      400,
      403,
      397,
      388,
      374,
      369,
      355,
      351,
      351,
      330,
      289,
      266,
      254,
      255,
      256,
      254,
      253,
      250,
      249,
      248,
      241,
      236,
      246,
      242,
      239,
      237,
      240,
      221,
      199,
      192,
      192,
      184,
      188,
      173,
      170,
      152,
      127,
      122,
      119,
      121
    ],
    "swim:timestamps": [
      1785101687,
      1785101747,
      1785101771,
      1785101802,
      1785101832,
      1785101862,
      1785101892,
      1785101916,
      1785101976,
      1785102036,
      1785102072,
      1785102132,
      1785102156,
      1785102216,
      1785102252,
      1785102312,
      1785102336,
      1785102356,
      1785102372,
      1785102396,
      1785102416,
      1785102433,
      1785102476,
      1785102493,
      1785102517,
      1785102577,
      1785102610,
      1785102637,
      1785102656,
      1785102670,
      1785102697,
      1785102730,
      1785102757,
      1785102790,
      1785102850,
      1785102877,
      1785102897,
      1785102937,
      1785102970,
      1785103030,
      1785103058,
      1785103118,
      1785103197,
      1785103238,
      1785103257,
      1785103298,
      1785103377,
      1785103437,
      1785103498,
      1785103538,
      1785103558,
      1785103659,
      1785103678,
      1785103719,
      1785103738,
      1785103798,
      1785103839,
      1785103858,
      1785103918,
      1785103978,
      1785104098,
      1785104139,
      1785104158,
      1785104219,
      1785104279,
      1785104351,
      1785104411,
      1785104440,
      1785104471,
      1785104500,
      1785104531,
      1785104560,
      1785104591,
      1785104620,
      1785104651,
      1785104711,
      1785104740,
      1785104801,
      1785104831,
      1785104892,
      1785104952,
      1785104981,
      1785105041,
      1785105072,
      1785105101,
      1785105161,
      1785105221,
      1785105281,
      1785105342,
      1785105372,
      1785105402,
      1785105432,
      1785105492,
      1785105552,
      1785105613,
      1785105642,
      1785105673,
      1785105702,
      1785105762,
      1785105822,
      1785105853,
      1785105913,
      1785105943,
      1785105973,
      1785106153,
      1785106213,
      1785106273,
      1785106394,
      1785106454,
      1785106574,
      1785106634,
      1785106694,
      1785106754,
      1785106814,
      1785106874,
      1785106934,
      1785107115,
      1785107175,
      1785107235,
      1785107295,
      1785107415,
      1785107475,
      1785107535,
      1785107655,
      1785107836,
      1785107896,
      1785107956,
      1785108024,
      1785108134,
      1785108144,
      1785108194,
      1785108204,
      1785108254,
      1785108264,
      1785108324,
      1785108384,
      1785108444,
      1785108495,
      1785108564,
      1785108615,
      1785108624,
      1785108675,
      1785108684,
      1785108735,
      1785108745,
      1785108795,
      1785108805,
      1785108855,
      1785108915,
      1785108925,
      1785108975,
      1785108985,
      1785109045,
      1785109105,
      1785109156,
      1785109165,
      1785109225,
      1785109285,
      1785109345,
      1785109405,
      1785109465,
      1785109526,
      1785109586,
      1785109646,
      1785109706,
      1785109756,
      1785109816,
      1785109826,
      1785109876,
      1785109886,
      1785109946,
      1785109997,
      1785110006,
      1785110057,
      1785110066,
      1785110117,
      1785110177,
      1785110247,
      1785110307,
      1785110367,
      1785110417,
      1785110427,
      1785110477,
      1785110487,
      1785110597,
      1785110667,
      1785110727,
      1785110787,
      1785110838,
      1785110847,
      1785110898,
      1785110907,
      1785110958,
      1785111018,
      1785111028,
      1785111078,
      1785111088,
      1785111148,
      1785111198,
      1785111258,
      1785111268,
      1785111318,
      1785111328,
      1785111378,
      1785111388,
      1785111448,
      1785111499,
      1785111619,
      1785111679,
      1785111739,
      1785111799,
      1785111859,
      1785111919,
      1785111979,
      1785112039,
      1785112099,
      1785112160,
      1785112220,
      1785112280,
      1785112340,
      1785112400,
      1785112460,
      1785112520,
      1785112640,
      1785112700,
      1785112760,
      1785112820,
      1785112880,
      1785112941,
      1785113001,
      1785113061,
      1785113121,
      1785113181,
      1785113301,
      1785113361,
      1785113421,
      1785113481,
      1785113541,
      1785113662,
      1785113722,
      1785113782,
      1785113842,
      1785113902,
      1785113962,
      1785114022,
      1785114082,
      1785114142,
      1785114243,
      1785114262,
      1785114322,
      1785114382,
      1785114424,
      1785114484,
      1785114503,
      1785114563,
      1785114623,
      1785114664,
      1785114683,
      1785114743,
      1785114784,
      1785114844,
      1785114863,
      1785114923,
      1785114964,
      1785114983,
      1785115043,
      1785115084,
      1785115103,
      1785115144,
      1785115164,
      1785115224,
      1785115265,
      1785115284,
      1785115325,
      1785115344,
      1785115385,
      1785115404,
      1785115445,
      1785115464,
      1785115524,
      1785115565,
      1785115584,
      1785115625,
      1785115644,
      1785115685,
      1785115704,
      1785115745,
      1785115764,
      1785115824,
      1785115865,
      1785115884,
      1785115925,
      1785115945,
      1785115986,
      1785116005,
      1785116046,
      1785116065,
      1785116125,
      1785116166,
      1785116185,
      1785116286,
      1785116346,
      1785116466,
      1785116526,
      1785116586,
      1785116646,
      1785116767,
      1785116827,
      1785116887,
      1785116947,
      1785117007,
      1785117067,
      1785117127,
      1785117187,
      1785117247,
      1785117367,
      1785117427,
      1785117488,
      1785117548,
      1785117668,
      1785117728,
      1785117848,
      1785117968,
      1785118088,
      1785118124,
      1785118148,
      1785118208,
      1785118233,
      1785118269,
      1785118292,
      1785118329,
      1785118347,
      1785118389,
      1785118408,
      1785118473,
      1785118509,
      1785118527,
      1785118629,
      1785118713,
      1785118773,
      1785118809,
      1785118833,
      1785118869,
      1785118893,
      1785118929,
      1785118989,
      1785119013,
      1785119050,
      1785119074,
      1785119110,
      1785119134,
      1785119170,
      1785119194,
      1785119230,
      1785119290,
      1785119314,
      1785119350
    ],
    "wof:geomhash": "9a8bb4d4b2b665f2f5479418029740d4",
    "wof:id": 2031978021,
    "wof:repo": "sfomuseum-data-flights-2026-07"
  },
  "bbox": [
    -122.73861111111111,
    37.37888888888889,
    -83.37222222222222,
    43.46944444444445
  ],
  "geometry": {"coordinates":[[-83.37222222222222,42.20138888888889],[-83.41777777777779,42.16638888888889],[-83.43583333333333,42.157222222222224],[-83.4875,42.14222222222222],[-83.52361111111111,42.154444444444444],[-83.57694444444444,42.17472222222222],[-83.61416666666666,42.18833333333333],[-83.65166666666667,42.20138888888889],[-83.7475,42.23388888888889],[-83.86444444444444,42.26361111111111],[-83.94333333333334,42.27722222222222],[-84.07166666666666,42.299166666666665],[-84.11722222222221,42.30694444444444],[-84.24638888888889,42.32888888888889],[-84.32805555555555,42.3425],[-84.46416666666667,42.36527777777778],[-84.51388888888889,42.37361111111111],[-84.56833333333333,42.38305555555556],[-84.60027777777778,42.38777777777778],[-84.65,42.39611111111111],[-84.7038888888889,42.406388888888884],[-84.73333333333333,42.40972222222222],[-84.84472222222222,42.42916666666667],[-84.87388888888889,42.43277777777777],[-84.93111111111112,42.44194444444444],[-85.08749999999999,42.44944444444444],[-85.18111111111112,42.45138888888889],[-85.2425,42.4525],[-85.30611111111111,42.45416666666667],[-85.33944444444444,42.45444444444445],[-85.40305555555557,42.455555555555556],[-85.49722222222222,42.456944444444446],[-85.55888888888889,42.458333333333336],[-85.65222222222222,42.459722222222226],[-85.80805555555555,42.46194444444445],[-85.87583333333333,42.46416666666667],[-85.93583333333333,42.471111111111114],[-86.01944444444445,42.49722222222222],[-86.10444444444444,42.521388888888886],[-86.24638888888889,42.56166666666666],[-86.29777777777778,42.57638888888889],[-86.435,42.615],[-86.62583333333333,42.66861111111111],[-86.7088888888889,42.69166666666666],[-86.75972222222222,42.70583333333334],[-86.84861111111111,42.730555555555554],[-87.02777777777777,42.78],[-87.16250000000001,42.816944444444445],[-87.28416666666666,42.85],[-87.39833333333334,42.88111111111111],[-87.44583333333334,42.89388888888889],[-87.66361111111112,42.95277777777778],[-87.72277777777778,42.968611111111116],[-87.8025,42.98972222222222],[-87.86166666666666,43.00555555555555],[-87.99972222222222,43.04194444444444],[-88.08,43.06333333333333],[-88.13916666666667,43.07888888888889],[-88.27916666666667,43.11361111111111],[-88.42361111111111,43.129444444444445],[-88.72500000000001,43.15972222222222],[-88.81583333333333,43.16888888888889],[-88.87388888888889,43.174166666666665],[-89.02305555555556,43.18805555555555],[-89.17222222222223,43.2025],[-89.32555555555555,43.21666666666667],[-89.50416666666666,43.23277777777778],[-89.55888888888889,43.237500000000004],[-89.65305555555557,43.24611111111111],[-89.70916666666668,43.25111111111111],[-89.80138888888888,43.25888888888889],[-89.85916666666667,43.26416666666667],[-89.95305555555557,43.27194444444444],[-90.00777777777778,43.276666666666664],[-90.10277777777777,43.28472222222222],[-90.25638888888889,43.2975],[-90.31416666666667,43.302499999999995],[-90.45305555555557,43.31361111111111],[-90.54472222222222,43.321111111111115],[-90.69722222222222,43.333333333333336],[-90.84888888888888,43.345],[-90.90861111111111,43.349722222222226],[-91.06305555555555,43.33861111111111],[-91.15666666666667,43.32333333333334],[-91.21916666666667,43.31388888888888],[-91.40333333333334,43.2875],[-91.55888888888889,43.28944444444444],[-91.70916666666668,43.29666666666667],[-91.86027777777777,43.30416666666667],[-91.9225,43.30722222222222],[-92.01166666666667,43.311388888888885],[-92.07277777777777,43.314166666666665],[-92.22527777777778,43.321111111111115],[-92.3786111111111,43.32805555555556],[-92.52972222222222,43.347500000000004],[-92.61916666666666,43.362500000000004],[-92.67833333333334,43.3725],[-92.76722222222222,43.3875],[-92.91611111111112,43.41222222222222],[-93.06916666666666,43.42861111111111],[-93.13333333333334,43.43055555555555],[-93.28944444444444,43.43555555555555],[-93.38166666666666,43.43833333333333],[-93.47555555555556,43.441111111111105],[-93.94472222222223,43.453611111111115],[-94.1,43.45722222222223],[-94.25611111111111,43.46083333333333],[-94.5425,43.46666666666667],[-94.7,43.46944444444445],[-95.01722222222222,43.467777777777776],[-95.17333333333333,43.46222222222222],[-95.33083333333333,43.456944444444446],[-95.49111111111111,43.45138888888889],[-95.64833333333334,43.44555555555555],[-95.80888888888889,43.43888888888888],[-95.96888888888888,43.4325],[-96.44611111111111,43.41166666666666],[-96.60527777777777,43.404444444444444],[-96.76472222222222,43.39694444444444],[-96.92194444444445,43.38916666666667],[-97.24194444444444,43.37277777777778],[-97.36944444444444,43.36611111111111],[-97.56,43.35583333333334],[-97.88083333333333,43.337500000000006],[-98.36194444444443,43.308611111111105],[-98.52555555555556,43.29833333333333],[-98.68472222222222,43.28805555555555],[-98.88916666666667,43.27472222222222],[-99.17527777777778,43.255],[-99.21138888888889,43.2525],[-99.33749999999999,43.24277777777778],[-99.37472222222222,43.240833333333335],[-99.4975,43.231944444444444],[-99.5325,43.22972222222222],[-99.69388888888889,43.217777777777776],[-99.85583333333332,43.20583333333334],[-100.01638888888888,43.19333333333333],[-100.14194444444445,43.18333333333333],[-100.33833333333332,43.17388888888889],[-100.44555555555556,43.16694444444444],[-100.49972222222222,43.165],[-100.60777777777777,43.157222222222224],[-100.66166666666668,43.15611111111111],[-100.76888888888888,43.14833333333333],[-100.82472222222222,43.14694444444444],[-100.93083333333334,43.138888888888886],[-100.98722222222223,43.13722222222222],[-101.09055555555555,43.12777777777778],[-101.25166666666667,43.11888888888889],[-101.30527777777777,43.117777777777775],[-101.41111111111111,43.10888888888889],[-101.46694444444445,43.1075],[-101.62666666666667,43.09722222222222],[-101.78444444444445,43.08694444444445],[-101.8888888888889,43.07694444444445],[-101.92361111111111,43.0775],[-102.08388888888888,43.06666666666667],[-102.24333333333334,43.055277777777775],[-102.4025,43.04416666666666],[-102.56138888888889,43.0325],[-102.72194444444445,43.02055555555555],[-102.87916666666666,43.00861111111111],[-103.03944444444444,42.99638888888889],[-103.19527777777778,42.98416666666667],[-103.35277777777777,42.97166666666667],[-103.47500000000001,42.96055555555556],[-103.63027777777778,42.948611111111106],[-103.66250000000001,42.94611111111111],[-103.81444444444445,42.933611111111105],[-103.81638888888888,42.93333333333333],[-103.9738888888889,42.91972222222222],[-104.13111111111111,42.906666666666666],[-104.13305555555554,42.905833333333334],[-104.29027777777777,42.893055555555556],[-104.29444444444444,42.891666666666666],[-104.44805555555556,42.88027777777778],[-104.60444444444444,42.865833333333335],[-104.79027777777777,42.85666666666667],[-104.94333333333334,42.855000000000004],[-105.10416666666666,42.85416666666667],[-105.23111111111112,42.853611111111114],[-105.26305555555555,42.85305555555556],[-105.39111111111112,42.852222222222224],[-105.42277777777778,42.85305555555556],[-105.7075,42.85111111111111],[-105.8913888888889,42.823888888888895],[-106.04666666666667,42.80166666666666],[-106.20194444444445,42.778888888888886],[-106.32388888888889,42.76083333333333],[-106.35472222222222,42.756388888888885],[-106.47833333333334,42.738055555555555],[-106.50833333333334,42.73361111111111],[-106.63111111111111,42.715],[-106.78805555555556,42.69138888888889],[-106.81722222222221,42.68694444444444],[-106.94361111111111,42.6675],[-106.9725,42.66305555555555],[-107.12916666666666,42.638888888888886],[-107.27277777777778,42.61666666666667],[-107.42833333333334,42.591944444444444],[-107.42833333333334,42.591944444444444],[-107.58388888888888,42.56722222222223],[-107.58111111111111,42.56777777777778],[-107.73972222222223,42.5425],[-107.73972222222223,42.5425],[-107.89333333333335,42.5175],[-108.05,42.49166666666667],[-108.35833333333333,42.437777777777775],[-108.51083333333334,42.41083333333333],[-108.66277777777778,42.384166666666665],[-108.81388888888888,42.356944444444444],[-108.96861111111112,42.32888888888889],[-109.11944444444444,42.30166666666666],[-109.27222222222223,42.27361111111111],[-109.42666666666668,42.24472222222222],[-109.58,42.21611111111111],[-109.73222222222222,42.1875],[-109.88444444444445,42.15861111111111],[-110.03666666666666,42.12972222222222],[-110.1888888888889,42.10027777777778],[-110.33972222222222,42.071111111111115],[-110.49138888888889,42.04111111111111],[-110.64166666666668,42.01166666666666],[-110.94611111111111,41.950833333333335],[-111.09583333333333,41.920833333333334],[-111.24472222222222,41.89055555555556],[-111.39472222222223,41.859722222222224],[-111.54416666666667,41.82916666666667],[-111.70972222222223,41.79472222222222],[-111.85916666666667,41.763333333333335],[-112.00638888888889,41.7325],[-112.15583333333333,41.700833333333335],[-112.30388888888889,41.66888888888889],[-112.59722222222221,41.605555555555554],[-112.74527777777777,41.57333333333334],[-112.89055555555557,41.541666666666664],[-113.03694444444444,41.50944444444445],[-113.16916666666667,41.47972222222222],[-113.46166666666667,41.413888888888884],[-113.6086111111111,41.38055555555555],[-113.75194444444445,41.34777777777778],[-113.89805555555556,41.314166666666665],[-114.045,41.28],[-114.18833333333333,41.246944444444445],[-114.33194444444445,41.21333333333334],[-114.47472222222223,41.17972222222222],[-114.61777777777777,41.14527777777778],[-114.87249999999999,41.085],[-114.90138888888889,41.07777777777778],[-115.0411111111111,41.04388888888889],[-115.18416666666667,41.00888888888889],[-115.29777777777778,40.98111111111111],[-115.43972222222223,40.94638888888888],[-115.46833333333333,40.939166666666665],[-115.61083333333333,40.90361111111111],[-115.7538888888889,40.86833333333333],[-115.86916666666666,40.84],[-115.89833333333334,40.83222222222223],[-116.03972222222222,40.796388888888885],[-116.15444444444445,40.7675],[-116.29527777777777,40.73111111111111],[-116.32249999999999,40.724444444444444],[-116.46722222222222,40.68722222222222],[-116.58166666666666,40.657777777777774],[-116.60833333333333,40.65083333333333],[-116.775,40.6075],[-116.85972222222222,40.58527777777778],[-116.91361111111112,40.57138888888889],[-116.99694444444445,40.54944444444444],[-117.04833333333333,40.53611111111111],[-117.1863888888889,40.500277777777775],[-117.27055555555556,40.47805555555556],[-117.3261111111111,40.46333333333334],[-117.41083333333334,40.441111111111105],[-117.46333333333334,40.42722222222222],[-117.54916666666666,40.40416666666667],[-117.60416666666666,40.38944444444444],[-117.68972222222223,40.36694444444444],[-117.74305555555556,40.3525],[-117.88138888888888,40.31527777777777],[-117.96666666666667,40.2925],[-118.02111111111111,40.27777777777778],[-118.11055555555555,40.25361111111111],[-118.16000000000001,40.24],[-118.24944444444445,40.21555555555556],[-118.29833333333333,40.202222222222225],[-118.38527777777779,40.17805555555555],[-118.4363888888889,40.163888888888884],[-118.57166666666666,40.126666666666665],[-118.65555555555557,40.10194444444445],[-118.70611111111111,40.086666666666666],[-118.7875,40.06222222222222],[-118.83999999999999,40.046388888888885],[-118.92333333333333,40.02111111111111],[-118.97500000000001,40.00555555555555],[-119.05749999999999,39.98027777777778],[-119.10944444444443,39.96472222222223],[-119.245,39.92333333333333],[-119.32722222222222,39.89805555555556],[-119.37638888888888,39.882777777777775],[-119.59555555555555,39.815],[-119.75694444444444,39.765],[-120.01972222222223,39.6825],[-120.14916666666667,39.64138888888889],[-120.28,39.599722222222226],[-120.40916666666668,39.55888888888889],[-120.65222222222222,39.45111111111111],[-120.76472222222222,39.38805555555555],[-120.87805555555555,39.32416666666667],[-120.99111111111111,39.26],[-121.10527777777777,39.19499999999999],[-121.21722222222222,39.13138888888889],[-121.3275,39.06805555555556],[-121.43916666666667,39.00416666666667],[-121.54888888888888,38.941111111111105],[-121.77055555555556,38.8125],[-121.88388888888889,38.74638888888889],[-121.99694444444445,38.68055555555555],[-122.11277777777777,38.61277777777778],[-122.3386111111111,38.47944444444445],[-122.4475,38.415],[-122.65,38.294444444444444],[-122.73861111111111,38.128055555555555],[-122.67861111111111,37.91888888888889],[-122.63333333333334,37.86666666666667],[-122.6125,37.842222222222226],[-122.53666666666666,37.77111111111111],[-122.5,37.733333333333334],[-122.47361111111111,37.711666666666666],[-122.45,37.68333333333333],[-122.41638888888889,37.6575],[-122.4,37.63333333333333],[-122.36472222222221,37.60111111111111],[-122.35,37.56666666666667],[-122.3,37.516666666666666],[-122.28777777777778,37.47666666666667],[-122.26666666666667,37.45],[-122.33027777777778,37.37888888888889],[-122.4,37.45],[-122.33333333333333,37.45],[-122.29027777777777,37.439722222222215],[-122.25,37.43333333333333],[-122.21388888888889,37.41277777777778],[-122.18333333333334,37.4],[-122.13916666666667,37.405833333333334],[-122.10888888888888,37.45305555555556],[-122.11666666666666,37.483333333333334],[-122.13222222222221,37.50277777777778],[-122.15,37.516666666666666],[-122.18,37.53638888888889],[-122.2,37.55],[-122.2325,37.558611111111105],[-122.25,37.56666666666667],[-122.27638888888889,37.577222222222225],[-122.31333333333333,37.59277777777778],[-122.33333333333333,37.6],[-122.35,37.60805555555556]],"type":"LineString"}
}
