{
  "id": 2031983017,
  "type": "Feature",
  "properties": {
    "geom:area": 0,
    "geom:bbox": "-122.397778,37.628611,-70.961111,44.545556",
    "geom:latitude": 42.822656820050575,
    "geom:longitude": -97.02000720075041,
    "src:alt_label": "swim-path",
    "src:geom": "swim",
    "swim:altitudes": [
      "009",
      "032",
      "046",
      "047",
      "066",
      "089",
      "106",
      "121",
      "141",
      "157",
      "172",
      "188",
      "202",
      "218",
      "233",
      "244",
      "255",
      "266",
      "276",
      "285",
      "292",
      "301",
      "309C",
      "310C",
      "310C",
      "310C",
      "310C",
      "310C",
      "310",
      "327",
      "330C",
      "330C",
      "330C",
      "330C",
      "330C",
      "330C",
      "330C",
      "330C",
      "330C",
      "330C",
      "330C",
      "330C",
      "330C",
      "330C",
      "330C",
      "330C",
      "330C",
      "330C",
      "330C",
      "330C",
      "330C",
      "330C",
      "330C",
      "330C",
      "330C",
      "330C",
      "330C",
      "330C",
      "330C",
      "330C",
      "330C",
      "330C",
      "330C",
      "330C",
      "330C",
      "330C",
      "330C",
      "330C",
      "330C",
      "330C",
      "330C",
      "330C",
      "330C",
      "330C",
      "330C",
      "330C",
      "330C",
      "330C",
      "330C",
      "330C",
      "330C",
      "330C",
      "330C",
      "330C",
      "330C",
      "330C",
      "330C",
      "330C",
      "330C",
      "330C",
      "330C",
      "330C",
      "330C",
      "330C",
      "330C",
      "330C",
      "330C",
      "330C",
      "330C",
      "330C",
      "330C",
      "330C",
      "330C",
      "330C",
      "330C",
      "330C",
      "330C",
      "330C",
      "330C",
      "330C",
      "330C",
      "330C",
      "330C",
      "330C",
      "330C",
      "330C",
      "330C",
      "330C",
      "330C",
      "330C",
      "330C",
      "330C",
      "330C",
      "330C",
      "330C",
      "331",
      "331",
      "339",
      "342",
      "349C",
      "350C",
      "350C",
      "350C",
      "350C",
      "350C",
      "350C",
      "350C",
      "350C",
      "350C",
      "350C",
      "350C",
      "350C",
      "350C",
      "350C",
      "350C",
      "350C",
      "350C",
      "350C",
      "350C",
      "350C",
      "350C",
      "350C",
      "350C",
      "350C",
      "350C",
      "350C",
      "350C",
      "350C",
      "350C",
      "350C",
      "350C",
      "350C",
      "350C",
      "350C",
      "350C",
      "350C",
      "350C",
      "350C",
      "350C",
      "350C",
      "350C",
      "350C",
      "350C",
      "350C",
      "350C",
      "350C",
      "350C",
      "350C",
      "350C",
      "350C",
      "350C",
      "350C",
      "350C",
      "350C",
      "350C",
      "350C",
      "350C",
      "350C",
      "350C",
      "350C",
      "350C",
      "350C",
      "350C",
      "350C",
      "350C",
      "350C",
      "350C",
      "350C",
      "350C",
      "350C",
      "350C",
      "350C",
      "350C",
      "350C",
      "350C",
      "350C",
      "350C",
      "350C",
      "350C",
      "350C",
      "350C",
      "350C",
      "350C",
      "350C",
      "350C",
      "350C",
      "350C",
      "350C",
      "350C",
      "350C",
      "350C",
      "350C",
      "350C",
      "350C",
      "350C",
      "350C",
      "350C",
      "350C",
      "350C",
      "350C",
      "350C",
      "350C",
      "350C",
      "350C",
      "350C",
      "350C",
      "350C",
      "350C",
      "350C",
      "350C",
      "350C",
      "350C",
      "350C",
      "350C",
      "350C",
      "350C",
      "350C",
      "350C",
      "350C",
      "350C",
      "350C",
      "350C",
      "350C",
      "350C",
      "350C",
      "350C",
      "350C",
      "350C",
      "350C",
      "350C",
      "350C",
      "350C",
      "350C",
      "350C",
      "350C",
      "350C",
      "350C",
      "350C",
      "350C",
      "350C",
      "350C",
      "350C",
      "350C",
      "350C",
      "350C",
      "350C",
      "350C",
      "350C",
      "350C",
      "350C",
      "350C",
      "350C",
      "350C",
      "350C",
      "350C",
      "350C",
      "350C",
      "350C",
      "350C",
      "350C",
      "350C",
      "350C",
      "350C",
      "350C",
      "350C",
      "350C",
      "350C",
      "350C",
      "350C",
      "350C",
      "350C",
      "350C",
      "350C",
      "350C",
      "350C",
      "350C",
      "350C",
      "350C",
      "350C",
      "350C",
      "350C",
      "350C",
      "350C",
      "350C",
      "350C",
      "350C",
      "350C",
      "350C",
      "350C",
      "350C",
      "350C",
      "350C",
      "350C",
      "350C",
      "350C",
      "350C",
      "350C",
      "350C",
      "350C",
      "350C",
      "350C",
      "350C",
      "350C",
      "350C",
      "350C",
      "350",
      "350",
      "350",
      "350",
      "350",
      "328",
      "305",
      "286",
      "265",
      "243",
      "224",
      "203",
      "183",
      "163",
      "161",
      "151",
      "145",
      "135",
      "126",
      "120",
      "118",
      "111",
      "102",
      "100",
      "100",
      "092",
      "087",
      "079",
      "075",
      "068",
      "063",
      "056",
      "047",
      "040",
      "031",
      "030",
      "030",
      "030",
      "027",
      "024",
      "021",
      "015",
      "013",
      "007",
      "005"
    ],
    "swim:geom": "path",
    "swim:speeds": [
      168,
      209,
      239,
      241,
      278,
      287,
      316,
      350,
      361,
      377,
      391,
      402,
      410,
      420,
      432,
      443,
      454,
      463,
      471,
      480,
      482,
      489,
      495,
      510,
      519,
      519,
      519,
      524,
      519,
      528,
      528,
      527,
      527,
      526,
      524,
      522,
      521,
      520,
      520,
      521,
      522,
      522,
      521,
      520,
      519,
      517,
      515,
      515,
      515,
      514,
      514,
      513,
      513,
      513,
      513,
      514,
      514,
      514,
      513,
      514,
      514,
      514,
      514,
      513,
      511,
      511,
      511,
      511,
      510,
      510,
      509,
      509,
      509,
      509,
      510,
      511,
      513,
      514,
      515,
      515,
      515,
      514,
      514,
      515,
      514,
      513,
      513,
      518,
      513,
      516,
      513,
      514,
      513,
      513,
      513,
      513,
      512,
      512,
      512,
      511,
      511,
      510,
      510,
      509,
      509,
      508,
      508,
      508,
      507,
      507,
      507,
      507,
      507,
      508,
      508,
      509,
      510,
      510,
      511,
      511,
      511,
      511,
      511,
      510,
      510,
      510,
      510,
      512,
      512,
      512,
      511,
      511,
      511,
      509,
      512,
      512,
      511,
      512,
      512,
      512,
      512,
      513,
      513,
      513,
      513,
      513,
      512,
      512,
      512,
      511,
      511,
      511,
      511,
      512,
      512,
      514,
      515,
      515,
      516,
      516,
      516,
      516,
      518,
      518,
      520,
      520,
      520,
      521,
      521,
      520,
      519,
      518,
      517,
      518,
      522,
      523,
      523,
      522,
      521,
      520,
      519,
      517,
      516,
      515,
      515,
      516,
      516,
      516,
      517,
      518,
      519,
      521,
      523,
      524,
      524,
      529,
      530,
      530,
      529,
      528,
      528,
      527,
      527,
      527,
      528,
      527,
      527,
      527,
      523,
      526,
      524,
      526,
      524,
      525,
      525,
      526,
      527,
      527,
      527,
      528,
      528,
      528,
      528,
      528,
      528,
      528,
      528,
      527,
      526,
      523,
      522,
      521,
      519,
      518,
      517,
      516,
      514,
      513,
      512,
      510,
      509,
      510,
      510,
      511,
      512,
      513,
      514,
      520,
      516,
      520,
      517,
      510,
      499,
      499,
      513,
      517,
      520,
      520,
      520,
      520,
      520,
      519,
      516,
      516,
      506,
      503,
      504,
      504,
      503,
      502,
      502,
      500,
      498,
      493,
      492,
      492,
      493,
      493,
      493,
      493,
      493,
      493,
      492,
      491,
      490,
      489,
      488,
      486,
      485,
      486,
      489,
      493,
      497,
      498,
      485,
      484,
      484,
      484,
      482,
      480,
      478,
      475,
      474,
      474,
      475,
      475,
      476,
      476,
      477,
      479,
      480,
      480,
      479,
      477,
      474,
      471,
      470,
      468,
      466,
      464,
      462,
      460,
      459,
      460,
      460,
      463,
      463,
      462,
      461,
      461,
      461,
      460,
      459,
      458,
      457,
      457,
      457,
      457,
      457,
      458,
      459,
      460,
      448,
      435,
      423,
      413,
      400,
      388,
      375,
      369,
      363,
      363,
      353,
      354,
      343,
      337,
      326,
      327,
      296,
      298,
      288,
      288,
      282,
      278,
      269,
      262,
      249,
      251,
      245,
      249,
      247,
      236,
      202,
      192,
      182,
      179,
      157,
      155,
      148,
      151
    ],
    "swim:timestamps": [
      1785128059,
      1785128115,
      1785128169,
      1785128179,
      1785128239,
      1785128300,
      1785128360,
      1785128420,
      1785128480,
      1785128540,
      1785128600,
      1785128660,
      1785128720,
      1785128780,
      1785128840,
      1785128900,
      1785128960,
      1785129020,
      1785129080,
      1785129140,
      1785129197,
      1785129257,
      1785129317,
      1785129498,
      1785129561,
      1785129618,
      1785129678,
      1785129738,
      1785129798,
      1785129978,
      1785130038,
      1785130098,
      1785130158,
      1785130218,
      1785130278,
      1785130338,
      1785130399,
      1785130459,
      1785130519,
      1785130579,
      1785130639,
      1785130699,
      1785130759,
      1785130819,
      1785130879,
      1785130939,
      1785130999,
      1785131059,
      1785131119,
      1785131179,
      1785131239,
      1785131299,
      1785131359,
      1785131420,
      1785131480,
      1785131540,
      1785131600,
      1785131660,
      1785131720,
      1785131780,
      1785131840,
      1785131900,
      1785131960,
      1785132020,
      1785132080,
      1785132140,
      1785132200,
      1785132260,
      1785132320,
      1785132380,
      1785132440,
      1785132501,
      1785132561,
      1785132621,
      1785132681,
      1785132741,
      1785132801,
      1785132861,
      1785132921,
      1785132981,
      1785133041,
      1785133101,
      1785133161,
      1785133221,
      1785133281,
      1785133341,
      1785133401,
      1785133444,
      1785133461,
      1785133504,
      1785133521,
      1785133564,
      1785133581,
      1785133624,
      1785133642,
      1785133684,
      1785133702,
      1785133744,
      1785133762,
      1785133804,
      1785133822,
      1785133864,
      1785133882,
      1785133924,
      1785133942,
      1785133984,
      1785134002,
      1785134044,
      1785134062,
      1785134104,
      1785134122,
      1785134164,
      1785134182,
      1785134224,
      1785134242,
      1785134284,
      1785134302,
      1785134344,
      1785134362,
      1785134404,
      1785134422,
      1785134464,
      1785134482,
      1785134524,
      1785134542,
      1785134584,
      1785134602,
      1785134644,
      1785134662,
      1785134704,
      1785134722,
      1785134765,
      1785134782,
      1785134815,
      1785134825,
      1785134843,
      1785134875,
      1785134885,
      1785134903,
      1785134935,
      1785134945,
      1785134995,
      1785135005,
      1785135055,
      1785135065,
      1785135115,
      1785135125,
      1785135175,
      1785135185,
      1785135235,
      1785135245,
      1785135295,
      1785135305,
      1785135355,
      1785135365,
      1785135425,
      1785135475,
      1785135485,
      1785135535,
      1785135545,
      1785135605,
      1785135665,
      1785135716,
      1785135725,
      1785135785,
      1785135836,
      1785135845,
      1785135896,
      1785135956,
      1785136016,
      1785136076,
      1785136136,
      1785136196,
      1785136256,
      1785136316,
      1785136376,
      1785136436,
      1785136496,
      1785136556,
      1785136616,
      1785136676,
      1785136736,
      1785136796,
      1785136856,
      1785136916,
      1785136976,
      1785137036,
      1785137096,
      1785137156,
      1785137216,
      1785137276,
      1785137337,
      1785137397,
      1785137457,
      1785137517,
      1785137577,
      1785137637,
      1785137697,
      1785137757,
      1785137817,
      1785137877,
      1785137937,
      1785137997,
      1785138057,
      1785138117,
      1785138177,
      1785138237,
      1785138297,
      1785138336,
      1785138357,
      1785138397,
      1785138417,
      1785138455,
      1785138477,
      1785138517,
      1785138537,
      1785138575,
      1785138597,
      1785138635,
      1785138657,
      1785138695,
      1785138717,
      1785138757,
      1785138777,
      1785138815,
      1785138837,
      1785138875,
      1785138897,
      1785138936,
      1785138957,
      1785138997,
      1785139018,
      1785139055,
      1785139078,
      1785139117,
      1785139138,
      1785139175,
      1785139198,
      1785139236,
      1785139296,
      1785139318,
      1785139356,
      1785139378,
      1785139417,
      1785139438,
      1785139476,
      1785139537,
      1785139558,
      1785139597,
      1785139618,
      1785139656,
      1785139678,
      1785139718,
      1785139738,
      1785139778,
      1785139798,
      1785139838,
      1785139858,
      1785139898,
      1785139958,
      1785140016,
      1785140075,
      1785140135,
      1785140168,
      1785140195,
      1785140228,
      1785140258,
      1785140288,
      1785140317,
      1785140348,
      1785140376,
      1785140408,
      1785140436,
      1785140468,
      1785140496,
      1785140528,
      1785140556,
      1785140589,
      1785140618,
      1785140648,
      1785140676,
      1785140708,
      1785140736,
      1785140768,
      1785140797,
      1785140828,
      1785140858,
      1785140890,
      1785140918,
      1785140948,
      1785140978,
      1785141036,
      1785141248,
      1785141308,
      1785141863,
      1785141923,
      1785141984,
      1785142041,
      1785142101,
      1785142161,
      1785142222,
      1785142282,
      1785142342,
      1785142402,
      1785142463,
      1785142523,
      1785142582,
      1785142643,
      1785142703,
      1785142761,
      1785142822,
      1785142883,
      1785142944,
      1785143001,
      1785143061,
      1785143122,
      1785143182,
      1785143242,
      1785143302,
      1785143362,
      1785143422,
      1785143482,
      1785143542,
      1785143602,
      1785143662,
      1785143782,
      1785143842,
      1785143902,
      1785143962,
      1785144022,
      1785144082,
      1785144143,
      1785144203,
      1785144263,
      1785144323,
      1785144383,
      1785144443,
      1785144503,
      1785144563,
      1785144623,
      1785144683,
      1785144743,
      1785144803,
      1785144863,
      1785144923,
      1785144983,
      1785145043,
      1785145103,
      1785145163,
      1785145170,
      1785145200,
      1785145223,
      1785145254,
      1785145283,
      1785145308,
      1785145343,
      1785145368,
      1785145403,
      1785145440,
      1785145463,
      1785145500,
      1785145523,
      1785145554,
      1785145583,
      1785145608,
      1785145643,
      1785145668,
      1785145703,
      1785145728,
      1785145763,
      1785145794,
      1785145823,
      1785145854,
      1785145884,
      1785145914,
      1785145944,
      1785145986,
      1785146004,
      1785146046,
      1785146064
    ],
    "wof:geomhash": "5264e549a1d4792038dc2e5f6a3f86db",
    "wof:id": 2031983017,
    "wof:repo": "sfomuseum-data-flights-2026-07"
  },
  "bbox": [
    -122.39777777777779,
    37.62861111111111,
    -70.96111111111111,
    44.54555555555555
  ],
  "geometry": {"coordinates":[[-122.39777777777779,37.62861111111111],[-122.36666666666666,37.666666666666664],[-122.31666666666666,37.68333333333333],[-122.30055555555555,37.69],[-122.21416666666667,37.72166666666667],[-122.1538888888889,37.785],[-122.09138888888889,37.85416666666667],[-122.0213888888889,37.93222222222222],[-121.94722222222222,38.013888888888886],[-121.86916666666666,38.09916666666667],[-121.785,38.19083333333333],[-121.70055555555555,38.283055555555556],[-121.61527777777778,38.375],[-121.5175,38.46472222222223],[-121.39555555555556,38.53944444444444],[-121.2911111111111,38.60305555555556],[-121.15972222222223,38.68277777777777],[-121.02777777777777,38.7625],[-120.8938888888889,38.84305555555556],[-120.75861111111111,38.924166666666665],[-120.63944444444445,38.99194444444444],[-120.50055555555555,39.07638888888889],[-120.35777777777777,39.16027777777778],[-119.91861111111112,39.41777777777777],[-119.73833333333333,39.52444444444444],[-119.61888888888888,39.59277777777778],[-119.4675,39.680277777777775],[-119.28472222222221,39.785555555555554],[-119.16527777777779,39.853611111111114],[-118.67555555555556,40.08638888888889],[-118.51055555555556,40.156388888888884],[-118.34305555555555,40.22666666666667],[-118.17472222222223,40.29694444444444],[-118.00472222222223,40.36194444444445],[-117.83111111111111,40.42527777777777],[-117.65972222222223,40.487500000000004],[-117.48861111111111,40.54888888888889],[-117.31527777777778,40.61055555555556],[-117.14222222222223,40.67222222222222],[-116.96555555555555,40.734722222222224],[-116.78944444444444,40.79666666666667],[-116.61472222222221,40.85722222222223],[-116.44,40.91777777777777],[-116.26722222222222,40.977222222222224],[-116.09305555555555,41.036944444444444],[-115.92166666666667,41.09527777777778],[-115.74833333333333,41.153888888888886],[-115.57527777777777,41.21222222222222],[-115.40333333333334,41.269444444444446],[-115.2286111111111,41.327222222222225],[-115.05638888888889,41.384166666666665],[-114.88138888888888,41.441111111111105],[-114.70694444444445,41.49805555555556],[-114.53388888888888,41.55416666666667],[-114.35777777777777,41.61083333333333],[-114.18388888888889,41.66611111111111],[-114.0075,41.72222222222222],[-113.83111111111111,41.77777777777778],[-113.65833333333335,41.831944444444446],[-113.48166666666667,41.88666666666666],[-113.30555555555556,41.941111111111105],[-113.12916666666666,41.99527777777778],[-112.94916666666667,42.05],[-112.77583333333334,42.1025],[-112.59388888888888,42.157222222222224],[-112.42277777777778,42.20944444444445],[-112.24277777777777,42.269444444444446],[-112.0675,42.3275],[-111.89333333333335,42.38472222222222],[-111.71722222222222,42.442499999999995],[-111.54194444444444,42.49944444444444],[-111.36611111111111,42.55611111111111],[-111.19916666666667,42.609722222222224],[-111.02361111111111,42.66555555555556],[-110.84722222222221,42.72138888888889],[-110.66888888888889,42.777499999999996],[-110.49138888888889,42.83277777777778],[-110.31416666666667,42.88805555555555],[-110.13361111111112,42.94361111111111],[-109.95444444444445,42.998333333333335],[-109.7713888888889,43.053888888888885],[-109.59027777777777,43.10861111111111],[-109.4088888888889,43.16277777777778],[-109.2286111111111,43.21638888888889],[-109.04777777777778,43.269999999999996],[-108.86861111111111,43.322500000000005],[-108.6875,43.375277777777775],[-108.5436111111111,43.416666666666664],[-108.5038888888889,43.42805555555555],[-108.35916666666667,43.469722222222224],[-108.32305555555556,43.48027777777778],[-108.17916666666667,43.521388888888886],[-108.10472222222222,43.54222222222222],[-107.99666666666667,43.57277777777778],[-107.92361111111111,43.593333333333334],[-107.81416666666667,43.62416666666667],[-107.74166666666667,43.644444444444446],[-107.635,43.674166666666665],[-107.5611111111111,43.69499999999999],[-107.45305555555557,43.724722222222226],[-107.37694444444443,43.74583333333334],[-107.26972222222223,43.775277777777774],[-107.19666666666667,43.79527777777778],[-107.08833333333332,43.82472222222223],[-107.01638888888888,43.844166666666666],[-106.90666666666667,43.87361111111111],[-106.82944444444443,43.894444444444446],[-106.71361111111112,43.925555555555555],[-106.67472222222223,43.93611111111111],[-106.53,43.974722222222226],[-106.47,43.99055555555556],[-106.3425,44.019999999999996],[-106.28277777777778,44.033055555555556],[-106.15611111111112,44.06027777777778],[-106.11583333333333,44.06888888888889],[-105.96583333333334,44.10111111111111],[-105.92777777777778,44.10916666666667],[-105.77666666666667,44.14083333333333],[-105.73666666666666,44.14944444444444],[-105.58611111111111,44.18083333333333],[-105.54833333333333,44.18888888888888],[-105.39750000000001,44.22027777777778],[-105.35833333333333,44.228611111111114],[-105.20694444444445,44.25972222222222],[-105.16805555555555,44.26777777777777],[-105.0175,44.29861111111111],[-104.97611111111111,44.30694444444444],[-104.82527777777777,44.337500000000006],[-104.78611111111111,44.34527777777778],[-104.63444444444445,44.37555555555556],[-104.59388888888888,44.38361111111111],[-104.44416666666667,44.413333333333334],[-104.40416666666667,44.42111111111111],[-104.28805555555556,44.44416666666666],[-104.25194444444445,44.45111111111111],[-104.21000000000001,44.45916666666667],[-104.0961111111111,44.481388888888894],[-104.05805555555555,44.48861111111111],[-104.01722222222222,44.495],[-103.89861111111112,44.5025],[-103.85972222222222,44.50361111111111],[-103.69972222222222,44.50805555555556],[-103.66055555555556,44.509166666666665],[-103.50194444444445,44.51305555555555],[-103.46194444444444,44.513888888888886],[-103.30277777777778,44.5175],[-103.26444444444445,44.51833333333333],[-103.10277777777777,44.52166666666667],[-103.065,44.5225],[-102.90555555555557,44.52583333333333],[-102.86833333333333,44.52638888888889],[-102.70805555555556,44.52916666666667],[-102.66833333333334,44.52972222222222],[-102.51,44.532222222222224],[-102.46944444444445,44.532777777777774],[-102.26805555555555,44.53583333333333],[-102.10833333333333,44.53777777777778],[-102.06777777777778,44.53805555555555],[-101.90833333333335,44.54],[-101.86666666666666,44.540277777777774],[-101.67,44.54194444444444],[-101.46694444444445,44.54361111111111],[-101.30388888888889,44.54416666666666],[-101.26472222222222,44.544444444444444],[-101.06138888888889,44.54527777777778],[-100.90194444444445,44.54555555555555],[-100.85972222222222,44.54555555555555],[-100.69777777777779,44.54555555555555],[-100.49972222222222,44.544999999999995],[-100.29861111111111,44.54361111111111],[-100.09944444444444,44.541666666666664],[-99.89916666666667,44.53944444444444],[-99.70055555555555,44.53666666666666],[-99.50138888888888,44.53361111111111],[-99.2975,44.530277777777776],[-99.09555555555555,44.526666666666664],[-98.89361111111111,44.5225],[-98.69277777777778,44.518055555555556],[-98.49194444444444,44.51305555555555],[-98.25555555555556,44.50694444444444],[-98.05416666666666,44.50138888888889],[-97.85416666666666,44.49944444444444],[-97.65666666666667,44.498333333333335],[-97.45666666666666,44.49722222222222],[-97.25583333333333,44.495555555555555],[-97.05416666666666,44.49333333333333],[-96.85444444444444,44.49111111111111],[-96.65083333333334,44.48833333333334],[-96.49,44.48583333333333],[-96.28416666666666,44.48222222222223],[-96.08138888888888,44.478611111111114],[-95.8761111111111,44.474444444444444],[-95.66805555555555,44.469722222222224],[-95.465,44.46472222222223],[-95.25916666666667,44.45944444444445],[-95.05555555555556,44.44083333333333],[-94.85333333333332,44.41444444444444],[-94.64972222222222,44.38722222222222],[-94.42555555555556,44.35722222222223],[-94.22444444444444,44.32972222222222],[-94.02388888888889,44.301944444444445],[-93.82694444444444,44.274166666666666],[-93.62583333333333,44.245555555555555],[-93.42888888888889,44.216944444444444],[-93.23111111111112,44.18833333333333],[-93.03416666666666,44.159166666666664],[-92.83611111111111,44.129444444444445],[-92.63666666666667,44.09916666666667],[-92.51833333333333,44.08111111111111],[-92.44222222222223,44.06916666666667],[-92.33138888888888,44.05222222222222],[-92.24444444444444,44.03861111111111],[-92.13444444444445,44.021388888888886],[-92.04694444444445,44.0075],[-91.93527777777778,43.98583333333333],[-91.85333333333332,43.967777777777776],[-91.74,43.94277777777778],[-91.65666666666667,43.92444444444444],[-91.54444444444444,43.89972222222222],[-91.46611111111112,43.882222222222225],[-91.35138888888888,43.85638888888889],[-91.2725,43.83861111111111],[-91.15416666666667,43.81166666666666],[-91.0775,43.79416666666666],[-90.96138888888889,43.76777777777777],[-90.88277777777778,43.749722222222225],[-90.77,43.723888888888894],[-90.68944444444445,43.70527777777778],[-90.57805555555555,43.67916666666667],[-90.49888888888889,43.660555555555554],[-90.38694444444445,43.634166666666665],[-90.31027777777777,43.61638888888889],[-90.20277777777778,43.59111111111111],[-90.12249999999999,43.57194444444445],[-90.01361111111112,43.54611111111111],[-89.93583333333333,43.527499999999996],[-89.82944444444443,43.50194444444445],[-89.75138888888888,43.48305555555556],[-89.6463888888889,43.4575],[-89.46333333333334,43.41305555555555],[-89.385,43.39361111111111],[-89.27972222222222,43.367777777777775],[-89.20194444444445,43.34861111111111],[-89.09333333333333,43.32166666666667],[-89.01722222222222,43.30277777777778],[-88.9113888888889,43.27611111111111],[-88.72944444444444,43.23027777777778],[-88.65611111111112,43.209722222222226],[-88.54666666666667,43.18416666666666],[-88.4725,43.16305555555555],[-88.3625,43.136944444444445],[-88.28111111111112,43.123333333333335],[-88.13833333333334,43.12444444444444],[-88.09416666666667,43.12583333333333],[-87.94666666666667,43.11055555555556],[-87.90694444444445,43.10111111111111],[-87.76083333333334,43.06305555555555],[-87.71833333333333,43.055],[-87.56888888888888,43.02916666666667],[-87.37805555555555,42.993611111111115],[-87.19250000000001,42.95861111111111],[-87.00444444444445,42.92222222222222],[-86.81611111111111,42.88583333333333],[-86.74166666666667,42.87305555555555],[-86.62916666666666,42.86555555555556],[-86.55416666666666,42.858333333333334],[-86.44305555555556,42.85138888888889],[-86.36694444444444,42.84583333333334],[-86.255,42.838055555555556],[-86.14361111111111,42.830555555555556],[-86.06888888888888,42.825],[-85.96138888888889,42.82027777777778],[-85.88722222222223,42.81861111111112],[-85.77888888888889,42.82333333333334],[-85.70277777777778,42.827222222222225],[-85.5936111111111,42.8325],[-85.52111111111111,42.83583333333333],[-85.4075,42.84055555555556],[-85.33611111111111,42.843333333333334],[-85.22416666666666,42.84777777777778],[-85.14722222222223,42.850833333333334],[-85.04027777777777,42.855000000000004],[-84.96611111111112,42.85777777777778],[-84.8561111111111,42.86194444444445],[-84.78166666666667,42.86472222222223],[-84.67277777777778,42.86888888888889],[-84.59805555555555,42.87166666666667],[-84.48944444444444,42.87555555555556],[-84.41472222222222,42.878055555555555],[-84.29388888888889,42.882222222222225],[-84.23083333333334,42.884166666666665],[-84.045,42.89],[-83.38944444444445,42.90861111111111],[-83.19916666666667,42.91277777777778],[-81.46777777777778,42.94027777777777],[-81.28222222222222,42.94166666666666],[-81.09944444444444,42.94277777777778],[-80.91722222222222,42.94361111111111],[-80.73555555555555,42.943888888888885],[-80.55388888888889,42.94416666666666],[-80.37416666666665,42.943888888888885],[-80.19583333333334,42.94361111111111],[-80.01694444444445,42.94305555555555],[-79.83194444444445,42.94194444444444],[-79.65333333333334,42.94083333333333],[-79.47472222222223,42.93944444444444],[-79.29305555555555,42.9375],[-79.11361111111111,42.93527777777778],[-78.93277777777779,42.93333333333333],[-78.74861111111112,42.930277777777775],[-78.56944444444444,42.927499999999995],[-78.3863888888889,42.924166666666665],[-78.20611111111111,42.92055555555555],[-78.0261111111111,42.916666666666664],[-77.88166666666666,42.913333333333334],[-77.70361111111112,42.909166666666664],[-77.52361111111111,42.905],[-77.34527777777777,42.89972222222222],[-77.16888888888889,42.89472222222222],[-76.99472222222222,42.88944444444444],[-76.81972222222223,42.88388888888889],[-76.64916666666667,42.87861111111111],[-76.47444444444444,42.87222222222222],[-76.30111111111111,42.86611111111111],[-76.12722222222222,42.85944444444445],[-75.77888888888889,42.845555555555556],[-75.60638888888889,42.83833333333334],[-75.39944444444446,42.82916666666667],[-75.22805555555556,42.82138888888889],[-75.05722222222222,42.81333333333333],[-74.88388888888889,42.80472222222222],[-74.71138888888889,42.79611111111111],[-74.5425,42.7875],[-74.37055555555555,42.77833333333333],[-74.19888888888889,42.76888888888889],[-74.04638888888888,42.76027777777778],[-73.87416666666665,42.75055555555556],[-73.7025,42.74638888888889],[-73.5275,42.74472222222222],[-73.35444444444444,42.74333333333333],[-73.18055555555556,42.74138888888889],[-73.00444444444445,42.72805555555556],[-72.84888888888888,42.71],[-72.68694444444445,42.691111111111105],[-72.51166666666667,42.66972222222222],[-72.36055555555555,42.651111111111106],[-72.20361111111112,42.632777777777775],[-72.05916666666667,42.615833333333335],[-71.92027777777778,42.59861111111111],[-71.9,42.6],[-71.83333333333333,42.583333333333336],[-71.7863888888889,42.58111111111111],[-71.71666666666667,42.56666666666667],[-71.6575,42.56055555555555],[-71.6,42.55],[-71.53361111111111,42.53805555555555],[-71.48333333333333,42.53333333333333],[-71.41777777777779,42.51416666666667],[-71.35,42.5],[-71.30777777777777,42.49138888888889],[-71.23333333333333,42.483333333333334],[-71.20555555555556,42.46888888888889],[-71.16666666666667,42.43333333333333],[-71.13083333333333,42.414722222222224],[-71.1,42.38333333333333],[-71.06166666666667,42.36138888888889],[-71.03333333333333,42.333333333333336],[-70.99444444444444,42.308611111111105],[-70.96666666666667,42.28333333333333],[-70.96111111111111,42.25111111111111],[-70.98333333333333,42.21666666666667],[-70.9961111111111,42.189166666666665],[-71.03333333333333,42.18333333333333],[-71.06138888888889,42.2025],[-71.06666666666666,42.233333333333334],[-71.06027777777777,42.25083333333333],[-71.05,42.28333333333333],[-71.03972222222222,42.29361111111111],[-71.03333333333333,42.31666666666667],[-71.02111111111111,42.331944444444446]],"type":"LineString"}
}
