{
  "id": 2032006579,
  "type": "Feature",
  "properties": {
    "geom:area": 0,
    "geom:bbox": "-122.350000,37.366667,-122.093056,37.616667",
    "geom:latitude": 37.48721651199031,
    "geom:longitude": -122.18422211886647,
    "src:alt_label": "swim-path",
    "src:geom": "swim",
    "swim:altitudes": [
      "070",
      "065",
      "063",
      "054",
      "051",
      "046",
      "044",
      "041",
      "039",
      "035",
      "027",
      "012",
      "008",
      "004",
      "001"
    ],
    "swim:geom": "path",
    "swim:speeds": [
      258,
      223,
      210,
      201,
      198,
      193,
      189,
      186,
      174,
      173,
      161,
      142,
      142,
      138,
      140
    ],
    "swim:timestamps": [
      1785294568,
      1785294628,
      1785294636,
      1785294688,
      1785294701,
      1785294748,
      1785294761,
      1785294808,
      1785294821,
      1785294869,
      1785294929,
      1785295049,
      1785295061,
      1785295109,
      1785295122
    ],
    "wof:geomhash": "1556ff278e186253f2434d17bbf1b744",
    "wof:id": 2032006579,
    "wof:repo": "sfomuseum-data-flights-2026-07"
  },
  "bbox": [
    -122.35,
    37.36666666666667,
    -122.09305555555555,
    37.61666666666667
  ],
  "geometry": {"coordinates":[[-122.2325,37.39694444444444],[-122.1575,37.370555555555555],[-122.13333333333334,37.36666666666667],[-122.10416666666666,37.39527777777778],[-122.1,37.416666666666664],[-122.09305555555555,37.446666666666665],[-122.1,37.46666666666667],[-122.11138888888888,37.49583333333334],[-122.11666666666666,37.516666666666666],[-122.15166666666667,37.526944444444446],[-122.2025,37.54833333333333],[-122.295,37.58722222222222],[-122.31666666666666,37.6],[-122.33749999999999,37.60527777777778],[-122.35,37.61666666666667]],"type":"LineString"}
}
