{
  "id": 2031957887,
  "type": "Feature",
  "properties": {
    "geom:area": 0,
    "geom:bbox": "-123.331920,37.631130,-122.405090,38.510190",
    "geom:latitude": 38.03035355443009,
    "geom:longitude": -122.90100696806671,
    "src:alt_label": "swim-takeoff",
    "src:geom": "swim",
    "swim:elevations": [
      368,
      675,
      734,
      987,
      1294,
      1361,
      1677,
      1937,
      2143,
      2594,
      2919,
      3197,
      3319,
      3490,
      3747,
      4072,
      4407,
      4543,
      4875,
      5196,
      5395,
      5664,
      5935,
      6248,
      6431,
      6523
    ],
    "swim:geom": "takeoff",
    "swim:timestamps": [
      1784944218,
      1784944239,
      1784944248,
      1784944275,
      1784944317,
      1784944323,
      1784944370,
      1784944406,
      1784944424,
      1784944462,
      1784944492,
      1784944522,
      1784944549,
      1784944583,
      1784944610,
      1784944643,
      1784944676,
      1784944691,
      1784944727,
      1784944763,
      1784944784,
      1784944814,
      1784944847,
      1784944884,
      1784944908,
      1784944920
    ],
    "wof:geomhash": "84cdde4c5017d63dc0b4a8c5c7e5f30e",
    "wof:id": 2031957887,
    "wof:repo": "sfomuseum-data-flights-2026-07"
  },
  "bbox": [
    -123.33192,
    37.63113,
    -122.40509,
    38.51019
  ],
  "geometry": {"coordinates":[[-122.40509,37.63113],[-122.42496,37.63924],[-122.43387,37.64299],[-122.46149,37.65584],[-122.50798,37.67757],[-122.51487,37.68149],[-122.57212,37.71538],[-122.62305,37.74531],[-122.64949,37.76088],[-122.70557,37.7938],[-122.75144,37.82265],[-122.78717,37.86024],[-122.81856,37.89797],[-122.86041,37.94866],[-122.8956,37.99115],[-122.93906,38.04348],[-122.98327,38.09637],[-123.00362,38.12057],[-123.05302,38.17952],[-123.10348,38.23973],[-123.13318,38.27514],[-123.17627,38.32635],[-123.22418,38.38309],[-123.27703,38.44672],[-123.31381,38.48894],[-123.33192,38.51019]],"type":"LineString"}
}
