{
  "id": 2031967867,
  "type": "Feature",
  "properties": {
    "geom:area": 0,
    "geom:bbox": "-122.390556,37.616667,-111.976667,40.767778",
    "geom:latitude": 39.81496396420431,
    "geom:longitude": -117.22884475096494,
    "src:alt_label": "swim-path",
    "src:geom": "swim",
    "swim:altitudes": [
      "007",
      "011",
      "035",
      "049",
      "072",
      "076",
      "098",
      "122",
      "144",
      "184",
      "191",
      "197",
      "211",
      "225",
      "252",
      "261",
      "271",
      "281",
      "285",
      "292",
      "298",
      "306",
      "310",
      "318",
      "327",
      "330C",
      "330C",
      "330C",
      "330C",
      "330C",
      "330C",
      "330C",
      "330C",
      "330C",
      "331C",
      "331C",
      "330C",
      "330C",
      "330C",
      "330C",
      "330C",
      "330C",
      "331",
      "332",
      "342",
      "344",
      "348C",
      "349C",
      "350C",
      "350C",
      "350C",
      "350C",
      "350C",
      "350C",
      "350C",
      "350C",
      "350C",
      "350C",
      "350C",
      "350C",
      "350C",
      "350C",
      "350C",
      "350C",
      "350C",
      "350C",
      "350C",
      "351C",
      "350C",
      "350C",
      "350C",
      "350",
      "350",
      "350",
      "346",
      "336",
      "325",
      "314",
      "266",
      "222",
      "190",
      "181",
      "168",
      "151",
      "123",
      "120",
      "120",
      "120",
      "120",
      "120",
      "114",
      "112",
      "110",
      "109",
      "098",
      "096",
      "087",
      "079",
      "078",
      "076",
      "075",
      "064",
      "063",
      "053",
      "052",
      "045",
      "044"
    ],
    "swim:geom": "path",
    "swim:speeds": [
      157,
      156,
      177,
      275,
      290,
      296,
      304,
      322,
      331,
      355,
      401,
      445,
      463,
      476,
      493,
      504,
      505,
      505,
      508,
      511,
      511,
      512,
      510,
      508,
      514,
      512,
      513,
      512,
      514,
      513,
      517,
      518,
      520,
      519,
      521,
      519,
      517,
      517,
      517,
      513,
      511,
      511,
      509,
      508,
      505,
      504,
      504,
      505,
      506,
      507,
      507,
      507,
      507,
      507,
      508,
      508,
      508,
      508,
      507,
      507,
      506,
      506,
      506,
      506,
      506,
      505,
      506,
      507,
      506,
      505,
      504,
      501,
      499,
      499,
      500,
      500,
      504,
      509,
      518,
      504,
      469,
      453,
      423,
      414,
      386,
      334,
      316,
      294,
      271,
      275,
      267,
      270,
      248,
      251,
      242,
      243,
      229,
      228,
      226,
      223,
      226,
      224,
      225,
      178,
      181,
      151,
      155
    ],
    "swim:timestamps": [
      1785026525,
      1785026536,
      1785026596,
      1785026663,
      1785026716,
      1785026724,
      1785026776,
      1785026836,
      1785026896,
      1785027017,
      1785027077,
      1785027137,
      1785027197,
      1785027257,
      1785027377,
      1785027422,
      1785027483,
      1785027543,
      1785027557,
      1785027603,
      1785027617,
      1785027663,
      1785027677,
      1785027723,
      1785027797,
      1785027843,
      1785027858,
      1785027903,
      1785027918,
      1785027963,
      1785027978,
      1785028023,
      1785028038,
      1785028083,
      1785028098,
      1785028143,
      1785028218,
      1785028264,
      1785028278,
      1785028338,
      1785028384,
      1785028398,
      1785028444,
      1785028458,
      1785028504,
      1785028518,
      1785028564,
      1785028578,
      1785028638,
      1785028684,
      1785028698,
      1785028744,
      1785028804,
      1785028819,
      1785028864,
      1785028879,
      1785028924,
      1785028939,
      1785028985,
      1785028999,
      1785029045,
      1785029059,
      1785029105,
      1785029119,
      1785029165,
      1785029179,
      1785029225,
      1785029345,
      1785029405,
      1785029465,
      1785029525,
      1785029657,
      1785029718,
      1785029778,
      1785029838,
      1785029898,
      1785029958,
      1785030018,
      1785030078,
      1785030138,
      1785030176,
      1785030198,
      1785030254,
      1785030308,
      1785030387,
      1785030447,
      1785030495,
      1785030555,
      1785030609,
      1785030619,
      1785030669,
      1785030679,
      1785030729,
      1785030739,
      1785030789,
      1785030799,
      1785030859,
      1785030910,
      1785030919,
      1785030970,
      1785030979,
      1785031030,
      1785031039,
      1785031090,
      1785031099,
      1785031150,
      1785031159
    ],
    "wof:geomhash": "869ae1228f43fbc3c196fd1388c3c180",
    "wof:id": 2031967867,
    "wof:repo": "sfomuseum-data-flights-2026-07"
  },
  "bbox": [
    -122.39055555555557,
    37.61666666666667,
    -111.97666666666667,
    40.76777777777777
  ],
  "geometry": {"coordinates":[[-122.38333333333334,37.61666666666667],[-122.39055555555557,37.62638888888889],[-122.36333333333333,37.660555555555554],[-122.28333333333333,37.7],[-122.20416666666667,37.72638888888889],[-122.2,37.733333333333334],[-122.12666666666667,37.78444444444444],[-122.04527777777777,37.84638888888889],[-121.96138888888889,37.91],[-121.7925,38.03666666666666],[-121.69388888888889,38.11055555555556],[-121.58305555555555,38.19333333333333],[-121.46333333333334,38.282222222222224],[-121.33805555555556,38.36888888888889],[-121.0461111111111,38.549166666666665],[-120.95861111111111,38.60027777777778],[-120.8175,38.68694444444444],[-120.67500000000001,38.772777777777776],[-120.62083333333332,38.809444444444445],[-120.53083333333333,38.861666666666665],[-120.47611111111111,38.89694444444444],[-120.38722222222223,38.948611111111106],[-120.33361111111111,38.98277777777778],[-120.24444444444444,39.03444444444444],[-120.04055555555556,39.15833333333333],[-119.95444444444445,39.20805555555556],[-119.89555555555556,39.24444444444445],[-119.80833333333334,39.29416666666666],[-119.75,39.33083333333334],[-119.6613888888889,39.3825],[-119.62972222222221,39.401666666666664],[-119.51166666666667,39.470555555555556],[-119.47833333333334,39.49055555555556],[-119.3611111111111,39.558611111111105],[-119.33027777777778,39.5775],[-119.21111111111111,39.64694444444444],[-119.0286111111111,39.75222222222222],[-118.90972222222223,39.821111111111115],[-118.87722222222222,39.83972222222222],[-118.72111111111111,39.91611111111111],[-118.59388888888888,39.967777777777776],[-118.55888888888889,39.981944444444444],[-118.42083333333333,40.01694444444444],[-118.38138888888888,40.022777777777776],[-118.24027777777778,40.04416666666666],[-118.2038888888889,40.05],[-118.06194444444444,40.071111111111115],[-118.02277777777778,40.07694444444445],[-117.83999999999999,40.10388888888889],[-117.70555555555556,40.12361111111111],[-117.66055555555556,40.13027777777778],[-117.5261111111111,40.14972222222222],[-117.3461111111111,40.17527777777777],[-117.29805555555555,40.18222222222222],[-117.16611111111112,40.200833333333335],[-117.1275,40.20638888888889],[-116.98583333333333,40.226111111111116],[-116.91333333333334,40.236111111111114],[-116.77583333333334,40.255],[-116.73138888888889,40.26111111111111],[-116.59666666666666,40.279444444444444],[-116.56,40.28444444444444],[-116.41888888888889,40.30333333333333],[-116.37777777777777,40.30888888888889],[-116.2388888888889,40.3275],[-116.20055555555555,40.3325],[-116.05749999999999,40.35138888888889],[-115.69361111111111,40.39833333333333],[-115.51361111111112,40.42111111111111],[-115.33305555555555,40.44361111111111],[-115.15138888888889,40.46611111111111],[-114.755,40.51361111111111],[-114.57638888888889,40.53472222222222],[-114.39722222222223,40.55583333333333],[-114.21833333333333,40.57611111111112],[-114.0363888888889,40.598333333333336],[-113.85666666666665,40.629444444444445],[-113.67527777777778,40.656388888888884],[-113.48972222222223,40.66888888888889],[-113.29861111111111,40.68666666666666],[-113.18166666666667,40.700833333333335],[-113.12777777777777,40.68527777777778],[-112.98277777777778,40.6875],[-112.84472222222222,40.70444444444445],[-112.66083333333334,40.723333333333336],[-112.52916666666667,40.73694444444445],[-112.43527777777778,40.74666666666667],[-112.32166666666666,40.757222222222225],[-112.23305555555555,40.76777777777777],[-112.21888888888888,40.7675],[-112.13472222222222,40.7575],[-112.12527777777777,40.75361111111111],[-112.08805555555556,40.70305555555556],[-112.08555555555554,40.695277777777775],[-112.08277777777778,40.63527777777778],[-112.07777777777777,40.62916666666667],[-112.06444444444445,40.561388888888885],[-112.00527777777778,40.54694444444444],[-111.99166666666667,40.55166666666666],[-111.98083333333334,40.602222222222224],[-111.97666666666667,40.606944444444444],[-111.98555555555555,40.66361111111111],[-111.98333333333333,40.66833333333333],[-111.99222222222222,40.718611111111116],[-111.98972222222223,40.72361111111111],[-111.99722222222222,40.76277777777778],[-111.99472222222222,40.76722222222222]],"type":"LineString"}
}
