{
  "id": 2032039473,
  "type": "Feature",
  "properties": {
    "geom:area": 0,
    "geom:bbox": "-122.402778,29.817500,-74.166944,40.688889",
    "geom:latitude": 37.347021399895965,
    "geom:longitude": -95.83980213289601,
    "src:alt_label": "swim-path",
    "src:geom": "swim",
    "swim:altitudes": [
      "027",
      "044",
      "069",
      "106",
      "134",
      "170",
      "186",
      "200",
      "228",
      "250",
      "262",
      "271",
      "281",
      "330C",
      "330C",
      "330C",
      "330C",
      "330C",
      "330C",
      "330C",
      "330C",
      "330C",
      "330C",
      "330C",
      "330C",
      "330C",
      "330C",
      "330C",
      "330C",
      "330C",
      "330C",
      "330C",
      "330C",
      "330C",
      "330C",
      "330C",
      "330C",
      "330C",
      "330C",
      "330C",
      "330C",
      "330C",
      "330C",
      "330C",
      "330C",
      "330C",
      "330C",
      "330C",
      "330C",
      "330C",
      "330C",
      "330C",
      "330C",
      "330C",
      "330C",
      "330C",
      "330C",
      "330C",
      "330C",
      "330C",
      "330C",
      "330C",
      "330C",
      "330C",
      "330C",
      "330C",
      "330C",
      "330C",
      "330C",
      "330C",
      "330",
      "350C",
      "350C",
      "350C",
      "350C",
      "350C",
      "350C",
      "350C",
      "350C",
      "350C",
      "350C",
      "350C",
      "350C",
      "350C",
      "350C",
      "350C",
      "350C",
      "350C",
      "350C",
      "350C",
      "350C",
      "350C",
      "350C",
      "350C",
      "350C",
      "350C",
      "350C",
      "350C",
      "350C",
      "350C",
      "350C",
      "350C",
      "350C",
      "350C",
      "350C",
      "350C",
      "350C",
      "350C",
      "350C",
      "350C",
      "350C",
      "350C",
      "350C",
      "350C",
      "350C",
      "350C",
      "350C",
      "350C",
      "350C",
      "350C",
      "350C",
      "350C",
      "350C",
      "350C",
      "350C",
      "350C",
      "350C",
      "350C",
      "350C",
      "350C",
      "350C",
      "350C",
      "350C",
      "350C",
      "350C",
      "350C",
      "350C",
      "350C",
      "350C",
      "350C",
      "350C",
      "350C",
      "350C",
      "350C",
      "350C",
      "350C",
      "350C",
      "350C",
      "350",
      "350",
      "350",
      "350",
      "349",
      "346",
      "331",
      "327",
      "312",
      "308",
      "292",
      "288",
      "271",
      "270",
      "270",
      "270",
      "267",
      "265",
      "257",
      "255",
      "236",
      "221",
      "217",
      "203",
      "198",
      "184",
      "165",
      "161",
      "147",
      "143",
      "130",
      "125",
      "118",
      "113",
      "110",
      "105",
      "103",
      "100",
      "096",
      "093",
      "085",
      "081",
      "080",
      "080",
      "078",
      "071",
      "067",
      "063",
      "053",
      "051",
      "050",
      "044",
      "039",
      "038",
      "036",
      "033",
      "030",
      "030",
      "030",
      "030",
      "030",
      "030",
      "030",
      "030",
      "028",
      "024",
      "022",
      "018",
      "015",
      "013",
      "011",
      "007",
      "003",
      "002",
      "002",
      "005",
      "011",
      "032",
      "045",
      "067",
      "089",
      "107",
      "124",
      "141",
      "159",
      "175",
      "187",
      "202",
      "216",
      "227",
      "239",
      "251",
      "262",
      "271",
      "281",
      "291",
      "297",
      "299",
      "305",
      "306",
      "312",
      "322",
      "324",
      "330C",
      "330C",
      "330",
      "331",
      "338",
      "340",
      "346",
      "348C",
      "350C",
      "350C",
      "350C",
      "350C",
      "350C",
      "350C",
      "350C",
      "350C",
      "350C",
      "350C",
      "350C",
      "350C",
      "350C",
      "350C",
      "350C",
      "350C",
      "350C",
      "350C",
      "350C",
      "350C",
      "350C",
      "350C",
      "350C",
      "350C",
      "350C",
      "350C",
      "350C",
      "350C",
      "350C",
      "350C",
      "350C",
      "350C",
      "350C",
      "350C",
      "350C",
      "350C",
      "350C",
      "350C",
      "350C",
      "350C",
      "350C",
      "350C",
      "350C",
      "350C",
      "350C",
      "350C",
      "350C",
      "350C",
      "350C",
      "350C",
      "350C",
      "350C",
      "350C",
      "350C",
      "350C",
      "350C",
      "350C",
      "350C",
      "350C",
      "350C",
      "350C",
      "350C",
      "350C",
      "350C",
      "350C",
      "350C",
      "350C",
      "350C",
      "350C",
      "350C",
      "350C",
      "350C",
      "350C",
      "350C",
      "350C",
      "350C",
      "350C",
      "350C",
      "350C",
      "350C",
      "350C",
      "350C",
      "350C",
      "350C",
      "350C",
      "350C",
      "350C",
      "350C",
      "350C",
      "350C",
      "350C",
      "350C",
      "350C",
      "350C",
      "350C",
      "350C",
      "350C",
      "350C",
      "350C",
      "350C",
      "350C",
      "350C",
      "350C",
      "350C",
      "350C",
      "350C",
      "350C",
      "350C",
      "350C",
      "350C",
      "350C",
      "350C",
      "350C",
      "350C",
      "350C",
      "350C",
      "350C",
      "350C",
      "350C",
      "350C",
      "350C",
      "350C",
      "350C",
      "350C",
      "350C",
      "350C",
      "350C",
      "350C",
      "350C",
      "350C",
      "350C",
      "350C",
      "350C",
      "350C",
      "350C",
      "350C",
      "350C",
      "350C",
      "350C",
      "350C",
      "350C",
      "350C",
      "350C",
      "350C",
      "350C",
      "350C",
      "350C",
      "350C",
      "350C",
      "350C",
      "350C",
      "350C",
      "350C",
      "350C",
      "350C",
      "350C",
      "350C",
      "350C",
      "350C",
      "350C",
      "350C",
      "350C",
      "350C",
      "350C",
      "350C",
      "350C",
      "350C",
      "350C",
      "350C",
      "350C",
      "350C",
      "350C",
      "350C",
      "350C",
      "350C",
      "350C",
      "350C",
      "350C",
      "350C",
      "350C",
      "350C",
      "350C",
      "350C",
      "350C",
      "350C",
      "350C",
      "350",
      "339",
      "330",
      "330",
      "330",
      "330",
      "330",
      "330",
      "330",
      "334",
      "343",
      "350C",
      "350C",
      "350C",
      "350C",
      "350C",
      "350C",
      "350C",
      "350C",
      "350C",
      "350C",
      "350C",
      "350C",
      "350C",
      "350C",
      "350C",
      "350C",
      "350C",
      "350C",
      "350C",
      "350C",
      "350C",
      "350C",
      "350C",
      "350C",
      "350C",
      "350C",
      "350C",
      "350C",
      "350C",
      "350C",
      "350C",
      "350C",
      "350C",
      "350C",
      "350C",
      "350C",
      "350C",
      "350C",
      "350C",
      "350C",
      "350C",
      "350C",
      "350C",
      "350C",
      "350C",
      "350C",
      "350C",
      "350C",
      "350C",
      "350C",
      "350C",
      "350C",
      "350C",
      "350C",
      "350C",
      "350C",
      "350C",
      "350C",
      "350C",
      "350C",
      "350C",
      "350C",
      "350C",
      "350C",
      "350C",
      "350C",
      "350C",
      "350C",
      "350C",
      "350C",
      "350C",
      "350C",
      "350C",
      "350C",
      "350C",
      "350C",
      "350C",
      "350C",
      "350C",
      "350C",
      "350C",
      "350C",
      "350C",
      "350C",
      "350C",
      "350C",
      "350C",
      "350C",
      "350C",
      "350C",
      "350C",
      "350C",
      "350C",
      "350C",
      "350C",
      "350C",
      "350C",
      "350C",
      "350C",
      "350C",
      "350C",
      "350C",
      "350C",
      "350C",
      "350C",
      "350C",
      "350C",
      "350C",
      "350C",
      "350C",
      "350C",
      "350C",
      "350C",
      "350C",
      "350C",
      "350C",
      "350C",
      "350C",
      "350C",
      "350C",
      "350C",
      "350C",
      "350C",
      "350C",
      "350C",
      "350C",
      "350C",
      "350C",
      "350C",
      "350C",
      "350C",
      "350C",
      "350C",
      "350C",
      "350C",
      "350C",
      "350C",
      "350C",
      "350C",
      "350C",
      "350C",
      "350C",
      "350C",
      "350C",
      "350C",
      "350C",
      "350C",
      "350C",
      "350",
      "350",
      "350",
      "350",
      "350",
      "350",
      "350",
      "350",
      "350",
      "350",
      "350",
      "342",
      "312",
      "288",
      "270",
      "270",
      "270",
      "246",
      "229",
      "224",
      "212",
      "209",
      "191",
      "190",
      "190",
      "190",
      "190",
      "189",
      "173",
      "169",
      "159",
      "156",
      "141",
      "140",
      "122",
      "120",
      "104",
      "104",
      "095",
      "092",
      "088",
      "083",
      "067",
      "057",
      "052",
      "040",
      "039",
      "039",
      "036",
      "027",
      "025",
      "020",
      "020",
      "020",
      "018",
      "012",
      "010",
      "005",
      "003"
    ],
    "swim:geom": "path",
    "swim:speeds": [
      235,
      265,
      284,
      303,
      388,
      411,
      414,
      427,
      443,
      453,
      458,
      464,
      466,
      452,
      451,
      447,
      445,
      443,
      443,
      443,
      444,
      445,
      446,
      447,
      447,
      447,
      446,
      445,
      444,
      443,
      443,
      443,
      442,
      440,
      437,
      436,
      436,
      436,
      436,
      436,
      436,
      436,
      436,
      435,
      435,
      435,
      437,
      439,
      441,
      440,
      443,
      442,
      444,
      447,
      447,
      447,
      447,
      447,
      447,
      446,
      446,
      447,
      448,
      449,
      449,
      449,
      449,
      448,
      447,
      448,
      448,
      443,
      439,
      441,
      440,
      440,
      441,
      441,
      442,
      442,
      442,
      442,
      444,
      447,
      446,
      455,
      455,
      458,
      458,
      457,
      456,
      457,
      455,
      458,
      455,
      457,
      456,
      462,
      463,
      463,
      464,
      463,
      464,
      464,
      465,
      464,
      464,
      464,
      464,
      464,
      464,
      465,
      465,
      467,
      467,
      469,
      470,
      471,
      471,
      472,
      473,
      473,
      471,
      470,
      469,
      468,
      465,
      465,
      464,
      465,
      469,
      469,
      463,
      463,
      461,
      461,
      461,
      462,
      461,
      463,
      463,
      464,
      463,
      465,
      465,
      466,
      466,
      465,
      466,
      466,
      467,
      467,
      468,
      468,
      473,
      472,
      454,
      452,
      439,
      436,
      429,
      424,
      418,
      417,
      416,
      416,
      414,
      413,
      398,
      393,
      389,
      379,
      376,
      364,
      358,
      355,
      344,
      341,
      334,
      330,
      330,
      332,
      328,
      312,
      309,
      283,
      284,
      281,
      274,
      278,
      278,
      272,
      272,
      275,
      273,
      273,
      274,
      271,
      250,
      232,
      216,
      207,
      199,
      190,
      193,
      192,
      188,
      191,
      190,
      185,
      183,
      182,
      184,
      184,
      183,
      174,
      163,
      155,
      151,
      153,
      153,
      153,
      153,
      177,
      173,
      197,
      260,
      273,
      289,
      319,
      343,
      358,
      370,
      382,
      393,
      403,
      410,
      426,
      434,
      441,
      449,
      460,
      468,
      475,
      473,
      484,
      487,
      494,
      502,
      502,
      501,
      501,
      499,
      500,
      498,
      498,
      498,
      496,
      497,
      496,
      496,
      497,
      500,
      499,
      501,
      500,
      501,
      501,
      501,
      501,
      502,
      502,
      506,
      508,
      509,
      511,
      511,
      512,
      512,
      512,
      512,
      511,
      511,
      511,
      510,
      510,
      509,
      508,
      507,
      507,
      506,
      506,
      506,
      506,
      506,
      505,
      505,
      503,
      502,
      500,
      499,
      499,
      498,
      498,
      497,
      498,
      497,
      498,
      501,
      498,
      500,
      498,
      499,
      499,
      500,
      499,
      500,
      499,
      499,
      499,
      499,
      498,
      498,
      497,
      497,
      497,
      497,
      496,
      496,
      496,
      496,
      497,
      497,
      497,
      497,
      497,
      498,
      498,
      498,
      498,
      498,
      497,
      497,
      498,
      498,
      498,
      498,
      498,
      498,
      498,
      498,
      498,
      497,
      497,
      497,
      497,
      498,
      500,
      501,
      502,
      504,
      506,
      507,
      508,
      507,
      508,
      508,
      507,
      507,
      507,
      506,
      506,
      506,
      506,
      506,
      507,
      506,
      505,
      504,
      504,
      502,
      503,
      500,
      502,
      499,
      501,
      498,
      498,
      497,
      499,
      498,
      499,
      499,
      499,
      500,
      499,
      486,
      485,
      480,
      480,
      478,
      478,
      477,
      476,
      475,
      475,
      474,
      474,
      473,
      473,
      473,
      473,
      473,
      472,
      472,
      472,
      472,
      474,
      476,
      477,
      477,
      478,
      479,
      479,
      480,
      481,
      482,
      483,
      482,
      482,
      481,
      482,
      481,
      481,
      481,
      481,
      480,
      480,
      480,
      480,
      480,
      480,
      480,
      480,
      480,
      481,
      482,
      483,
      484,
      485,
      485,
      485,
      485,
      485,
      484,
      484,
      484,
      487,
      487,
      489,
      490,
      492,
      494,
      494,
      494,
      496,
      498,
      497,
      499,
      498,
      499,
      498,
      498,
      497,
      497,
      496,
      496,
      496,
      496,
      496,
      497,
      497,
      497,
      497,
      498,
      498,
      498,
      499,
      499,
      499,
      499,
      499,
      499,
      499,
      500,
      499,
      499,
      499,
      498,
      498,
      497,
      497,
      496,
      496,
      495,
      495,
      495,
      495,
      496,
      496,
      496,
      496,
      497,
      497,
      498,
      498,
      499,
      500,
      500,
      501,
      501,
      501,
      501,
      501,
      499,
      498,
      496,
      495,
      493,
      493,
      493,
      493,
      493,
      493,
      493,
      494,
      494,
      495,
      495,
      494,
      492,
      490,
      489,
      489,
      489,
      490,
      490,
      491,
      491,
      483,
      478,
      475,
      474,
      474,
      473,
      473,
      474,
      474,
      474,
      473,
      472,
      470,
      468,
      466,
      465,
      464,
      463,
      461,
      459,
      459,
      459,
      461,
      462,
      464,
      464,
      463,
      463,
      461,
      460,
      458,
      458,
      456,
      454,
      452,
      451,
      450,
      449,
      449,
      448,
      448,
      452,
      453,
      455,
      455,
      457,
      456,
      452,
      451,
      451,
      451,
      449,
      449,
      447,
      447,
      445,
      445,
      444,
      443,
      442,
      442,
      441,
      441,
      441,
      441,
      442,
      444,
      446,
      443,
      434,
      434,
      435,
      436,
      407,
      401,
      394,
      397,
      388,
      390,
      386,
      388,
      387,
      387,
      377,
      382,
      361,
      363,
      359,
      360,
      353,
      357,
      337,
      341,
      300,
      304,
      286,
      289,
      290,
      275,
      277,
      263,
      257,
      195,
      198,
      176,
      177,
      158,
      157,
      148,
      152,
      149,
      151,
      143,
      147
    ],
    "swim:timestamps": [
      1785427945,
      1785428006,
      1785428066,
      1785428168,
      1785428288,
      1785428408,
      1785428468,
      1785428528,
      1785428649,
      1785428769,
      1785428829,
      1785428889,
      1785428949,
      1785429249,
      1785429490,
      1785429610,
      1785429670,
      1785429730,
      1785429790,
      1785429850,
      1785429911,
      1785429971,
      1785430031,
      1785430091,
      1785430151,
      1785430211,
      1785430271,
      1785430331,
      1785430511,
      1785430571,
      1785430632,
      1785430734,
      1785430752,
      1785430812,
      1785430854,
      1785430872,
      1785430914,
      1785430974,
      1785431034,
      1785431112,
      1785431154,
      1785431172,
      1785431275,
      1785431335,
      1785431353,
      1785431413,
      1785431455,
      1785431515,
      1785431575,
      1785431593,
      1785431635,
      1785431653,
      1785431713,
      1785431755,
      1785431773,
      1785431815,
      1785431834,
      1785431876,
      1785431936,
      1785432056,
      1785432116,
      1785432176,
      1785432236,
      1785432296,
      1785432356,
      1785432416,
      1785432476,
      1785432536,
      1785432657,
      1785432717,
      1785432837,
      1785432957,
      1785433017,
      1785433257,
      1785433438,
      1785433558,
      1785433618,
      1785433678,
      1785433858,
      1785433918,
      1785434039,
      1785434219,
      1785434295,
      1785434339,
      1785434355,
      1785434459,
      1785434476,
      1785434519,
      1785434536,
      1785434579,
      1785434640,
      1785434656,
      1785434700,
      1785434716,
      1785434760,
      1785434776,
      1785434820,
      1785434957,
      1785435000,
      1785435017,
      1785435060,
      1785435077,
      1785435120,
      1785435137,
      1785435180,
      1785435197,
      1785435240,
      1785435257,
      1785435300,
      1785435318,
      1785435361,
      1785435378,
      1785435421,
      1785435438,
      1785435481,
      1785435498,
      1785435541,
      1785435558,
      1785435601,
      1785435618,
      1785435678,
      1785435738,
      1785435798,
      1785435858,
      1785435919,
      1785435979,
      1785436039,
      1785436099,
      1785436143,
      1785436159,
      1785436203,
      1785436219,
      1785436263,
      1785436279,
      1785436323,
      1785436339,
      1785436399,
      1785436459,
      1785436503,
      1785436580,
      1785436623,
      1785436684,
      1785436700,
      1785436744,
      1785436760,
      1785436804,
      1785436864,
      1785436880,
      1785436924,
      1785436940,
      1785436984,
      1785437000,
      1785437044,
      1785437060,
      1785437104,
      1785437121,
      1785437164,
      1785437181,
      1785437224,
      1785437241,
      1785437284,
      1785437301,
      1785437345,
      1785437361,
      1785437405,
      1785437421,
      1785437465,
      1785437481,
      1785437541,
      1785437585,
      1785437601,
      1785437645,
      1785437661,
      1785437705,
      1785437765,
      1785437782,
      1785437825,
      1785437842,
      1785437885,
      1785437899,
      1785437924,
      1785437945,
      1785437962,
      1785438006,
      1785438022,
      1785438044,
      1785438066,
      1785438082,
      1785438104,
      1785438126,
      1785438142,
      1785438186,
      1785438202,
      1785438224,
      1785438246,
      1785438263,
      1785438306,
      1785438323,
      1785438339,
      1785438383,
      1785438404,
      1785438426,
      1785438443,
      1785438458,
      1785438486,
      1785438503,
      1785438518,
      1785438546,
      1785438563,
      1785438578,
      1785438606,
      1785438623,
      1785438639,
      1785438667,
      1785438683,
      1785438699,
      1785438727,
      1785438740,
      1785438758,
      1785438787,
      1785438818,
      1785438847,
      1785438861,
      1785477455,
      1785477465,
      1785477526,
      1785477586,
      1785477646,
      1785477706,
      1785477766,
      1785477826,
      1785477886,
      1785477946,
      1785478006,
      1785478066,
      1785478126,
      1785478186,
      1785478246,
      1785478306,
      1785478366,
      1785478426,
      1785478486,
      1785478546,
      1785478606,
      1785478646,
      1785478666,
      1785478707,
      1785478726,
      1785478767,
      1785478827,
      1785478847,
      1785478887,
      1785478907,
      1785478947,
      1785478967,
      1785479007,
      1785479027,
      1785479067,
      1785479087,
      1785479127,
      1785479147,
      1785479207,
      1785479247,
      1785479267,
      1785479307,
      1785479327,
      1785479367,
      1785479387,
      1785479427,
      1785479447,
      1785479487,
      1785479507,
      1785479547,
      1785479607,
      1785479627,
      1785479667,
      1785479687,
      1785479727,
      1785479747,
      1785479787,
      1785479807,
      1785479847,
      1785479867,
      1785479908,
      1785479927,
      1785479968,
      1785479987,
      1785480028,
      1785480047,
      1785480088,
      1785480148,
      1785480208,
      1785480268,
      1785480328,
      1785480388,
      1785480448,
      1785480508,
      1785480568,
      1785480628,
      1785480688,
      1785480748,
      1785480808,
      1785480868,
      1785480928,
      1785480949,
      1785480988,
      1785481009,
      1785481048,
      1785481069,
      1785481108,
      1785481129,
      1785481169,
      1785481189,
      1785481229,
      1785481249,
      1785481289,
      1785481309,
      1785481349,
      1785481369,
      1785481409,
      1785481429,
      1785481469,
      1785481489,
      1785481529,
      1785481549,
      1785481589,
      1785481609,
      1785481649,
      1785481669,
      1785481709,
      1785481729,
      1785481769,
      1785481789,
      1785481829,
      1785481849,
      1785481889,
      1785481909,
      1785481949,
      1785481969,
      1785482009,
      1785482029,
      1785482069,
      1785482089,
      1785482129,
      1785482149,
      1785482189,
      1785482210,
      1785482249,
      1785482270,
      1785482330,
      1785482390,
      1785482450,
      1785482510,
      1785482570,
      1785482630,
      1785482690,
      1785482750,
      1785482811,
      1785482870,
      1785482930,
      1785482990,
      1785483050,
      1785483110,
      1785483170,
      1785483229,
      1785483290,
      1785483350,
      1785483410,
      1785483470,
      1785483530,
      1785483589,
      1785483650,
      1785483710,
      1785483770,
      1785483830,
      1785483890,
      1785483952,
      1785483983,
      1785484010,
      1785484040,
      1785484070,
      1785484100,
      1785484130,
      1785484160,
      1785484190,
      1785484220,
      1785484251,
      1785484280,
      1785484312,
      1785484341,
      1785484372,
      1785484401,
      1785484430,
      1785484461,
      1785484490,
      1785484523,
      1785484550,
      1785484580,
      1785484610,
      1785484641,
      1785484670,
      1785484703,
      1785484732,
      1785484763,
      1785484792,
      1785484820,
      1785484852,
      1785484881,
      1785484910,
      1785484943,
      1785484970,
      1785485003,
      1785485030,
      1785485063,
      1785485091,
      1785485122,
      1785485151,
      1785485181,
      1785485211,
      1785485241,
      1785485270,
      1785485303,
      1785485331,
      1785485361,
      1785485390,
      1785485421,
      1785485451,
      1785485482,
      1785485513,
      1785485544,
      1785485570,
      1785485601,
      1785485632,
      1785485664,
      1785485692,
      1785485721,
      1785485750,
      1785485782,
      1785485810,
      1785485842,
      1785485872,
      1785485901,
      1785485930,
      1785485963,
      1785485991,
      1785486022,
      1785486082,
      1785486142,
      1785486202,
      1785486263,
      1785486323,
      1785486383,
      1785486443,
      1785486503,
      1785486563,
      1785486623,
      1785486684,
      1785486742,
      1785486777,
      1785486802,
      1785486837,
      1785486865,
      1785486897,
      1785486922,
      1785486957,
      1785486984,
      1785487017,
      1785487044,
      1785487077,
      1785487105,
      1785487137,
      1785487162,
      1785487197,
      1785487223,
      1785487257,
      1785487282,
      1785487317,
      1785487342,
      1785487377,
      1785487405,
      1785487437,
      1785487465,
      1785487497,
      1785487525,
      1785487557,
      1785487585,
      1785487617,
      1785487645,
      1785487678,
      1785487705,
      1785487738,
      1785487765,
      1785487798,
      1785487823,
      1785487858,
      1785487883,
      1785487918,
      1785487945,
      1785487978,
      1785488005,
      1785488038,
      1785488064,
      1785488098,
      1785488123,
      1785488158,
      1785488184,
      1785488218,
      1785488246,
      1785488278,
      1785488303,
      1785488338,
      1785488363,
      1785488398,
      1785488423,
      1785488458,
      1785488483,
      1785488518,
      1785488578,
      1785488638,
      1785488698,
      1785488758,
      1785488818,
      1785488879,
      1785488939,
      1785488999,
      1785489059,
      1785489119,
      1785489179,
      1785489240,
      1785489298,
      1785489358,
      1785489418,
      1785489478,
      1785489538,
      1785489598,
      1785489658,
      1785489719,
      1785489779,
      1785489839,
      1785489899,
      1785489959,
      1785490019,
      1785490079,
      1785490139,
      1785490199,
      1785490260,
      1785490320,
      1785490380,
      1785490440,
      1785490500,
      1785490560,
      1785490620,
      1785490680,
      1785490739,
      1785490799,
      1785490860,
      1785490982,
      1785491040,
      1785491100,
      1785491160,
      1785491222,
      1785491280,
      1785491340,
      1785491400,
      1785491461,
      1785491521,
      1785491581,
      1785491641,
      1785491701,
      1785491760,
      1785491820,
      1785491880,
      1785491940,
      1785492060,
      1785492121,
      1785492181,
      1785492196,
      1785492241,
      1785492256,
      1785492301,
      1785492316,
      1785492362,
      1785492437,
      1785492483,
      1785492543,
      1785492557,
      1785492603,
      1785492617,
      1785492663,
      1785492677,
      1785492722,
      1785492737,
      1785492782,
      1785492797,
      1785492842,
      1785492857,
      1785492902,
      1785492917,
      1785492962,
      1785492977,
      1785493022,
      1785493037,
      1785493083,
      1785493098,
      1785493143,
      1785493158,
      1785493203,
      1785493218,
      1785493263,
      1785493278,
      1785493323,
      1785493338,
      1785493383,
      1785493398,
      1785493458,
      1785493518,
      1785493578,
      1785493638,
      1785493698,
      1785493758,
      1785493819,
      1785493879,
      1785493939,
      1785493948,
      1785493984,
      1785493999,
      1785494044,
      1785494059,
      1785494104,
      1785494119,
      1785494164,
      1785494179,
      1785494224,
      1785494239,
      1785494284,
      1785494299,
      1785494344,
      1785494359,
      1785494404,
      1785494419,
      1785494465,
      1785494480,
      1785494525,
      1785494540,
      1785494585,
      1785494600,
      1785494660,
      1785494705,
      1785494720,
      1785494765,
      1785494780,
      1785494825,
      1785494840,
      1785494885,
      1785494900,
      1785494945,
      1785494960,
      1785495005,
      1785495020,
      1785495065,
      1785495081,
      1785495125,
      1785495141
    ],
    "wof:geomhash": "597b08fcce91b23b851d1fce2cf5f81f",
    "wof:id": 2032039473,
    "wof:repo": "sfomuseum-data-flights-2026-07"
  },
  "bbox": [
    -122.40277777777779,
    29.8175,
    -74.16694444444445,
    40.68888888888888
  ],
  "geometry": {"coordinates":[[-95.27944444444444,29.913888888888888],[-95.21472222222222,29.872222222222224],[-95.14055555555557,29.8275],[-94.99416666666667,29.8175],[-94.76055555555556,29.83138888888889],[-94.50166666666667,29.849166666666665],[-94.36888888888888,29.858055555555556],[-94.23333333333333,29.859166666666667],[-93.95194444444445,29.863611111111112],[-93.6675,29.89361111111111],[-93.49472222222222,29.911944444444444],[-93.34833333333333,29.92666666666667],[-93.19861111111112,29.942222222222224],[-92.48305555555555,30.05388888888889],[-91.92305555555556,30.15972222222222],[-91.63527777777779,30.21361111111111],[-91.49472222222222,30.239444444444445],[-91.35666666666665,30.264722222222222],[-91.21777777777778,30.290000000000003],[-91.0786111111111,30.315],[-90.93916666666667,30.340277777777775],[-90.79916666666666,30.36527777777778],[-90.65833333333335,30.390277777777776],[-90.5175,30.415],[-90.375,30.44],[-90.23444444444445,30.464166666666667],[-90.09833333333333,30.505555555555556],[-89.99111111111111,30.541111111111114],[-89.58416666666666,30.674444444444447],[-89.44916666666667,30.71833333333333],[-89.31638888888888,30.761388888888888],[-89.08333333333333,30.836388888888887],[-89.04944444444445,30.84722222222222],[-88.91833333333334,30.89611111111111],[-88.83277777777778,30.948888888888888],[-88.80944444444444,30.96361111111111],[-88.71833333333333,31.020555555555553],[-88.60555555555555,31.09111111111111],[-88.48861111111111,31.163888888888888],[-88.34777777777778,31.25138888888889],[-88.25722222222223,31.3075],[-88.23166666666667,31.323333333333334],[-88.02388888888889,31.45111111111111],[-87.9088888888889,31.521666666666665],[-87.885,31.53638888888889],[-87.77166666666666,31.605555555555558],[-87.67750000000001,31.663055555555555],[-87.56083333333333,31.733888888888888],[-87.44194444444445,31.805833333333332],[-87.41833333333334,31.82],[-87.32416666666666,31.876944444444444],[-87.30194444444444,31.890555555555554],[-87.18,31.96388888888889],[-87.08999999999999,32.018055555555556],[-87.06083333333333,32.03527777777778],[-86.97,32.08972222222222],[-86.94250000000001,32.10611111111111],[-86.84972222222221,32.16138888888889],[-86.72972222222222,32.23305555555556],[-86.48777777777778,32.376111111111115],[-86.36694444444444,32.4475],[-86.24416666666667,32.51972222222222],[-86.12166666666666,32.59111111111111],[-85.99888888888889,32.66277777777778],[-85.87777777777777,32.733333333333334],[-85.75444444444445,32.80472222222222],[-85.63361111111112,32.874722222222225],[-85.50944444444444,32.94611111111111],[-85.27305555555556,33.08166666666667],[-85.14916666666667,33.15222222222222],[-84.90527777777778,33.29055555555556],[-84.66000000000001,33.428888888888885],[-84.53888888888889,33.496944444444445],[-84.03027777777778,33.77972222222222],[-83.66972222222223,33.988055555555555],[-83.43333333333334,34.132777777777775],[-83.31388888888888,34.205555555555556],[-83.19555555555556,34.27722222222222],[-82.83472222222221,34.49527777777778],[-82.71583333333334,34.56666666666667],[-82.4786111111111,34.70805555555556],[-82.11388888888888,34.92361111111111],[-81.9713888888889,35.005833333333335],[-81.87305555555555,35.06638888888889],[-81.84888888888888,35.080000000000005],[-81.62638888888888,35.219722222222224],[-81.60222222222221,35.23416666666667],[-81.50166666666667,35.29611111111111],[-81.4775,35.31083333333333],[-81.37888888888888,35.37138888888889],[-81.25777777777778,35.44555555555555],[-81.21138888888889,35.47361111111111],[-81.13527777777779,35.519999999999996],[-81.08444444444444,35.551111111111105],[-81.01444444444445,35.593611111111116],[-80.96055555555556,35.62638888888889],[-80.89,35.66888888888889],[-80.5786111111111,35.85583333333334],[-80.48388888888888,35.9125],[-80.45111111111112,35.93222222222222],[-80.37083333333332,35.980000000000004],[-80.32194444444444,36.00888888888889],[-80.24111111111111,36.056666666666665],[-80.19500000000001,36.08416666666667],[-80.11138888888888,36.13388888888889],[-80.09277777777777,36.144999999999996],[-79.98527777777778,36.20888888888889],[-79.95777777777778,36.225],[-79.85777777777777,36.28388888888889],[-79.82972222222222,36.30027777777777],[-79.72833333333334,36.359722222222224],[-79.69833333333334,36.37722222222222],[-79.59888888888888,36.43583333333333],[-79.57277777777777,36.45111111111111],[-79.46388888888889,36.513888888888886],[-79.41361111111112,36.543055555555554],[-79.33277777777778,36.58972222222222],[-79.27944444444444,36.62083333333334],[-79.20138888888889,36.66583333333333],[-79.1525,36.69416666666666],[-79.01916666666666,36.770833333333336],[-78.88583333333334,36.84722222222222],[-78.75416666666666,36.92166666666667],[-78.61916666666666,36.99722222222222],[-78.48583333333333,37.07222222222222],[-78.38194444444444,37.13055555555555],[-78.2213888888889,37.21638888888889],[-78.09305555555555,37.27333333333333],[-77.99694444444445,37.31722222222223],[-77.95222222222222,37.33583333333333],[-77.82694444444444,37.396388888888886],[-77.81472222222222,37.407222222222224],[-77.735,37.50138888888889],[-77.72444444444444,37.51138888888889],[-77.64555555555556,37.60861111111111],[-77.63583333333334,37.62083333333334],[-77.54833333333333,37.72916666666667],[-77.45916666666668,37.83972222222222],[-77.385,37.931666666666665],[-77.27694444444444,38.06222222222222],[-77.20833333333334,38.14722222222222],[-77.11861111111111,38.25527777777778],[-77.10333333333332,38.27388888888889],[-77.02305555555556,38.359722222222224],[-77.0025,38.38111111111111],[-76.9238888888889,38.462500000000006],[-76.82722222222222,38.562777777777775],[-76.80555555555556,38.585],[-76.72555555555556,38.6675],[-76.71055555555556,38.683055555555555],[-76.62416666666665,38.77166666666667],[-76.60416666666666,38.79194444444444],[-76.52388888888889,38.87416666666667],[-76.5038888888889,38.894444444444446],[-76.42166666666667,38.97833333333333],[-76.40083333333334,38.99916666666667],[-76.31777777777778,39.07472222222223],[-76.29555555555555,39.093611111111116],[-76.21138888888889,39.16638888888889],[-76.19027777777778,39.18444444444444],[-76.10499999999999,39.257222222222225],[-76.08416666666666,39.275],[-76.00472222222223,39.34277777777778],[-75.98416666666667,39.36027777777778],[-75.90361111111112,39.42861111111111],[-75.88333333333334,39.44555555555555],[-75.80361111111111,39.51277777777778],[-75.78222222222222,39.53055555555555],[-75.6863888888889,39.61138888888889],[-75.6086111111111,39.67666666666666],[-75.58722222222222,39.69444444444444],[-75.51638888888888,39.75361111111111],[-75.4961111111111,39.77027777777778],[-75.42333333333333,39.830555555555556],[-75.33638888888889,39.902499999999996],[-75.31777777777778,39.91777777777777],[-75.25111111111111,39.972500000000004],[-75.23305555555555,39.98722222222222],[-75.17,40.03916666666667],[-75.15,40.06666666666667],[-75.11666666666666,40.083333333333336],[-75.08777777777777,40.10666666666667],[-75.07,40.12111111111111],[-75.00972222222222,40.17027777777778],[-74.9925,40.18416666666666],[-74.96666666666667,40.21666666666667],[-74.93694444444445,40.22944444444445],[-74.92194444444445,40.24194444444444],[-74.88333333333334,40.266666666666666],[-74.86805555555554,40.281666666666666],[-74.84888888888888,40.29527777777778],[-74.7936111111111,40.33166666666667],[-74.77194444444444,40.340833333333336],[-74.73333333333333,40.35],[-74.70444444444445,40.36555555555556],[-74.68194444444445,40.37361111111111],[-74.61472222222221,40.3975],[-74.59166666666667,40.40555555555555],[-74.56666666666666,40.416666666666664],[-74.51222222222222,40.433611111111105],[-74.48333333333333,40.45],[-74.45666666666666,40.45305555555556],[-74.44277777777778,40.45777777777778],[-74.41666666666667,40.46666666666667],[-74.39333333333335,40.47527777777778],[-74.38,40.47972222222222],[-74.36666666666666,40.483333333333334],[-74.33083333333333,40.496944444444445],[-74.31777777777778,40.50138888888889],[-74.3,40.516666666666666],[-74.27472222222222,40.52055555555555],[-74.26722222222222,40.530833333333334],[-74.25,40.55],[-74.24472222222222,40.56638888888889],[-74.23805555555556,40.57666666666667],[-74.23333333333333,40.6],[-74.21722222222222,40.60944444444445],[-74.21222222222222,40.61805555555556],[-74.2,40.63333333333333],[-74.19361111111111,40.64722222222222],[-74.18333333333334,40.666666666666664],[-74.17527777777778,40.67583333333333],[-74.16694444444445,40.68888888888888],[-122.4,37.63333333333333],[-122.40277777777779,37.63111111111111],[-122.38194444444444,37.67527777777777],[-122.33833333333332,37.73083333333334],[-122.36638888888888,37.802499999999995],[-122.38583333333334,37.87972222222222],[-122.33944444444444,37.95055555555556],[-122.22527777777778,37.972500000000004],[-122.10027777777778,37.98888888888889],[-121.97083333333333,37.98916666666667],[-121.83666666666666,37.98972222222222],[-121.71111111111111,37.99027777777778],[-121.56916666666666,37.990833333333335],[-121.42416666666666,37.99111111111111],[-121.27527777777777,37.99111111111111],[-121.12249999999999,37.99166666666667],[-120.9713888888889,38.011944444444445],[-120.81555555555555,38.03583333333333],[-120.65833333333335,38.05972222222222],[-120.49472222222222,38.08444444444444],[-120.32972222222222,38.10916666666667],[-120.19944444444445,38.12777777777778],[-120.16166666666668,38.134166666666665],[-120.02805555555555,38.15222222222222],[-119.99055555555556,38.159166666666664],[-119.8536111111111,38.177499999999995],[-119.67944444444444,38.2025],[-119.64305555555556,38.21],[-119.50777777777778,38.22805555555556],[-119.46944444444445,38.23416666666667],[-119.33583333333333,38.25111111111111],[-119.30194444444444,38.2575],[-119.16444444444446,38.27583333333333],[-119.12972222222221,38.28138888888889],[-118.99083333333333,38.29611111111111],[-118.955,38.29722222222222],[-118.8175,38.301111111111105],[-118.78111111111112,38.30333333333333],[-118.60749999999999,38.309444444444445],[-118.46888888888888,38.31361111111111],[-118.39444444444445,38.316111111111105],[-118.27916666666667,38.31944444444445],[-118.22055555555556,38.321111111111115],[-118.10111111111111,38.32472222222223],[-118.06611111111111,38.325833333333335],[-117.92472222222223,38.32972222222222],[-117.88777777777779,38.33083333333334],[-117.74722222222222,38.33444444444444],[-117.70944444444444,38.33527777777778],[-117.56555555555555,38.33888888888889],[-117.42027777777778,38.342222222222226],[-117.33027777777778,38.344166666666666],[-117.235,38.346111111111114],[-117.14888888888889,38.34805555555556],[-117.05,38.35],[-116.97527777777778,38.35166666666667],[-116.86805555555554,38.353611111111114],[-116.7936111111111,38.355000000000004],[-116.68722222222223,38.356944444444444],[-116.6111111111111,38.35805555555556],[-116.5038888888889,38.36],[-116.43083333333334,38.36083333333333],[-116.32444444444444,38.36194444444445],[-116.25166666666667,38.36277777777778],[-116.14472222222223,38.36416666666667],[-116.07138888888889,38.365],[-115.96805555555555,38.36611111111111],[-115.78694444444444,38.36805555555556],[-115.60666666666665,38.36972222222222],[-115.43138888888889,38.37111111111111],[-115.24138888888889,38.37166666666667],[-115.06666666666666,38.345555555555556],[-114.89333333333335,38.31166666666666],[-114.71972222222223,38.27722222222222],[-114.54805555555555,38.24277777777778],[-114.37805555555555,38.20888888888889],[-114.20805555555556,38.17444444444444],[-114.03861111111111,38.13972222222222],[-113.86833333333333,38.10472222222222],[-113.69833333333334,38.069722222222225],[-113.5286111111111,38.034166666666664],[-113.4961111111111,38.026944444444446],[-113.36027777777777,37.99861111111111],[-113.3261111111111,37.99138888888889],[-113.18916666666667,37.96222222222222],[-113.12138888888889,37.94777777777777],[-113.01944444444445,37.92583333333333],[-112.98472222222222,37.91833333333333],[-112.84666666666666,37.88861111111111],[-112.815,37.88194444444444],[-112.67555555555556,37.85138888888889],[-112.6438888888889,37.844722222222224],[-112.50638888888889,37.814166666666665],[-112.47194444444445,37.806666666666665],[-112.33388888888888,37.77638888888889],[-112.30166666666666,37.76916666666666],[-112.16694444444445,37.73916666666667],[-112.1325,37.731388888888894],[-112,37.70166666666667],[-111.96583333333334,37.693888888888885],[-111.83138888888888,37.66361111111111],[-111.79944444444445,37.656388888888884],[-111.66444444444446,37.62555555555556],[-111.63083333333333,37.61805555555556],[-111.49861111111112,37.58777777777778],[-111.46444444444445,37.57972222222222],[-111.33194444444445,37.549166666666665],[-111.29777777777778,37.54111111111111],[-111.165,37.510555555555555],[-111.12944444444443,37.50222222222222],[-110.99722222222222,37.471111111111114],[-110.96416666666667,37.46333333333334],[-110.83027777777778,37.431666666666665],[-110.79694444444445,37.42388888888889],[-110.66277777777778,37.39222222222222],[-110.6325,37.385],[-110.49666666666667,37.3525],[-110.46388888888889,37.344722222222224],[-110.3325,37.312777777777775],[-110.29888888888888,37.30472222222222],[-110.16472222222222,37.27222222222222],[-110.12638888888888,37.26277777777778],[-110.00027777777778,37.231944444444444],[-109.96111111111111,37.22222222222222],[-109.83555555555554,37.19138888888889],[-109.7975,37.18194444444444],[-109.62944444444443,37.14083333333333],[-109.46305555555556,37.09916666666667],[-109.29833333333333,37.05777777777777],[-109.13472222222222,37.01638888888889],[-108.97111111111111,36.974722222222226],[-108.80444444444444,36.93194444444444],[-108.63972222222223,36.88972222222222],[-108.4738888888889,36.84666666666667],[-108.30805555555555,36.80333333333333],[-108.14444444444445,36.760555555555555],[-107.97500000000001,36.723055555555554],[-107.80611111111111,36.687777777777775],[-107.63361111111112,36.65138888888889],[-107.465,36.61611111111111],[-107.29416666666667,36.57972222222222],[-107.12388888888889,36.54333333333333],[-106.95138888888889,36.53194444444444],[-106.77666666666667,36.534166666666664],[-106.59972222222221,36.53638888888889],[-106.4175,36.538333333333334],[-106.25361111111111,36.53972222222222],[-106.0736111111111,36.54111111111111],[-105.8963888888889,36.54222222222222],[-105.72722222222222,36.543055555555554],[-105.55472222222222,36.54361111111111],[-105.37972222222221,36.54388888888889],[-105.20555555555556,36.54416666666666],[-105.04722222222222,36.54388888888889],[-104.9575,36.54],[-104.85,36.54333333333333],[-104.78583333333333,36.54055555555556],[-104.6888888888889,36.54277777777778],[-104.61055555555555,36.54388888888889],[-104.52694444444444,36.54194444444444],[-104.4388888888889,36.541666666666664],[-104.35666666666665,36.54055555555556],[-104.26694444444445,36.54055555555556],[-104.18444444444445,36.53944444444444],[-104.09666666666666,36.53805555555555],[-104.01138888888889,36.5375],[-103.9238888888889,36.53638888888889],[-103.8386111111111,36.53583333333333],[-103.75055555555555,36.535555555555554],[-103.66638888888889,36.53388888888889],[-103.57916666666667,36.533055555555556],[-103.49305555555556,36.53111111111111],[-103.40583333333333,36.530833333333334],[-103.32333333333332,36.52861111111111],[-103.25083333333333,36.527499999999996],[-103.15944444444445,36.52583333333333],[-103.07916666666667,36.52444444444444],[-102.9961111111111,36.522777777777776],[-102.91361111111112,36.52111111111111],[-102.84722222222221,36.519999999999996],[-102.74944444444445,36.518055555555556],[-102.68277777777779,36.516666666666666],[-102.58722222222222,36.51444444444444],[-102.52111111111111,36.51305555555555],[-102.42361111111111,36.510555555555555],[-102.35638888888889,36.509166666666665],[-102.25972222222222,36.50666666666667],[-102.19500000000001,36.505],[-102.0975,36.50277777777778],[-102.03166666666667,36.50083333333333],[-101.93361111111112,36.49888888888889],[-101.86749999999999,36.49944444444444],[-101.77111111111111,36.5],[-101.70361111111112,36.500277777777775],[-101.61222222222221,36.5],[-101.51055555555556,36.499722222222225],[-101.44638888888889,36.49916666666667],[-101.34527777777777,36.49888888888889],[-101.28111111111112,36.49861111111111],[-101.18083333333334,36.49805555555556],[-101.11722222222221,36.4975],[-101.01388888888889,36.49666666666667],[-100.95166666666667,36.49638888888889],[-100.8825,36.49583333333334],[-100.78583333333333,36.49472222222222],[-100.7038888888889,36.494166666666665],[-100.61805555555554,36.49333333333333],[-100.53888888888889,36.4925],[-100.45222222222222,36.49138888888889],[-100.37222222222222,36.49027777777778],[-100.27722222222222,36.48916666666667],[-100.20722222222223,36.488055555555555],[-100.11138888888888,36.486666666666665],[-100.03944444444444,36.48555555555556],[-99.94444444444444,36.48416666666667],[-99.87305555555555,36.48277777777778],[-99.77888888888889,36.48111111111111],[-99.7075,36.480000000000004],[-99.61138888888888,36.47805555555556],[-99.54083333333332,36.47666666666667],[-99.44638888888889,36.475],[-99.3736111111111,36.47361111111111],[-99.27722222222222,36.47138888888889],[-99.10805555555555,36.4675],[-98.94027777777778,36.46333333333334],[-98.77166666666666,36.45916666666667],[-98.60249999999999,36.45472222222222],[-98.46694444444445,36.450833333333335],[-98.29944444444445,36.44583333333333],[-98.13277777777778,36.44083333333333],[-97.96277777777777,36.43527777777778],[-97.79861111111111,36.42972222222222],[-97.63027777777778,36.42388888888889],[-97.4625,36.418055555555554],[-97.2911111111111,36.41138888888889],[-97.17972222222222,36.40555555555555],[-97.12277777777777,36.40472222222222],[-97.00888888888889,36.39888888888889],[-96.95194444444445,36.3975],[-96.83749999999999,36.39111111111111],[-96.78027777777778,36.390277777777776],[-96.66694444444445,36.38472222222222],[-96.59694444444445,36.3825],[-96.48194444444445,36.37722222222222],[-96.42694444444444,36.375],[-96.32555555555555,36.37],[-96.25444444444445,36.36638888888889],[-96.15555555555557,36.36138888888889],[-96.08416666666666,36.35805555555556],[-95.98222222222222,36.35333333333333],[-95.91305555555556,36.349722222222226],[-95.81194444444444,36.344722222222224],[-95.74638888888889,36.34138888888889],[-95.6438888888889,36.336111111111116],[-95.57416666666666,36.3325],[-95.47805555555556,36.3275],[-95.40194444444445,36.32333333333334],[-95.30944444444444,36.318333333333335],[-95.23277777777778,36.314166666666665],[-95.1375,36.308611111111105],[-95.06,36.303888888888885],[-94.96722222222222,36.29861111111111],[-94.90305555555557,36.294999999999995],[-94.79416666666667,36.28861111111111],[-94.73055555555555,36.28472222222222],[-94.62249999999999,36.27833333333333],[-94.55888888888889,36.274166666666666],[-94.4525,36.2675],[-94.38694444444445,36.263333333333335],[-94.28055555555555,36.25666666666667],[-94.21583333333334,36.2525],[-94.1086111111111,36.24583333333334],[-94.04138888888889,36.24388888888889],[-93.94083333333333,36.240833333333335],[-93.87249999999999,36.23861111111111],[-93.77111111111111,36.23555555555556],[-93.69944444444445,36.23305555555556],[-93.5975,36.22972222222222],[-93.52916666666667,36.227222222222224],[-93.42861111111111,36.22361111111111],[-93.35944444444443,36.22138888888889],[-93.25638888888889,36.2175],[-93.18777777777778,36.215],[-93.0886111111111,36.211111111111116],[-93.01583333333333,36.208333333333336],[-92.91777777777779,36.20444444444445],[-92.84638888888888,36.20166666666667],[-92.74527777777777,36.1975],[-92.67527777777778,36.19444444444444],[-92.57333333333332,36.19027777777777],[-92.50166666666667,36.18722222222222],[-92.4,36.18277777777777],[-92.33083333333333,36.17972222222222],[-92.23027777777779,36.17527777777777],[-92.05888888888889,36.16722222222222],[-91.88416666666667,36.15888888888889],[-91.7125,36.150277777777774],[-91.5411111111111,36.141666666666666],[-91.36777777777777,36.1325],[-91.19722222222222,36.12361111111111],[-91.02166666666666,36.11388888888889],[-90.84583333333333,36.11277777777778],[-90.67527777777778,36.11638888888889],[-90.50583333333333,36.11972222222222],[-90.33472222222221,36.123333333333335],[-90.19305555555556,36.12555555555556],[-90.02638888888889,36.12833333333333],[-89.85916666666667,36.13111111111111],[-89.68861111111111,36.13333333333333],[-89.52083333333333,36.13638888888889],[-89.35055555555554,36.138888888888886],[-89.18194444444445,36.138333333333335],[-89.0111111111111,36.14083333333333],[-88.82166666666666,36.1425],[-88.65194444444445,36.14333333333333],[-88.48277777777778,36.14416666666666],[-88.31222222222222,36.144444444444446],[-88.14666666666668,36.14472222222222],[-87.96555555555555,36.14472222222222],[-87.79777777777778,36.144444444444446],[-87.63138888888888,36.14388888888889],[-87.4975,36.14333333333333],[-87.2961111111111,36.14222222222222],[-87.12833333333333,36.14111111111111],[-86.96222222222222,36.13972222222222],[-86.79694444444445,36.13805555555555],[-86.63666666666667,36.15333333333333],[-86.48722222222223,36.20111111111111],[-86.33611111111111,36.24944444444444],[-86.185,36.29805555555556],[-86.03722222222223,36.34527777777778],[-85.885,36.39388888888889],[-85.7238888888889,36.44472222222222],[-85.41944444444445,36.540277777777774],[-85.26416666666667,36.58861111111111],[-85.11027777777777,36.63611111111111],[-84.95722222222223,36.683055555555555],[-84.80444444444444,36.72972222222222],[-84.65277777777779,36.77583333333333],[-84.5025,36.82138888888889],[-84.35805555555555,36.865],[-84.2063888888889,36.91027777777778],[-84.05527777777777,36.95527777777778],[-83.90722222222223,36.99916666666667],[-83.7575,37.04333333333333],[-83.60638888888889,37.08722222222222],[-83.45694444444445,37.13111111111111],[-83.30333333333333,37.175555555555555],[-83.15166666666667,37.21944444444445],[-83,37.26277777777778],[-82.72222222222223,37.34166666666667],[-82.56861111111111,37.385],[-82.41722222222222,37.42722222222222],[-82.36972222222222,37.440555555555555],[-82.26333333333334,37.47027777777778],[-82.21805555555555,37.48277777777778],[-82.11333333333333,37.51166666666666],[-82.0675,37.52444444444444],[-81.96472222222222,37.55277777777778],[-81.77222222222223,37.605555555555554],[-81.66583333333334,37.63444444444444],[-81.51777777777778,37.67472222222222],[-81.47416666666666,37.686388888888885],[-81.35555555555555,37.718333333333334],[-81.32805555555555,37.72555555555556],[-81.2063888888889,37.75805555555556],[-81.17750000000001,37.76583333333333],[-81.05416666666666,37.788333333333334],[-81.02333333333333,37.79194444444444],[-80.89361111111111,37.80722222222222],[-80.86277777777777,37.81055555555555],[-80.74944444444445,37.82472222222223],[-80.70694444444445,37.834722222222226],[-80.60111111111111,37.86694444444444],[-80.55722222222222,37.88027777777778],[-80.4388888888889,37.916666666666664],[-80.4113888888889,37.925],[-80.29277777777777,37.961111111111116],[-80.26361111111112,37.969722222222224],[-80.14666666666668,38.00527777777778],[-80.11722222222221,38.01416666666667],[-80.00083333333333,38.049166666666665],[-79.97083333333333,38.058055555555555],[-79.85277777777777,38.093333333333334],[-79.8236111111111,38.10194444444445],[-79.70777777777778,38.13638888888889],[-79.67916666666667,38.144999999999996],[-79.5625,38.17944444444444],[-79.52055555555556,38.19194444444444],[-79.41444444444446,38.223333333333336],[-79.37472222222222,38.234722222222224],[-79.22805555555556,38.27777777777778],[-79.07972222222222,38.32083333333334],[-78.93166666666667,38.36361111111111],[-78.78555555555555,38.40555555555555],[-78.64083333333333,38.446666666666665],[-78.49527777777777,38.483333333333334],[-78.34805555555555,38.520833333333336],[-78.19833333333334,38.558611111111105],[-78.05583333333333,38.590833333333336],[-78.03333333333333,38.6],[-77.95,38.61666666666667],[-77.92472222222223,38.61888888888889],[-77.81666666666666,38.65],[-77.78694444444444,38.64611111111111],[-77.68333333333334,38.65],[-77.65027777777779,38.65472222222222],[-77.53333333333333,38.666666666666664],[-77.51416666666667,38.66277777777778],[-77.4,38.666666666666664],[-77.37972222222221,38.67055555555555],[-77.26666666666667,38.68333333333333],[-77.25083333333333,38.67805555555555],[-77.15,38.68333333333333],[-77.1375,38.68444444444444],[-77.01666666666667,38.68333333333333],[-77.01,38.69138888888889],[-76.9,38.7],[-76.88805555555557,38.698055555555555],[-76.78333333333333,38.7],[-76.7713888888889,38.70416666666667],[-76.68333333333334,38.733333333333334],[-76.67083333333333,38.738055555555555],[-76.58305555555555,38.78],[-76.55,38.833333333333336],[-76.53111111111112,38.846111111111114],[-76.51666666666667,38.9],[-76.51083333333334,38.916666666666664],[-76.51666666666667,38.96666666666667],[-76.51583333333333,38.971111111111114],[-76.53333333333333,39],[-76.54333333333334,39.0175],[-76.56666666666666,39.05],[-76.56694444444445,39.05777777777777],[-76.58333333333333,39.083333333333336],[-76.59638888888888,39.09277777777778],[-76.61666666666666,39.11666666666667],[-76.62722222222222,39.126111111111115],[-76.65,39.15],[-76.6563888888889,39.1575]],"type":"LineString"}
}
