{
  "id": 2031946457,
  "type": "Feature",
  "properties": {
    "geom:area": 0,
    "geom:bbox": "-122.315000,37.681667,-104.660556,39.855556",
    "geom:latitude": 38.384912031978466,
    "geom:longitude": -113.16500004978681,
    "src:alt_label": "swim-path",
    "src:geom": "swim",
    "swim:altitudes": [
      "038",
      "056",
      "078",
      "099",
      "113",
      "126",
      "142",
      "161",
      "176",
      "193",
      "208",
      "222",
      "234",
      "259",
      "270",
      "280",
      "290",
      "292",
      "300",
      "302",
      "309",
      "311",
      "319",
      "326",
      "328",
      "338",
      "339",
      "347",
      "349",
      "359",
      "362",
      "370C",
      "370C",
      "370C",
      "370C",
      "370C",
      "370C",
      "370C",
      "370C",
      "370C",
      "370C",
      "370C",
      "370C",
      "370C",
      "370C",
      "370C",
      "370C",
      "370C",
      "370C",
      "370C",
      "370C",
      "370C",
      "370C",
      "370C",
      "370C",
      "370C",
      "370C",
      "370C",
      "370C",
      "370C",
      "370C",
      "370C",
      "370C",
      "370C",
      "370C",
      "370C",
      "370C",
      "370C",
      "370C",
      "370C",
      "370C",
      "370C",
      "370C",
      "370C",
      "370C",
      "370C",
      "370C",
      "370C",
      "370C",
      "370C",
      "370C",
      "370C",
      "370C",
      "370C",
      "370C",
      "370C",
      "370C",
      "370C",
      "370C",
      "370C",
      "370",
      "360C",
      "360",
      "360",
      "353",
      "350C",
      "350C",
      "350C",
      "350",
      "345",
      "336",
      "326",
      "316",
      "307",
      "296",
      "284",
      "273",
      "263",
      "254",
      "241",
      "232",
      "215",
      "206",
      "201",
      "192",
      "185",
      "179",
      "168",
      "161",
      "152",
      "146",
      "138",
      "133",
      "130",
      "127",
      "117",
      "113",
      "100",
      "094",
      "082",
      "070",
      "061",
      "056",
      "053",
      "054"
    ],
    "swim:geom": "path",
    "swim:speeds": [
      234,
      272,
      287,
      306,
      331,
      361,
      376,
      387,
      404,
      411,
      421,
      430,
      441,
      454,
      461,
      469,
      477,
      476,
      483,
      482,
      489,
      491,
      496,
      504,
      499,
      505,
      505,
      504,
      505,
      501,
      503,
      493,
      494,
      493,
      492,
      491,
      490,
      489,
      489,
      489,
      489,
      488,
      487,
      486,
      485,
      485,
      484,
      484,
      483,
      482,
      482,
      482,
      482,
      483,
      484,
      485,
      488,
      487,
      487,
      487,
      487,
      485,
      483,
      482,
      481,
      481,
      481,
      483,
      485,
      485,
      486,
      489,
      494,
      492,
      490,
      489,
      488,
      488,
      487,
      486,
      485,
      486,
      488,
      489,
      489,
      489,
      488,
      486,
      484,
      482,
      482,
      482,
      483,
      485,
      486,
      486,
      487,
      487,
      486,
      485,
      486,
      487,
      488,
      489,
      490,
      467,
      460,
      445,
      440,
      438,
      427,
      410,
      407,
      384,
      384,
      374,
      369,
      358,
      354,
      353,
      345,
      335,
      324,
      311,
      278,
      268,
      255,
      250,
      252,
      254,
      210,
      182,
      172,
      165,
      77
    ],
    "swim:timestamps": [
      1784846057,
      1784846117,
      1784846177,
      1784846249,
      1784846309,
      1784846369,
      1784846429,
      1784846490,
      1784846550,
      1784846610,
      1784846670,
      1784846730,
      1784846790,
      1784846910,
      1784846970,
      1784847030,
      1784847090,
      1784847106,
      1784847150,
      1784847166,
      1784847211,
      1784847226,
      1784847286,
      1784847331,
      1784847346,
      1784847391,
      1784847406,
      1784847451,
      1784847466,
      1784847511,
      1784847526,
      1784847631,
      1784847646,
      1784847706,
      1784847751,
      1784847827,
      1784847871,
      1784847932,
      1784847947,
      1784847992,
      1784848007,
      1784848067,
      1784848112,
      1784848127,
      1784848172,
      1784848187,
      1784848232,
      1784848247,
      1784848292,
      1784848367,
      1784848412,
      1784848427,
      1784848472,
      1784848548,
      1784848608,
      1784848668,
      1784848788,
      1784848848,
      1784848908,
      1784848968,
      1784849028,
      1784849148,
      1784849269,
      1784849329,
      1784849389,
      1784849449,
      1784849509,
      1784849569,
      1784849629,
      1784849689,
      1784849749,
      1784849809,
      1784849929,
      1784849989,
      1784850050,
      1784850109,
      1784850169,
      1784850230,
      1784850350,
      1784850410,
      1784850470,
      1784850530,
      1784850590,
      1784850650,
      1784850771,
      1784850831,
      1784850890,
      1784850950,
      1784851011,
      1784851131,
      1784851191,
      1784851251,
      1784851311,
      1784851371,
      1784851431,
      1784851491,
      1784851551,
      1784851611,
      1784851671,
      1784851732,
      1784851792,
      1784851852,
      1784851912,
      1784851972,
      1784852032,
      1784852092,
      1784852152,
      1784852212,
      1784852272,
      1784852332,
      1784852356,
      1784852418,
      1784852453,
      1784852478,
      1784852513,
      1784852538,
      1784852573,
      1784852633,
      1784852658,
      1784852693,
      1784852718,
      1784852753,
      1784852776,
      1784852813,
      1784852873,
      1784852933,
      1784852958,
      1784853018,
      1784853053,
      1784853113,
      1784853174,
      1784853234,
      1784853264,
      1784853294,
      1784853354
    ],
    "wof:geomhash": "2b297197b407bd40f81153deb10c6948",
    "wof:id": 2031946457,
    "wof:repo": "sfomuseum-data-flights-2026-07"
  },
  "bbox": [
    -122.315,
    37.681666666666665,
    -104.66055555555556,
    39.855555555555554
  ],
  "geometry": {"coordinates":[[-122.315,37.681666666666665],[-122.22972222222222,37.71222222222222],[-122.14111111111112,37.75083333333333],[-122.01888888888888,37.78055555555555],[-121.91083333333334,37.80583333333333],[-121.78861111111111,37.83444444444444],[-121.66194444444444,37.863055555555555],[-121.51805555555555,37.896388888888886],[-121.38305555555554,37.927499999999995],[-121.24277777777777,37.95944444444445],[-121.10083333333333,37.99138888888889],[-120.95277777777778,38.01444444444444],[-120.80305555555556,38.0375],[-120.49027777777778,38.085],[-120.32972222222222,38.10888888888889],[-120.16638888888889,38.13333333333333],[-120.00222222222222,38.1575],[-119.96111111111111,38.161944444444444],[-119.83222222222221,38.18222222222222],[-119.79305555555555,38.1875],[-119.66250000000001,38.20666666666667],[-119.62222222222222,38.21083333333333],[-119.44916666666667,38.23555555555556],[-119.30777777777777,38.256388888888885],[-119.275,38.26111111111111],[-119.13277777777778,38.280833333333334],[-119.09805555555555,38.28388888888889],[-118.95805555555556,38.305],[-118.9238888888889,38.30833333333333],[-118.78666666666666,38.32805555555556],[-118.75194444444445,38.331388888888895],[-118.44444444444444,38.37388888888889],[-118.41361111111112,38.378055555555555],[-118.22777777777777,38.40222222222222],[-118.10333333333332,38.41833333333333],[-117.88305555555554,38.44638888888888],[-117.77638888888889,38.459722222222226],[-117.60444444444444,38.481388888888894],[-117.53916666666666,38.489444444444445],[-117.43388888888889,38.5025],[-117.36583333333333,38.51083333333333],[-117.22611111111111,38.51916666666666],[-117.08472222222221,38.51638888888889],[-117.0525,38.51583333333333],[-116.91222222222223,38.51277777777778],[-116.88055555555555,38.51222222222222],[-116.73805555555556,38.50888888888889],[-116.70583333333333,38.50805555555556],[-116.56805555555555,38.504444444444445],[-116.36555555555555,38.49916666666667],[-116.22666666666667,38.49527777777778],[-116.19277777777778,38.49444444444445],[-116.05361111111111,38.49027777777778],[-115.85111111111111,38.48416666666667],[-115.67777777777778,38.478611111111114],[-115.50583333333333,38.47277777777778],[-115.1563888888889,38.46027777777778],[-114.98416666666667,38.453611111111115],[-114.81277777777777,38.44694444444444],[-114.64027777777778,38.439722222222215],[-114.46638888888889,38.43222222222222],[-114.12444444444444,38.41694444444444],[-113.78277777777778,38.40083333333333],[-113.6125,38.39222222222222],[-113.44472222222223,38.38361111111111],[-113.27333333333333,38.37444444444444],[-113.10333333333332,38.36555555555556],[-112.92916666666667,38.35611111111111],[-112.75888888888889,38.34638888888889],[-112.58749999999999,38.32694444444445],[-112.41527777777779,38.30972222222222],[-112.24361111111111,38.29722222222222],[-111.88833333333334,38.27055555555555],[-111.71805555555555,38.257777777777775],[-111.55083333333333,38.249722222222225],[-111.37416666666665,38.24166666666667],[-111.20277777777778,38.233333333333334],[-111.03027777777778,38.224444444444444],[-110.70722222222223,38.20722222222223],[-110.53611111111111,38.19833333333333],[-110.36749999999999,38.189166666666665],[-110.19555555555556,38.17944444444444],[-110.02277777777778,38.16916666666666],[-109.85166666666666,38.156666666666666],[-109.515,38.10194444444445],[-109.34861111111111,38.074444444444445],[-109.15361111111112,38.04222222222222],[-108.9888888888889,38.006388888888885],[-108.82166666666666,37.963055555555556],[-108.50361111111111,37.88027777777778],[-108.34444444444443,37.83888888888889],[-108.18194444444445,37.794999999999995],[-108.01944444444445,37.78444444444444],[-107.85555555555555,37.82361111111111],[-107.69166666666668,37.86666666666667],[-107.54027777777777,37.92611111111111],[-107.40222222222222,38.005],[-107.31138888888889,38.1175],[-107.21944444444445,38.22888888888889],[-107.13861111111112,38.327222222222225],[-107.04527777777777,38.44027777777777],[-106.95027777777779,38.55472222222222],[-106.85694444444444,38.66722222222222],[-106.76138888888889,38.78194444444444],[-106.6538888888889,38.90972222222222],[-106.54472222222222,39.00694444444444],[-106.39833333333334,39.06333333333333],[-106.2538888888889,39.11611111111111],[-106.11583333333333,39.16611111111111],[-105.97305555555556,39.217222222222226],[-105.9,39.233333333333334],[-105.76666666666667,39.28333333333333],[-105.70444444444445,39.31388888888888],[-105.65,39.333333333333336],[-105.58,39.35916666666667],[-105.51666666666667,39.38333333333333],[-105.45833333333334,39.40333333333333],[-105.33083333333333,39.41722222222222],[-105.26666666666667,39.416666666666664],[-105.19583333333334,39.418055555555554],[-105.15,39.416666666666664],[-105.07333333333332,39.425],[-105.03333333333333,39.43333333333333],[-104.96527777777779,39.45416666666667],[-104.87083333333332,39.47944444444445],[-104.78083333333333,39.50388888888889],[-104.75,39.516666666666666],[-104.7,39.56666666666667],[-104.6738888888889,39.609722222222224],[-104.66277777777778,39.67722222222222],[-104.66166666666668,39.74194444444444],[-104.66111111111111,39.79388888888889],[-104.66666666666667,39.81666666666667],[-104.66055555555556,39.84055555555556],[-104.66194444444444,39.855555555555554]],"type":"LineString"}
}
