{
  "id": 2032034585,
  "type": "Feature",
  "properties": {
    "geom:area": 0,
    "geom:bbox": "-122.350000,32.766944,-117.259444,37.600000",
    "geom:latitude": 35.04286719719166,
    "geom:longitude": -120.00979318432327,
    "src:alt_label": "swim-path",
    "src:geom": "swim",
    "swim:altitudes": [
      "024",
      "045",
      "072",
      "106",
      "148",
      "224",
      "267",
      "285",
      "289",
      "300",
      "341",
      "355",
      "366",
      "377",
      "398C",
      "400C",
      "400C",
      "400C",
      "400C",
      "400C",
      "400C",
      "400C",
      "400C",
      "400C",
      "400C",
      "400C",
      "400C",
      "400",
      "400",
      "400",
      "399",
      "376",
      "350",
      "314",
      "282",
      "270",
      "246",
      "244",
      "236",
      "230",
      "213",
      "207",
      "184",
      "163",
      "148",
      "123",
      "113",
      "111",
      "096",
      "087",
      "085",
      "074",
      "061",
      "060",
      "058",
      "056",
      "047",
      "035",
      "011",
      "003"
    ],
    "swim:geom": "path",
    "swim:speeds": [
      221,
      258,
      285,
      293,
      383,
      413,
      421,
      425,
      461,
      471,
      457,
      453,
      453,
      454,
      458,
      457,
      459,
      460,
      463,
      464,
      466,
      467,
      464,
      460,
      458,
      457,
      456,
      455,
      454,
      453,
      450,
      440,
      438,
      443,
      462,
      457,
      449,
      432,
      394,
      387,
      387,
      381,
      374,
      368,
      360,
      341,
      310,
      299,
      286,
      273,
      264,
      254,
      242,
      219,
      199,
      197,
      198,
      176,
      148,
      140
    ],
    "swim:timestamps": [
      1785421568,
      1785421629,
      1785421689,
      1785421749,
      1785421869,
      1785422049,
      1785422169,
      1785422229,
      1785422290,
      1785422350,
      1785422470,
      1785422530,
      1785422590,
      1785422650,
      1785422770,
      1785422830,
      1785422890,
      1785422951,
      1785423069,
      1785423131,
      1785423191,
      1785423251,
      1785423311,
      1785423371,
      1785423431,
      1785423491,
      1785423551,
      1785423669,
      1785423732,
      1785423792,
      1785423850,
      1785423910,
      1785423970,
      1785424030,
      1785424077,
      1785424101,
      1785424150,
      1785424161,
      1785424210,
      1785424221,
      1785424270,
      1785424281,
      1785424341,
      1785424401,
      1785424451,
      1785424521,
      1785424571,
      1785424581,
      1785424641,
      1785424691,
      1785424701,
      1785424751,
      1785424811,
      1785424821,
      1785424871,
      1785424881,
      1785424931,
      1785425001,
      1785425172,
      1785425241
    ],
    "wof:geomhash": "4ee6ad8a11ca75b0de434364b9ced720",
    "wof:id": 2032034585,
    "wof:repo": "sfomuseum-data-flights-2026-07"
  },
  "bbox": [
    -122.35,
    32.76694444444444,
    -117.25944444444444,
    37.6
  ],
  "geometry": {"coordinates":[[-117.25944444444444,32.76694444444444],[-117.325,32.80361111111111],[-117.39888888888889,32.850833333333334],[-117.47611111111111,32.901111111111106],[-117.66777777777779,33.02388888888889],[-117.94333333333334,33.261944444444445],[-118.14277777777778,33.428888888888885],[-118.24305555555556,33.511944444444445],[-118.35027777777778,33.60111111111111],[-118.44444444444444,33.67833333333333],[-118.66833333333334,33.86333333333334],[-118.77444444444444,33.95055555555556],[-118.88361111111112,34.03944444444444],[-118.9925,34.1275],[-119.2525,34.26722222222222],[-119.36916666666666,34.34916666666667],[-119.47361111111111,34.441111111111105],[-119.57972222222222,34.53472222222222],[-119.79388888888889,34.72222222222222],[-119.89888888888889,34.814166666666665],[-120.00694444444444,34.90833333333333],[-120.13416666666667,35.01861111111111],[-120.24166666666667,35.11222222222222],[-120.34638888888888,35.20305555555556],[-120.4538888888889,35.29555555555555],[-120.56083333333333,35.386944444444445],[-120.66777777777779,35.47833333333333],[-120.87722222222222,35.656666666666666],[-120.98222222222222,35.74583333333334],[-121.08999999999999,35.836666666666666],[-121.19944444444445,35.92861111111111],[-121.30333333333333,36.01555555555556],[-121.39833333333334,36.10944444444445],[-121.4786111111111,36.213055555555556],[-121.55,36.3],[-121.58333333333333,36.35],[-121.6463888888889,36.42666666666666],[-121.66666666666667,36.45],[-121.72166666666666,36.52388888888889],[-121.73333333333333,36.55],[-121.79222222222222,36.613055555555555],[-121.81666666666666,36.63333333333333],[-121.88333333333334,36.71666666666667],[-121.91666666666667,36.81666666666667],[-121.93833333333333,36.89944444444444],[-121.98333333333333,37.016666666666666],[-122.0025,37.078611111111115],[-122.01666666666667,37.1],[-122.03333333333333,37.166666666666664],[-122.06194444444444,37.23027777777778],[-122.06666666666666,37.25],[-122.08888888888889,37.29861111111111],[-122.11444444444444,37.36361111111111],[-122.11666666666666,37.38333333333333],[-122.10249999999999,37.41611111111111],[-122.1,37.43333333333333],[-122.10638888888889,37.46805555555556],[-122.15,37.516666666666666],[-122.2911111111111,37.583333333333336],[-122.35,37.6]],"type":"LineString"}
}
