{
  "id": 2032048193,
  "type": "Feature",
  "properties": {
    "geom:area": 0,
    "geom:bbox": "-122.343889,37.500000,-83.404444,42.496944",
    "geom:latitude": 40.69298844896156,
    "geom:longitude": -102.9300638311891,
    "src:alt_label": "swim-path",
    "src:geom": "swim",
    "swim:altitudes": [
      "025",
      "048",
      "072",
      "095",
      "095",
      "112",
      "136",
      "150",
      "167",
      "189",
      "205",
      "218",
      "236",
      "247",
      "264",
      "275",
      "281",
      "288",
      "290",
      "301",
      "313",
      "320C",
      "320C",
      "320C",
      "320C",
      "320C",
      "320C",
      "320C",
      "320C",
      "320C",
      "320C",
      "320C",
      "320C",
      "320C",
      "320C",
      "320C",
      "320C",
      "320C",
      "320C",
      "320C",
      "320C",
      "320C",
      "320C",
      "320C",
      "320C",
      "320C",
      "320C",
      "320C",
      "320C",
      "320C",
      "320C",
      "320C",
      "320C",
      "320C",
      "320C",
      "320C",
      "320C",
      "320C",
      "320C",
      "320C",
      "320C",
      "320C",
      "320C",
      "320C",
      "320C",
      "320C",
      "320C",
      "320C",
      "320C",
      "320C",
      "320C",
      "320C",
      "320C",
      "320C",
      "320C",
      "320C",
      "320C",
      "320C",
      "320C",
      "320C",
      "320C",
      "320C",
      "320C",
      "320C",
      "320C",
      "320C",
      "320C",
      "320C",
      "320C",
      "320C",
      "320C",
      "320C",
      "320C",
      "320C",
      "320C",
      "320C",
      "320C",
      "320C",
      "320C",
      "320",
      "320",
      "320",
      "320",
      "320",
      "328",
      "339C",
      "340C",
      "340C",
      "340C",
      "340C",
      "340C",
      "340C",
      "340C",
      "340C",
      "340C",
      "340C",
      "340C",
      "340C",
      "340C",
      "340C",
      "340C",
      "340C",
      "340C",
      "340C",
      "340C",
      "340C",
      "340C",
      "340C",
      "340C",
      "340C",
      "340C",
      "340C",
      "340C",
      "340C",
      "340C",
      "340C",
      "340C",
      "340C",
      "340C",
      "340C",
      "340C",
      "340C",
      "340C",
      "340C",
      "340C",
      "340C",
      "340C",
      "340C",
      "340C",
      "340C",
      "340C",
      "340C",
      "340C",
      "340C",
      "340C",
      "340C",
      "340C",
      "340C",
      "340C",
      "340C",
      "340C",
      "340C",
      "340C",
      "340C",
      "340C",
      "340C",
      "340C",
      "340C",
      "340C",
      "340C",
      "340C",
      "340C",
      "340C",
      "340C",
      "340C",
      "340C",
      "340C",
      "340C",
      "340C",
      "340C",
      "340C",
      "340C",
      "340C",
      "340C",
      "340C",
      "340C",
      "340C",
      "340C",
      "340C",
      "340C",
      "340C",
      "340C",
      "340C",
      "340C",
      "340C",
      "340C",
      "340C",
      "340C",
      "340C",
      "340C",
      "340C",
      "340C",
      "340C",
      "340C",
      "340C",
      "340C",
      "340C",
      "340C",
      "340C",
      "340C",
      "340C",
      "340C",
      "340C",
      "340C",
      "340C",
      "340C",
      "340C",
      "340C",
      "340C",
      "340C",
      "340C",
      "340C",
      "340C",
      "340C",
      "340C",
      "340C",
      "340C",
      "340C",
      "340C",
      "340C",
      "340C",
      "340C",
      "340C",
      "340C",
      "340C",
      "340C",
      "340C",
      "340C",
      "340C",
      "340C",
      "340C",
      "340C",
      "340C",
      "340C",
      "340C",
      "340C",
      "340C",
      "340C",
      "340C",
      "340C",
      "340C",
      "340C",
      "340C",
      "340C",
      "340C",
      "340C",
      "340C",
      "340C",
      "340C",
      "340C",
      "340C",
      "340C",
      "340C",
      "340C",
      "340C",
      "340C",
      "340C",
      "340C",
      "340C",
      "340C",
      "340C",
      "340C",
      "340C",
      "340C",
      "340C",
      "340C",
      "340C",
      "340C",
      "340C",
      "340C",
      "340C",
      "340C",
      "340C",
      "340C",
      "340C",
      "340C",
      "340C",
      "340C",
      "340C",
      "340C",
      "340C",
      "340C",
      "340C",
      "340C",
      "340C",
      "340C",
      "340C",
      "340C",
      "340C",
      "340C",
      "340C",
      "340C",
      "340C",
      "340C",
      "340C",
      "340C",
      "340C",
      "340C",
      "340C",
      "338",
      "328",
      "320C",
      "320C",
      "320C",
      "315",
      "305",
      "284",
      "274",
      "263",
      "239",
      "220",
      "201",
      "183",
      "165",
      "147",
      "131",
      "115",
      "104",
      "096",
      "082",
      "071",
      "060",
      "058",
      "044",
      "038",
      "020",
      "010",
      "003"
    ],
    "swim:geom": "path",
    "swim:speeds": [
      227,
      253,
      281,
      293,
      288,
      329,
      340,
      374,
      392,
      402,
      408,
      415,
      425,
      434,
      454,
      455,
      455,
      455,
      456,
      452,
      442,
      435,
      434,
      435,
      435,
      435,
      434,
      432,
      431,
      431,
      430,
      431,
      431,
      432,
      433,
      435,
      440,
      446,
      449,
      451,
      452,
      452,
      442,
      445,
      442,
      442,
      442,
      440,
      439,
      438,
      437,
      436,
      435,
      434,
      434,
      434,
      435,
      436,
      436,
      437,
      438,
      440,
      439,
      438,
      437,
      437,
      436,
      436,
      434,
      431,
      429,
      427,
      423,
      420,
      418,
      417,
      416,
      415,
      415,
      416,
      417,
      417,
      420,
      424,
      426,
      427,
      427,
      425,
      423,
      421,
      420,
      427,
      426,
      425,
      425,
      424,
      425,
      425,
      425,
      426,
      426,
      426,
      426,
      426,
      426,
      423,
      423,
      422,
      422,
      423,
      424,
      423,
      423,
      421,
      422,
      421,
      416,
      421,
      416,
      421,
      417,
      422,
      417,
      423,
      419,
      423,
      419,
      423,
      420,
      422,
      420,
      422,
      420,
      422,
      420,
      423,
      420,
      424,
      421,
      426,
      423,
      427,
      425,
      428,
      427,
      427,
      427,
      426,
      427,
      424,
      427,
      423,
      427,
      423,
      427,
      423,
      426,
      423,
      426,
      423,
      426,
      425,
      426,
      426,
      426,
      428,
      426,
      427,
      426,
      427,
      426,
      428,
      426,
      428,
      426,
      428,
      427,
      426,
      427,
      424,
      426,
      422,
      423,
      421,
      422,
      420,
      422,
      418,
      417,
      416,
      416,
      413,
      416,
      412,
      414,
      412,
      414,
      412,
      415,
      413,
      416,
      413,
      417,
      415,
      419,
      419,
      422,
      419,
      423,
      420,
      423,
      420,
      423,
      422,
      421,
      421,
      420,
      419,
      418,
      417,
      416,
      416,
      415,
      415,
      415,
      415,
      416,
      416,
      416,
      416,
      417,
      417,
      418,
      418,
      419,
      419,
      420,
      421,
      422,
      422,
      423,
      424,
      425,
      425,
      425,
      425,
      424,
      424,
      424,
      423,
      423,
      423,
      423,
      423,
      425,
      427,
      428,
      429,
      429,
      429,
      429,
      428,
      428,
      428,
      428,
      428,
      428,
      430,
      431,
      432,
      432,
      432,
      431,
      431,
      431,
      431,
      432,
      432,
      432,
      432,
      432,
      432,
      433,
      433,
      430,
      431,
      431,
      433,
      435,
      435,
      435,
      435,
      434,
      435,
      436,
      438,
      439,
      439,
      440,
      441,
      441,
      441,
      442,
      442,
      442,
      441,
      441,
      441,
      441,
      441,
      442,
      446,
      449,
      449,
      449,
      453,
      455,
      451,
      429,
      420,
      409,
      392,
      375,
      361,
      347,
      339,
      337,
      311,
      287,
      278,
      265,
      254,
      241,
      234,
      196,
      190,
      163,
      146
    ],
    "swim:timestamps": [
      1785516419,
      1785516479,
      1785516539,
      1785516594,
      1785516603,
      1785516663,
      1785516723,
      1785516783,
      1785516843,
      1785516902,
      1785516962,
      1785517023,
      1785517094,
      1785517154,
      1785517275,
      1785517335,
      1785517395,
      1785517444,
      1785517455,
      1785517504,
      1785517564,
      1785517635,
      1785517695,
      1785517755,
      1785517816,
      1785517876,
      1785517936,
      1785517996,
      1785518056,
      1785518116,
      1785518176,
      1785518236,
      1785518296,
      1785518356,
      1785518417,
      1785518477,
      1785518537,
      1785518597,
      1785518657,
      1785518717,
      1785518777,
      1785518835,
      1785518895,
      1785518957,
      1785519015,
      1785519075,
      1785519135,
      1785519195,
      1785519256,
      1785519316,
      1785519376,
      1785519436,
      1785519496,
      1785519556,
      1785519616,
      1785519676,
      1785519736,
      1785519796,
      1785519856,
      1785519916,
      1785519979,
      1785520037,
      1785520157,
      1785520217,
      1785520280,
      1785520340,
      1785520400,
      1785520457,
      1785520517,
      1785520577,
      1785520637,
      1785520698,
      1785520758,
      1785520818,
      1785520878,
      1785520938,
      1785520998,
      1785521058,
      1785521118,
      1785521178,
      1785521238,
      1785521298,
      1785521358,
      1785521419,
      1785521479,
      1785521539,
      1785521599,
      1785521659,
      1785521719,
      1785521779,
      1785521839,
      1785521894,
      1785521954,
      1785522074,
      1785522134,
      1785522140,
      1785522194,
      1785522254,
      1785522260,
      1785522314,
      1785522320,
      1785522380,
      1785522434,
      1785522440,
      1785522500,
      1785522554,
      1785522560,
      1785522615,
      1785522675,
      1785522735,
      1785522795,
      1785522855,
      1785522861,
      1785522915,
      1785522921,
      1785522975,
      1785522991,
      1785523035,
      1785523051,
      1785523095,
      1785523111,
      1785523155,
      1785523171,
      1785523215,
      1785523231,
      1785523275,
      1785523291,
      1785523335,
      1785523351,
      1785523396,
      1785523411,
      1785523456,
      1785523471,
      1785523516,
      1785523532,
      1785523576,
      1785523592,
      1785523636,
      1785523652,
      1785523696,
      1785523712,
      1785523756,
      1785523772,
      1785523816,
      1785523832,
      1785523876,
      1785523892,
      1785523936,
      1785523952,
      1785523996,
      1785524012,
      1785524056,
      1785524072,
      1785524117,
      1785524132,
      1785524177,
      1785524192,
      1785524237,
      1785524253,
      1785524297,
      1785524313,
      1785524357,
      1785524373,
      1785524417,
      1785524433,
      1785524477,
      1785524493,
      1785524537,
      1785524553,
      1785524597,
      1785524613,
      1785524657,
      1785524673,
      1785524717,
      1785524733,
      1785524777,
      1785524793,
      1785524837,
      1785524853,
      1785524898,
      1785524913,
      1785524958,
      1785524973,
      1785525018,
      1785525034,
      1785525078,
      1785525094,
      1785525138,
      1785525154,
      1785525198,
      1785525214,
      1785525258,
      1785525274,
      1785525334,
      1785525378,
      1785525394,
      1785525438,
      1785525454,
      1785525498,
      1785525514,
      1785525558,
      1785525574,
      1785525619,
      1785525634,
      1785525679,
      1785525694,
      1785525739,
      1785525755,
      1785525799,
      1785525815,
      1785525859,
      1785525875,
      1785525919,
      1785525935,
      1785525979,
      1785525995,
      1785526039,
      1785526055,
      1785526099,
      1785526115,
      1785526159,
      1785526175,
      1785526219,
      1785526235,
      1785526279,
      1785526295,
      1785526340,
      1785526355,
      1785526400,
      1785526415,
      1785526460,
      1785526476,
      1785526520,
      1785526536,
      1785526580,
      1785526596,
      1785526640,
      1785526656,
      1785526700,
      1785526716,
      1785526760,
      1785526776,
      1785526820,
      1785526836,
      1785526880,
      1785526896,
      1785526940,
      1785526956,
      1785527000,
      1785527016,
      1785527060,
      1785527076,
      1785527121,
      1785527136,
      1785527196,
      1785527257,
      1785527317,
      1785527377,
      1785527437,
      1785527497,
      1785527557,
      1785527617,
      1785527677,
      1785527737,
      1785527797,
      1785527857,
      1785527917,
      1785527978,
      1785528038,
      1785528098,
      1785528158,
      1785528218,
      1785528278,
      1785528338,
      1785528398,
      1785528458,
      1785528518,
      1785528578,
      1785528638,
      1785528698,
      1785528759,
      1785528819,
      1785528882,
      1785528943,
      1785528999,
      1785529063,
      1785529123,
      1785529179,
      1785529243,
      1785529303,
      1785529359,
      1785529423,
      1785529480,
      1785529543,
      1785529603,
      1785529664,
      1785529720,
      1785529780,
      1785529840,
      1785529904,
      1785529960,
      1785530020,
      1785530080,
      1785530140,
      1785530200,
      1785530264,
      1785530324,
      1785530385,
      1785530445,
      1785530505,
      1785530565,
      1785530625,
      1785530685,
      1785530745,
      1785530805,
      1785530865,
      1785530925,
      1785530948,
      1785530984,
      1785531044,
      1785531106,
      1785531166,
      1785531226,
      1785531286,
      1785531346,
      1785531406,
      1785531466,
      1785531526,
      1785531586,
      1785531646,
      1785531705,
      1785531765,
      1785531827,
      1785531887,
      1785531947,
      1785532007,
      1785532067,
      1785532127
    ],
    "wof:geomhash": "ffe8afb0109b0c6ef13bdca8ccb603b2",
    "wof:id": 2032048193,
    "wof:repo": "sfomuseum-data-flights-2026-07"
  },
  "bbox": [
    -122.34388888888888,
    37.5,
    -83.40444444444445,
    42.496944444444445
  ],
  "geometry": {"coordinates":[[-83.40444444444445,42.17166666666667],[-83.48388888888888,42.13611111111111],[-83.57777777777777,42.16222222222222],[-83.66722222222222,42.19472222222222],[-83.66555555555556,42.193888888888885],[-83.77111111111111,42.23277777777778],[-83.88694444444445,42.27361111111111],[-84.0111111111111,42.31777777777778],[-84.14194444444445,42.36416666666667],[-84.30305555555556,42.42111111111111],[-84.45416666666667,42.43472222222222],[-84.58472222222221,42.43805555555555],[-84.80055555555555,42.44277777777778],[-84.96388888888889,42.446666666666665],[-85.30444444444444,42.453611111111115],[-85.47527777777778,42.45666666666667],[-85.61361111111111,42.45888888888889],[-85.74638888888889,42.461111111111116],[-85.78611111111111,42.461666666666666],[-85.91833333333334,42.46333333333334],[-86.08333333333333,42.46555555555556],[-86.28305555555555,42.467222222222226],[-86.44722222222222,42.4675],[-86.61083333333333,42.46805555555556],[-86.78166666666667,42.46805555555556],[-86.94444444444444,42.46805555555556],[-87.07277777777777,42.467777777777776],[-87.26583333333333,42.467222222222226],[-87.42722222222223,42.46638888888889],[-87.58555555555554,42.46555555555556],[-87.74666666666667,42.46416666666667],[-87.93305555555555,42.462500000000006],[-88.095,42.46083333333333],[-88.25722222222223,42.45888888888889],[-88.42277777777778,42.45666666666667],[-88.58666666666666,42.45416666666667],[-88.75277777777778,42.45138888888889],[-88.92111111111112,42.448611111111106],[-89.0925,42.445277777777775],[-89.26388888888889,42.44166666666666],[-89.43388888888889,42.437777777777775],[-89.56583333333333,42.43277777777777],[-89.72916666666667,42.42944444444444],[-89.93527777777778,42.42527777777777],[-90.06277777777777,42.42194444444444],[-90.23027777777779,42.41611111111111],[-90.39555555555556,42.41166666666666],[-90.55972222222222,42.406388888888884],[-90.7238888888889,42.40138888888889],[-90.88833333333334,42.40083333333333],[-91.05166666666666,42.4],[-91.21666666666667,42.399166666666666],[-91.37972222222221,42.39805555555556],[-91.54416666666667,42.396388888888886],[-91.70861111111111,42.39472222222222],[-91.87333333333332,42.39277777777778],[-92.03611111111111,42.39055555555556],[-92.20277777777778,42.388333333333335],[-92.36555555555555,42.385555555555555],[-92.53,42.382777777777775],[-92.69361111111111,42.39416666666666],[-92.85833333333333,42.408055555555556],[-93.18694444444445,42.43583333333333],[-93.34861111111111,42.44916666666666],[-93.51277777777777,42.46222222222222],[-93.67472222222223,42.475],[-93.80388888888889,42.485],[-94.00111111111111,42.496944444444445],[-94.16166666666668,42.47944444444445],[-94.31388888888888,42.46027777777778],[-94.47083333333333,42.44],[-94.62694444444443,42.41972222222222],[-94.81388888888888,42.394999999999996],[-94.96805555555555,42.37444444444444],[-95.12138888888889,42.35388888888889],[-95.27333333333333,42.33305555555556],[-95.42583333333334,42.31194444444444],[-95.57694444444444,42.29111111111111],[-95.73027777777779,42.26972222222222],[-95.88333333333334,42.24777777777778],[-96.03444444444445,42.226111111111116],[-96.1875,42.20416666666667],[-96.34083333333332,42.181666666666665],[-96.49916666666667,42.16277777777778],[-96.65555555555557,42.14333333333333],[-96.81166666666667,42.123333333333335],[-96.96916666666667,42.10333333333333],[-97.12444444444444,42.08305555555556],[-97.27777777777777,42.06305555555555],[-97.43222222222222,42.0425],[-97.58527777777778,42.02194444444444],[-97.7275,42.00277777777778],[-97.88138888888888,41.98166666666667],[-98.19444444444444,41.93833333333333],[-98.34694444444445,41.91694444444444],[-98.36055555555555,41.915],[-98.50277777777778,41.894444444444446],[-98.65861111111111,41.87],[-98.67111111111112,41.86805555555556],[-98.81222222222222,41.846111111111114],[-98.825,41.844166666666666],[-98.97916666666667,41.819722222222225],[-99.12555555555555,41.796388888888885],[-99.13444444444445,41.794999999999995],[-99.28777777777778,41.77055555555555],[-99.43111111111112,41.7475],[-99.44250000000001,41.745555555555555],[-99.58388888888888,41.722500000000004],[-99.73555555555555,41.6975],[-99.8888888888889,41.67222222222222],[-100.04305555555555,41.64611111111111],[-100.19555555555556,41.62027777777778],[-100.20583333333333,41.618611111111115],[-100.34527777777777,41.595],[-100.36222222222221,41.591944444444444],[-100.49555555555555,41.56888888888889],[-100.54194444444444,41.55833333333333],[-100.64861111111112,41.54222222222222],[-100.69361111111111,41.531666666666666],[-100.79805555555555,41.51611111111111],[-100.84583333333333,41.50666666666667],[-100.95027777777779,41.48833333333334],[-100.99694444444445,41.47944444444445],[-101.10138888888888,41.46055555555556],[-101.15,41.45138888888889],[-101.25277777777778,41.4325],[-101.30194444444444,41.42194444444444],[-101.40277777777779,41.40472222222222],[-101.4525,41.394999999999996],[-101.55416666666666,41.37638888888889],[-101.6036111111111,41.36555555555556],[-101.70305555555557,41.34777777777778],[-101.75361111111111,41.33694444444445],[-101.8536111111111,41.31916666666667],[-101.90666666666667,41.308055555555555],[-102.005,41.290277777777774],[-102.05749999999999,41.279444444444444],[-102.15833333333335,41.260555555555555],[-102.21055555555556,41.25],[-102.30916666666667,41.23083333333334],[-102.36388888888888,41.219166666666666],[-102.46305555555556,41.200833333333335],[-102.51777777777778,41.18833333333333],[-102.61472222222221,41.17055555555555],[-102.67055555555557,41.158055555555556],[-102.76555555555555,41.14055555555556],[-102.82083333333333,41.12861111111111],[-102.91527777777779,41.11027777777778],[-102.9725,41.09722222222222],[-103.09027777777777,41.07666666666667],[-103.12388888888889,41.068333333333335],[-103.2425,41.04888888888889],[-103.27388888888889,41.041666666666664],[-103.39250000000001,41.02055555555555],[-103.42555555555556,41.013333333333335],[-103.54472222222222,40.99194444444444],[-103.57583333333334,40.985],[-103.69027777777778,40.96416666666667],[-103.72722222222222,40.95611111111111],[-103.8411111111111,40.93555555555555],[-103.87888888888888,40.927499999999995],[-103.99027777777778,40.906666666666666],[-104.03111111111112,40.89861111111111],[-104.1438888888889,40.876666666666665],[-104.18305555555555,40.86833333333333],[-104.29527777777777,40.846944444444446],[-104.33527777777778,40.83916666666667],[-104.44527777777778,40.8175],[-104.48722222222223,40.80888888888889],[-104.59583333333333,40.7875],[-104.63722222222223,40.779444444444444],[-104.74777777777778,40.757222222222225],[-104.78944444444444,40.74777777777778],[-104.89777777777779,40.72694444444445],[-104.93611111111112,40.71805555555556],[-105.04833333333333,40.69638888888888],[-105.08777777777777,40.687777777777775],[-105.19638888888889,40.66583333333333],[-105.2363888888889,40.656388888888884],[-105.34444444444443,40.635555555555555],[-105.385,40.62583333333333],[-105.49361111111111,40.60444444444445],[-105.5325,40.59527777777778],[-105.64111111111112,40.57361111111111],[-105.68027777777779,40.56333333333333],[-105.7875,40.54277777777778],[-105.8286111111111,40.533055555555556],[-105.93305555555555,40.511944444444445],[-105.97277777777778,40.503055555555555],[-106.07777777777777,40.48083333333334],[-106.12055555555555,40.47027777777778],[-106.23805555555556,40.448611111111106],[-106.26555555555555,40.442499999999995],[-106.41000000000001,40.42055555555555],[-106.53194444444445,40.40333333333333],[-106.55805555555555,40.39833333333333],[-106.67861111111111,40.38055555555555],[-106.70555555555556,40.37555555555556],[-106.82472222222222,40.3575],[-106.85472222222222,40.35277777777778],[-106.9738888888889,40.333333333333336],[-107.0025,40.32777777777778],[-107.12333333333332,40.30972222222222],[-107.1525,40.30416666666667],[-107.275,40.28472222222222],[-107.3025,40.279444444444444],[-107.42750000000001,40.26],[-107.45472222222223,40.255],[-107.57805555555555,40.23527777777778],[-107.60583333333332,40.231388888888894],[-107.72805555555556,40.21027777777778],[-107.755,40.20638888888889],[-107.87416666666665,40.18583333333333],[-107.905,40.18055555555555],[-108.02333333333333,40.16083333333333],[-108.05444444444444,40.155277777777776],[-108.1713888888889,40.135],[-108.19777777777779,40.13055555555555],[-108.31527777777778,40.11083333333333],[-108.34583333333333,40.105555555555554],[-108.46083333333334,40.08527777777778],[-108.49027777777778,40.08027777777778],[-108.60527777777777,40.06027777777778],[-108.63555555555556,40.05472222222222],[-108.75083333333333,40.03444444444444],[-108.78027777777778,40.02916666666667],[-108.89666666666668,40.00861111111111],[-108.92583333333334,40.00333333333333],[-109.04388888888889,39.981944444444444],[-109.07138888888889,39.977222222222224],[-109.18861111111111,39.95583333333334],[-109.21833333333333,39.95055555555556],[-109.335,39.92944444444444],[-109.36527777777778,39.924166666666665],[-109.48194444444445,39.902499999999996],[-109.51222222222222,39.89694444444444],[-109.62888888888888,39.87555555555556],[-109.65944444444445,39.87],[-109.77916666666667,39.847500000000004],[-109.80916666666667,39.841944444444444],[-109.92666666666668,39.82],[-109.95777777777778,39.814166666666665],[-110.07638888888889,39.791666666666664],[-110.10638888888889,39.78583333333333],[-110.22361111111111,39.763333333333335],[-110.25472222222223,39.7575],[-110.37333333333332,39.734722222222224],[-110.40194444444445,39.72944444444445],[-110.52111111111111,39.70638888888889],[-110.57944444444443,39.69499999999999],[-110.66638888888889,39.67777777777778],[-110.72666666666667,39.66611111111111],[-110.81472222222222,39.64888888888889],[-110.87333333333332,39.6375],[-111.02194444444444,39.60805555555556],[-111.17305555555556,39.57777777777778],[-111.31138888888889,39.54972222222222],[-111.46166666666667,39.51972222222222],[-111.61083333333333,39.489444444444445],[-111.76138888888889,39.458333333333336],[-111.90805555555556,39.42777777777778],[-112.05722222222222,39.39694444444444],[-112.20722222222223,39.36527777777778],[-112.35472222222222,39.33416666666667],[-112.50194444444445,39.30305555555555],[-112.65,39.27388888888889],[-112.77916666666667,39.248333333333335],[-112.95805555555556,39.213055555555556],[-113.10666666666665,39.18333333333333],[-113.25611111111111,39.15333333333333],[-113.40722222222223,39.1225],[-113.55527777777777,39.092222222222226],[-113.70194444444445,39.06194444444444],[-113.84916666666666,39.03138888888889],[-113.99833333333333,39.000277777777775],[-114.14750000000001,38.970555555555556],[-114.2975,38.94027777777777],[-114.44611111111111,38.91],[-114.59333333333333,38.87972222222222],[-114.74194444444444,38.84916666666667],[-114.8913888888889,38.81805555555556],[-115.03916666666666,38.78722222222222],[-115.18722222222223,38.75666666666667],[-115.33555555555554,38.725833333333334],[-115.48555555555555,38.69277777777778],[-115.63166666666666,38.656388888888884],[-115.76694444444445,38.599444444444444],[-115.90277777777779,38.54361111111111],[-116.04166666666667,38.486111111111114],[-116.18055555555556,38.43583333333333],[-116.32833333333333,38.406388888888884],[-116.4775,38.376666666666665],[-116.62638888888888,38.346944444444446],[-116.77638888888889,38.31666666666667],[-116.92583333333334,38.28638888888889],[-117.07638888888889,38.255833333333335],[-117.21944444444445,38.22638888888889],[-117.36555555555555,38.19611111111111],[-117.51555555555555,38.164722222222224],[-117.66666666666667,38.13305555555556],[-117.81527777777778,38.10166666666667],[-117.96666666666667,38.06944444444445],[-118.11777777777777,38.036944444444444],[-118.26722222222222,38.00472222222222],[-118.41527777777779,37.972500000000004],[-118.56944444444444,37.93888888888888],[-118.71888888888888,37.905833333333334],[-118.87055555555555,37.88361111111111],[-119.02638888888889,37.865833333333335],[-119.18777777777778,37.84722222222222],[-119.3411111111111,37.82944444444445],[-119.49694444444445,37.81083333333333],[-119.65361111111112,37.79194444444444],[-119.81083333333333,37.77305555555555],[-119.96583333333334,37.75416666666667],[-120.12583333333333,37.73416666666667],[-120.28361111111111,37.714444444444446],[-120.35,37.7],[-120.45,37.7],[-120.6,37.68333333333333],[-120.72888888888889,37.66138888888889],[-120.86305555555555,37.64527777777778],[-120.995,37.62888888888889],[-121.11972222222222,37.61194444444445],[-121.24333333333334,37.59527777777778],[-121.3611111111111,37.581388888888895],[-121.47777777777777,37.56805555555556],[-121.58833333333332,37.555],[-121.68694444444445,37.53583333333333],[-121.78333333333333,37.516666666666666],[-121.86666666666666,37.5],[-121.96666666666667,37.5],[-122.0461111111111,37.50083333333333],[-122.125,37.51555555555556],[-122.1888888888889,37.54277777777778],[-122.24472222222222,37.566111111111105],[-122.29805555555555,37.58861111111111],[-122.34388888888888,37.60777777777778]],"type":"LineString"}
}
