{
  "id": 2032036111,
  "type": "Feature",
  "properties": {
    "geom:area": 0,
    "geom:bbox": "-122.400000,25.804444,-79.946389,38.516667",
    "geom:latitude": 33.53576570618979,
    "geom:longitude": -100.59722409225333,
    "src:alt_label": "swim-path",
    "src:geom": "swim",
    "swim:altitudes": [
      "017",
      "022",
      "029",
      "039",
      "062",
      "080",
      "100",
      "109",
      "116",
      "130",
      "143",
      "155",
      "166",
      "181",
      "192",
      "202",
      "212",
      "222",
      "231",
      "238",
      "245",
      "250",
      "252",
      "256",
      "258",
      "263",
      "265",
      "269",
      "270",
      "275",
      "276",
      "281",
      "282",
      "288",
      "288",
      "293",
      "300",
      "300",
      "307",
      "307",
      "313",
      "314",
      "319",
      "323",
      "329C",
      "330C",
      "330C",
      "330C",
      "330C",
      "330C",
      "330C",
      "330C",
      "330C",
      "330C",
      "330C",
      "330C",
      "330C",
      "330C",
      "330C",
      "330C",
      "330C",
      "331C",
      "330C",
      "330C",
      "330C",
      "330C",
      "330C",
      "330C",
      "330C",
      "330C",
      "330C",
      "330C",
      "330C",
      "330C",
      "330C",
      "330C",
      "330C",
      "330C",
      "330C",
      "330C",
      "330C",
      "330C",
      "330C",
      "330C",
      "330C",
      "331C",
      "331C",
      "330C",
      "330C",
      "330C",
      "330C",
      "330C",
      "330C",
      "330C",
      "330C",
      "330C",
      "330C",
      "330C",
      "331C",
      "330C",
      "331C",
      "331C",
      "331C",
      "330C",
      "330C",
      "330C",
      "330C",
      "330C",
      "330C",
      "330C",
      "330C",
      "330C",
      "330C",
      "330C",
      "330C",
      "330C",
      "330C",
      "330C",
      "330C",
      "330C",
      "330C",
      "330C",
      "330C",
      "330C",
      "330C",
      "330C",
      "330C",
      "330C",
      "330C",
      "330C",
      "330C",
      "330C",
      "330C",
      "330C",
      "330C",
      "330C",
      "330C",
      "330C",
      "330C",
      "330C",
      "330C",
      "330C",
      "330C",
      "330C",
      "330C",
      "330C",
      "330C",
      "330C",
      "330C",
      "330C",
      "330C",
      "330C",
      "330C",
      "330C",
      "330C",
      "330C",
      "330C",
      "330C",
      "330C",
      "330C",
      "330C",
      "330C",
      "330C",
      "330C",
      "330C",
      "330C",
      "330C",
      "330C",
      "330C",
      "331C",
      "330C",
      "330C",
      "330C",
      "330C",
      "330C",
      "330C",
      "330C",
      "330C",
      "330C",
      "330C",
      "330C",
      "330C",
      "330C",
      "330C",
      "330C",
      "330C",
      "330C",
      "330C",
      "330C",
      "330C",
      "330C",
      "330C",
      "330C",
      "330C",
      "330C",
      "330C",
      "330C",
      "330C",
      "330C",
      "330C",
      "330C",
      "330C",
      "330C",
      "330C",
      "330C",
      "330C",
      "330C",
      "330C",
      "330C",
      "330C",
      "330C",
      "330C",
      "330C",
      "330C",
      "330C",
      "330C",
      "330C",
      "330C",
      "330C",
      "330C",
      "330C",
      "330C",
      "330C",
      "331C",
      "330C",
      "330C",
      "330C",
      "330C",
      "330C",
      "330C",
      "330C",
      "330C",
      "330C",
      "330C",
      "330C",
      "330C",
      "330C",
      "330C",
      "330C",
      "330C",
      "330C",
      "330C",
      "330C",
      "329C",
      "330C",
      "330C",
      "330C",
      "329C",
      "330C",
      "330C",
      "330C",
      "330C",
      "330C",
      "331C",
      "331C",
      "330C",
      "330C",
      "330C",
      "330C",
      "330C",
      "330C",
      "330C",
      "330C",
      "330C",
      "330C",
      "330C",
      "330C",
      "330C",
      "330C",
      "330C",
      "330C",
      "330C",
      "330C",
      "330C",
      "330C",
      "330C",
      "330C",
      "330C",
      "330C",
      "330C",
      "330C",
      "330C",
      "330C",
      "330C",
      "330C",
      "330C",
      "330C",
      "330C",
      "330C",
      "330C",
      "330C",
      "330C",
      "330C",
      "330C",
      "330C",
      "330C",
      "330C",
      "330C",
      "330C",
      "330C",
      "330C",
      "330C",
      "330C",
      "330C",
      "330C",
      "330C",
      "330C",
      "330C",
      "330C",
      "330C",
      "330C",
      "330C",
      "330C",
      "330C",
      "330C",
      "330C",
      "330C",
      "331C",
      "330C",
      "330C",
      "330C",
      "330C",
      "330C",
      "330C",
      "330C",
      "330C",
      "330C",
      "331C",
      "331C",
      "331C",
      "330C",
      "330C",
      "330C",
      "330",
      "330",
      "330",
      "311C",
      "310C",
      "310C",
      "310C",
      "310C",
      "310C",
      "310C",
      "310C",
      "310C",
      "310C",
      "310C",
      "310C",
      "310C",
      "310C",
      "310C",
      "310C",
      "310C",
      "310C",
      "310C",
      "310C",
      "310C",
      "310C",
      "310C",
      "310C",
      "310C",
      "310C",
      "310C",
      "310C",
      "310C",
      "310C",
      "310C",
      "310C",
      "310C",
      "310C",
      "310C",
      "310C",
      "310C",
      "310C",
      "310C",
      "310C",
      "310C",
      "310C",
      "310C",
      "310C",
      "310C",
      "310C",
      "310C",
      "310C",
      "310C",
      "309C",
      "310",
      "310",
      "310",
      "310",
      "309",
      "300",
      "290",
      "281",
      "271",
      "261",
      "251",
      "242",
      "233",
      "223",
      "213",
      "203",
      "193",
      "183",
      "174",
      "164",
      "165",
      "154",
      "155",
      "144",
      "145",
      "131",
      "132",
      "118",
      "118",
      "105",
      "105",
      "092",
      "080",
      "080",
      "075",
      "075",
      "070",
      "070",
      "069",
      "069",
      "061",
      "060",
      "049",
      "048",
      "038",
      "038",
      "031",
      "030",
      "017",
      "016",
      "012",
      "012",
      "004",
      "004"
    ],
    "swim:geom": "path",
    "swim:speeds": [
      212,
      238,
      270,
      275,
      279,
      290,
      300,
      325,
      369,
      382,
      392,
      404,
      415,
      421,
      426,
      440,
      448,
      454,
      461,
      470,
      480,
      479,
      486,
      488,
      494,
      491,
      498,
      497,
      503,
      503,
      506,
      507,
      509,
      510,
      510,
      512,
      516,
      514,
      515,
      514,
      513,
      512,
      512,
      513,
      513,
      513,
      512,
      511,
      511,
      511,
      510,
      510,
      510,
      509,
      509,
      509,
      508,
      508,
      508,
      508,
      509,
      509,
      507,
      505,
      502,
      499,
      497,
      497,
      497,
      497,
      497,
      498,
      498,
      497,
      497,
      496,
      495,
      497,
      494,
      495,
      493,
      494,
      493,
      494,
      494,
      494,
      494,
      492,
      491,
      490,
      490,
      489,
      490,
      490,
      490,
      491,
      492,
      493,
      494,
      496,
      497,
      497,
      498,
      497,
      497,
      494,
      493,
      491,
      490,
      489,
      489,
      489,
      488,
      489,
      489,
      489,
      489,
      490,
      490,
      489,
      486,
      484,
      483,
      483,
      485,
      483,
      485,
      484,
      485,
      484,
      484,
      484,
      485,
      484,
      484,
      483,
      483,
      481,
      482,
      480,
      481,
      478,
      480,
      477,
      479,
      477,
      478,
      478,
      478,
      478,
      478,
      476,
      476,
      475,
      474,
      474,
      474,
      474,
      472,
      468,
      468,
      468,
      467,
      465,
      464,
      465,
      466,
      467,
      468,
      468,
      469,
      469,
      469,
      467,
      467,
      467,
      467,
      465,
      464,
      466,
      468,
      468,
      468,
      468,
      468,
      468,
      467,
      463,
      462,
      461,
      462,
      463,
      463,
      464,
      465,
      466,
      466,
      465,
      464,
      464,
      463,
      463,
      463,
      463,
      462,
      462,
      461,
      460,
      459,
      459,
      459,
      459,
      460,
      461,
      461,
      462,
      462,
      462,
      462,
      463,
      464,
      465,
      466,
      465,
      464,
      463,
      462,
      462,
      463,
      462,
      461,
      462,
      461,
      467,
      466,
      465,
      462,
      463,
      463,
      458,
      462,
      459,
      460,
      459,
      459,
      458,
      458,
      458,
      458,
      458,
      459,
      460,
      461,
      463,
      463,
      464,
      462,
      461,
      461,
      462,
      462,
      466,
      467,
      468,
      469,
      468,
      465,
      461,
      459,
      458,
      457,
      458,
      459,
      460,
      460,
      460,
      460,
      460,
      460,
      460,
      460,
      460,
      460,
      461,
      463,
      463,
      463,
      458,
      464,
      465,
      464,
      466,
      464,
      466,
      464,
      466,
      466,
      465,
      466,
      465,
      465,
      464,
      465,
      463,
      464,
      462,
      461,
      462,
      461,
      462,
      460,
      461,
      460,
      461,
      460,
      466,
      457,
      464,
      459,
      458,
      453,
      447,
      448,
      446,
      441,
      442,
      447,
      449,
      450,
      451,
      451,
      451,
      451,
      451,
      451,
      451,
      466,
      469,
      469,
      459,
      458,
      448,
      448,
      448,
      448,
      448,
      449,
      450,
      450,
      451,
      453,
      453,
      454,
      454,
      455,
      455,
      454,
      456,
      457,
      457,
      458,
      459,
      460,
      461,
      461,
      462,
      462,
      463,
      463,
      463,
      465,
      465,
      465,
      466,
      466,
      466,
      465,
      465,
      465,
      465,
      466,
      466,
      466,
      465,
      465,
      464,
      464,
      465,
      465,
      466,
      467,
      467,
      468,
      472,
      475,
      477,
      479,
      474,
      448,
      421,
      416,
      413,
      410,
      403,
      401,
      386,
      391,
      381,
      384,
      347,
      350,
      335,
      339,
      325,
      329,
      321,
      325,
      318,
      306,
      274,
      260,
      262,
      251,
      253,
      244,
      247,
      230,
      230,
      207,
      211,
      205,
      209,
      187,
      190,
      195,
      191,
      151,
      156,
      147,
      149
    ],
    "swim:timestamps": [
      1785437798,
      1785437838,
      1785437858,
      1785437898,
      1785437958,
      1785438018,
      1785438078,
      1785438138,
      1785438198,
      1785438258,
      1785438319,
      1785438379,
      1785438439,
      1785438499,
      1785438559,
      1785438619,
      1785438679,
      1785438739,
      1785438799,
      1785438859,
      1785438919,
      1785438972,
      1785438979,
      1785439032,
      1785439040,
      1785439092,
      1785439100,
      1785439152,
      1785439160,
      1785439212,
      1785439220,
      1785439272,
      1785439280,
      1785439332,
      1785439340,
      1785439400,
      1785439452,
      1785439460,
      1785439513,
      1785439520,
      1785439573,
      1785439580,
      1785439640,
      1785439693,
      1785439761,
      1785439821,
      1785439881,
      1785439933,
      1785439941,
      1785439993,
      1785440001,
      1785440053,
      1785440061,
      1785440113,
      1785440121,
      1785440173,
      1785440181,
      1785440233,
      1785440241,
      1785440294,
      1785440354,
      1785440414,
      1785440474,
      1785440534,
      1785440594,
      1785440654,
      1785440714,
      1785440774,
      1785440834,
      1785440894,
      1785440954,
      1785441015,
      1785441075,
      1785441135,
      1785441195,
      1785441255,
      1785441315,
      1785441337,
      1785441375,
      1785441397,
      1785441435,
      1785441457,
      1785441495,
      1785441517,
      1785441555,
      1785441577,
      1785441615,
      1785441675,
      1785441697,
      1785441735,
      1785441757,
      1785441796,
      1785441818,
      1785441856,
      1785441878,
      1785441916,
      1785441938,
      1785441976,
      1785441998,
      1785442036,
      1785442058,
      1785442096,
      1785442118,
      1785442156,
      1785442178,
      1785442216,
      1785442238,
      1785442276,
      1785442298,
      1785442336,
      1785442358,
      1785442396,
      1785442418,
      1785442456,
      1785442478,
      1785442517,
      1785442539,
      1785442599,
      1785442659,
      1785442719,
      1785442779,
      1785442839,
      1785442899,
      1785442959,
      1785442973,
      1785443019,
      1785443033,
      1785443079,
      1785443093,
      1785443139,
      1785443154,
      1785443199,
      1785443214,
      1785443259,
      1785443274,
      1785443320,
      1785443334,
      1785443380,
      1785443394,
      1785443440,
      1785443454,
      1785443500,
      1785443514,
      1785443560,
      1785443574,
      1785443620,
      1785443634,
      1785443680,
      1785443694,
      1785443740,
      1785443754,
      1785443800,
      1785443815,
      1785443860,
      1785443875,
      1785443920,
      1785443935,
      1785443980,
      1785443995,
      1785444041,
      1785444055,
      1785444115,
      1785444175,
      1785444235,
      1785444295,
      1785444355,
      1785444416,
      1785444476,
      1785444536,
      1785444596,
      1785444656,
      1785444716,
      1785444776,
      1785444836,
      1785444896,
      1785444956,
      1785445016,
      1785445076,
      1785445136,
      1785445197,
      1785445256,
      1785445316,
      1785445376,
      1785445437,
      1785445497,
      1785445557,
      1785445617,
      1785445677,
      1785445737,
      1785445797,
      1785445857,
      1785445917,
      1785445978,
      1785446037,
      1785446097,
      1785446157,
      1785446218,
      1785446278,
      1785446338,
      1785446398,
      1785446458,
      1785446518,
      1785446578,
      1785446638,
      1785446698,
      1785446758,
      1785446818,
      1785446878,
      1785446939,
      1785446999,
      1785447059,
      1785447119,
      1785447179,
      1785447239,
      1785447299,
      1785447359,
      1785447419,
      1785447479,
      1785447539,
      1785447599,
      1785447660,
      1785447720,
      1785447780,
      1785447840,
      1785447900,
      1785447960,
      1785448020,
      1785448080,
      1785448140,
      1785448260,
      1785448320,
      1785448357,
      1785448381,
      1785448417,
      1785448477,
      1785448537,
      1785448561,
      1785448597,
      1785448621,
      1785448658,
      1785448681,
      1785448718,
      1785448741,
      1785448778,
      1785448801,
      1785448838,
      1785448861,
      1785448898,
      1785448921,
      1785448958,
      1785448981,
      1785449018,
      1785449041,
      1785449078,
      1785449102,
      1785449138,
      1785449162,
      1785449198,
      1785449222,
      1785449259,
      1785449282,
      1785449319,
      1785449342,
      1785449379,
      1785449402,
      1785449439,
      1785449462,
      1785449499,
      1785449522,
      1785449559,
      1785449582,
      1785449619,
      1785449642,
      1785449679,
      1785449702,
      1785449739,
      1785449762,
      1785449799,
      1785449823,
      1785449859,
      1785449883,
      1785449920,
      1785449943,
      1785449980,
      1785450040,
      1785450100,
      1785450160,
      1785450208,
      1785450220,
      1785450268,
      1785450280,
      1785450328,
      1785450340,
      1785450388,
      1785450400,
      1785450448,
      1785450508,
      1785450521,
      1785450568,
      1785450581,
      1785450628,
      1785450641,
      1785450688,
      1785450701,
      1785450748,
      1785450761,
      1785450821,
      1785450868,
      1785450881,
      1785450929,
      1785450941,
      1785450989,
      1785451001,
      1785451049,
      1785451061,
      1785451109,
      1785451121,
      1785451181,
      1785451241,
      1785451301,
      1785451361,
      1785451422,
      1785451433,
      1785451482,
      1785451493,
      1785451553,
      1785451614,
      1785451662,
      1785451674,
      1785451734,
      1785451783,
      1785451843,
      1785451854,
      1785451903,
      1785451914,
      1785451974,
      1785452034,
      1785452094,
      1785452143,
      1785452203,
      1785452214,
      1785452274,
      1785452323,
      1785452384,
      1785452395,
      1785452444,
      1785452455,
      1785452515,
      1785452564,
      1785452575,
      1785452628,
      1785452635,
      1785452688,
      1785452695,
      1785452748,
      1785452755,
      1785452804,
      1785452875,
      1785452935,
      1785452989,
      1785452995,
      1785453049,
      1785453056,
      1785453109,
      1785453116,
      1785453169,
      1785453176,
      1785453229,
      1785453236,
      1785453296,
      1785453349,
      1785453356,
      1785453409,
      1785453416,
      1785453470,
      1785453476,
      1785453536,
      1785453596,
      1785453656,
      1785453710,
      1785453777,
      1785453837,
      1785453890,
      1785453957,
      1785454017,
      1785454077,
      1785454137,
      1785454191,
      1785454251,
      1785454311,
      1785454371,
      1785454431,
      1785454491,
      1785454551,
      1785454611,
      1785454671,
      1785454732,
      1785454792,
      1785454852,
      1785454912,
      1785454972,
      1785455032,
      1785455092,
      1785455152,
      1785455212,
      1785455263,
      1785455272,
      1785455324,
      1785455332,
      1785455384,
      1785455393,
      1785455444,
      1785455453,
      1785455505,
      1785455513,
      1785455565,
      1785455573,
      1785455633,
      1785455686,
      1785455753,
      1785455806,
      1785455813,
      1785455866,
      1785455873,
      1785455921,
      1785455933,
      1785455981,
      1785455993,
      1785456042,
      1785456054,
      1785456102,
      1785456114,
      1785456162,
      1785456174,
      1785456223,
      1785456234,
      1785456283,
      1785456294,
      1785456344,
      1785456354
    ],
    "wof:geomhash": "06756c9a28553508a2c8afe13ea36965",
    "wof:id": 2032036111,
    "wof:repo": "sfomuseum-data-flights-2026-07"
  },
  "bbox": [
    -122.4,
    25.804444444444446,
    -79.94638888888889,
    38.516666666666666
  ],
  "geometry": {"coordinates":[[-122.4,37.65],[-122.36527777777778,37.669999999999995],[-122.31666666666666,37.68333333333333],[-122.27777777777777,37.69638888888888],[-122.18861111111111,37.731388888888894],[-122.10388888888889,37.775277777777774],[-122.01583333333333,37.82083333333334],[-121.90944444444445,37.84388888888889],[-121.7875,37.86638888888889],[-121.65694444444445,37.89055555555556],[-121.52361111111111,37.915277777777774],[-121.38444444444445,37.940555555555555],[-121.24305555555556,37.96611111111111],[-121.09805555555555,37.99194444444444],[-120.95166666666667,38.014722222222225],[-120.77027777777778,38.04277777777778],[-120.61583333333333,38.066111111111105],[-120.4563888888889,38.09027777777778],[-120.29722222222222,38.11416666666667],[-120.13555555555556,38.13805555555555],[-119.96916666666667,38.1625],[-119.84944444444444,38.17861111111111],[-119.8,38.18694444444444],[-119.67777777777778,38.2025],[-119.62805555555555,38.21138888888889],[-119.50638888888889,38.227222222222224],[-119.45305555555557,38.23638888888889],[-119.33194444444445,38.2525],[-119.29666666666667,38.25805555555556],[-119.15611111111112,38.27722222222222],[-119.12083333333332,38.2825],[-118.97916666666667,38.301944444444445],[-118.94333333333334,38.30694444444444],[-118.80166666666666,38.32527777777778],[-118.76638888888888,38.33083333333334],[-118.58555555555554,38.35527777777778],[-118.41083333333334,38.37833333333333],[-118.40666666666667,38.37888888888889],[-118.23138888888889,38.401666666666664],[-118.23138888888889,38.401666666666664],[-118.05749999999999,38.424166666666665],[-118.03944444444444,38.42666666666666],[-117.86166666666666,38.44944444444444],[-117.69805555555556,38.47],[-117.50166666666667,38.494166666666665],[-117.33888888888889,38.513888888888886],[-117.15833333333335,38.516666666666666],[-116.98,38.51138888888889],[-116.97833333333334,38.51138888888889],[-116.79972222222221,38.505833333333335],[-116.79666666666667,38.50555555555555],[-116.6413888888889,38.50055555555556],[-116.61722222222221,38.499722222222225],[-116.4625,38.49444444444445],[-116.43916666666667,38.493611111111115],[-116.28138888888888,38.488055555555555],[-116.24527777777777,38.486666666666665],[-116.10305555555556,38.481388888888894],[-116.06583333333333,38.480000000000004],[-115.9238888888889,38.47416666666667],[-115.74222222222222,38.466944444444444],[-115.56333333333333,38.45944444444445],[-115.38194444444444,38.45138888888889],[-115.17694444444444,38.44222222222222],[-115.00166666666667,38.43416666666666],[-114.82444444444444,38.42527777777777],[-114.65111111111112,38.416666666666664],[-114.47638888888889,38.4075],[-114.30222222222221,38.39083333333333],[-114.13138888888888,38.3525],[-113.965,38.31305555555555],[-113.79472222222222,38.272777777777776],[-113.66111111111111,38.240833333333335],[-113.45861111111111,38.19222222222222],[-113.29194444444444,38.151666666666664],[-113.1575,38.11888888888889],[-112.95722222222223,38.06944444444445],[-112.92555555555556,38.06166666666666],[-112.78999999999999,38.028055555555554],[-112.75722222222223,38.019999999999996],[-112.65583333333333,37.99472222222222],[-112.58999999999999,37.97833333333333],[-112.49027777777778,37.95305555555556],[-112.42500000000001,37.93666666666666],[-112.32249999999999,37.910555555555554],[-112.2575,37.89388888888889],[-112.1575,37.868611111111115],[-111.99305555555556,37.82666666666667],[-111.92805555555556,37.81194444444444],[-111.82944444444443,37.78944444444444],[-111.76416666666667,37.77444444444444],[-111.66305555555556,37.75138888888889],[-111.59777777777778,37.736666666666665],[-111.49916666666667,37.71388888888889],[-111.43361111111112,37.698611111111106],[-111.33222222222221,37.675],[-111.265,37.659444444444446],[-111.16555555555556,37.63638888888889],[-111.09777777777778,37.620555555555555],[-110.99638888888889,37.59666666666667],[-110.93166666666667,37.581388888888895],[-110.83027777777778,37.5575],[-110.76305555555555,37.541666666666664],[-110.66472222222222,37.518055555555556],[-110.59861111111111,37.50222222222222],[-110.49805555555555,37.47805555555556],[-110.43555555555555,37.463055555555556],[-110.33638888888889,37.439166666666665],[-110.27194444444444,37.42361111111111],[-110.17500000000001,37.4],[-110.09638888888888,37.380833333333335],[-110.04388888888889,37.367777777777775],[-109.93166666666667,37.34055555555556],[-109.85,37.32027777777778],[-109.76972222222223,37.30027777777777],[-109.68666666666667,37.27972222222222],[-109.60805555555555,37.26],[-109.45861111111111,37.22277777777778],[-109.29472222222222,37.18138888888889],[-109.12055555555555,37.13722222222222],[-108.96111111111111,37.09638888888889],[-108.80222222222221,37.05555555555555],[-108.64472222222223,37.015],[-108.48555555555555,36.973888888888894],[-108.45694444444445,36.96638888888889],[-108.3261111111111,36.93222222222222],[-108.28999999999999,36.9225],[-108.165,36.88972222222222],[-108.13055555555555,36.88055555555555],[-108.02027777777778,36.85138888888889],[-107.96944444444445,36.83777777777778],[-107.8625,36.809444444444445],[-107.81055555555555,36.79527777777778],[-107.70416666666667,36.76694444444444],[-107.6563888888889,36.75416666666667],[-107.52666666666667,36.719166666666666],[-107.49888888888889,36.71138888888889],[-107.36749999999999,36.67583333333333],[-107.34166666666667,36.66888888888889],[-107.21305555555556,36.63361111111111],[-107.18027777777779,36.624722222222225],[-107.05527777777777,36.59],[-107.02944444444444,36.58305555555556],[-106.90055555555556,36.5475],[-106.8736111111111,36.54],[-106.74555555555555,36.504444444444445],[-106.7175,36.49638888888889],[-106.58833333333332,36.46027777777778],[-106.55777777777777,36.45166666666667],[-106.42888888888889,36.41555555555556],[-106.40305555555557,36.40833333333333],[-106.26972222222223,36.370555555555555],[-106.245,36.36361111111111],[-106.12444444444444,36.32944444444445],[-106.08972222222222,36.31944444444445],[-105.96805555555555,36.28472222222222],[-105.93111111111112,36.275277777777774],[-105.80916666666667,36.24805555555556],[-105.78527777777778,36.2425],[-105.6525,36.21222222222222],[-105.62833333333333,36.206944444444446],[-105.46361111111112,36.16888888888889],[-105.30944444444444,36.13361111111111],[-105.15666666666667,36.09805555555556],[-105.00416666666666,36.0625],[-104.85194444444444,36.026666666666664],[-104.72694444444444,35.99722222222222],[-104.57249999999999,35.96027777777778],[-104.41888888888889,35.92333333333333],[-104.26333333333334,35.88611111111111],[-104.10972222222222,35.848888888888894],[-103.95444444444445,35.81083333333333],[-103.78583333333333,35.76694444444444],[-103.6325,35.731388888888894],[-103.47944444444444,35.692499999999995],[-103.3275,35.65555555555555],[-103.17694444444444,35.617777777777775],[-103.02166666666666,35.57888888888889],[-102.875,35.541666666666664],[-102.73416666666667,35.505833333333335],[-102.57249999999999,35.46416666666667],[-102.42111111111112,35.425],[-102.26833333333333,35.38527777777778],[-102.11694444444444,35.345555555555556],[-101.96444444444445,35.30555555555555],[-101.81388888888888,35.26555555555556],[-101.67305555555556,35.220555555555556],[-101.51833333333333,35.14666666666667],[-101.38555555555556,35.08166666666667],[-101.24972222222222,35.015],[-101.11611111111111,34.94888888888889],[-100.9825,34.882777777777775],[-100.84722222222221,34.81527777777777],[-100.71333333333334,34.74916666666667],[-100.56583333333333,34.70416666666667],[-100.41611111111112,34.66694444444444],[-100.26555555555555,34.62916666666667],[-100.135,34.596111111111114],[-99.9786111111111,34.556666666666665],[-99.83055555555555,34.51888888888889],[-99.68777777777778,34.48222222222223],[-99.5375,34.44361111111111],[-99.38972222222223,34.40555555555555],[-99.24277777777777,34.367222222222225],[-99.08611111111111,34.32611111111112],[-98.94611111111111,34.28944444444444],[-98.79944444444445,34.25055555555556],[-98.6525,34.21138888888889],[-98.50611111111111,34.1725],[-98.35805555555555,34.1325],[-98.21083333333334,34.09277777777778],[-98.06583333333333,34.05333333333333],[-97.91805555555555,34.01305555555555],[-97.77222222222223,33.97277777777778],[-97.62388888888889,33.93194444444444],[-97.47805555555556,33.89138888888889],[-97.33055555555555,33.85027777777778],[-97.18444444444445,33.80916666666666],[-97.03722222222223,33.76777777777777],[-96.8913888888889,33.72638888888889],[-96.74277777777777,33.68388888888889],[-96.59444444444443,33.64138888888889],[-96.44861111111112,33.599444444444444],[-96.30111111111111,33.555277777777775],[-96.16722222222222,33.4925],[-96.04555555555555,33.413333333333334],[-95.95027777777779,33.35055555555556],[-95.80638888888889,33.25555555555555],[-95.68444444444445,33.17444444444444],[-95.44777777777779,33.016666666666666],[-95.34972222222221,32.950833333333335],[-95.26694444444445,32.89472222222222],[-95.21194444444444,32.858333333333334],[-95.14611111111111,32.81333333333333],[-95.02722222222222,32.7325],[-94.90833333333335,32.651666666666664],[-94.85472222222222,32.61638888888889],[-94.78805555555556,32.57166666666667],[-94.73694444444445,32.53611111111111],[-94.66805555555555,32.48916666666667],[-94.61972222222222,32.45583333333334],[-94.55,32.40833333333333],[-94.50277777777778,32.37583333333333],[-94.43333333333334,32.32805555555556],[-94.38805555555557,32.29694444444444],[-94.31583333333333,32.24722222222222],[-94.27055555555556,32.215833333333336],[-94.2,32.16694444444444],[-94.14944444444446,32.13194444444444],[-94.0825,32.08527777777778],[-94.03361111111111,32.05138888888889],[-93.95444444444445,31.99638888888889],[-93.915,31.968888888888888],[-93.83694444444444,31.91444444444444],[-93.79416666666667,31.884722222222223],[-93.72055555555556,31.833055555555557],[-93.67472222222223,31.800833333333333],[-93.61305555555555,31.7575],[-93.55944444444444,31.71972222222222],[-93.48805555555556,31.669444444444444],[-93.44166666666668,31.636666666666667],[-93.37166666666666,31.586944444444445],[-93.325,31.554166666666667],[-93.26722222222222,31.513333333333332],[-93.20722222222223,31.470555555555553],[-93.15111111111112,31.430555555555557],[-93.0925,31.38888888888889],[-93.035,31.348055555555554],[-92.97916666666667,31.308055555555555],[-92.92055555555557,31.26638888888889],[-92.86749999999999,31.22833333333333],[-92.80722222222222,31.185],[-92.74944444444445,31.143333333333334],[-92.69111111111111,31.10138888888889],[-92.6363888888889,31.061944444444446],[-92.57777777777777,31.019444444444442],[-92.52833333333334,30.983611111111113],[-92.4588888888889,30.933611111111112],[-92.41472222222222,30.901666666666664],[-92.34583333333333,30.851666666666667],[-92.30222222222221,30.81972222222222],[-92.23277777777778,30.769166666666667],[-92.18916666666667,30.7375],[-92.11972222222222,30.686666666666667],[-92.00611111111111,30.603333333333335],[-91.89222222222223,30.52],[-91.77888888888889,30.43638888888889],[-91.67583333333334,30.353333333333335],[-91.65694444444445,30.34638888888889],[-91.56055555555555,30.268055555555556],[-91.54416666666667,30.262777777777778],[-91.44805555555556,30.185277777777777],[-91.43083333333334,30.178611111111113],[-91.33444444444444,30.101666666666667],[-91.31722222222221,30.093888888888888],[-91.22222222222223,30.016944444444444],[-91.10805555555555,29.932222222222222],[-91.09305555555555,29.92638888888889],[-90.99694444444445,29.85027777777778],[-90.98083333333334,29.842222222222222],[-90.88388888888889,29.765555555555554],[-90.86833333333333,29.75722222222222],[-90.7725,29.68111111111111],[-90.75888888888889,29.674444444444447],[-90.66361111111112,29.598888888888887],[-90.64694444444446,29.58972222222222],[-90.5363888888889,29.50583333333333],[-90.44194444444445,29.433611111111112],[-90.4263888888889,29.422222222222224],[-90.3325,29.348888888888887],[-90.31694444444445,29.33861111111111],[-90.22361111111111,29.265555555555554],[-90.2075,29.254722222222224],[-90.11222222222221,29.185277777777777],[-90.09222222222222,29.17777777777778],[-89.97888888888889,29.12611111111111],[-89.96333333333334,29.123055555555556],[-89.84666666666666,29.076944444444443],[-89.68944444444445,29.018055555555556],[-89.5586111111111,28.96861111111111],[-89.43,28.920833333333334],[-89.31222222222222,28.876944444444444],[-89.2786111111111,28.864444444444445],[-89.18333333333334,28.828055555555554],[-89.1463888888889,28.81361111111111],[-89.025,28.76722222222222],[-88.89333333333335,28.716666666666665],[-88.79388888888889,28.678333333333335],[-88.76305555555555,28.66638888888889],[-88.63055555555555,28.61527777777778],[-88.53305555555555,28.5775],[-88.37555555555555,28.516111111111112],[-88.37138888888889,28.514444444444443],[-88.24583333333334,28.46527777777778],[-88.24277777777777,28.464166666666667],[-88.11277777777777,28.40972222222222],[-88.02694444444444,28.308611111111112],[-87.97944444444444,28.18111111111111],[-87.94222222222223,28.083055555555557],[-87.86416666666666,27.975277777777777],[-87.8425,27.96222222222222],[-87.70833333333334,27.93027777777778],[-87.59861111111111,27.915],[-87.45916666666668,27.895833333333332],[-87.43055555555556,27.891944444444444],[-87.31861111111111,27.87638888888889],[-87.2925,27.8725],[-87.15166666666667,27.853055555555557],[-87.04138888888889,27.8375],[-87.01194444444444,27.833333333333332],[-86.86916666666666,27.813055555555557],[-86.87194444444444,27.81361111111111],[-86.74138888888889,27.795],[-86.73194444444445,27.79361111111111],[-86.60111111111111,27.77472222222222],[-86.59166666666667,27.77361111111111],[-86.4775,27.756944444444443],[-86.28055555555555,27.72861111111111],[-86.14027777777778,27.70777777777778],[-86.03694444444444,27.6925],[-85.99666666666667,27.686666666666667],[-85.89444444444445,27.67138888888889],[-85.85444444444444,27.665555555555553],[-85.74972222222222,27.649722222222223],[-85.7125,27.644166666666667],[-85.60888888888888,27.628611111111113],[-85.57027777777778,27.622777777777777],[-85.46333333333334,27.60666666666667],[-85.4263888888889,27.601111111111113],[-85.28666666666666,27.574166666666667],[-85.18527777777778,27.538333333333334],[-85.15166666666667,27.52583333333333],[-85.05138888888888,27.489444444444445],[-85.01666666666667,27.476666666666667],[-84.91555555555556,27.439444444444444],[-84.88777777777779,27.429166666666667],[-84.75527777777778,27.380277777777778],[-84.61999999999999,27.33],[-84.4863888888889,27.280555555555555],[-84.38,27.240833333333335],[-84.21972222222223,27.180833333333336],[-84.08527777777778,27.130277777777778],[-83.97888888888889,27.09],[-83.82,27.02861111111111],[-83.6875,26.979444444444443],[-83.55555555555556,26.929722222222225],[-83.42222222222223,26.87777777777778],[-83.29138888888889,26.828333333333333],[-83.15833333333335,26.77722222222222],[-83.025,26.72583333333333],[-82.89250000000001,26.674444444444447],[-82.75861111111111,26.6225],[-82.62555555555555,26.570555555555554],[-82.49138888888889,26.51833333333333],[-82.35666666666665,26.46527777777778],[-82.22166666666666,26.41222222222222],[-82.08416666666666,26.358055555555556],[-81.95055555555555,26.30527777777778],[-81.835,26.259166666666665],[-81.71555555555555,26.209722222222222],[-81.60055555555554,26.159444444444443],[-81.48694444444445,26.109722222222224],[-81.3736111111111,26.060277777777777],[-81.26194444444444,26.011666666666667],[-81.15194444444445,25.96388888888889],[-81.04555555555555,25.91583333333333],[-81.045,25.916944444444447],[-80.93361111111112,25.877222222222223],[-80.93361111111112,25.878055555555555],[-80.82916666666667,25.84861111111111],[-80.83,25.849166666666665],[-80.72555555555556,25.855555555555558],[-80.72500000000001,25.855],[-80.62416666666665,25.860277777777778],[-80.62305555555555,25.860833333333336],[-80.52277777777778,25.866944444444446],[-80.52305555555556,25.866944444444446],[-80.42472222222223,25.872222222222224],[-80.33138888888888,25.876944444444444],[-80.24222222222222,25.88222222222222],[-80.16055555555556,25.885555555555555],[-80.16111111111111,25.88611111111111],[-80.08444444444444,25.890277777777776],[-80.08305555555555,25.89],[-80.01527777777778,25.8925],[-80.00722222222223,25.89361111111111],[-79.94916666666667,25.875555555555557],[-79.94638888888889,25.871666666666666],[-79.97583333333334,25.828055555555554],[-79.98166666666667,25.82777777777778],[-80.03722222222223,25.81361111111111],[-80.04305555555555,25.81361111111111],[-80.09694444444445,25.810000000000002],[-80.10222222222221,25.811111111111114],[-80.15694444444445,25.808333333333334],[-80.1613888888889,25.808611111111112],[-80.20777777777778,25.807222222222222],[-80.21166666666667,25.80666666666667],[-80.2538888888889,25.804444444444446],[-80.25666666666666,25.804722222222225]],"type":"LineString"}
}
