{
  "id": 2031969261,
  "type": "Feature",
  "properties": {
    "geom:area": 0,
    "geom:bbox": "-123.501610,37.211890,-122.389030,37.668720",
    "geom:latitude": 37.44951030202132,
    "geom:longitude": -122.94067701710635,
    "src:alt_label": "swim-takeoff",
    "src:geom": "swim",
    "swim:elevations": [
      152,
      306,
      612,
      850,
      912,
      1049,
      1118,
      1244,
      1880,
      2025,
      2465,
      2842,
      3178,
      3346,
      3546,
      4125,
      4863,
      5654,
      6518,
      6682,
      6937,
      7376,
      7439,
      7540,
      7742
    ],
    "swim:geom": "takeoff",
    "swim:timestamps": [
      1785008241,
      1785008253,
      1785008281,
      1785008306,
      1785008312,
      1785008336,
      1785008346,
      1785008355,
      1785008398,
      1785008407,
      1785008431,
      1785008455,
      1785008473,
      1785008484,
      1785008508,
      1785008567,
      1785008620,
      1785008685,
      1785008757,
      1785008773,
      1785008800,
      1785008865,
      1785008875,
      1785008893,
      1785008929
    ],
    "wof:geomhash": "92510fe6527324791d5c5d158198327d",
    "wof:id": 2031969261,
    "wof:repo": "sfomuseum-data-flights-2026-07"
  },
  "bbox": [
    -123.50161,
    37.21189,
    -122.38903,
    37.66872
  ],
  "geometry": {"coordinates":[[-122.38903,37.62464],[-122.3992,37.62938],[-122.42231,37.63946],[-122.44536,37.64908],[-122.45108,37.65147],[-122.47602,37.66244],[-122.48805,37.66701],[-122.50047,37.66872],[-122.5569,37.6413],[-122.56797,37.63416],[-122.59802,37.61425],[-122.62827,37.59491],[-122.65042,37.58067],[-122.66486,37.57147],[-122.69571,37.55167],[-122.78523,37.49378],[-122.88075,37.45291],[-123.01163,37.40946],[-123.15806,37.36132],[-123.19088,37.35062],[-123.24697,37.33038],[-123.37703,37.27815],[-123.39654,37.26771],[-123.43203,37.24882],[-123.50161,37.21189]],"type":"LineString"}
}
