{
  "id": 2032010885,
  "type": "Feature",
  "properties": {
    "geom:area": 0,
    "geom:bbox": "-127.057778,37.628889,-122.398611,40.168333",
    "geom:latitude": 39.125228015882705,
    "geom:longitude": -124.58035376534355,
    "src:alt_label": "swim-path",
    "src:geom": "swim",
    "swim:altitudes": [
      "006",
      "006",
      "028",
      "039",
      "057",
      "081",
      "103",
      "108",
      "123",
      "144",
      "159",
      "178",
      "193",
      "209",
      "223",
      "237",
      "247C",
      "250",
      "262",
      "273",
      "286",
      "296",
      "300C",
      "300C",
      "300C",
      "300C",
      "300C",
      "300C",
      "300C",
      "300C",
      "300C",
      "300C",
      "300C",
      "300C",
      "300C",
      "300C",
      "300C",
      "300C",
      "300C"
    ],
    "swim:geom": "path",
    "swim:speeds": [
      190,
      188,
      201,
      237,
      269,
      276,
      285,
      345,
      378,
      386,
      399,
      408,
      419,
      429,
      436,
      449,
      460,
      456,
      465,
      474,
      475,
      484,
      488,
      487,
      486,
      486,
      486,
      486,
      485,
      484,
      482,
      482,
      483,
      483,
      483,
      483,
      482,
      482,
      481
    ],
    "swim:timestamps": [
      1785309824,
      1785309832,
      1785309892,
      1785309952,
      1785310012,
      1785310072,
      1785310132,
      1785310192,
      1785310252,
      1785310312,
      1785310372,
      1785310433,
      1785310493,
      1785310553,
      1785310613,
      1785310673,
      1785310717,
      1785310733,
      1785310793,
      1785310853,
      1785310913,
      1785310973,
      1785311033,
      1785311093,
      1785311153,
      1785311213,
      1785311273,
      1785311333,
      1785311393,
      1785311453,
      1785311573,
      1785311633,
      1785311693,
      1785311753,
      1785311813,
      1785311873,
      1785311993,
      1785312053,
      1785312113
    ],
    "wof:geomhash": "5a525301fef48a23f94e6ef3a5e9a9ac",
    "wof:id": 2032010885,
    "wof:repo": "sfomuseum-data-flights-2026-07"
  },
  "bbox": [
    -127.05777777777777,
    37.62888888888889,
    -122.39861111111112,
    40.16833333333333
  ],
  "geometry": {"coordinates":[[-122.4,37.63333333333333],[-122.39861111111112,37.62888888888889],[-122.45916666666668,37.65555555555555],[-122.525,37.687777777777775],[-122.60027777777778,37.731944444444444],[-122.68166666666667,37.77972222222222],[-122.76055555555556,37.83027777777778],[-122.82472222222222,37.905277777777776],[-122.89833333333334,37.99444444444445],[-122.9738888888889,38.08444444444444],[-123.05083333333333,38.176944444444445],[-123.13305555555554,38.27361111111111],[-123.21472222222222,38.37083333333334],[-123.29861111111111,38.47083333333334],[-123.38305555555554,38.57083333333334],[-123.47277777777778,38.67611111111111],[-123.53333333333333,38.75],[-123.56305555555555,38.782222222222224],[-123.65416666666667,38.888333333333335],[-123.75666666666666,38.99472222222222],[-123.915,39.062777777777775],[-124.07277777777777,39.12222222222222],[-124.22833333333334,39.18055555555555],[-124.37249999999999,39.23444444444444],[-124.52944444444444,39.293055555555554],[-124.68472222222222,39.35027777777778],[-124.84472222222222,39.409444444444446],[-124.9863888888889,39.461111111111116],[-125.14416666666668,39.51861111111111],[-125.3,39.575],[-125.61694444444444,39.68888888888888],[-125.77444444444444,39.745],[-125.93138888888889,39.80083333333333],[-126.09166666666667,39.8575],[-126.25083333333333,39.91305555555555],[-126.41000000000001,39.968611111111116],[-126.73361111111112,40.07083333333334],[-126.89472222222223,40.119166666666665],[-127.05777777777777,40.16833333333333]],"type":"LineString"}
}
