{
  "id": 2032002583,
  "type": "Feature",
  "properties": {
    "geom:area": 0,
    "geom:bbox": "-122.756389,37.432500,-87.850000,43.235556",
    "geom:latitude": 41.37619169037468,
    "geom:longitude": -106.10259075541566,
    "src:alt_label": "swim-path",
    "src:geom": "swim",
    "swim:altitudes": [
      "011",
      "032",
      "040",
      "045",
      "060",
      "085",
      "110",
      "129",
      "167",
      "187",
      "203",
      "220",
      "237",
      "255",
      "266",
      "279",
      "289",
      "297",
      "303",
      "309",
      "312",
      "313",
      "314",
      "315",
      "316",
      "317",
      "319",
      "324",
      "329",
      "334",
      "338C",
      "340C",
      "340C",
      "340C",
      "340C",
      "340C",
      "340C",
      "340C",
      "340C",
      "340C",
      "340C",
      "340C",
      "340C",
      "340C",
      "340C",
      "340C",
      "340C",
      "340C",
      "340C",
      "340C",
      "340C",
      "340C",
      "340C",
      "340C",
      "340C",
      "340C",
      "340C",
      "340C",
      "340C",
      "340C",
      "340C",
      "340C",
      "340C",
      "340C",
      "340C",
      "340C",
      "340C",
      "340C",
      "340C",
      "340C",
      "340C",
      "340C",
      "340C",
      "340C",
      "340C",
      "340C",
      "340C",
      "340C",
      "340C",
      "340C",
      "340C",
      "340C",
      "340C",
      "340C",
      "340C",
      "340C",
      "340C",
      "340C",
      "340C",
      "340C",
      "340C",
      "340C",
      "340C",
      "340C",
      "340C",
      "340C",
      "340C",
      "340C",
      "340C",
      "340C",
      "340C",
      "340C",
      "340C",
      "340C",
      "340C",
      "340C",
      "340C",
      "340C",
      "340C",
      "340C",
      "340C",
      "340C",
      "340C",
      "340C",
      "340C",
      "340C",
      "340C",
      "340C",
      "340C",
      "340C",
      "340C",
      "340C",
      "340C",
      "340C",
      "340C",
      "340C",
      "340C",
      "340C",
      "340C",
      "340C",
      "340C",
      "340C",
      "340C",
      "340C",
      "340C",
      "340C",
      "340C",
      "340C",
      "340C",
      "340C",
      "340C",
      "340C",
      "340C",
      "340C",
      "340C",
      "340C",
      "340C",
      "340C",
      "340C",
      "340C",
      "340C",
      "340C",
      "340C",
      "340C",
      "340C",
      "340C",
      "340C",
      "340C",
      "340C",
      "340C",
      "340C",
      "340C",
      "340C",
      "340C",
      "340C",
      "340C",
      "340C",
      "340C",
      "340C",
      "340C",
      "340C",
      "340C",
      "340C",
      "340C",
      "340C",
      "340C",
      "340C",
      "340C",
      "340C",
      "340C",
      "340C",
      "340C",
      "340C",
      "340C",
      "340C",
      "340C",
      "340C",
      "340C",
      "340C",
      "340C",
      "340C",
      "340C",
      "340C",
      "340C",
      "340C",
      "340C",
      "340C",
      "340C",
      "340C",
      "340C",
      "340C",
      "340C",
      "340C",
      "340C",
      "340C",
      "340C",
      "340C",
      "340C",
      "340C",
      "340C",
      "340C",
      "340C",
      "340C",
      "340C",
      "340C",
      "340C",
      "340C",
      "340C",
      "340C",
      "340C",
      "340C",
      "340C",
      "340C",
      "340C",
      "340C",
      "340C",
      "340C",
      "340C",
      "340C",
      "340C",
      "340C",
      "340C",
      "340C",
      "340C",
      "340C",
      "340C",
      "340",
      "340",
      "340",
      "340",
      "340",
      "340",
      "341",
      "348",
      "356",
      "360C",
      "360C",
      "360C",
      "360C",
      "360C",
      "360C",
      "360C",
      "360C",
      "360C",
      "360C",
      "360C",
      "360C",
      "360C",
      "360C",
      "360C",
      "360C",
      "360C",
      "360C",
      "360C",
      "360C",
      "360C",
      "360C",
      "360C",
      "360C",
      "360C",
      "360C",
      "360C",
      "360C",
      "360C",
      "360C",
      "360C",
      "360C",
      "360C",
      "360C",
      "360C",
      "360C",
      "360C",
      "360C",
      "360C",
      "360C",
      "360C",
      "360C",
      "360C",
      "360C",
      "360C",
      "360C",
      "360C",
      "360C",
      "360C",
      "360C",
      "360C",
      "360C",
      "360C",
      "360C",
      "360C",
      "360C",
      "360C",
      "360C",
      "360C",
      "360C",
      "360C",
      "360C",
      "360C",
      "360C",
      "360C",
      "360C",
      "360C",
      "360C",
      "360C",
      "360C",
      "360C",
      "360C",
      "360C",
      "360C",
      "360C",
      "360C",
      "360C",
      "360C",
      "360C",
      "360C",
      "360C",
      "360C",
      "360C",
      "360C",
      "360C",
      "360C",
      "360C",
      "360C",
      "360C",
      "360C",
      "360C",
      "360C",
      "360C",
      "360C",
      "360C",
      "360C",
      "360C",
      "360C",
      "360C",
      "360C",
      "360C",
      "360C",
      "360C",
      "360C",
      "360C",
      "360C",
      "360C",
      "360C",
      "360C",
      "360C",
      "360C",
      "360C",
      "360C",
      "360C",
      "360C",
      "360C",
      "360C",
      "360C",
      "360C",
      "360C",
      "360C",
      "360",
      "353",
      "343",
      "333",
      "323",
      "313",
      "291",
      "282",
      "269",
      "251",
      "236",
      "215",
      "195",
      "188",
      "176",
      "158",
      "122",
      "121",
      "110C",
      "110C",
      "110",
      "110C",
      "097",
      "096",
      "082",
      "070",
      "040",
      "031",
      "030",
      "021",
      "004",
      "110"
    ],
    "swim:geom": "path",
    "swim:speeds": [
      180,
      231,
      243,
      264,
      260,
      266,
      287,
      309,
      340,
      346,
      354,
      363,
      370,
      370,
      370,
      376,
      380,
      369,
      375,
      361,
      362,
      368,
      363,
      388,
      385,
      405,
      404,
      411,
      414,
      410,
      412,
      406,
      406,
      406,
      404,
      406,
      406,
      407,
      407,
      407,
      408,
      407,
      407,
      406,
      406,
      406,
      406,
      407,
      407,
      408,
      408,
      409,
      410,
      411,
      411,
      412,
      413,
      414,
      414,
      415,
      415,
      416,
      416,
      416,
      416,
      416,
      417,
      417,
      417,
      417,
      417,
      415,
      415,
      414,
      414,
      413,
      413,
      413,
      413,
      412,
      412,
      411,
      411,
      411,
      412,
      413,
      414,
      414,
      415,
      416,
      416,
      415,
      414,
      413,
      411,
      410,
      409,
      409,
      410,
      411,
      412,
      412,
      412,
      416,
      412,
      414,
      412,
      414,
      412,
      413,
      412,
      413,
      413,
      413,
      413,
      413,
      413,
      413,
      413,
      413,
      413,
      413,
      413,
      416,
      413,
      413,
      416,
      413,
      413,
      416,
      413,
      413,
      416,
      413,
      413,
      416,
      413,
      414,
      414,
      414,
      414,
      414,
      414,
      415,
      414,
      415,
      416,
      414,
      415,
      415,
      414,
      415,
      415,
      414,
      414,
      413,
      412,
      413,
      412,
      413,
      413,
      412,
      413,
      412,
      413,
      420,
      417,
      424,
      425,
      428,
      400,
      409,
      396,
      396,
      394,
      395,
      393,
      399,
      395,
      399,
      398,
      399,
      400,
      400,
      401,
      401,
      401,
      401,
      400,
      401,
      401,
      401,
      415,
      407,
      418,
      412,
      419,
      414,
      417,
      420,
      417,
      421,
      417,
      418,
      422,
      418,
      417,
      418,
      439,
      406,
      410,
      403,
      413,
      413,
      409,
      414,
      410,
      415,
      413,
      416,
      418,
      417,
      419,
      420,
      419,
      420,
      421,
      421,
      421,
      421,
      420,
      420,
      420,
      421,
      422,
      422,
      422,
      422,
      421,
      421,
      420,
      419,
      418,
      416,
      413,
      414,
      415,
      414,
      413,
      412,
      411,
      408,
      406,
      405,
      404,
      402,
      401,
      399,
      399,
      399,
      400,
      402,
      404,
      404,
      406,
      405,
      404,
      402,
      400,
      400,
      400,
      400,
      400,
      400,
      400,
      401,
      401,
      402,
      402,
      406,
      405,
      404,
      404,
      406,
      410,
      415,
      415,
      417,
      420,
      417,
      422,
      423,
      423,
      423,
      422,
      423,
      422,
      422,
      422,
      422,
      423,
      423,
      425,
      424,
      427,
      425,
      428,
      426,
      427,
      426,
      426,
      425,
      426,
      426,
      427,
      429,
      430,
      429,
      425,
      425,
      424,
      423,
      422,
      421,
      421,
      421,
      421,
      421,
      421,
      419,
      418,
      418,
      417,
      417,
      418,
      418,
      418,
      418,
      418,
      417,
      417,
      416,
      415,
      415,
      414,
      414,
      414,
      413,
      413,
      412,
      413,
      413,
      413,
      412,
      419,
      415,
      415,
      417,
      418,
      419,
      420,
      420,
      419,
      418,
      405,
      403,
      402,
      403,
      413,
      413,
      405,
      402,
      401,
      398,
      393,
      397,
      398,
      388,
      380,
      375,
      370,
      352,
      340,
      344,
      322,
      305,
      263,
      267,
      262,
      263,
      260,
      250,
      229,
      214,
      212,
      194,
      141,
      130
    ],
    "swim:timestamps": [
      1785271281,
      1785271359,
      1785271388,
      1785271413,
      1785271448,
      1785271508,
      1785271568,
      1785271628,
      1785271748,
      1785271808,
      1785271868,
      1785271929,
      1785271989,
      1785272049,
      1785272109,
      1785272169,
      1785272202,
      1785272229,
      1785272262,
      1785272289,
      1785272322,
      1785272349,
      1785272382,
      1785272409,
      1785272442,
      1785272470,
      1785272502,
      1785272530,
      1785272562,
      1785272590,
      1785272622,
      1785272650,
      1785272682,
      1785272710,
      1785272743,
      1785272770,
      1785272803,
      1785272830,
      1785272863,
      1785272890,
      1785272923,
      1785272950,
      1785272983,
      1785273010,
      1785273043,
      1785273070,
      1785273103,
      1785273131,
      1785273163,
      1785273191,
      1785273223,
      1785273251,
      1785273283,
      1785273311,
      1785273343,
      1785273371,
      1785273403,
      1785273431,
      1785273464,
      1785273491,
      1785273524,
      1785273551,
      1785273584,
      1785273611,
      1785273644,
      1785273671,
      1785273704,
      1785273731,
      1785273764,
      1785273792,
      1785273824,
      1785273852,
      1785273884,
      1785273912,
      1785273944,
      1785273972,
      1785274004,
      1785274032,
      1785274064,
      1785274092,
      1785274124,
      1785274185,
      1785274245,
      1785274305,
      1785274365,
      1785274425,
      1785274485,
      1785274545,
      1785274605,
      1785274665,
      1785274725,
      1785274785,
      1785274845,
      1785274906,
      1785274966,
      1785275026,
      1785275086,
      1785275146,
      1785275206,
      1785275266,
      1785275326,
      1785275386,
      1785275446,
      1785275478,
      1785275506,
      1785275538,
      1785275566,
      1785275598,
      1785275627,
      1785275658,
      1785275687,
      1785275718,
      1785275759,
      1785275778,
      1785275819,
      1785275838,
      1785275879,
      1785275898,
      1785275939,
      1785275958,
      1785276018,
      1785276059,
      1785276079,
      1785276088,
      1785276119,
      1785276139,
      1785276148,
      1785276179,
      1785276199,
      1785276208,
      1785276239,
      1785276259,
      1785276268,
      1785276299,
      1785276319,
      1785276328,
      1785276360,
      1785276379,
      1785276388,
      1785276420,
      1785276439,
      1785276448,
      1785276480,
      1785276499,
      1785276509,
      1785276540,
      1785276559,
      1785276569,
      1785276600,
      1785276619,
      1785276629,
      1785276660,
      1785276679,
      1785276689,
      1785276720,
      1785276739,
      1785276749,
      1785276780,
      1785276799,
      1785276809,
      1785276869,
      1785276900,
      1785276920,
      1785276929,
      1785276960,
      1785276980,
      1785276989,
      1785277020,
      1785277040,
      1785277049,
      1785277100,
      1785277109,
      1785277160,
      1785277169,
      1785277220,
      1785277230,
      1785277280,
      1785277290,
      1785277340,
      1785277350,
      1785277400,
      1785277410,
      1785277460,
      1785277470,
      1785277520,
      1785277530,
      1785277581,
      1785277590,
      1785277641,
      1785277650,
      1785277701,
      1785277710,
      1785277761,
      1785277770,
      1785277821,
      1785277830,
      1785277881,
      1785277890,
      1785277951,
      1785278001,
      1785278011,
      1785278061,
      1785278071,
      1785278131,
      1785278181,
      1785278191,
      1785278241,
      1785278251,
      1785278311,
      1785278362,
      1785278371,
      1785278431,
      1785278482,
      1785278542,
      1785278551,
      1785278602,
      1785278611,
      1785278662,
      1785278672,
      1785278732,
      1785278782,
      1785278792,
      1785278842,
      1785278902,
      1785278912,
      1785278962,
      1785279022,
      1785279032,
      1785279083,
      1785279143,
      1785279203,
      1785279212,
      1785279263,
      1785279323,
      1785279332,
      1785279393,
      1785279443,
      1785279453,
      1785279503,
      1785279513,
      1785279563,
      1785279623,
      1785279633,
      1785279683,
      1785279753,
      1785279813,
      1785279864,
      1785279933,
      1785279984,
      1785279993,
      1785280053,
      1785280113,
      1785280174,
      1785280234,
      1785280294,
      1785280354,
      1785280414,
      1785280474,
      1785280534,
      1785280594,
      1785280654,
      1785280714,
      1785280774,
      1785280834,
      1785280895,
      1785280955,
      1785281015,
      1785281075,
      1785281135,
      1785281195,
      1785281255,
      1785281315,
      1785281375,
      1785281435,
      1785281495,
      1785281555,
      1785281616,
      1785281676,
      1785281736,
      1785281796,
      1785281856,
      1785281916,
      1785281976,
      1785282036,
      1785282096,
      1785282156,
      1785282216,
      1785282276,
      1785282336,
      1785282362,
      1785282397,
      1785282422,
      1785282457,
      1785282482,
      1785282517,
      1785282542,
      1785282577,
      1785282602,
      1785282637,
      1785282662,
      1785282697,
      1785282722,
      1785282757,
      1785282782,
      1785282817,
      1785282842,
      1785282877,
      1785282902,
      1785282937,
      1785282962,
      1785282997,
      1785283023,
      1785283057,
      1785283083,
      1785283118,
      1785283143,
      1785283178,
      1785283238,
      1785283263,
      1785283298,
      1785283323,
      1785283358,
      1785283383,
      1785283418,
      1785283443,
      1785283478,
      1785283503,
      1785283538,
      1785283563,
      1785283598,
      1785283623,
      1785283658,
      1785283683,
      1785283718,
      1785283743,
      1785283778,
      1785283804,
      1785283839,
      1785283864,
      1785283899,
      1785283924,
      1785283959,
      1785283984,
      1785284019,
      1785284044,
      1785284079,
      1785284104,
      1785284139,
      1785284164,
      1785284199,
      1785284224,
      1785284259,
      1785284284,
      1785284344,
      1785284464,
      1785284524,
      1785284597,
      1785284657,
      1785284717,
      1785284777,
      1785284837,
      1785284897,
      1785284957,
      1785285017,
      1785285077,
      1785285137,
      1785285197,
      1785285257,
      1785285317,
      1785285377,
      1785285438,
      1785285498,
      1785285618,
      1785285678,
      1785285738,
      1785285798,
      1785285858,
      1785285918,
      1785285978,
      1785285996,
      1785286038,
      1785286092,
      1785286212,
      1785286219,
      1785286279,
      1785286339,
      1785286392,
      1785286399,
      1785286452,
      1785286459,
      1785286519,
      1785286579,
      1785286699,
      1785286759,
      1785286819,
      1785286872,
      1785286999,
      1785287060
    ],
    "wof:geomhash": "aa1833c3e10b8610b3de64b58bee9326",
    "wof:id": 2032002583,
    "wof:repo": "sfomuseum-data-flights-2026-07"
  },
  "bbox": [
    -122.75638888888889,
    37.4325,
    -87.85,
    43.23555555555556
  ],
  "geometry": {"coordinates":[[-87.88333333333334,41.983333333333334],[-87.85,42.03333333333333],[-87.87388888888889,42.04833333333333],[-87.91666666666667,42.06666666666667],[-87.94500000000001,42.09666666666667],[-88.01638888888888,42.14722222222222],[-88.11083333333333,42.17333333333333],[-88.22277777777778,42.1725],[-88.47027777777778,42.16888888888889],[-88.60027777777778,42.166666666666664],[-88.73166666666667,42.16444444444444],[-88.86749999999999,42.161944444444444],[-89.00833333333334,42.15833333333333],[-89.14555555555556,42.155],[-89.28444444444445,42.151111111111106],[-89.42500000000001,42.14722222222222],[-89.50805555555556,42.14361111111111],[-89.56583333333333,42.143055555555556],[-89.6261111111111,42.13944444444444],[-89.69833333333334,42.138888888888886],[-89.75833333333334,42.135],[-89.83527777777778,42.13472222222222],[-89.89666666666668,42.130833333333335],[-89.98277777777778,42.12972222222222],[-90.04416666666667,42.126111111111115],[-90.13555555555556,42.124722222222225],[-90.19777777777779,42.12083333333334],[-90.28916666666666,42.119166666666665],[-90.35305555555556,42.11472222222223],[-90.4413888888889,42.11333333333334],[-90.50444444444445,42.10916666666667],[-90.59277777777777,42.10777777777778],[-90.6538888888889,42.10527777777778],[-90.74361111111111,42.10166666666667],[-90.80583333333333,42.09916666666667],[-90.89750000000001,42.095555555555556],[-90.95777777777778,42.09305555555556],[-91.04833333333333,42.08888888888889],[-91.10972222222222,42.08638888888889],[-91.20138888888889,42.0825],[-91.26444444444445,42.07972222222222],[-91.3536111111111,42.080000000000005],[-91.415,42.08111111111111],[-91.50444444444445,42.08222222222223],[-91.56638888888888,42.0825],[-91.65805555555556,42.083333333333336],[-91.72083333333333,42.08388888888889],[-91.81,42.084722222222226],[-91.87277777777777,42.08527777777778],[-91.96444444444445,42.08583333333333],[-92.025,42.08638888888889],[-92.11944444444444,42.08694444444445],[-92.18,42.08722222222222],[-92.27333333333333,42.087500000000006],[-92.33527777777778,42.088055555555556],[-92.42888888888889,42.08833333333334],[-92.48972222222223,42.08861111111111],[-92.58222222222221,42.08861111111111],[-92.64555555555556,42.08861111111111],[-92.73972222222223,42.08861111111111],[-92.80277777777778,42.08888888888889],[-92.89583333333334,42.08888888888889],[-92.95611111111111,42.08861111111111],[-93.05055555555555,42.08861111111111],[-93.11333333333333,42.08833333333334],[-93.2063888888889,42.088055555555556],[-93.26861111111111,42.08777777777778],[-93.3611111111111,42.087500000000006],[-93.42583333333334,42.08722222222222],[-93.51777777777778,42.08694444444445],[-93.55027777777778,42.08888888888889],[-93.67277777777778,42.100833333333334],[-93.73333333333333,42.10666666666667],[-93.82472222222222,42.11527777777778],[-93.85583333333332,42.11805555555556],[-93.9786111111111,42.12972222222222],[-94.06444444444445,42.13777777777778],[-94.13111111111111,42.14388888888889],[-94.18694444444445,42.14888888888889],[-94.28388888888888,42.157777777777774],[-94.36999999999999,42.16555555555556],[-94.52027777777778,42.178888888888885],[-94.67444444444445,42.192499999999995],[-94.82555555555555,42.205555555555556],[-94.97916666666667,42.218611111111116],[-95.13388888888889,42.231388888888894],[-95.28583333333333,42.244166666666665],[-95.44027777777778,42.256388888888885],[-95.59527777777777,42.26888888888889],[-95.74972222222222,42.28111111111111],[-95.90333333333334,42.29277777777778],[-96.05611111111111,42.30444444444444],[-96.21083333333334,42.31583333333333],[-96.36194444444443,42.32666666666667],[-96.51527777777778,42.33777777777778],[-96.66611111111112,42.348333333333336],[-96.81722222222221,42.35861111111111],[-96.96916666666667,42.36888888888889],[-97.12277777777777,42.37916666666667],[-97.27805555555555,42.38916666666667],[-97.43,42.39888888888889],[-97.58527777777778,42.40833333333333],[-97.73861111111111,42.41777777777777],[-97.81194444444444,42.42194444444444],[-97.89166666666668,42.42666666666666],[-97.96583333333334,42.43111111111111],[-98.04694444444445,42.43583333333333],[-98.12027777777777,42.44],[-98.20194444444445,42.44444444444444],[-98.27527777777777,42.44833333333333],[-98.35638888888889,42.45277777777778],[-98.42916666666667,42.45666666666667],[-98.54194444444444,42.46277777777778],[-98.58583333333333,42.46527777777778],[-98.69527777777778,42.47138888888889],[-98.73916666666666,42.47666666666667],[-98.84916666666666,42.48916666666667],[-98.89194444444445,42.49388888888889],[-98.97083333333333,42.503055555555555],[-99.04861111111111,42.51166666666666],[-99.2038888888889,42.52916666666667],[-99.3086111111111,42.54083333333333],[-99.35722222222222,42.54611111111111],[-99.38138888888888,42.54888888888889],[-99.46194444444444,42.5575],[-99.51027777777777,42.562777777777775],[-99.53777777777778,42.565555555555555],[-99.62888888888888,42.57555555555556],[-99.66194444444444,42.57916666666667],[-99.69,42.58166666666667],[-99.78527777777778,42.592222222222226],[-99.81527777777778,42.595555555555556],[-99.84305555555555,42.59861111111111],[-99.94027777777778,42.60861111111111],[-99.97055555555556,42.61194444444445],[-99.99916666666667,42.61388888888889],[-100.09388888888888,42.62444444444444],[-100.12472222222222,42.62777777777778],[-100.16611111111112,42.632222222222225],[-100.24916666666667,42.64055555555556],[-100.27833333333334,42.64361111111111],[-100.29027777777777,42.64361111111111],[-100.405,42.65611111111111],[-100.4325,42.65888888888889],[-100.47666666666667,42.661944444444444],[-100.55972222222222,42.67166666666667],[-100.58944444444444,42.67444444444444],[-100.63166666666666,42.67805555555555],[-100.71305555555556,42.68666666666666],[-100.7425,42.68944444444444],[-100.78722222222223,42.69194444444444],[-100.86416666666666,42.719722222222224],[-100.8888888888889,42.72944444444445],[-100.92722222222223,42.743611111111115],[-100.99805555555555,42.77222222222222],[-101.02666666666667,42.78333333333333],[-101.06388888888888,42.79722222222222],[-101.13722222222223,42.82611111111112],[-101.16583333333334,42.837500000000006],[-101.20111111111112,42.85055555555556],[-101.33333333333333,42.91166666666666],[-101.40083333333334,42.948611111111106],[-101.42555555555556,42.963055555555556],[-101.45722222222223,42.97972222222222],[-101.52,43.019999999999996],[-101.53861111111111,43.03777777777778],[-101.56277777777777,43.06583333333333],[-101.61166666666666,43.11944444444445],[-101.63,43.13944444444444],[-101.65361111111112,43.16555555555556],[-101.7375,43.21944444444445],[-101.77416666666666,43.22166666666667],[-101.89305555555556,43.23555555555556],[-101.92166666666667,43.23444444444444],[-102.04333333333334,43.23111111111111],[-102.07111111111111,43.226111111111116],[-102.18361111111112,43.1975],[-102.20972222222223,43.18527777777778],[-102.32777777777777,43.164722222222224],[-102.35388888888889,43.152499999999996],[-102.47361111111111,43.13111111111111],[-102.50055555555555,43.120555555555555],[-102.62083333333332,43.09777777777778],[-102.64666666666668,43.08722222222222],[-102.76472222222222,43.06444444444444],[-102.79083333333332,43.05361111111111],[-102.90555555555557,43.0225],[-102.93111111111112,43.01027777777778],[-103.04583333333333,42.980555555555554],[-103.07027777777778,42.9675],[-103.18666666666667,42.93833333333333],[-103.21222222222222,42.92583333333333],[-103.3325,42.894444444444446],[-103.35777777777777,42.88388888888889],[-103.48027777777779,42.85],[-103.50611111111111,42.840833333333336],[-103.62555555555555,42.80583333333333],[-103.65138888888889,42.79666666666667],[-103.80333333333333,42.76111111111111],[-103.93166666666667,42.74666666666667],[-103.95944444444444,42.74305555555556],[-104.08888888888889,42.72555555555556],[-104.11611111111111,42.72166666666667],[-104.27166666666666,42.69972222222222],[-104.39916666666667,42.67611111111111],[-104.42361111111111,42.67305555555555],[-104.54805555555555,42.64472222222222],[-104.57166666666666,42.6475],[-104.71944444444445,42.60277777777778],[-104.85249999999999,42.561388888888885],[-104.85527777777777,42.56083333333333],[-104.99638888888889,42.51861111111111],[-105.14055555555557,42.47638888888889],[-105.28333333333333,42.43416666666666],[-105.28416666666666,42.43277777777777],[-105.42861111111111,42.39083333333333],[-105.42722222222223,42.39],[-105.5736111111111,42.34722222222222],[-105.57249999999999,42.345555555555556],[-105.71805555555555,42.30361111111111],[-105.86388888888888,42.25944444444445],[-105.86388888888888,42.25944444444445],[-106.00888888888889,42.215],[-106.15361111111112,42.17055555555555],[-106.15361111111112,42.17055555555555],[-106.29972222222221,42.12555555555556],[-106.44472222222223,42.080555555555556],[-106.44472222222223,42.080555555555556],[-106.57888888888888,42.03861111111111],[-106.7225,41.993611111111115],[-106.86666666666666,41.948055555555555],[-106.89722222222223,41.93833333333333],[-107.01194444444444,41.90222222222222],[-107.15666666666667,41.85583333333334],[-107.18555555555555,41.84666666666667],[-107.32888888888888,41.800555555555555],[-107.44388888888889,41.76361111111111],[-107.47305555555556,41.75416666666667],[-107.58833333333332,41.71666666666667],[-107.61611111111111,41.7075],[-107.72944444444444,41.670833333333334],[-107.87555555555555,41.632222222222225],[-107.9075,41.62861111111111],[-108.02833333333334,41.615],[-108.20972222222223,41.59444444444445],[-108.36083333333333,41.57694444444445],[-108.48305555555555,41.562777777777775],[-108.665,41.54111111111111],[-108.78361111111111,41.52722222222222],[-108.81277777777777,41.52361111111111],[-108.9625,41.50555555555555],[-109.10722222222222,41.48777777777778],[-109.2461111111111,41.470555555555556],[-109.39305555555556,41.4525],[-109.53916666666666,41.43388888888889],[-109.68583333333333,41.415277777777774],[-109.82972222222222,41.39694444444444],[-109.97527777777778,41.37777777777778],[-110.11944444444444,41.35888888888889],[-110.26555555555555,41.339444444444446],[-110.4113888888889,41.32],[-110.55694444444444,41.30027777777777],[-110.705,41.28],[-110.85194444444444,41.25972222222222],[-110.99861111111112,41.23916666666667],[-111.14444444444445,41.218611111111116],[-111.29083333333332,41.19777777777777],[-111.45305555555557,41.17472222222222],[-111.59694444444445,41.153888888888886],[-111.74055555555556,41.132777777777775],[-111.88416666666667,41.111666666666665],[-112.04027777777777,41.08833333333334],[-112.18361111111112,41.06666666666667],[-112.32722222222222,41.044999999999995],[-112.47166666666666,41.022777777777776],[-112.615,41.00055555555556],[-112.75944444444444,40.97805555555556],[-112.90444444444445,40.95527777777778],[-113.04805555555555,40.9325],[-113.19444444444444,40.90888888888889],[-113.33999999999999,40.885555555555555],[-113.48805555555556,40.86138888888889],[-113.63222222222221,40.83777777777778],[-113.77777777777777,40.81361111111111],[-113.92611111111111,40.788888888888884],[-114.07444444444444,40.763888888888886],[-114.22333333333333,40.73861111111111],[-114.37277777777777,40.713055555555556],[-114.52361111111111,40.68694444444444],[-114.55444444444444,40.68277777777777],[-114.67472222222223,40.660555555555554],[-114.73555555555555,40.650277777777774],[-114.82527777777777,40.634166666666665],[-114.8863888888889,40.62416666666667],[-114.9738888888889,40.60805555555556],[-115.03611111111111,40.59638888888889],[-115.125,40.58111111111111],[-115.18416666666667,40.57166666666667],[-115.27388888888889,40.55416666666667],[-115.33527777777778,40.54388888888889],[-115.42444444444445,40.526944444444446],[-115.48666666666666,40.51638888888889],[-115.57694444444444,40.49916666666667],[-115.63805555555557,40.48861111111111],[-115.72972222222222,40.47083333333334],[-115.79083333333332,40.46027777777778],[-115.88166666666666,40.44277777777778],[-115.94277777777778,40.431666666666665],[-116.03055555555555,40.414722222222224],[-116.08722222222222,40.40416666666667],[-116.18138888888889,40.38638888888889],[-116.24361111111111,40.374722222222225],[-116.33166666666666,40.35777777777778],[-116.39500000000001,40.34583333333334],[-116.48305555555555,40.32888888888889],[-116.54861111111111,40.316111111111105],[-116.63694444444445,40.299166666666665],[-116.76027777777777,40.275277777777774],[-116.83555555555554,40.260555555555555],[-116.91055555555556,40.24583333333334],[-116.985,40.23111111111111],[-117.06138888888889,40.215833333333336],[-117.12388888888889,40.203611111111115],[-117.21055555555556,40.186388888888885],[-117.27111111111111,40.174166666666665],[-117.35805555555555,40.15694444444444],[-117.42666666666668,40.143055555555556],[-117.50638888888889,40.12694444444445],[-117.57333333333332,40.11333333333334],[-117.6525,40.09722222222222],[-117.71833333333333,40.08388888888889],[-117.79861111111111,40.0675],[-117.86388888888888,40.053888888888885],[-117.94972222222222,40.03611111111111],[-118.01,40.02361111111111],[-118.09638888888888,40.005833333333335],[-118.15611111111112,39.99333333333333],[-118.24,39.975833333333334],[-118.3,39.96333333333334],[-118.38555555555556,39.945277777777775],[-118.44444444444444,39.93277777777777],[-118.52777777777777,39.915],[-118.58833333333332,39.90222222222222],[-118.67027777777778,39.88472222222222],[-118.73166666666667,39.87166666666667],[-118.81416666666667,39.85388888888889],[-118.87166666666666,39.84138888888889],[-118.9563888888889,39.823055555555555],[-119.01583333333333,39.81027777777778],[-119.09777777777778,39.7925],[-119.15583333333333,39.77972222222222],[-119.23944444444444,39.76138888888889],[-119.29833333333333,39.74861111111111],[-119.4413888888889,39.716944444444444],[-119.75638888888889,39.64666666666667],[-119.90111111111112,39.61388888888889],[-120.07277777777777,39.57527777777778],[-120.20138888888889,39.545833333333334],[-120.34583333333333,39.5125],[-120.48972222222223,39.47916666666667],[-120.635,39.44555555555555],[-120.7786111111111,39.41166666666666],[-120.92111111111112,39.378055555555555],[-121.06305555555555,39.34388888888889],[-121.18583333333333,39.284166666666664],[-121.30055555555555,39.21805555555556],[-121.41555555555556,39.150555555555556],[-121.52916666666667,39.08416666666667],[-121.64611111111111,39.015277777777776],[-121.76361111111112,38.946666666666665],[-121.87805555555555,38.87861111111111],[-121.99055555555556,38.811388888888885],[-122.22944444444444,38.66916666666666],[-122.33999999999999,38.60277777777778],[-122.44805555555556,38.53361111111111],[-122.53777777777778,38.448055555555555],[-122.62416666666665,38.364444444444445],[-122.71000000000001,38.280833333333334],[-122.75638888888889,38.1875],[-122.75,38.15],[-122.72777777777777,38.08722222222222],[-122.7,37.983333333333334],[-122.6,37.81666666666667],[-122.58444444444444,37.815555555555555],[-122.5111111111111,37.74611111111111],[-122.44111111111111,37.68055555555555],[-122.38333333333334,37.63333333333333],[-122.37972222222221,37.6225],[-122.33333333333333,37.56666666666667],[-122.33694444444444,37.55916666666666],[-122.29916666666666,37.49444444444445],[-122.26138888888889,37.4325],[-122.1275,37.43416666666666],[-122.1388888888889,37.49388888888889],[-122.18166666666667,37.53805555555555],[-122.23333333333333,37.56666666666667],[-122.33638888888889,37.605000000000004],[-122.37083333333332,37.619166666666665]],"type":"LineString"}
}
