{
  "id": 2032054807,
  "type": "Feature",
  "properties": {
    "geom:area": 0,
    "geom:bbox": "-126.864722,37.633056,-122.404167,37.845833",
    "geom:latitude": 37.76995613424222,
    "geom:longitude": -124.62474532419681,
    "src:alt_label": "swim-path",
    "src:geom": "swim",
    "swim:altitudes": [
      "010",
      "023",
      "026",
      "037",
      "055",
      "076",
      "092C",
      "106",
      "117",
      "129C",
      "131",
      "139C",
      "145",
      "159C",
      "160",
      "171C",
      "175",
      "187",
      "199",
      "211",
      "222",
      "233",
      "243",
      "252",
      "261",
      "269",
      "277",
      "284",
      "290",
      "298C",
      "300C",
      "300C",
      "300C",
      "300C",
      "300C",
      "300C",
      "300C"
    ],
    "swim:geom": "path",
    "swim:speeds": [
      183,
      195,
      193,
      238,
      265,
      271,
      280,
      308,
      346,
      370,
      374,
      380,
      390,
      400,
      394,
      400,
      403,
      415,
      422,
      428,
      432,
      438,
      443,
      452,
      458,
      466,
      473,
      479,
      484,
      489,
      490,
      489,
      488,
      487,
      487,
      487,
      486
    ],
    "swim:timestamps": [
      1785521888,
      1785521923,
      1785521949,
      1785522009,
      1785522069,
      1785522129,
      1785522180,
      1785522249,
      1785522309,
      1785522361,
      1785522369,
      1785522421,
      1785522429,
      1785522481,
      1785522489,
      1785522541,
      1785522549,
      1785522609,
      1785522670,
      1785522730,
      1785522790,
      1785522850,
      1785522910,
      1785522970,
      1785523030,
      1785523090,
      1785523150,
      1785523210,
      1785523270,
      1785523330,
      1785523391,
      1785523451,
      1785523511,
      1785523571,
      1785523631,
      1785523691,
      1785523751
    ],
    "wof:geomhash": "ce5b8ab243c3bb271a74ed6926ad74c7",
    "wof:id": 2032054807,
    "wof:repo": "sfomuseum-data-flights-2026-07"
  },
  "bbox": [
    -126.86472222222221,
    37.63305555555556,
    -122.40416666666667,
    37.84583333333334
  ],
  "geometry": {"coordinates":[[-122.40416666666667,37.63305555555556],[-122.43333333333334,37.65],[-122.4563888888889,37.65361111111111],[-122.52555555555556,37.67722222222222],[-122.61749999999999,37.68194444444444],[-122.71416666666667,37.6875],[-122.8,37.68333333333333],[-122.91805555555555,37.69833333333333],[-123.03611111111111,37.70472222222222],[-123.15,37.7],[-123.165,37.71083333333333],[-123.26666666666667,37.7],[-123.30055555555555,37.718611111111116],[-123.43333333333334,37.71666666666667],[-123.43833333333333,37.72555555555556],[-123.53333333333333,37.71666666666667],[-123.58166666666666,37.7325],[-123.72722222222222,37.739444444444445],[-123.87555555555555,37.74638888888889],[-124.02638888888889,37.75333333333333],[-124.17666666666668,37.76],[-124.33305555555555,37.766666666666666],[-124.48805555555556,37.77305555555555],[-124.64694444444446,37.779444444444444],[-124.80777777777777,37.785555555555554],[-124.97083333333333,37.791666666666664],[-125.1375,37.797777777777775],[-125.30666666666666,37.80361111111111],[-125.47583333333334,37.80916666666666],[-125.64805555555556,37.81472222222222],[-125.82055555555556,37.819722222222225],[-125.99055555555556,37.82472222222223],[-126.16277777777778,37.82944444444445],[-126.35388888888889,37.83416666666667],[-126.5261111111111,37.83833333333334],[-126.69583333333334,37.842222222222226],[-126.86472222222221,37.84583333333334]],"type":"LineString"}
}
