{
  "id": 2031966103,
  "type": "Feature",
  "properties": {
    "geom:area": 0,
    "geom:bbox": "-122.397450,37.626360,-121.471280,38.175350",
    "geom:latitude": 37.93425958200341,
    "geom:longitude": -121.96283697763866,
    "src:alt_label": "swim-takeoff",
    "src:geom": "swim",
    "swim:elevations": [
      213,
      436,
      579,
      782,
      1265,
      1523,
      1763,
      2135,
      2555,
      2756,
      3139,
      3535,
      3794,
      4473,
      4933,
      4976,
      5396,
      5545,
      5692,
      5703
    ],
    "swim:geom": "takeoff",
    "swim:timestamps": [
      1784982987,
      1784983003,
      1784983031,
      1784983066,
      1784983089,
      1784983122,
      1784983145,
      1784983179,
      1784983218,
      1784983242,
      1784983279,
      1784983340,
      1784983365,
      1784983434,
      1784983489,
      1784983495,
      1784983545,
      1784983581,
      1784983619,
      1784983623
    ],
    "wof:geomhash": "74c2c54578481e2d72e66b637e5ec1c9",
    "wof:id": 2031966103,
    "wof:repo": "sfomuseum-data-flights-2026-07"
  },
  "bbox": [
    -122.39745,
    37.62636,
    -121.47128,
    38.17535
  ],
  "geometry": {"coordinates":[[-122.38711,37.62636],[-122.39745,37.63392],[-122.39431,37.65518],[-122.35076,37.67259],[-122.31726,37.68247],[-122.26841,37.69876],[-122.23422,37.71086],[-122.19309,37.74176],[-122.15371,37.7856],[-122.12936,37.81244],[-122.08858,37.85744],[-122.01611,37.93738],[-121.98592,37.9705],[-121.88131,38.05303],[-121.76858,38.08701],[-121.75621,38.09073],[-121.64898,38.12273],[-121.56876,38.1465],[-121.48185,38.1722],[-121.47128,38.17535]],"type":"LineString"}
}
