{
  "id": 2032008961,
  "type": "Feature",
  "properties": {
    "geom:area": 0,
    "geom:bbox": "-122.383333,37.650000,-70.933333,43.537500",
    "geom:latitude": 42.417702075517596,
    "geom:longitude": -97.02015965350589,
    "src:alt_label": "swim-path",
    "src:geom": "swim",
    "swim:altitudes": [
      "025",
      "033",
      "039",
      "043",
      "048",
      "058",
      "078",
      "099",
      "108",
      "116",
      "123",
      "138",
      "151",
      "164",
      "177",
      "188",
      "195",
      "209",
      "225",
      "231",
      "237",
      "244",
      "246",
      "250",
      "258",
      "263",
      "266",
      "274",
      "278",
      "283",
      "287",
      "291",
      "293",
      "298",
      "302",
      "307",
      "309",
      "315",
      "319",
      "323",
      "326",
      "330C",
      "330C",
      "330C",
      "330C",
      "330C",
      "330C",
      "330C",
      "330C",
      "330C",
      "330C",
      "330C",
      "330C",
      "330C",
      "330C",
      "330C",
      "330C",
      "330C",
      "330C",
      "330C",
      "330C",
      "330C",
      "330C",
      "330C",
      "330C",
      "330C",
      "330C",
      "331C",
      "331C",
      "330C",
      "330C",
      "330C",
      "330C",
      "330C",
      "331C",
      "330C",
      "331C",
      "330C",
      "330C",
      "330C",
      "330C",
      "330C",
      "330C",
      "330C",
      "327",
      "320",
      "323",
      "329C",
      "330C",
      "330C",
      "330C",
      "330C",
      "330C",
      "331C",
      "330C",
      "330C",
      "330C",
      "330C",
      "330C",
      "331C",
      "330C",
      "330C",
      "330C",
      "330C",
      "330C",
      "330C",
      "330C",
      "330C",
      "330C",
      "330C",
      "330C",
      "330C",
      "330C",
      "330C",
      "330C",
      "330C",
      "330C",
      "330C",
      "330C",
      "330C",
      "330C",
      "330C",
      "330C",
      "330C",
      "330C",
      "330C",
      "330C",
      "330C",
      "330C",
      "330C",
      "330C",
      "330C",
      "330C",
      "330C",
      "330C",
      "330C",
      "330C",
      "330C",
      "330C",
      "330C",
      "330C",
      "330C",
      "330C",
      "330C",
      "330C",
      "330C",
      "330C",
      "330C",
      "330C",
      "330C",
      "330C",
      "330C",
      "330C",
      "330C",
      "330C",
      "330C",
      "330C",
      "330C",
      "330C",
      "330C",
      "330C",
      "330C",
      "330C",
      "330C",
      "330C",
      "330C",
      "330C",
      "330C",
      "330C",
      "330C",
      "330C",
      "330C",
      "330C",
      "330C",
      "330C",
      "330C",
      "330C",
      "330C",
      "330C",
      "330C",
      "330C",
      "330C",
      "330C",
      "330C",
      "330C",
      "330C",
      "330C",
      "330C",
      "331",
      "337",
      "344",
      "350C",
      "350C",
      "350C",
      "350C",
      "350C",
      "350C",
      "350C",
      "350C",
      "350C",
      "350C",
      "350C",
      "350C",
      "350C",
      "350C",
      "350C",
      "350C",
      "350C",
      "350C",
      "350C",
      "350C",
      "350C",
      "350C",
      "350C",
      "350C",
      "350C",
      "350C",
      "350C",
      "350C",
      "351C",
      "350C",
      "350C",
      "350C",
      "350C",
      "350C",
      "350C",
      "350C",
      "350C",
      "350C",
      "350C",
      "350C",
      "351C",
      "350C",
      "350C",
      "350C",
      "350C",
      "350C",
      "350C",
      "350C",
      "350C",
      "350C",
      "350C",
      "350C",
      "350C",
      "350C",
      "350C",
      "350C",
      "350C",
      "350C",
      "350C",
      "350C",
      "350C",
      "350C",
      "350C",
      "350C",
      "350C",
      "350C",
      "350C",
      "350C",
      "350C",
      "350C",
      "350C",
      "350C",
      "350C",
      "350C",
      "350C",
      "350C",
      "350C",
      "350C",
      "350C",
      "350C",
      "350C",
      "350C",
      "350C",
      "350C",
      "350C",
      "350C",
      "350C",
      "350C",
      "350C",
      "350C",
      "350C",
      "350C",
      "350C",
      "350C",
      "350C",
      "350C",
      "350C",
      "350C",
      "350C",
      "350C",
      "350C",
      "350C",
      "350C",
      "351C",
      "350C",
      "350",
      "340",
      "334",
      "330C",
      "330C",
      "330C",
      "330C",
      "330C",
      "330C",
      "330C",
      "330C",
      "330C",
      "330C",
      "330C",
      "330",
      "324",
      "309",
      "295",
      "290C",
      "290C",
      "290C",
      "290",
      "290",
      "289",
      "280",
      "269",
      "260",
      "250",
      "231",
      "217",
      "198",
      "192",
      "175",
      "165",
      "158",
      "147",
      "130",
      "122",
      "118",
      "109C",
      "100",
      "096",
      "086",
      "083",
      "067",
      "059",
      "050",
      "041",
      "033",
      "030",
      "027",
      "025",
      "021",
      "020",
      "017",
      "013",
      "010",
      "007",
      "003",
      "110"
    ],
    "swim:geom": "path",
    "swim:speeds": [
      184,
      182,
      206,
      225,
      271,
      275,
      283,
      290,
      328,
      374,
      413,
      421,
      436,
      446,
      451,
      464,
      475,
      479,
      492,
      502,
      510,
      514,
      515,
      519,
      519,
      520,
      520,
      520,
      519,
      520,
      515,
      513,
      515,
      513,
      516,
      523,
      517,
      521,
      517,
      518,
      516,
      517,
      516,
      515,
      514,
      515,
      515,
      516,
      516,
      516,
      516,
      517,
      517,
      516,
      516,
      516,
      516,
      516,
      515,
      514,
      514,
      514,
      514,
      514,
      514,
      515,
      516,
      518,
      519,
      519,
      519,
      518,
      516,
      516,
      518,
      519,
      519,
      517,
      514,
      512,
      511,
      509,
      510,
      509,
      508,
      507,
      507,
      507,
      506,
      506,
      505,
      507,
      511,
      516,
      519,
      518,
      515,
      514,
      516,
      517,
      518,
      517,
      517,
      516,
      515,
      515,
      515,
      516,
      518,
      519,
      521,
      521,
      532,
      522,
      525,
      521,
      518,
      517,
      516,
      515,
      514,
      514,
      513,
      514,
      514,
      514,
      513,
      513,
      513,
      513,
      513,
      513,
      513,
      513,
      514,
      514,
      515,
      515,
      515,
      516,
      517,
      518,
      519,
      520,
      521,
      522,
      523,
      523,
      523,
      522,
      522,
      523,
      524,
      524,
      522,
      525,
      524,
      526,
      526,
      527,
      527,
      527,
      527,
      528,
      528,
      530,
      530,
      531,
      531,
      532,
      532,
      532,
      532,
      532,
      532,
      531,
      531,
      532,
      533,
      533,
      533,
      533,
      533,
      532,
      532,
      532,
      531,
      532,
      532,
      533,
      534,
      528,
      516,
      515,
      514,
      514,
      514,
      512,
      511,
      509,
      508,
      507,
      507,
      508,
      508,
      509,
      510,
      512,
      513,
      515,
      516,
      516,
      516,
      515,
      513,
      512,
      518,
      519,
      534,
      540,
      542,
      542,
      541,
      538,
      534,
      531,
      531,
      530,
      530,
      530,
      530,
      531,
      530,
      530,
      528,
      527,
      526,
      525,
      525,
      521,
      519,
      515,
      513,
      511,
      510,
      508,
      508,
      507,
      506,
      505,
      501,
      497,
      498,
      496,
      497,
      496,
      497,
      496,
      496,
      496,
      496,
      496,
      496,
      497,
      498,
      498,
      499,
      500,
      501,
      502,
      501,
      498,
      497,
      497,
      497,
      497,
      496,
      493,
      490,
      493,
      488,
      478,
      481,
      483,
      482,
      480,
      479,
      482,
      471,
      469,
      466,
      460,
      464,
      467,
      468,
      467,
      466,
      465,
      465,
      463,
      462,
      461,
      461,
      463,
      464,
      465,
      465,
      463,
      461,
      461,
      464,
      465,
      478,
      479,
      474,
      474,
      474,
      474,
      474,
      474,
      475,
      475,
      467,
      457,
      452,
      401,
      390,
      382,
      376,
      365,
      367,
      356,
      348,
      347,
      326,
      325,
      294,
      296,
      290,
      293,
      243,
      242,
      242,
      243,
      251,
      219,
      204,
      167,
      162,
      158,
      141,
      126,
      129,
      129,
      129,
      133
    ],
    "swim:timestamps": [
      1785280298,
      1785280331,
      1785280358,
      1785280391,
      1785280418,
      1785280451,
      1785280511,
      1785280571,
      1785280631,
      1785280691,
      1785280751,
      1785280812,
      1785280872,
      1785280932,
      1785280992,
      1785281052,
      1785281112,
      1785281172,
      1785281292,
      1785281352,
      1785281412,
      1785281472,
      1785281507,
      1785281533,
      1785281593,
      1785281628,
      1785281653,
      1785281688,
      1785281713,
      1785281748,
      1785281773,
      1785281808,
      1785281833,
      1785281868,
      1785281893,
      1785281928,
      1785281953,
      1785281988,
      1785282013,
      1785282048,
      1785282073,
      1785282108,
      1785282133,
      1785282168,
      1785282193,
      1785282228,
      1785282253,
      1785282288,
      1785282314,
      1785282349,
      1785282374,
      1785282409,
      1785282434,
      1785282469,
      1785282494,
      1785282529,
      1785282554,
      1785282589,
      1785282614,
      1785282649,
      1785282674,
      1785282709,
      1785282734,
      1785282769,
      1785282794,
      1785282829,
      1785282854,
      1785282889,
      1785282949,
      1785283009,
      1785283069,
      1785283130,
      1785283250,
      1785283310,
      1785283370,
      1785283430,
      1785283490,
      1785283550,
      1785283610,
      1785283670,
      1785283730,
      1785283790,
      1785283851,
      1785283911,
      1785283971,
      1785284031,
      1785284091,
      1785284151,
      1785284211,
      1785284271,
      1785284331,
      1785284391,
      1785284451,
      1785284511,
      1785284572,
      1785284632,
      1785284692,
      1785284752,
      1785284812,
      1785284872,
      1785284932,
      1785284992,
      1785285052,
      1785285112,
      1785285172,
      1785285232,
      1785285292,
      1785285353,
      1785285413,
      1785285473,
      1785285533,
      1785285593,
      1785285619,
      1785285653,
      1785285679,
      1785285713,
      1785285773,
      1785285799,
      1785285833,
      1785285859,
      1785285893,
      1785285920,
      1785285953,
      1785285980,
      1785286013,
      1785286040,
      1785286074,
      1785286100,
      1785286134,
      1785286160,
      1785286194,
      1785286220,
      1785286254,
      1785286280,
      1785286314,
      1785286340,
      1785286374,
      1785286400,
      1785286434,
      1785286494,
      1785286520,
      1785286580,
      1785286641,
      1785286701,
      1785286761,
      1785286821,
      1785286881,
      1785286941,
      1785287001,
      1785287061,
      1785287121,
      1785287181,
      1785287241,
      1785287361,
      1785287415,
      1785287422,
      1785287475,
      1785287542,
      1785287602,
      1785287662,
      1785287722,
      1785287782,
      1785287842,
      1785287902,
      1785287956,
      1785288022,
      1785288076,
      1785288082,
      1785288136,
      1785288196,
      1785288263,
      1785288323,
      1785288376,
      1785288383,
      1785288436,
      1785288443,
      1785288496,
      1785288689,
      1785288749,
      1785288809,
      1785288869,
      1785288929,
      1785288989,
      1785289049,
      1785289109,
      1785289229,
      1785289290,
      1785289350,
      1785289410,
      1785289470,
      1785289530,
      1785289590,
      1785289773,
      1785289833,
      1785289893,
      1785289954,
      1785290014,
      1785290071,
      1785290131,
      1785290191,
      1785290251,
      1785290371,
      1785290431,
      1785290491,
      1785290611,
      1785290672,
      1785290732,
      1785290792,
      1785290852,
      1785290912,
      1785290972,
      1785291032,
      1785291092,
      1785291152,
      1785291224,
      1785291284,
      1785291336,
      1785291344,
      1785291405,
      1785291465,
      1785291516,
      1785291576,
      1785291585,
      1785291645,
      1785291705,
      1785291765,
      1785291817,
      1785291825,
      1785291885,
      1785291937,
      1785291945,
      1785292005,
      1785292057,
      1785292065,
      1785292126,
      1785292177,
      1785292194,
      1785292237,
      1785292254,
      1785292297,
      1785292314,
      1785292358,
      1785292374,
      1785292418,
      1785292434,
      1785292478,
      1785292495,
      1785292538,
      1785292555,
      1785292598,
      1785292615,
      1785292658,
      1785292675,
      1785292718,
      1785292735,
      1785292778,
      1785292795,
      1785292838,
      1785292855,
      1785292898,
      1785292915,
      1785292975,
      1785293019,
      1785293035,
      1785293079,
      1785293095,
      1785293139,
      1785293155,
      1785293216,
      1785293276,
      1785293336,
      1785293456,
      1785293516,
      1785293576,
      1785293636,
      1785293756,
      1785293816,
      1785293877,
      1785293937,
      1785294057,
      1785294117,
      1785294177,
      1785294237,
      1785294297,
      1785294357,
      1785294417,
      1785294477,
      1785294538,
      1785294598,
      1785294658,
      1785294718,
      1785294778,
      1785294838,
      1785294958,
      1785295018,
      1785295138,
      1785295199,
      1785295319,
      1785295379,
      1785295499,
      1785295559,
      1785295619,
      1785295679,
      1785295739,
      1785295799,
      1785295860,
      1785295920,
      1785295980,
      1785296044,
      1785296100,
      1785296160,
      1785296224,
      1785296284,
      1785296356,
      1785296416,
      1785296476,
      1785296536,
      1785296596,
      1785296656,
      1785296716,
      1785296777,
      1785296837,
      1785296897,
      1785296957,
      1785297017,
      1785297077,
      1785297137,
      1785297153,
      1785297197,
      1785297231,
      1785297257,
      1785297291,
      1785297345,
      1785297377,
      1785297399,
      1785297437,
      1785297477,
      1785297497,
      1785297538,
      1785297557,
      1785297646,
      1785297677,
      1785297706,
      1785297737,
      1785297766,
      1785297826,
      1785297857,
      1785297886,
      1785297917,
      1785297946,
      1785297977,
      1785298006,
      1785298037,
      1785298066,
      1785298098,
      1785298158
    ],
    "wof:geomhash": "8031938dbe1e35f86cecaa70a3d1c4a4",
    "wof:id": 2032008961,
    "wof:repo": "sfomuseum-data-flights-2026-07"
  },
  "bbox": [
    -122.38333333333334,
    37.65,
    -70.93333333333334,
    43.5375
  ],
  "geometry": {"coordinates":[[-122.38333333333334,37.65],[-122.35833333333333,37.66722222222222],[-122.31666666666666,37.68333333333333],[-122.2911111111111,37.69083333333333],[-122.25,37.7],[-122.20833333333334,37.725],[-122.15111111111112,37.78805555555555],[-122.0911111111111,37.85444444444445],[-122.02666666666667,37.925],[-121.95222222222222,38.00666666666667],[-121.86777777777777,38.09916666666667],[-121.7761111111111,38.19944444444444],[-121.6863888888889,38.29722222222222],[-121.59222222222222,38.39972222222222],[-121.47722222222222,38.48861111111111],[-121.3475,38.568333333333335],[-121.2325,38.638333333333335],[-121.09555555555555,38.72166666666667],[-120.81805555555555,38.88861111111111],[-120.67527777777778,38.973888888888894],[-120.53138888888888,39.05972222222222],[-120.38333333333334,39.14694444444444],[-120.29722222222222,39.193888888888885],[-120.22666666666667,39.223888888888894],[-120.06666666666666,39.29277777777778],[-119.96944444444445,39.333333333333336],[-119.90138888888889,39.363055555555555],[-119.80611111111111,39.40333333333333],[-119.73777777777778,39.4325],[-119.64361111111111,39.472500000000004],[-119.57777777777777,39.5],[-119.48222222222222,39.540277777777774],[-119.41444444444446,39.56861111111112],[-119.3175,39.60861111111111],[-119.24777777777778,39.63777777777778],[-119.15166666666667,39.67805555555555],[-119.08277777777778,39.70638888888889],[-118.98388888888888,39.7475],[-118.91694444444445,39.775],[-118.81861111111111,39.81527777777777],[-118.75,39.843333333333334],[-118.65277777777779,39.88333333333333],[-118.58555555555554,39.910555555555554],[-118.49055555555556,39.94916666666666],[-118.41916666666667,39.97805555555556],[-118.32249999999999,40.01722222222222],[-118.25416666666666,40.04472222222222],[-118.16083333333334,40.08222222222223],[-118.08888888888889,40.111111111111114],[-117.99694444444445,40.147777777777776],[-117.9225,40.177499999999995],[-117.82916666666667,40.214444444444446],[-117.7538888888889,40.244166666666665],[-117.66194444444444,40.28055555555555],[-117.59222222222222,40.30833333333333],[-117.4961111111111,40.346111111111114],[-117.42583333333334,40.373333333333335],[-117.3286111111111,40.41166666666666],[-117.2575,40.439722222222215],[-117.1613888888889,40.4775],[-117.08972222222222,40.50555555555555],[-116.98944444444444,40.54472222222222],[-116.91972222222223,40.57194444444445],[-116.82027777777778,40.61083333333333],[-116.74777777777778,40.638888888888886],[-116.64944444444446,40.676944444444445],[-116.57833333333333,40.70444444444445],[-116.47972222222222,40.742222222222225],[-116.30749999999999,40.808055555555555],[-116.13722222222223,40.87305555555555],[-115.96805555555555,40.93694444444444],[-115.79694444444445,41.00111111111111],[-115.4588888888889,41.12694444444445],[-115.2863888888889,41.19083333333333],[-115.11611111111111,41.253055555555555],[-114.94250000000001,41.31666666666667],[-114.76888888888888,41.379444444444445],[-114.59861111111111,41.44083333333333],[-114.42722222222223,41.50222222222222],[-114.25805555555556,41.5625],[-114.08749999999999,41.623333333333335],[-113.91777777777779,41.683055555555555],[-113.7461111111111,41.74305555555556],[-113.57027777777778,41.79222222222222],[-113.3863888888889,41.83111111111111],[-113.205,41.87],[-113.02722222222222,41.907777777777774],[-112.84805555555555,41.94583333333333],[-112.65944444444445,41.976111111111116],[-112.47416666666666,42.00194444444445],[-112.28805555555556,42.03],[-112.11416666666666,42.08722222222222],[-111.94472222222223,42.151944444444446],[-111.7713888888889,42.21805555555556],[-111.59861111111111,42.28388888888889],[-111.42555555555556,42.34916666666667],[-111.25277777777778,42.41416666666667],[-111.0911111111111,42.474444444444444],[-110.915,42.53972222222222],[-110.73222222222222,42.60722222222223],[-110.55805555555555,42.67111111111111],[-110.39555555555556,42.73027777777778],[-110.21944444444445,42.79388888888889],[-110.04555555555555,42.85638888888889],[-109.8711111111111,42.91888888888889],[-109.69083333333333,42.98305555555556],[-109.51694444444445,43.04416666666666],[-109.3386111111111,43.106944444444444],[-109.16250000000001,43.168055555555554],[-108.98194444444445,43.230555555555554],[-108.80361111111111,43.29194444444444],[-108.62222222222222,43.35388888888889],[-108.55305555555556,43.3775],[-108.44388888888889,43.41416666666667],[-108.36916666666666,43.43388888888889],[-108.25472222222223,43.45416666666667],[-108.05888888888889,43.46416666666667],[-107.98027777777779,43.46472222222223],[-107.86333333333333,43.46527777777778],[-107.78583333333333,43.46555555555556],[-107.66805555555555,43.465833333333336],[-107.55027777777778,43.46611111111111],[-107.47194444444445,43.465833333333336],[-107.3561111111111,43.465833333333336],[-107.27694444444444,43.46555555555556],[-107.16222222222223,43.46527777777778],[-107.08333333333333,43.465],[-106.96444444444445,43.464444444444446],[-106.88611111111112,43.46416666666667],[-106.80499999999999,43.46361111111111],[-106.68083333333334,43.46277777777778],[-106.60305555555556,43.46194444444445],[-106.4863888888889,43.461111111111116],[-106.4075,43.46055555555556],[-106.28833333333333,43.45916666666667],[-106.21055555555556,43.458333333333336],[-106.09027777777777,43.456944444444446],[-106.01472222222222,43.45583333333334],[-105.89250000000001,43.45416666666667],[-105.69638888888889,43.45111111111111],[-105.61666666666666,43.45],[-105.41805555555555,43.446666666666665],[-105.22111111111111,43.44277777777778],[-105.02194444444444,43.43861111111111],[-104.82111111111111,43.43416666666666],[-104.62055555555555,43.42944444444444],[-104.41944444444445,43.424166666666665],[-104.21916666666667,43.41861111111111],[-104.01777777777778,43.4125],[-103.81861111111111,43.406388888888884],[-103.62055555555555,43.39972222222222],[-103.42111111111112,43.39277777777778],[-103.21888888888888,43.38527777777778],[-102.82055555555556,43.36972222222222],[-102.63111111111111,43.361666666666665],[-102.62083333333332,43.36138888888889],[-102.42944444444444,43.35305555555556],[-102.21861111111112,43.343611111111116],[-102.03111111111112,43.334722222222226],[-101.81861111111111,43.324444444444445],[-101.62805555555555,43.315],[-101.42916666666667,43.30444444444444],[-101.23138888888889,43.29361111111111],[-101.03222222222222,43.2825],[-100.8286111111111,43.270833333333336],[-100.59083333333332,43.256388888888885],[-100.4263888888889,43.24638888888889],[-100.38777777777779,43.24388888888889],[-100.22611111111111,43.23388888888889],[-100.02444444444444,43.22083333333334],[-99.78444444444445,43.20472222222222],[-99.58333333333333,43.19083333333333],[-99.42333333333333,43.17972222222222],[-99.38305555555554,43.17666666666666],[-99.22111111111111,43.165277777777774],[-99.1825,43.1625],[-99.02305555555556,43.150555555555556],[-98.35583333333332,43.09916666666667],[-98.1563888888889,43.08305555555556],[-97.95666666666666,43.06638888888889],[-97.75666666666666,43.04944444444444],[-97.55722222222222,43.032222222222224],[-97.35694444444444,43.01444444444444],[-97.15833333333335,42.99638888888889],[-96.95722222222223,42.97777777777778],[-96.56277777777777,42.940555555555555],[-96.36055555555555,42.920833333333334],[-96.16472222222222,42.901666666666664],[-95.96666666666667,42.88138888888889],[-95.76722222222222,42.86083333333333],[-95.56583333333333,42.83972222222222],[-95.36916666666666,42.82944444444445],[-94.80694444444444,42.913888888888884],[-94.61749999999999,42.94166666666666],[-94.42722222222223,42.96888888888889],[-94.23611111111111,42.99666666666667],[-94.0475,43.02361111111111],[-93.85499999999999,43.051111111111105],[-93.665,43.07777777777778],[-93.47666666666667,43.103611111111114],[-93.28777777777778,43.129444444444445],[-92.90722222222223,43.18055555555555],[-92.7175,43.205555555555556],[-92.5275,43.23027777777778],[-92.14361111111111,43.278888888888886],[-91.95166666666667,43.30277777777778],[-91.7575,43.32666666666667],[-91.56166666666667,43.35027777777778],[-91.36888888888888,43.37305555555555],[-91.17027777777778,43.396388888888886],[-90.97722222222222,43.41861111111111],[-90.78138888888888,43.44083333333333],[-90.585,43.46277777777778],[-90.39055555555557,43.48416666666667],[-90.19888888888889,43.505],[-89.98944444444444,43.52722222222222],[-89.79666666666667,43.5375],[-89.78999999999999,43.5375],[-89.5911111111111,43.521388888888886],[-89.3863888888889,43.486111111111114],[-89.19250000000001,43.45277777777778],[-88.99111111111111,43.4175],[-88.94888888888889,43.41],[-88.75055555555555,43.374722222222225],[-88.55749999999999,43.34],[-88.36583333333333,43.305277777777775],[-88.21888888888888,43.27833333333333],[-88.1763888888889,43.27055555555555],[-87.9825,43.23444444444444],[-87.82944444444443,43.20583333333334],[-87.78666666666666,43.198055555555555],[-87.59305555555555,43.16138888888889],[-87.44250000000001,43.132777777777775],[-87.39750000000001,43.12416666666667],[-87.18611111111112,43.083333333333336],[-87.03472222222221,43.05361111111111],[-86.99722222222222,43.04666666666667],[-86.84472222222222,43.01611111111111],[-86.80722222222222,43.00805555555556],[-86.65472222222223,42.978611111111114],[-86.61916666666666,42.970555555555556],[-86.46861111111112,42.94138888888889],[-86.43444444444445,42.933611111111105],[-86.28416666666666,42.90416666666667],[-86.25111111111111,42.89722222222222],[-86.1061111111111,42.8675],[-86.07722222222222,42.861666666666665],[-85.92611111111111,42.830555555555556],[-85.85333333333332,42.815555555555555],[-85.74416666666667,42.795833333333334],[-85.67194444444445,42.790277777777774],[-85.55888888888889,42.78916666666667],[-85.485,42.788333333333334],[-85.3711111111111,42.786944444444444],[-85.29861111111111,42.78611111111111],[-85.18527777777778,42.78472222222222],[-85.11194444444443,42.78388888888889],[-84.99777777777778,42.78194444444444],[-84.92500000000001,42.780833333333334],[-84.81055555555555,42.778888888888886],[-84.73861111111111,42.77777777777778],[-84.55333333333333,42.77472222222222],[-84.43777777777778,42.7725],[-84.36361111111111,42.770833333333336],[-84.25277777777778,42.76888888888889],[-84.2,42.76777777777777],[-84.06055555555555,42.76444444444444],[-84.01194444444444,42.763333333333335],[-83.82166666666666,42.75861111111111],[-83.6275,42.75388888888889],[-83.43777777777778,42.74861111111111],[-83.0611111111111,42.73722222222222],[-82.87194444444444,42.73111111111111],[-82.68472222222222,42.725],[-82.49833333333333,42.718333333333334],[-82.12166666666666,42.70388888888889],[-81.9363888888889,42.69638888888888],[-81.73083333333334,42.6875],[-81.54805555555555,42.67972222222222],[-81.17555555555556,42.670833333333334],[-80.99416666666667,42.67805555555555],[-80.81305555555555,42.68527777777778],[-80.63138888888888,42.692499999999995],[-80.45,42.69888888888889],[-80.26833333333333,42.70527777777778],[-80.08777777777777,42.711666666666666],[-79.9063888888889,42.7175],[-79.72500000000001,42.723055555555554],[-79.54638888888888,42.72805555555556],[-79.37055555555555,42.73305555555556],[-79.19611111111111,42.737500000000004],[-79.02388888888889,42.74166666666667],[-78.84972222222221,42.74583333333334],[-78.49388888888889,42.75277777777778],[-78.31916666666666,42.75611111111111],[-77.96583333333334,42.76166666666666],[-77.78833333333333,42.76416666666667],[-77.46444444444445,42.768055555555556],[-77.28833333333333,42.76972222222222],[-76.93777777777778,42.77222222222222],[-76.76444444444445,42.77305555555555],[-76.58194444444445,42.77361111111111],[-76.40833333333335,42.77388888888889],[-76.23333333333333,42.77388888888889],[-76.05722222222222,42.77388888888889],[-75.88194444444444,42.77333333333333],[-75.7088888888889,42.7725],[-75.53583333333333,42.771388888888886],[-75.33055555555555,42.769999999999996],[-75.19027777777778,42.76861111111111],[-75.01611111111112,42.766666666666666],[-74.80638888888889,42.76416666666667],[-74.62888888888888,42.76166666666666],[-74.44944444444445,42.75888888888889],[-74.23555555555555,42.75527777777778],[-74.05777777777777,42.75194444444445],[-73.87222222222222,42.748333333333335],[-73.69194444444445,42.74611111111111],[-73.5125,42.745],[-73.33166666666666,42.74305555555556],[-73.15166666666667,42.74111111111111],[-72.97194444444445,42.72416666666667],[-72.79833333333333,42.70416666666667],[-72.62972222222221,42.68444444444444],[-72.47638888888889,42.66555555555556],[-72.30083333333333,42.64416666666666],[-72.15916666666668,42.62777777777778],[-72.11666666666666,42.61666666666667],[-72.01916666666666,42.61138888888889],[-71.93333333333334,42.6],[-71.88388888888889,42.59444444444445],[-71.8,42.583333333333336],[-71.68333333333334,42.56666666666667],[-71.62694444444443,42.55583333333333],[-71.58333333333333,42.55],[-71.50861111111111,42.533055555555556],[-71.43333333333334,42.516666666666666],[-71.39972222222222,42.510555555555555],[-71.31666666666666,42.5],[-71.29444444444444,42.48916666666667],[-71.15,42.46666666666667],[-71.11555555555555,42.47638888888889],[-71.06666666666666,42.5],[-71.04972222222221,42.51916666666666],[-71.03333333333333,42.55],[-70.95,42.56666666666667],[-70.9375,42.53916666666667],[-70.93333333333334,42.516666666666666],[-70.94333333333334,42.49277777777778],[-70.95,42.46666666666667],[-70.96222222222222,42.453611111111115],[-70.96666666666667,42.43333333333333],[-70.97833333333334,42.419999999999995],[-70.98333333333333,42.4],[-70.995,42.38583333333333],[-71.0111111111111,42.35277777777778]],"type":"LineString"}
}
