{
  "id": 2032050283,
  "type": "Feature",
  "properties": {
    "geom:area": 0,
    "geom:bbox": "-123.461160,37.267110,-122.094550,37.609230",
    "geom:latitude": 37.384912850885485,
    "geom:longitude": -122.67397784289713,
    "src:alt_label": "swim-approach",
    "src:geom": "swim",
    "swim:elevations": [
      5463,
      5346,
      4941,
      4402,
      4236,
      3597,
      3270,
      3169,
      3048,
      3048,
      3048,
      3048,
      3048,
      2837,
      2594,
      2467,
      2439,
      2438,
      2438,
      2438,
      2158,
      2047,
      1915,
      1658,
      1538,
      1318,
      1152,
      973,
      945,
      945,
      773,
      726,
      533,
      359,
      337,
      300,
      280,
      73
    ],
    "swim:geom": "approach",
    "swim:timestamps": [
      1785505667,
      1785505680,
      1785505718,
      1785505767,
      1785505782,
      1785505845,
      1785505879,
      1785505899,
      1785505934,
      1785505968,
      1785505984,
      1785506034,
      1785506041,
      1785506090,
      1785506122,
      1785506144,
      1785506168,
      1785506216,
      1785506245,
      1785506257,
      1785506306,
      1785506322,
      1785506349,
      1785506389,
      1785506405,
      1785506440,
      1785506473,
      1785506504,
      1785506531,
      1785506541,
      1785506578,
      1785506586,
      1785506625,
      1785506667,
      1785506671,
      1785506680,
      1785506684,
      1785506739
    ],
    "wof:geomhash": "eb1ac23a0cd5480bc3ae227524f15546",
    "wof:id": 2032050283,
    "wof:repo": "sfomuseum-data-flights-2026-07"
  },
  "bbox": [
    -123.46116,
    37.26711,
    -122.09455,
    37.60923
  ],
  "geometry": {"coordinates":[[-123.46116,37.44333],[-123.43012,37.43376],[-123.34672,37.40814],[-123.23864,37.37461],[-123.20464,37.36415],[-123.07217,37.32306],[-123.00203,37.30102],[-122.96178,37.2884],[-122.8933,37.26768],[-122.82332,37.26711],[-122.78962,37.27455],[-122.68822,37.29846],[-122.67599,37.30139],[-122.58979,37.32164],[-122.53627,37.33389],[-122.50095,37.34198],[-122.45975,37.3514],[-122.37975,37.36986],[-122.33182,37.38089],[-122.31154,37.38554],[-122.23105,37.404],[-122.2064,37.40965],[-122.16601,37.41891],[-122.11177,37.43404],[-122.09831,37.44762],[-122.09455,37.47984],[-122.11689,37.5042],[-122.14196,37.52308],[-122.16822,37.53389],[-122.17719,37.53767],[-122.21251,37.5527],[-122.22089,37.55602],[-122.25753,37.57167],[-122.29507,37.58742],[-122.2982,37.58873],[-122.30476,37.59155],[-122.30776,37.59287],[-122.34688,37.60923]],"type":"LineString"}
}
