{
  "id": 2031969367,
  "type": "Feature",
  "properties": {
    "geom:area": 0,
    "geom:bbox": "-122.408056,37.636667,-104.684167,40.848056",
    "geom:latitude": 40.155366374877154,
    "geom:longitude": -113.05062258496747,
    "src:alt_label": "swim-path",
    "src:geom": "swim",
    "swim:altitudes": [
      "016",
      "030",
      "036",
      "051",
      "074",
      "096",
      "111",
      "122",
      "137",
      "154",
      "170",
      "185",
      "200",
      "214",
      "226",
      "238",
      "250",
      "261",
      "272",
      "286",
      "297",
      "302",
      "309",
      "316",
      "324",
      "328",
      "334",
      "338",
      "346",
      "350C",
      "350C",
      "350C",
      "350C",
      "350C",
      "350C",
      "350C",
      "350C",
      "350C",
      "350C",
      "350C",
      "350C",
      "350C",
      "350C",
      "350C",
      "350C",
      "350C",
      "350C",
      "350C",
      "350C",
      "350C",
      "350C",
      "350C",
      "350C",
      "350C",
      "350C",
      "350C",
      "350C",
      "350C",
      "350C",
      "350C",
      "350C",
      "350C",
      "350C",
      "350C",
      "350C",
      "350C",
      "350C",
      "350C",
      "350C",
      "350C",
      "350C",
      "350C",
      "350C",
      "350C",
      "350C",
      "350C",
      "350C",
      "350C",
      "350C",
      "350C",
      "350C",
      "350C",
      "350C",
      "350C",
      "350C",
      "350C",
      "350C",
      "350C",
      "350C",
      "350C",
      "350C",
      "350C",
      "350C",
      "350C",
      "350C",
      "350C",
      "350C",
      "350C",
      "350C",
      "350C",
      "350C",
      "350C",
      "350C",
      "350C",
      "350C",
      "350",
      "322",
      "302",
      "287",
      "270",
      "252",
      "234",
      "200",
      "184",
      "161",
      "146",
      "136",
      "136",
      "132",
      "124",
      "110",
      "100",
      "094",
      "082",
      "073",
      "063",
      "055",
      "054",
      "074",
      "079",
      "088",
      "096",
      "112",
      "115",
      "131",
      "171",
      "173",
      "192",
      "211",
      "242",
      "252",
      "261",
      "269",
      "278",
      "281",
      "282",
      "285",
      "293",
      "300C",
      "300C",
      "300C",
      "307",
      "310",
      "320",
      "322",
      "331",
      "340",
      "352",
      "360C",
      "360C",
      "360C",
      "360C",
      "360C",
      "360C",
      "360C",
      "360C",
      "360C",
      "360C",
      "360C",
      "360C",
      "360C",
      "361C",
      "361C",
      "361C",
      "360C",
      "360C",
      "360C",
      "360C",
      "360C",
      "360C",
      "360C",
      "360C",
      "360C",
      "360C",
      "360C",
      "361C",
      "360C",
      "360C",
      "360C",
      "360C",
      "361C",
      "360C",
      "360C",
      "360C",
      "360C",
      "361C",
      "361C",
      "360C",
      "360C",
      "360C",
      "360C",
      "360C",
      "360C",
      "360C",
      "360C",
      "361C",
      "361C",
      "361C",
      "360C",
      "360C",
      "360C",
      "360C",
      "360C",
      "361C",
      "361C",
      "360C",
      "360C",
      "360C",
      "358",
      "348",
      "338",
      "330",
      "328",
      "318",
      "308",
      "301",
      "301",
      "300",
      "300",
      "295",
      "279",
      "264",
      "260",
      "239",
      "223",
      "203",
      "198",
      "179",
      "166",
      "162",
      "147",
      "144",
      "130",
      "130",
      "130",
      "130",
      "130",
      "129",
      "122",
      "118",
      "109",
      "105",
      "100",
      "093",
      "083",
      "080",
      "071",
      "062",
      "056",
      "049",
      "047"
    ],
    "swim:geom": "path",
    "swim:speeds": [
      168,
      186,
      198,
      257,
      289,
      304,
      348,
      390,
      418,
      428,
      442,
      457,
      467,
      475,
      486,
      497,
      506,
      513,
      520,
      521,
      521,
      520,
      522,
      522,
      516,
      519,
      515,
      518,
      520,
      520,
      519,
      525,
      527,
      533,
      535,
      532,
      535,
      533,
      533,
      530,
      529,
      527,
      525,
      524,
      524,
      524,
      525,
      525,
      525,
      524,
      525,
      525,
      526,
      526,
      526,
      525,
      525,
      524,
      524,
      523,
      522,
      522,
      523,
      523,
      524,
      525,
      525,
      524,
      525,
      526,
      527,
      528,
      528,
      529,
      529,
      530,
      520,
      519,
      520,
      520,
      526,
      521,
      524,
      521,
      523,
      522,
      522,
      521,
      520,
      519,
      519,
      518,
      518,
      518,
      517,
      516,
      516,
      515,
      515,
      515,
      515,
      514,
      515,
      515,
      515,
      514,
      501,
      485,
      472,
      455,
      441,
      427,
      402,
      388,
      335,
      330,
      305,
      308,
      267,
      253,
      247,
      204,
      205,
      205,
      196,
      168,
      166,
      80,
      184,
      257,
      293,
      292,
      295,
      317,
      347,
      355,
      357,
      359,
      371,
      379,
      387,
      391,
      386,
      381,
      385,
      408,
      417,
      429,
      439,
      445,
      450,
      458,
      459,
      457,
      451,
      448,
      448,
      439,
      436,
      435,
      435,
      437,
      438,
      437,
      436,
      434,
      434,
      433,
      431,
      431,
      432,
      433,
      433,
      433,
      432,
      431,
      430,
      429,
      428,
      427,
      427,
      424,
      424,
      424,
      424,
      425,
      424,
      424,
      425,
      425,
      426,
      425,
      424,
      422,
      422,
      423,
      423,
      422,
      417,
      415,
      411,
      408,
      409,
      411,
      411,
      412,
      413,
      412,
      413,
      415,
      419,
      417,
      421,
      424,
      424,
      420,
      417,
      419,
      418,
      417,
      421,
      426,
      427,
      429,
      431,
      427,
      424,
      423,
      422,
      423,
      409,
      384,
      382,
      376,
      371,
      365,
      363,
      351,
      341,
      340,
      336,
      333,
      322,
      314,
      316,
      316,
      308,
      298,
      287,
      288,
      260,
      259,
      256,
      252,
      220,
      220,
      188,
      156,
      149,
      153,
      150
    ],
    "swim:timestamps": [
      1785004909,
      1785004946,
      1785004969,
      1785005029,
      1785005089,
      1785005149,
      1785005210,
      1785005270,
      1785005330,
      1785005390,
      1785005450,
      1785005510,
      1785005570,
      1785005630,
      1785005690,
      1785005750,
      1785005810,
      1785005870,
      1785005931,
      1785005991,
      1785006051,
      1785006070,
      1785006111,
      1785006130,
      1785006171,
      1785006190,
      1785006250,
      1785006291,
      1785006351,
      1785006411,
      1785006430,
      1785006471,
      1785006491,
      1785006551,
      1785006611,
      1785006652,
      1785006671,
      1785006712,
      1785006731,
      1785006772,
      1785006791,
      1785006832,
      1785006892,
      1785006952,
      1785006971,
      1785007012,
      1785007031,
      1785007072,
      1785007091,
      1785007132,
      1785007151,
      1785007192,
      1785007252,
      1785007272,
      1785007332,
      1785007373,
      1785007392,
      1785007433,
      1785007452,
      1785007572,
      1785007692,
      1785007812,
      1785007872,
      1785007932,
      1785007993,
      1785008053,
      1785008113,
      1785008173,
      1785008293,
      1785008353,
      1785008473,
      1785008533,
      1785008593,
      1785008653,
      1785008713,
      1785008774,
      1785008894,
      1785009074,
      1785009134,
      1785009194,
      1785009220,
      1785009314,
      1785009340,
      1785009374,
      1785009400,
      1785009434,
      1785009461,
      1785009521,
      1785009555,
      1785009641,
      1785009675,
      1785009701,
      1785009761,
      1785009795,
      1785009881,
      1785009915,
      1785009941,
      1785009975,
      1785010001,
      1785010035,
      1785010061,
      1785010095,
      1785010121,
      1785010182,
      1785010242,
      1785010302,
      1785010422,
      1785010482,
      1785010542,
      1785010602,
      1785010662,
      1785010722,
      1785010842,
      1785010902,
      1785011023,
      1785011083,
      1785011137,
      1785011143,
      1785011199,
      1785011259,
      1785011319,
      1785011443,
      1785011503,
      1785011563,
      1785011623,
      1785011684,
      1785011744,
      1785011804,
      1785018565,
      1785018624,
      1785018665,
      1785018685,
      1785018725,
      1785018745,
      1785018803,
      1785018918,
      1785018925,
      1785018978,
      1785019038,
      1785019158,
      1785019218,
      1785019264,
      1785019278,
      1785019338,
      1785019384,
      1785019398,
      1785019444,
      1785019504,
      1785019564,
      1785019579,
      1785019624,
      1785019684,
      1785019699,
      1785019744,
      1785019759,
      1785019819,
      1785019864,
      1785019939,
      1785019999,
      1785020045,
      1785020059,
      1785020105,
      1785020119,
      1785020165,
      1785020179,
      1785020239,
      1785020285,
      1785020300,
      1785020360,
      1785020420,
      1785020465,
      1785020525,
      1785020600,
      1785020645,
      1785020660,
      1785020705,
      1785020720,
      1785020766,
      1785020826,
      1785020886,
      1785021066,
      1785021186,
      1785021246,
      1785021306,
      1785021366,
      1785021426,
      1785021547,
      1785021607,
      1785021667,
      1785021727,
      1785021787,
      1785021967,
      1785022027,
      1785022087,
      1785022147,
      1785022207,
      1785022268,
      1785022328,
      1785022448,
      1785022508,
      1785022568,
      1785022632,
      1785022688,
      1785022748,
      1785022812,
      1785022868,
      1785022928,
      1785022992,
      1785023049,
      1785023112,
      1785023121,
      1785023172,
      1785023181,
      1785023241,
      1785023301,
      1785023361,
      1785023413,
      1785023481,
      1785023541,
      1785023601,
      1785023661,
      1785023713,
      1785023721,
      1785023782,
      1785023842,
      1785023893,
      1785023902,
      1785023953,
      1785023962,
      1785024022,
      1785024082,
      1785024133,
      1785024142,
      1785024202,
      1785024254,
      1785024314,
      1785024322,
      1785024382,
      1785024434,
      1785024442,
      1785024494,
      1785024503,
      1785024563,
      1785024592,
      1785024614,
      1785024623,
      1785024653,
      1785024683,
      1785024713,
      1785024734,
      1785024772,
      1785024794,
      1785024854,
      1785024914,
      1785024952,
      1785024974,
      1785025034,
      1785025094,
      1785025138,
      1785025193,
      1785025215
    ],
    "wof:geomhash": "eddb9d8ffc97d3ca95d539106022e978",
    "wof:id": 2031969367,
    "wof:repo": "sfomuseum-data-flights-2026-07"
  },
  "bbox": [
    -122.40805555555556,
    37.63666666666666,
    -104.68416666666667,
    40.84805555555556
  ],
  "geometry": {"coordinates":[[-122.40805555555556,37.63666666666666],[-122.4,37.666666666666664],[-122.38055555555555,37.674166666666665],[-122.30027777777778,37.69499999999999],[-122.2088888888889,37.72555555555556],[-122.14722222222223,37.79277777777778],[-122.07916666666667,37.867777777777775],[-121.98277777777778,37.93833333333333],[-121.87138888888889,38.013888888888886],[-121.76388888888889,38.08638888888889],[-121.64583333333334,38.16555555555556],[-121.52388888888889,38.24722222222222],[-121.39694444444446,38.33111111111111],[-121.26694444444445,38.4125],[-121.13444444444445,38.493611111111115],[-120.99944444444445,38.57694444444445],[-120.8586111111111,38.663333333333334],[-120.71444444444445,38.751666666666665],[-120.5675,38.84111111111111],[-120.42166666666667,38.92916666666667],[-120.26972222222223,39.01416666666667],[-120.20416666666667,39.04],[-120.09972222222221,39.074444444444445],[-120.03138888888888,39.094722222222224],[-119.92861111111111,39.12972222222222],[-119.86222222222221,39.14944444444444],[-119.69194444444445,39.202222222222225],[-119.58777777777777,39.23722222222222],[-119.41222222222223,39.291666666666664],[-119.24138888888889,39.34444444444445],[-119.17277777777778,39.36472222222223],[-119.06416666666667,39.399166666666666],[-118.995,39.42055555555555],[-118.80749999999999,39.477222222222224],[-118.62527777777777,39.5325],[-118.51666666666667,39.565555555555555],[-118.44805555555556,39.58638888888889],[-118.33749999999999,39.62],[-118.26861111111111,39.638333333333335],[-118.15305555555557,39.663888888888884],[-118.08388888888888,39.67944444444444],[-117.97333333333333,39.70444444444445],[-117.79388888888889,39.74583333333334],[-117.62194444444444,39.78333333333333],[-117.54222222222222,39.800555555555555],[-117.44111111111111,39.822500000000005],[-117.36972222222222,39.83777777777778],[-117.25972222222222,39.86138888888889],[-117.19,39.87638888888889],[-117.07888888888888,39.89972222222222],[-117.00777777777778,39.915],[-116.89583333333334,39.93833333333333],[-116.71277777777777,39.97666666666667],[-116.64527777777778,39.99055555555556],[-116.46416666666667,40.028055555555554],[-116.31666666666666,40.058055555555555],[-116.2825,40.065],[-116.13055555555555,40.09583333333334],[-116.09888888888888,40.102222222222224],[-115.73555555555555,40.175],[-115.36666666666666,40.24722222222222],[-115.00111111111111,40.31777777777778],[-114.81666666666666,40.35277777777778],[-114.63111111111111,40.38777777777778],[-114.44583333333334,40.42222222222222],[-114.25972222222222,40.45666666666667],[-114.07555555555555,40.49027777777778],[-113.88861111111112,40.524166666666666],[-113.51833333333333,40.59027777777778],[-113.30166666666666,40.628055555555555],[-112.92527777777778,40.69333333333333],[-112.73472222222222,40.72555555555556],[-112.54694444444445,40.757222222222225],[-112.36,40.788333333333334],[-112.16638888888889,40.82027777777778],[-111.97305555555556,40.84805555555556],[-111.60555555555555,40.82972222222222],[-111.03444444444445,40.77194444444444],[-110.84416666666667,40.761944444444445],[-110.65583333333333,40.753055555555555],[-110.57972222222222,40.748333333333335],[-110.2761111111111,40.736666666666665],[-110.20083333333334,40.73305555555556],[-110.10305555555556,40.728611111111114],[-110.00944444444444,40.72416666666667],[-109.91194444444444,40.719166666666666],[-109.82249999999999,40.71472222222223],[-109.63333333333334,40.705000000000005],[-109.53388888888888,40.69972222222222],[-109.26861111111111,40.68527777777778],[-109.15611111111112,40.67916666666667],[-109.08,40.67472222222222],[-108.8913888888889,40.66305555555555],[-108.77027777777778,40.655],[-108.51361111111112,40.63777777777778],[-108.40972222222223,40.630833333333335],[-108.32555555555555,40.625],[-108.19833333333334,40.61611111111111],[-108.14083333333333,40.61194444444445],[-108.025,40.60388888888889],[-107.95333333333333,40.59861111111111],[-107.83805555555556,40.59027777777778],[-107.7725,40.58527777777778],[-107.5525,40.56888888888889],[-107.36666666666666,40.55472222222222],[-107.18055555555556,40.540277777777774],[-106.81305555555555,40.51083333333333],[-106.63583333333334,40.49583333333334],[-106.48527777777778,40.483333333333334],[-106.31972222222223,40.468333333333334],[-106.16027777777778,40.453611111111115],[-105.99583333333334,40.43944444444444],[-105.70277777777778,40.39944444444444],[-105.56388888888888,40.37694444444445],[-105.30749999999999,40.33694444444445],[-105.19055555555556,40.32166666666667],[-105.08333333333333,40.3],[-105.07527777777777,40.30583333333333],[-104.98333333333333,40.3],[-104.9,40.28333333333333],[-104.81666666666666,40.25],[-104.69583333333334,40.161944444444444],[-104.68416666666667,40.10666666666667],[-104.685,40.04888888888889],[-104.68583333333333,39.995],[-104.68611111111112,39.94611111111111],[-104.68666666666667,39.900555555555556],[-104.68555555555555,39.8725],[-104.76666666666667,39.86666666666667],[-104.83333333333333,39.9],[-104.89777777777779,39.92805555555555],[-104.93333333333334,39.93333333333333],[-105.00305555555556,39.93444444444444],[-105.03333333333333,39.93333333333333],[-105.16666666666667,39.93333333333333],[-105.405,39.95388888888889],[-105.41666666666667,39.95],[-105.53416666666666,39.96361111111111],[-105.67055555555557,39.974444444444444],[-105.93472222222222,39.969722222222224],[-106.07249999999999,39.97972222222222],[-106.17083333333333,39.95888888888889],[-106.20583333333333,39.94555555555555],[-106.3275,39.900555555555556],[-106.42,39.865833333333335],[-106.46083333333334,39.85305555555556],[-106.56833333333333,39.85138888888889],[-106.72,39.87972222222222],[-106.87638888888888,39.906666666666666],[-106.92027777777778,39.91361111111111],[-107.03694444444444,39.93222222222222],[-107.19972222222222,39.961111111111116],[-107.23222222222222,39.96611111111111],[-107.35944444444443,39.98694444444445],[-107.39,39.992222222222225],[-107.54388888888889,40.0175],[-107.6725,40.03916666666667],[-107.85888888888888,40.06888888888889],[-108.01083333333334,40.093333333333334],[-108.13555555555556,40.113055555555555],[-108.16777777777779,40.11805555555556],[-108.30361111111111,40.13972222222222],[-108.32083333333333,40.1425],[-108.44277777777778,40.16111111111111],[-108.48944444444444,40.16833333333333],[-108.65333333333334,40.19361111111111],[-108.75361111111111,40.20916666666667],[-108.79388888888889,40.215],[-108.95861111111111,40.24027777777778],[-109.11416666666666,40.263333333333335],[-109.20611111111111,40.27722222222222],[-109.3611111111111,40.3],[-109.57527777777777,40.331388888888895],[-109.66861111111112,40.345],[-109.72944444444444,40.353611111111114],[-109.82027777777778,40.36666666666667],[-109.88027777777778,40.375],[-109.97305555555556,40.388333333333335],[-110.15694444444445,40.41416666666667],[-110.30749999999999,40.434999999999995],[-110.75361111111111,40.49583333333334],[-111.06944444444444,40.53777777777778],[-111.22222222222223,40.5575],[-111.37555555555555,40.5775],[-111.52888888888889,40.596944444444446],[-111.68194444444445,40.61611111111111],[-111.99055555555556,40.654444444444444],[-112.13277777777778,40.67194444444444],[-112.28611111111111,40.69027777777777],[-112.44166666666668,40.70916666666667],[-112.59722222222221,40.72],[-113.06083333333333,40.723888888888894],[-113.21722222222222,40.724722222222226],[-113.36972222222222,40.72527777777778],[-113.52027777777778,40.725833333333334],[-113.6763888888889,40.725833333333334],[-113.82888888888888,40.72361111111111],[-113.98305555555555,40.718611111111116],[-114.28722222222223,40.697222222222216],[-114.43416666666667,40.67055555555555],[-114.57694444444444,40.63944444444444],[-114.71861111111112,40.60416666666667],[-114.85916666666667,40.56527777777777],[-115.00027777777778,40.528888888888886],[-115.14527777777778,40.493611111111115],[-115.28722222222223,40.45666666666667],[-115.43027777777779,40.421388888888885],[-115.57444444444444,40.385555555555555],[-115.71611111111112,40.35111111111111],[-115.86694444444444,40.33777777777778],[-115.89805555555556,40.33972222222222],[-116.02,40.3425],[-116.05,40.34388888888889],[-116.20583333333333,40.34805555555556],[-116.35916666666667,40.352222222222224],[-116.51,40.35611111111111],[-116.63416666666667,40.35888888888889],[-116.81805555555555,40.36333333333334],[-116.97805555555556,40.36694444444444],[-117.13,40.37],[-117.28444444444445,40.373333333333335],[-117.41277777777778,40.374722222222225],[-117.44166666666668,40.375277777777775],[-117.5975,40.378055555555555],[-117.75333333333333,40.38055555555555],[-117.88111111111111,40.382222222222225],[-117.91000000000001,40.3825],[-118.03333333333333,40.384166666666665],[-118.06166666666667,40.38444444444444],[-118.21722222222222,40.38611111111111],[-118.36861111111111,40.38],[-118.47277777777778,40.34138888888889],[-118.49333333333334,40.33166666666667],[-118.60916666666667,40.27833333333333],[-118.7038888888889,40.239444444444445],[-118.82166666666666,40.19333333333333],[-118.84388888888888,40.18444444444444],[-118.9563888888889,40.140277777777776],[-119.04555555555555,40.105000000000004],[-119.06638888888888,40.09666666666667],[-119.15333333333334,40.0625],[-119.1725,40.05472222222222],[-119.27527777777777,40.01361111111111],[-119.33333333333333,40],[-119.35583333333332,39.981388888888894],[-119.37416666666665,39.97416666666667],[-119.43333333333334,39.95],[-119.4725,39.933611111111105],[-119.51666666666667,39.916666666666664],[-119.54305555555555,39.89972222222222],[-119.6,39.86666666666667],[-119.62472222222222,39.86055555555556],[-119.70361111111112,39.824444444444445],[-119.74805555555555,39.76361111111111],[-119.76666666666667,39.71666666666667],[-119.76861111111111,39.70305555555556],[-119.76888888888888,39.65083333333333],[-119.76888888888888,39.60583333333334],[-119.76666666666667,39.56666666666667],[-119.76666666666667,39.53333333333333],[-119.76916666666666,39.522777777777776]],"type":"LineString"}
}
