{
  "id": 2031965299,
  "type": "Feature",
  "properties": {
    "geom:area": 0,
    "geom:bbox": "-123.134167,37.416667,-122.108889,45.654722",
    "geom:latitude": 41.3650512916165,
    "geom:longitude": -122.90776665875654,
    "src:alt_label": "swim-path",
    "src:geom": "swim",
    "swim:altitudes": [
      "014",
      "039",
      "062",
      "072",
      "102",
      "120",
      "147",
      "170",
      "195",
      "215",
      "234",
      "252",
      "267",
      "282",
      "297",
      "310C",
      "310C",
      "310C",
      "310C",
      "310C",
      "310C",
      "310C",
      "310C",
      "310C",
      "310C",
      "310C",
      "310C",
      "310C",
      "310C",
      "310C",
      "310C",
      "310C",
      "310C",
      "310C",
      "310C",
      "310C",
      "310C",
      "310C",
      "310C",
      "310C",
      "310C",
      "310C",
      "310C",
      "310C",
      "310C",
      "310C",
      "310C",
      "310C",
      "310C",
      "310C",
      "310C",
      "310C",
      "310C",
      "310C",
      "310",
      "310",
      "310",
      "310",
      "310",
      "310",
      "299",
      "264",
      "242",
      "219",
      "198",
      "178",
      "155",
      "142",
      "139",
      "129",
      "114",
      "110C",
      "110C",
      "110C",
      "097",
      "079",
      "065",
      "049",
      "040",
      "038",
      "030",
      "028",
      "019",
      "011",
      "006",
      "004",
      "110"
    ],
    "swim:geom": "path",
    "swim:speeds": [
      177,
      233,
      281,
      259,
      245,
      301,
      320,
      342,
      346,
      359,
      367,
      377,
      385,
      390,
      390,
      387,
      386,
      388,
      388,
      389,
      389,
      390,
      390,
      391,
      392,
      394,
      396,
      397,
      396,
      395,
      396,
      397,
      398,
      398,
      398,
      398,
      397,
      398,
      399,
      400,
      400,
      411,
      411,
      412,
      413,
      413,
      413,
      413,
      413,
      413,
      414,
      415,
      417,
      419,
      420,
      420,
      420,
      421,
      423,
      425,
      425,
      411,
      391,
      379,
      369,
      356,
      343,
      309,
      311,
      268,
      253,
      249,
      247,
      244,
      242,
      241,
      242,
      237,
      223,
      182,
      179,
      181,
      180,
      161,
      126,
      130,
      127
    ],
    "swim:timestamps": [
      1784995501,
      1784995561,
      1784995610,
      1784995621,
      1784995670,
      1784995730,
      1784995790,
      1784995851,
      1784995911,
      1784995971,
      1784996031,
      1784996091,
      1784996151,
      1784996211,
      1784996271,
      1784996331,
      1784996391,
      1784996451,
      1784996571,
      1784996631,
      1784996692,
      1784996752,
      1784996812,
      1784996872,
      1784996932,
      1784996992,
      1784997052,
      1784997111,
      1784997172,
      1784997232,
      1784997291,
      1784997352,
      1784997412,
      1784997471,
      1784997533,
      1784997651,
      1784997713,
      1784997773,
      1784997832,
      1784997893,
      1784997953,
      1784998133,
      1784998192,
      1784998252,
      1784998314,
      1784998432,
      1784998494,
      1784998554,
      1784998613,
      1784998674,
      1784998734,
      1784998793,
      1784998854,
      1784998973,
      1784999033,
      1784999093,
      1784999153,
      1784999273,
      1784999333,
      1784999454,
      1784999514,
      1784999574,
      1784999634,
      1784999694,
      1784999754,
      1784999814,
      1784999874,
      1784999925,
      1784999934,
      1784999994,
      1785000054,
      1785000115,
      1785000175,
      1785000235,
      1785000295,
      1785000355,
      1785000400,
      1785000460,
      1785000535,
      1785000575,
      1785000634,
      1785000655,
      1785000715,
      1785000775,
      1785000814,
      1785000836,
      1785000896
    ],
    "wof:geomhash": "30a72fa8f7b50334f00fe559f48c6cca",
    "wof:id": 2031965299,
    "wof:repo": "sfomuseum-data-flights-2026-07"
  },
  "bbox": [
    -123.13416666666667,
    37.416666666666664,
    -122.10888888888888,
    45.65472222222222
  ],
  "geometry": {"coordinates":[[-122.6211111111111,45.60527777777778],[-122.69861111111112,45.62722222222222],[-122.77305555555556,45.65472222222222],[-122.7961111111111,45.65333333333333],[-122.84222222222222,45.6175],[-122.86694444444444,45.54194444444444],[-122.89416666666668,45.45472222222222],[-122.92416666666666,45.362500000000004],[-122.95416666666667,45.26861111111111],[-122.98111111111112,45.170833333333334],[-123.00555555555556,45.065555555555555],[-123.03027777777778,44.95944444444445],[-123.05499999999999,44.8525],[-123.07472222222222,44.76694444444444],[-123.09972222222221,44.658055555555556],[-123.12416666666665,44.551944444444445],[-123.13416666666667,44.44499999999999],[-123.13,44.33694444444445],[-123.12222222222222,44.120555555555555],[-123.11833333333333,44.0025],[-123.11444444444444,43.8925],[-123.11055555555555,43.784166666666664],[-123.10666666666665,43.675],[-123.10277777777777,43.56638888888889],[-123.09888888888888,43.45638888888889],[-123.095,43.34638888888889],[-123.09083333333332,43.234722222222224],[-123.08722222222222,43.14388888888889],[-123.08361111111111,43.013888888888886],[-123.07972222222222,42.90555555555555],[-123.07472222222222,42.79388888888889],[-123.07222222222222,42.6825],[-123.06861111111111,42.572500000000005],[-123.06444444444445,42.462500000000006],[-123.06138888888889,42.35138888888889],[-123.05416666666666,42.1325],[-123.05083333333333,42.022777777777776],[-123.04722222222222,41.910555555555554],[-123.0436111111111,41.79972222222222],[-123.04027777777777,41.69],[-123.03666666666666,41.578611111111115],[-123.02638888888889,41.24583333333334],[-123.02305555555556,41.13444444444444],[-123.01944444444445,41.016666666666666],[-123.01583333333333,40.901111111111106],[-123.00833333333334,40.65361111111111],[-123.005,40.53916666666667],[-123.00166666666667,40.42527777777777],[-122.99833333333333,40.31055555555555],[-122.99555555555555,40.21],[-122.9863888888889,40.095],[-122.9713888888889,39.9675],[-122.9588888888889,39.862500000000004],[-122.93,39.62166666666667],[-122.91611111111112,39.504444444444445],[-122.90361111111112,39.39944444444444],[-122.89,39.2825],[-122.86166666666666,39.03972222222222],[-122.84777777777778,38.92194444444444],[-122.82166666666666,38.69583333333333],[-122.80805555555555,38.578611111111115],[-122.79472222222222,38.46333333333334],[-122.78166666666667,38.35444444444445],[-122.77,38.24916666666667],[-122.745,38.149166666666666],[-122.7175,38.053888888888885],[-122.68611111111112,37.94472222222222],[-122.65,37.88333333333333],[-122.6413888888889,37.87],[-122.57916666666667,37.811388888888885],[-122.5225,37.7575],[-122.46666666666667,37.70527777777778],[-122.41166666666668,37.65333333333333],[-122.36388888888888,37.59777777777778],[-122.32555555555555,37.5375],[-122.28888888888889,37.47833333333333],[-122.25,37.43333333333333],[-122.16666666666667,37.416666666666664],[-122.10888888888888,37.47222222222222],[-122.13333333333334,37.5],[-122.18333333333334,37.53333333333333],[-122.19166666666668,37.541666666666664],[-122.24666666666667,37.56472222222222],[-122.29916666666666,37.58694444444445],[-122.33333333333333,37.6],[-122.33944444444444,37.603611111111114],[-122.37416666666665,37.61833333333333]],"type":"LineString"}
}
