{
  "id": 2031969397,
  "type": "Feature",
  "properties": {
    "geom:area": 0,
    "geom:bbox": "-156.033333,19.733333,-104.683333,40.848611",
    "geom:latitude": 31.758169469294472,
    "geom:longitude": -125.88124579462713,
    "src:alt_label": "swim-path",
    "src:geom": "swim",
    "swim:altitudes": [
      "010",
      "049",
      "094",
      "106",
      "117",
      "138",
      "156",
      "173",
      "187",
      "203",
      "216",
      "227",
      "238",
      "246",
      "269",
      "279",
      "288",
      "302",
      "303",
      "312",
      "314",
      "325",
      "337",
      "350C",
      "350C",
      "350C",
      "350C",
      "350C",
      "350C",
      "350C",
      "350C",
      "350C",
      "350C",
      "350C",
      "350C",
      "350C",
      "350C",
      "350C",
      "350C",
      "350C",
      "350C",
      "350C",
      "350C",
      "350C",
      "350C",
      "350C",
      "350C",
      "350C",
      "350C",
      "350C",
      "350C",
      "350C",
      "350C",
      "350C",
      "350C",
      "350C",
      "350C",
      "350C",
      "350C",
      "350C",
      "350C",
      "350C",
      "350C",
      "351C",
      "350C",
      "350C",
      "350C",
      "350C",
      "350C",
      "350C",
      "350C",
      "350C",
      "350C",
      "350C",
      "350C",
      "350C",
      "350C",
      "350C",
      "350C",
      "350C",
      "350C",
      "350C",
      "350C",
      "350C",
      "350C",
      "350C",
      "350C",
      "350C",
      "350C",
      "350C",
      "349",
      "340",
      "331",
      "321",
      "312",
      "302",
      "292",
      "282",
      "273",
      "250",
      "233",
      "230",
      "219",
      "211",
      "201",
      "196",
      "175",
      "170",
      "162",
      "155",
      "146",
      "140",
      "131",
      "126",
      "119",
      "115",
      "111",
      "109",
      "104",
      "103",
      "098",
      "091",
      "082",
      "077",
      "073",
      "068",
      "064",
      "057",
      "054",
      "060",
      "066",
      "092",
      "112",
      "135",
      "167",
      "183",
      "229",
      "243",
      "258",
      "269",
      "280",
      "296",
      "304",
      "319",
      "320",
      "340C",
      "340C",
      "340C",
      "340C",
      "340C",
      "340C",
      "340C",
      "340C",
      "340C",
      "340",
      "340",
      "340",
      "349",
      "356",
      "360C",
      "360C",
      "360C",
      "360C",
      "360C",
      "360C",
      "360C",
      "360C",
      "360C",
      "360C",
      "360C",
      "360C",
      "360C",
      "360C",
      "360C",
      "360C",
      "360C",
      "360C",
      "360C",
      "360C",
      "360C",
      "360C",
      "360C",
      "360C",
      "360C",
      "360C",
      "360C",
      "360C",
      "360C",
      "360C",
      "360C",
      "360C",
      "360C",
      "360C",
      "360C",
      "360C",
      "360C",
      "360C",
      "360C",
      "360C",
      "360C",
      "360C",
      "360C",
      "360C",
      "360C",
      "360C",
      "360C",
      "360C",
      "360C",
      "360C",
      "360C",
      "360C",
      "360C",
      "360C",
      "360C",
      "360C",
      "360C",
      "360C",
      "360C",
      "360C",
      "360C",
      "360C",
      "360C",
      "360C",
      "360C",
      "360C",
      "360C",
      "360C",
      "360C",
      "380",
      "380",
      "380",
      "380",
      "380",
      "380",
      "380",
      "380",
      "380",
      "380",
      "380",
      "380",
      "380",
      "380",
      "380",
      "380",
      "380",
      "380",
      "380",
      "380",
      "380",
      "380T",
      "380T",
      "380T",
      "370T",
      "345T",
      "316T",
      "294T",
      "271T",
      "248T",
      "227T",
      "184T",
      "164T",
      "144T",
      "089T",
      "077T",
      "066T",
      "051T",
      "035T",
      "025T",
      "018T",
      "011T",
      "004T",
      "001T"
    ],
    "swim:geom": "path",
    "swim:speeds": [
      149,
      245,
      308,
      365,
      415,
      425,
      437,
      451,
      465,
      471,
      483,
      492,
      499,
      510,
      491,
      493,
      504,
      506,
      505,
      507,
      507,
      510,
      510,
      504,
      502,
      503,
      500,
      499,
      501,
      502,
      502,
      502,
      499,
      497,
      495,
      496,
      494,
      495,
      490,
      487,
      486,
      486,
      488,
      490,
      490,
      491,
      491,
      491,
      489,
      489,
      483,
      482,
      479,
      479,
      479,
      481,
      482,
      483,
      486,
      487,
      489,
      489,
      491,
      492,
      491,
      490,
      487,
      486,
      485,
      484,
      484,
      483,
      481,
      481,
      481,
      481,
      482,
      482,
      484,
      484,
      485,
      485,
      485,
      486,
      485,
      485,
      484,
      483,
      482,
      482,
      482,
      482,
      483,
      487,
      488,
      489,
      479,
      470,
      464,
      441,
      422,
      423,
      411,
      406,
      393,
      383,
      348,
      334,
      324,
      324,
      317,
      317,
      279,
      260,
      254,
      256,
      246,
      250,
      230,
      184,
      180,
      178,
      198,
      195,
      182,
      181,
      171,
      156,
      88,
      201,
      203,
      277,
      304,
      301,
      348,
      357,
      384,
      390,
      401,
      412,
      418,
      443,
      456,
      456,
      454,
      452,
      450,
      448,
      447,
      447,
      447,
      448,
      449,
      450,
      450,
      450,
      448,
      448,
      448,
      448,
      448,
      443,
      441,
      440,
      440,
      440,
      441,
      442,
      444,
      447,
      454,
      455,
      456,
      456,
      456,
      454,
      453,
      452,
      450,
      451,
      451,
      451,
      452,
      451,
      450,
      450,
      449,
      449,
      449,
      449,
      448,
      447,
      447,
      447,
      446,
      447,
      447,
      448,
      448,
      447,
      446,
      446,
      446,
      445,
      445,
      446,
      449,
      450,
      450,
      444,
      443,
      444,
      443,
      443,
      443,
      442,
      441,
      437,
      436,
      435,
      435,
      434,
      434,
      441,
      444,
      445,
      444,
      443,
      450,
      450,
      450,
      450,
      450,
      450,
      450,
      450,
      450,
      450,
      450,
      450,
      450,
      450,
      450,
      460,
      450,
      450,
      450,
      450,
      450,
      450,
      450,
      450,
      450,
      460,
      470,
      460,
      450,
      440,
      430,
      410,
      400,
      390,
      300,
      280,
      260,
      240,
      240,
      200,
      170,
      140,
      130,
      120
    ],
    "swim:timestamps": [
      1784986323,
      1784986443,
      1784986563,
      1784986623,
      1784986684,
      1784986744,
      1784986804,
      1784986864,
      1784986924,
      1784986984,
      1784987044,
      1784987104,
      1784987164,
      1784987224,
      1784987284,
      1784987344,
      1784987404,
      1784987464,
      1784987470,
      1784987524,
      1784987530,
      1784987590,
      1784987644,
      1784987710,
      1784987764,
      1784987770,
      1784987830,
      1784987885,
      1784987945,
      1784988005,
      1784988065,
      1784988185,
      1784988251,
      1784988311,
      1784988365,
      1784988371,
      1784988425,
      1784988431,
      1784988485,
      1784988551,
      1784988611,
      1784988665,
      1784988725,
      1784988785,
      1784988791,
      1784988845,
      1784988911,
      1784988972,
      1784989025,
      1784989032,
      1784989092,
      1784989152,
      1784989272,
      1784989572,
      1784989632,
      1784989692,
      1784989753,
      1784989873,
      1784989993,
      1784990053,
      1784990173,
      1784990233,
      1784990293,
      1784990353,
      1784990474,
      1784990534,
      1784990714,
      1784990774,
      1784990954,
      1784991014,
      1784991074,
      1784991123,
      1784991194,
      1784991244,
      1784991304,
      1784991315,
      1784991364,
      1784991375,
      1784991424,
      1784991435,
      1784991484,
      1784991544,
      1784991555,
      1784991615,
      1784991664,
      1784991675,
      1784991724,
      1784991795,
      1784991855,
      1784991915,
      1784991976,
      1784992036,
      1784992085,
      1784992145,
      1784992205,
      1784992265,
      1784992325,
      1784992385,
      1784992445,
      1784992565,
      1784992611,
      1784992626,
      1784992653,
      1784992686,
      1784992713,
      1784992746,
      1784992833,
      1784992866,
      1784992893,
      1784992926,
      1784992959,
      1784992986,
      1784993046,
      1784993079,
      1784993133,
      1784993166,
      1784993199,
      1784993226,
      1784993286,
      1784993319,
      1784993346,
      1784993379,
      1784993440,
      1784993467,
      1784993494,
      1784993527,
      1784993554,
      1784993614,
      1784993707,
      1785004196,
      1785004211,
      1785004330,
      1785004391,
      1785004451,
      1785004570,
      1785004630,
      1785004810,
      1785004870,
      1785004930,
      1785004990,
      1785005051,
      1785005171,
      1785005231,
      1785005291,
      1785005351,
      1785005471,
      1785005711,
      1785005772,
      1785006012,
      1785006072,
      1785006192,
      1785006252,
      1785006312,
      1785006372,
      1785006553,
      1785006613,
      1785006669,
      1785006729,
      1785006789,
      1785006849,
      1785006969,
      1785007029,
      1785007089,
      1785007149,
      1785007209,
      1785007269,
      1785007329,
      1785007390,
      1785007450,
      1785007570,
      1785007690,
      1785007750,
      1785007810,
      1785007870,
      1785007930,
      1785007990,
      1785008051,
      1785008111,
      1785008171,
      1785008471,
      1785008531,
      1785008591,
      1785008651,
      1785008772,
      1785008832,
      1785008892,
      1785008952,
      1785009072,
      1785009132,
      1785009192,
      1785009252,
      1785009312,
      1785009372,
      1785009553,
      1785009613,
      1785009673,
      1785009733,
      1785009793,
      1785009853,
      1785009913,
      1785009973,
      1785010093,
      1785010154,
      1785010334,
      1785010394,
      1785010514,
      1785010574,
      1785010634,
      1785010694,
      1785010814,
      1785010875,
      1785010995,
      1785011055,
      1785011115,
      1785011175,
      1785011235,
      1785011295,
      1785011415,
      1785011475,
      1785011536,
      1785011596,
      1785011656,
      1785011716,
      1785011776,
      1785011836,
      1785011956,
      1785012016,
      1785012076,
      1785026148,
      1785026208,
      1785026268,
      1785026329,
      1785026389,
      1785026449,
      1785026509,
      1785026569,
      1785026630,
      1785026689,
      1785026750,
      1785026870,
      1785026930,
      1785026990,
      1785027050,
      1785027111,
      1785027171,
      1785027231,
      1785027291,
      1785027351,
      1785027411,
      1785027472,
      1785027532,
      1785027652,
      1785027712,
      1785027772,
      1785027833,
      1785027893,
      1785027953,
      1785028013,
      1785028073,
      1785028193,
      1785028254,
      1785028314,
      1785028495,
      1785028555,
      1785028615,
      1785028675,
      1785028735,
      1785028795,
      1785028855,
      1785028916,
      1785028976,
      1785029036
    ],
    "wof:geomhash": "394269e33f338f1b2eeff5610c8ec572",
    "wof:id": 2031969397,
    "wof:repo": "sfomuseum-data-flights-2026-07"
  },
  "bbox": [
    -156.03333333333333,
    19.733333333333334,
    -104.68333333333334,
    40.84861111111111
  ],
  "geometry": {"coordinates":[[-122.3913888888889,37.62583333333333],[-122.50527777777778,37.675555555555555],[-122.48666666666666,37.81861111111112],[-122.38,37.86333333333334],[-122.25916666666667,37.92166666666667],[-122.1325,37.983333333333334],[-121.99944444444445,38.04722222222222],[-121.86444444444444,38.11194444444445],[-121.72,38.18055555555555],[-121.57777777777777,38.24805555555556],[-121.43222222222222,38.31638888888889],[-121.29194444444444,38.3975],[-121.1575,38.480555555555554],[-121.0175,38.56666666666667],[-120.88055555555555,38.650555555555556],[-120.74305555555556,38.73444444444444],[-120.60277777777777,38.82],[-120.45777777777778,38.9075],[-120.44027777777778,38.9175],[-120.31583333333333,38.99333333333333],[-120.295,39.003055555555555],[-120.15027777777779,39.09111111111111],[-120.03472222222221,39.16166666666666],[-119.86416666666666,39.26111111111111],[-119.74944444444445,39.33083333333334],[-119.7225,39.345555555555556],[-119.57972222222222,39.42944444444444],[-119.4625,39.49944444444444],[-119.3175,39.58416666666667],[-119.17111111111112,39.669444444444444],[-119.02666666666667,39.753055555555555],[-118.72611111111111,39.913888888888884],[-118.53777777777778,39.99027777777778],[-118.3786111111111,40.055],[-118.24888888888889,40.10722222222223],[-118.22416666666666,40.117222222222225],[-118.08916666666666,40.171388888888885],[-118.06444444444445,40.18111111111111],[-117.92527777777778,40.22166666666667],[-117.73,40.26694444444444],[-117.56166666666667,40.30611111111111],[-117.4213888888889,40.33833333333334],[-117.25166666666667,40.37722222222222],[-117.0786111111111,40.41611111111111],[-117.04722222222222,40.42333333333333],[-116.90166666666667,40.45611111111111],[-116.7275,40.49472222222222],[-116.55416666666666,40.533055555555556],[-116.3775,40.56722222222223],[-116.38083333333333,40.566944444444445],[-116.20666666666666,40.58166666666667],[-116.03277777777778,40.595],[-115.68555555555555,40.62083333333334],[-114.815,40.680277777777775],[-114.64083333333333,40.69138888888889],[-114.46305555555556,40.702222222222225],[-114.28722222222223,40.70805555555556],[-113.93361111111112,40.720555555555556],[-113.57972222222222,40.74],[-113.40138888888889,40.75333333333333],[-113.01416666666667,40.781666666666666],[-112.83555555555554,40.79416666666666],[-112.65611111111112,40.806666666666665],[-112.47500000000001,40.81861111111112],[-112.11638888888888,40.841944444444444],[-111.95027777777779,40.84861111111111],[-111.41444444444446,40.82194444444445],[-111.22944444444444,40.81222222222222],[-110.70222222222222,40.782222222222224],[-110.52638888888889,40.77194444444444],[-110.38333333333334,40.76305555555555],[-110.20916666666668,40.75222222222222],[-110.05333333333333,40.742222222222225],[-109.86222222222221,40.730000000000004],[-109.68722222222223,40.71805555555556],[-109.66694444444445,40.71666666666667],[-109.52694444444444,40.70722222222223],[-109.4888888888889,40.70444444444445],[-109.34805555555555,40.69472222222222],[-109.31277777777777,40.69222222222222],[-109.17,40.68194444444444],[-108.99527777777777,40.669444444444444],[-108.94972222222222,40.666666666666664],[-108.77222222222223,40.655277777777776],[-108.63833333333334,40.64666666666667],[-108.59861111111111,40.64388888888889],[-108.46194444444444,40.63472222222222],[-108.24944444444445,40.62],[-108.07444444444444,40.6075],[-107.89972222222222,40.594722222222224],[-107.72555555555556,40.581944444444446],[-107.55277777777778,40.56916666666667],[-107.38666666666667,40.55638888888888],[-107.20805555555556,40.5425],[-107.04083333333332,40.529444444444444],[-106.85749999999999,40.51444444444444],[-106.68222222222222,40.5],[-106.51333333333334,40.48583333333333],[-106.36472222222221,40.472500000000004],[-106.04333333333334,40.44361111111111],[-105.91666666666667,40.43333333333333],[-105.88777777777779,40.42861111111111],[-105.8,40.416666666666664],[-105.74277777777777,40.40555555555555],[-105.66666666666667,40.4],[-105.60555555555555,40.38388888888889],[-105.4,40.35],[-105.34472222222222,40.341944444444444],[-105.28333333333333,40.333333333333336],[-105.22777777777777,40.32666666666667],[-105.16666666666667,40.31666666666667],[-105.11583333333333,40.31166666666666],[-105.00361111111111,40.29611111111111],[-104.95,40.28333333333333],[-104.86666666666666,40.28333333333333],[-104.82027777777778,40.27055555555555],[-104.78333333333333,40.25],[-104.74805555555555,40.23777777777778],[-104.70166666666667,40.17944444444444],[-104.68333333333334,40.15],[-104.68416666666667,40.13027777777778],[-104.68333333333334,40.1],[-104.68333333333334,40.05],[-104.68527777777778,40.02361111111111],[-104.68333333333334,40],[-104.68611111111112,39.973055555555554],[-104.68333333333334,39.95],[-104.68333333333334,39.916666666666664],[-104.68472222222222,39.870555555555555],[-104.7,39.85],[-104.7,39.833333333333336],[-104.87249999999999,39.823055555555555],[-104.98333333333333,39.833333333333336],[-105.1,39.85],[-105.32416666666666,39.88861111111111],[-105.44888888888889,39.91138888888889],[-105.82333333333332,39.9775],[-105.93666666666667,39.91888888888889],[-106.05222222222221,39.81916666666667],[-106.15138888888889,39.73444444444444],[-106.2388888888889,39.65972222222222],[-106.4775,39.50416666666667],[-106.62777777777777,39.420833333333334],[-106.75833333333334,39.34777777777778],[-106.89083333333333,39.272777777777776],[-107.15027777777779,39.12388888888889],[-107.64361111111111,38.838055555555556],[-107.77,38.76416666666667],[-108.27805555555555,38.46416666666667],[-108.40361111111112,38.38944444444444],[-108.65722222222223,38.23722222222222],[-108.78305555555555,38.16138888888889],[-108.90777777777778,38.08555555555556],[-109.05555555555556,37.99583333333334],[-109.43,37.76611111111111],[-109.55416666666666,37.68944444444444],[-109.64777777777779,37.6325],[-109.77111111111111,37.555],[-109.89444444444445,37.47805555555556],[-110.01638888888888,37.40138888888889],[-110.26,37.245],[-110.38055555555555,37.16888888888889],[-110.49972222222222,37.095555555555556],[-110.61972222222222,37.01888888888889],[-110.73972222222223,36.94194444444444],[-110.85805555555555,36.865833333333335],[-110.9786111111111,36.788333333333334],[-111.0975,36.711111111111116],[-111.21972222222223,36.63166666666667],[-111.45944444444444,36.476111111111116],[-111.74305555555556,36.364444444444445],[-111.885,36.31194444444444],[-112.02777777777777,36.25888888888889],[-112.17111111111112,36.20527777777778],[-112.31222222222222,36.15222222222222],[-112.45277777777778,36.09916666666667],[-112.59472222222222,36.04555555555555],[-112.73388888888888,35.9925],[-112.89361111111111,35.93138888888889],[-113.58472222222221,35.66361111111111],[-113.72361111111111,35.60916666666667],[-113.86055555555555,35.555],[-113.99861111111112,35.499722222222225],[-114.27416666666666,35.37305555555555],[-114.4063888888889,35.31166666666666],[-114.53999999999999,35.24944444444444],[-114.6725,35.18722222222222],[-114.93722222222223,35.0625],[-115.06972222222223,34.999722222222225],[-115.20027777777779,34.9375],[-115.33194444444445,34.874722222222225],[-115.46277777777777,34.81194444444444],[-115.59194444444444,34.749722222222225],[-115.98222222222222,34.56055555555555],[-116.11361111111111,34.49638888888889],[-116.24194444444444,34.43333333333333],[-116.3711111111111,34.37],[-116.50138888888888,34.30555555555555],[-116.6061111111111,34.25361111111111],[-116.73138888888889,34.186388888888885],[-116.87944444444443,34.10722222222223],[-117.13,33.973333333333336],[-117.24833333333333,33.90972222222222],[-117.6236111111111,33.70611111111111],[-117.74777777777778,33.638333333333335],[-117.99916666666667,33.50333333333333],[-118.13972222222223,33.45805555555556],[-118.28361111111111,33.41583333333333],[-118.42277777777778,33.367777777777775],[-118.64500000000001,33.20444444444445],[-118.75277777777778,33.12222222222222],[-118.97027777777778,32.95583333333334],[-119.07916666666667,32.8725],[-119.18666666666667,32.78944444444444],[-119.295,32.70583333333334],[-119.40138888888889,32.62305555555555],[-119.50777777777778,32.54055555555556],[-119.7175,32.376666666666665],[-119.82249999999999,32.294444444444444],[-119.92833333333334,32.211111111111116],[-120.01527777777778,32.14277777777778],[-120.11944444444444,32.06027777777778],[-120.22305555555556,31.978055555555553],[-120.34722222222221,31.91444444444444],[-120.48305555555555,31.86916666666667],[-120.75222222222222,31.778333333333332],[-120.8875,31.731666666666666],[-121.01638888888888,31.6875],[-150.8,20.75],[-150.93333333333334,20.716666666666665],[-151.06666666666666,20.666666666666668],[-151.18333333333334,20.633333333333333],[-151.3,20.583333333333332],[-151.43333333333334,20.566666666666666],[-151.56666666666666,20.55],[-151.7,20.55],[-151.83333333333334,20.533333333333335],[-151.96666666666667,20.516666666666666],[-152.11666666666667,20.516666666666666],[-152.38333333333333,20.5],[-152.51666666666668,20.483333333333334],[-152.65,20.466666666666665],[-152.78333333333333,20.466666666666665],[-152.91666666666666,20.45],[-153.05,20.433333333333334],[-153.18333333333334,20.433333333333334],[-153.31666666666666,20.416666666666668],[-153.45,20.4],[-153.58333333333334,20.4],[-153.71666666666667,20.383333333333333],[-153.85,20.366666666666667],[-154.11666666666667,20.35],[-154.25,20.333333333333332],[-154.38333333333333,20.333333333333332],[-154.51666666666668,20.316666666666666],[-154.66666666666666,20.3],[-154.8,20.283333333333335],[-154.93333333333334,20.283333333333335],[-155.05,20.266666666666666],[-155.3,20.25],[-155.41666666666666,20.233333333333334],[-155.53333333333333,20.216666666666665],[-155.83333333333334,20.183333333333334],[-155.88333333333333,20.116666666666667],[-155.93333333333334,20.05],[-155.96666666666667,20],[-156,19.933333333333334],[-156.01666666666668,19.883333333333333],[-156.03333333333333,19.833333333333332],[-156.03333333333333,19.8],[-156.03333333333333,19.766666666666666],[-156.03333333333333,19.733333333333334]],"type":"LineString"}
}
