{
  "id": 2031996059,
  "type": "Feature",
  "properties": {
    "geom:area": 0,
    "geom:bbox": "-125.056667,35.738611,-122.433333,37.660000",
    "geom:latitude": 36.83920219765387,
    "geom:longitude": -123.83593886616696,
    "src:alt_label": "swim-path",
    "src:geom": "swim",
    "swim:altitudes": [
      "023",
      "029",
      "044",
      "068",
      "093",
      "110",
      "119",
      "135",
      "154",
      "172",
      "186",
      "202",
      "216",
      "229",
      "242",
      "255",
      "269",
      "280",
      "292",
      "313",
      "321",
      "330C",
      "330C",
      "330C",
      "330C",
      "330C",
      "330C"
    ],
    "swim:geom": "path",
    "swim:speeds": [
      170,
      202,
      262,
      273,
      281,
      296,
      345,
      366,
      373,
      379,
      387,
      396,
      405,
      414,
      423,
      431,
      436,
      446,
      456,
      447,
      450,
      456,
      448,
      448,
      449,
      450,
      450
    ],
    "swim:timestamps": [
      1785185827,
      1785185865,
      1785185926,
      1785185986,
      1785186046,
      1785186106,
      1785186166,
      1785186226,
      1785186286,
      1785186346,
      1785186406,
      1785186466,
      1785186526,
      1785186586,
      1785186647,
      1785186707,
      1785186767,
      1785186827,
      1785186887,
      1785186947,
      1785187007,
      1785187067,
      1785187127,
      1785187187,
      1785187247,
      1785187367,
      1785187428
    ],
    "wof:geomhash": "bae269c2706c77d17f4981955a8e91b5",
    "wof:id": 2031996059,
    "wof:repo": "sfomuseum-data-flights-2026-07"
  },
  "bbox": [
    -125.05666666666666,
    35.73861111111111,
    -122.43333333333334,
    37.66
  ],
  "geometry": {"coordinates":[[-122.43333333333334,37.65],[-122.46916666666667,37.66],[-122.54722222222222,37.647777777777776],[-122.62083333333332,37.599444444444444],[-122.70138888888889,37.553888888888885],[-122.78972222222222,37.51361111111111],[-122.89027777777778,37.466944444444444],[-123.0025,37.419999999999995],[-123.12083333333332,37.37222222222222],[-123.23861111111111,37.32361111111111],[-123.35972222222222,37.27444444444444],[-123.48277777777778,37.223888888888894],[-123.60916666666667,37.17388888888889],[-123.7286111111111,37.109722222222224],[-123.81916666666666,37.01833333333333],[-123.91277777777778,36.92361111111111],[-124.0075,36.82777777777778],[-124.10305555555556,36.730555555555554],[-124.20166666666667,36.63],[-124.29694444444445,36.532777777777774],[-124.39277777777778,36.43416666666666],[-124.48972222222223,36.33444444444444],[-124.58416666666666,36.236666666666665],[-124.67944444444444,36.13777777777778],[-124.77416666666666,36.03916666666667],[-124.96305555555556,35.84138888888889],[-125.05666666666666,35.73861111111111]],"type":"LineString"}
}
