{
  "id": 2031942743,
  "type": "Feature",
  "properties": {
    "geom:area": 0,
    "geom:bbox": "-122.300833,29.830833,-95.352222,37.692500",
    "geom:latitude": 33.59148745346937,
    "geom:longitude": -108.96908642046456,
    "src:alt_label": "swim-path",
    "src:geom": "swim",
    "swim:altitudes": [
      "017",
      "024",
      "031",
      "051",
      "067",
      "076",
      "099",
      "110",
      "121",
      "153",
      "168",
      "184",
      "216",
      "225",
      "245",
      "256",
      "284",
      "297",
      "300C",
      "300C",
      "300C",
      "300C",
      "300C",
      "300C",
      "300C",
      "300C",
      "300C",
      "300C",
      "300C",
      "300C",
      "300C",
      "300C",
      "300C",
      "300C",
      "300C",
      "300C",
      "300C",
      "300C",
      "300C",
      "300C",
      "300C",
      "300C",
      "300C",
      "300C",
      "300C",
      "300C",
      "300C",
      "300C",
      "301",
      "311",
      "311",
      "320C",
      "320C",
      "320C",
      "320C",
      "320C",
      "320C",
      "320C",
      "320C",
      "320C",
      "320C",
      "320C",
      "320C",
      "320C",
      "320C",
      "320C",
      "320C",
      "320C",
      "320C",
      "320C",
      "320C",
      "320C",
      "320C",
      "320C",
      "320C",
      "320C",
      "320C",
      "320C",
      "320C",
      "320C",
      "320C",
      "320C",
      "320C",
      "320C",
      "320C",
      "320C",
      "320C",
      "320C",
      "320C",
      "320C",
      "320C",
      "320C",
      "320C",
      "320C",
      "320C",
      "320C",
      "320C",
      "320C",
      "320C",
      "320C",
      "320C",
      "320C",
      "320C",
      "320C",
      "320C",
      "320C",
      "320C",
      "320C",
      "320C",
      "320C",
      "320C",
      "320C",
      "320C",
      "320C",
      "320C",
      "320C",
      "320C",
      "320C",
      "320C",
      "320C",
      "320C",
      "320C",
      "320C",
      "320C",
      "320C",
      "320C",
      "320C",
      "320C",
      "320C",
      "320C",
      "320C",
      "320C",
      "320C",
      "320C",
      "320C",
      "320C",
      "320C",
      "320C",
      "320C",
      "320C",
      "320C",
      "320C",
      "320C",
      "320C",
      "320C",
      "320C",
      "320C",
      "320C",
      "320C",
      "320C",
      "320C",
      "320C",
      "320C",
      "320C",
      "320C",
      "320C",
      "320C",
      "320C",
      "320C",
      "320C",
      "320C",
      "320C",
      "320C",
      "320C",
      "320C",
      "320C",
      "320C",
      "320",
      "320",
      "303",
      "257",
      "216",
      "196",
      "179",
      "165",
      "151",
      "100",
      "100",
      "074",
      "065",
      "041",
      "031",
      "019",
      "011"
    ],
    "swim:geom": "path",
    "swim:speeds": [
      205,
      237,
      260,
      297,
      297,
      296,
      300,
      306,
      350,
      385,
      406,
      415,
      426,
      445,
      471,
      477,
      497,
      495,
      494,
      494,
      490,
      488,
      487,
      486,
      486,
      486,
      486,
      486,
      485,
      485,
      485,
      485,
      487,
      488,
      488,
      487,
      487,
      487,
      486,
      485,
      485,
      484,
      482,
      482,
      480,
      479,
      478,
      479,
      478,
      482,
      482,
      482,
      482,
      482,
      482,
      481,
      481,
      481,
      482,
      483,
      483,
      486,
      487,
      487,
      488,
      488,
      487,
      486,
      484,
      483,
      482,
      482,
      482,
      483,
      483,
      482,
      481,
      480,
      477,
      476,
      475,
      476,
      479,
      484,
      484,
      483,
      477,
      477,
      477,
      478,
      479,
      477,
      477,
      478,
      478,
      480,
      480,
      478,
      478,
      479,
      478,
      479,
      484,
      477,
      483,
      476,
      478,
      475,
      479,
      475,
      474,
      474,
      472,
      472,
      473,
      474,
      474,
      479,
      479,
      478,
      479,
      479,
      480,
      477,
      475,
      473,
      471,
      469,
      469,
      470,
      471,
      472,
      473,
      473,
      471,
      463,
      470,
      464,
      464,
      465,
      463,
      463,
      465,
      466,
      467,
      468,
      468,
      469,
      469,
      470,
      465,
      459,
      459,
      449,
      436,
      435,
      433,
      432,
      431,
      431,
      431,
      431,
      431,
      429,
      428,
      427,
      427,
      427,
      426,
      415,
      401,
      385,
      375,
      348,
      323,
      297,
      268,
      259,
      240,
      220,
      204,
      168,
      154,
      140
    ],
    "swim:timestamps": [
      1784842282,
      1784842324,
      1784842342,
      1784842405,
      1784842444,
      1784842466,
      1784842526,
      1784842565,
      1784842625,
      1784842745,
      1784842805,
      1784842865,
      1784842986,
      1784843046,
      1784843166,
      1784843238,
      1784843418,
      1784843478,
      1784843520,
      1784843598,
      1784843719,
      1784843779,
      1784843839,
      1784843959,
      1784844019,
      1784844079,
      1784844139,
      1784844199,
      1784844332,
      1784844392,
      1784844452,
      1784844512,
      1784844632,
      1784844692,
      1784844752,
      1784844773,
      1784844824,
      1784844833,
      1784844884,
      1784844945,
      1784844954,
      1784845014,
      1784845065,
      1784845074,
      1784845125,
      1784845194,
      1784845245,
      1784845254,
      1784845305,
      1784845365,
      1784845374,
      1784845434,
      1784845485,
      1784845545,
      1784845555,
      1784845606,
      1784845666,
      1784845735,
      1784845855,
      1784845915,
      1784845975,
      1784846156,
      1784846216,
      1784846276,
      1784846336,
      1784846396,
      1784846456,
      1784846516,
      1784846576,
      1784846637,
      1784846757,
      1784846817,
      1784846877,
      1784846937,
      1784847057,
      1784847117,
      1784847177,
      1784847237,
      1784847358,
      1784847418,
      1784847478,
      1784847538,
      1784847658,
      1784847838,
      1784847898,
      1784847959,
      1784848139,
      1784848259,
      1784848319,
      1784848379,
      1784848439,
      1784848457,
      1784848517,
      1784848577,
      1784848637,
      1784848680,
      1784848740,
      1784848758,
      1784848818,
      1784848860,
      1784848878,
      1784849040,
      1784849118,
      1784849160,
      1784849178,
      1784849220,
      1784849298,
      1784849358,
      1784849419,
      1784849461,
      1784849521,
      1784849539,
      1784849659,
      1784849719,
      1784849761,
      1784849779,
      1784849818,
      1784849939,
      1784849959,
      1784850019,
      1784850059,
      1784850080,
      1784850140,
      1784850320,
      1784850380,
      1784850440,
      1784850500,
      1784850620,
      1784850680,
      1784850740,
      1784850801,
      1784850861,
      1784850921,
      1784850981,
      1784851101,
      1784851152,
      1784851161,
      1784851212,
      1784851272,
      1784851281,
      1784851341,
      1784851401,
      1784851452,
      1784851522,
      1784851573,
      1784851633,
      1784851642,
      1784851693,
      1784851702,
      1784851753,
      1784851813,
      1784851873,
      1784851882,
      1784851942,
      1784852053,
      1784852062,
      1784852122,
      1784852183,
      1784852243,
      1784852294,
      1784852303,
      1784852354,
      1784852414,
      1784852534,
      1784852594,
      1784852654,
      1784852714,
      1784852774,
      1784852834,
      1784852895,
      1784853014,
      1784853135,
      1784853195,
      1784853255,
      1784853315,
      1784853375,
      1784853616,
      1784853676,
      1784853796,
      1784853856,
      1784853976,
      1784854036,
      1784854096,
      1784854156
    ],
    "wof:geomhash": "0bb7858a72ef0f5deee7b504334c8586",
    "wof:id": 2031942743,
    "wof:repo": "sfomuseum-data-flights-2026-07"
  },
  "bbox": [
    -122.30083333333333,
    29.830833333333334,
    -95.35222222222221,
    37.692499999999995
  ],
  "geometry": {"coordinates":[[-95.35222222222221,29.92888888888889],[-95.39333333333335,29.909444444444443],[-95.41666666666667,29.895],[-95.49638888888889,29.85388888888889],[-95.55,29.830833333333334],[-95.58527777777778,29.834444444444443],[-95.66722222222222,29.875555555555557],[-95.72027777777778,29.90222222222222],[-95.815,29.948888888888888],[-96.02638888888889,30.052777777777777],[-96.14944444444446,30.084444444444443],[-96.27916666666667,30.104166666666668],[-96.55194444444444,30.145555555555553],[-96.68472222222222,30.165555555555553],[-96.9786111111111,30.209444444444443],[-97.12916666666666,30.231944444444444],[-97.61166666666666,30.302777777777777],[-97.76777777777778,30.328333333333333],[-97.89305555555556,30.354722222222225],[-98.07694444444444,30.39361111111111],[-98.38361111111112,30.4575],[-98.53777777777778,30.488611111111112],[-98.68777777777778,30.519166666666667],[-98.99416666666667,30.580833333333334],[-99.14722222222223,30.611111111111114],[-99.29638888888888,30.640833333333333],[-99.47833333333334,30.67666666666667],[-99.63222222222221,30.706944444444442],[-99.96583333333334,30.77111111111111],[-100.11944444444444,30.800833333333333],[-100.27,30.829444444444444],[-100.42277777777778,30.858055555555556],[-100.72833333333334,30.915],[-100.88416666666667,30.927222222222223],[-101.04333333333334,30.934722222222224],[-101.10166666666666,30.93777777777778],[-101.19861111111112,30.942777777777778],[-101.25833333333334,30.94611111111111],[-101.38527777777779,30.953055555555554],[-101.54333333333334,30.961666666666666],[-101.57083333333333,30.96388888888889],[-101.7275,30.979166666666664],[-101.85222222222221,30.991944444444446],[-101.88027777777778,30.996111111111112],[-102.00361111111111,31.016111111111112],[-102.18083333333334,31.052500000000002],[-102.30722222222222,31.078611111111112],[-102.33138888888888,31.08361111111111],[-102.46000000000001,31.109444444444446],[-102.61666666666666,31.140555555555554],[-102.61666666666666,31.140555555555554],[-102.76861111111111,31.170833333333334],[-102.92027777777778,31.200833333333332],[-103.07166666666666,31.230555555555554],[-103.07444444444444,31.231111111111108],[-103.22583333333334,31.260833333333334],[-103.37166666666666,31.28888888888889],[-103.53166666666667,31.31972222222222],[-103.84944444444444,31.380555555555556],[-104.00333333333333,31.40972222222222],[-104.15583333333333,31.438055555555557],[-104.61694444444444,31.523333333333333],[-104.77111111111111,31.551111111111112],[-104.92527777777778,31.579166666666666],[-105.08027777777778,31.606944444444444],[-105.23611111111111,31.634722222222223],[-105.38805555555557,31.661666666666665],[-105.54166666666667,31.68861111111111],[-105.71611111111112,31.719166666666666],[-105.86777777777777,31.745555555555555],[-106.17611111111111,31.798055555555557],[-106.31583333333333,31.831944444444446],[-106.45555555555556,31.89361111111111],[-106.59527777777777,31.95583333333333],[-106.87722222222222,32.08083333333334],[-107.01805555555555,32.143055555555556],[-107.17111111111112,32.21],[-107.30416666666666,32.268055555555556],[-107.58194444444445,32.388888888888886],[-107.72111111111111,32.44916666666666],[-107.86749999999999,32.511944444444445],[-108.00666666666666,32.57194444444445],[-108.28083333333333,32.703611111111115],[-108.69972222222222,32.897777777777776],[-108.83749999999999,32.95916666666667],[-108.97694444444444,33.02166666666667],[-109.38527777777779,33.20333333333333],[-109.66361111111112,33.32888888888889],[-109.80166666666666,33.39083333333333],[-109.94166666666668,33.45305555555556],[-110.08222222222221,33.51861111111111],[-110.14250000000001,33.54805555555556],[-110.28583333333333,33.60777777777778],[-110.43333333333334,33.658055555555556],[-110.58277777777778,33.70611111111111],[-110.68111111111112,33.73722222222222],[-110.82916666666667,33.78666666666666],[-110.87916666666666,33.80416666666667],[-111.02694444444444,33.853611111111114],[-111.12472222222222,33.88527777777778],[-111.17500000000001,33.90333333333333],[-111.56638888888888,34.034166666666664],[-111.76833333333333,34.106944444444444],[-111.86749999999999,34.13777777777778],[-111.91833333333334,34.156666666666666],[-112.01388888888889,34.18833333333333],[-112.21305555555556,34.25888888888889],[-112.35916666666667,34.31083333333333],[-112.47916666666667,34.4],[-112.53861111111111,34.4475],[-112.6613888888889,34.54611111111111],[-112.7063888888889,34.5825],[-112.93472222222222,34.76833333333333],[-113.04888888888888,34.86083333333333],[-113.11722222222221,34.91694444444444],[-113.16416666666667,34.95583333333334],[-113.23055555555555,35.01],[-113.42750000000001,35.22416666666667],[-113.48083333333334,35.26083333333333],[-113.61916666666666,35.330000000000005],[-113.69916666666667,35.36944444444445],[-113.7611111111111,35.39972222222222],[-113.90027777777779,35.4675],[-114.29694444444445,35.66],[-114.43861111111111,35.72833333333333],[-114.5786111111111,35.79527777777778],[-114.715,35.86055555555556],[-114.99138888888889,35.99138888888889],[-115.1325,36.058055555555555],[-115.2725,36.12388888888889],[-115.41194444444444,36.18944444444444],[-115.55555555555556,36.25611111111111],[-115.7063888888889,36.32611111111112],[-115.84861111111111,36.391666666666666],[-116.11444444444444,36.513888888888886],[-116.25694444444444,36.57888888888889],[-116.25694444444444,36.57888888888889],[-116.39611111111111,36.64194444444444],[-116.53583333333333,36.705000000000005],[-116.53583333333333,36.70527777777778],[-116.67500000000001,36.76777777777777],[-116.80138888888888,36.849722222222226],[-116.90777777777778,36.94583333333333],[-117.01638888888888,37.04361111111111],[-117.12583333333333,37.14222222222222],[-117.23416666666667,37.239444444444445],[-117.23416666666667,37.239444444444445],[-117.32249999999999,37.318333333333335],[-117.34277777777777,37.33638888888889],[-117.43222222222222,37.41611111111111],[-117.55944444444444,37.49527777777778],[-117.71888888888888,37.510555555555555],[-117.75027777777778,37.513333333333335],[-117.90833333333335,37.52611111111111],[-118.18111111111112,37.5475],[-118.21222222222222,37.54972222222222],[-118.3786111111111,37.5625],[-118.52833333333334,37.573888888888895],[-118.66333333333334,37.58416666666667],[-118.78277777777778,37.59277777777778],[-118.81305555555555,37.594722222222224],[-118.9525,37.605000000000004],[-119.10166666666666,37.61527777777778],[-119.4,37.63583333333333],[-119.54916666666666,37.64611111111111],[-119.7,37.655833333333334],[-119.84861111111111,37.665],[-119.9975,37.67444444444444],[-120.14500000000001,37.68388888888889],[-120.2911111111111,37.692499999999995],[-120.56666666666666,37.68333333333333],[-120.84444444444443,37.64722222222222],[-120.97416666666666,37.63166666666667],[-121.09861111111111,37.61555555555556],[-121.20027777777779,37.60138888888889],[-121.30361111111111,37.58777777777778],[-121.68027777777779,37.53722222222222],[-121.76861111111111,37.516666666666666],[-121.93277777777779,37.493611111111115],[-122.01194444444444,37.49861111111111],[-122.15138888888889,37.526944444444446],[-122.20583333333333,37.54972222222222],[-122.25416666666666,37.57027777777778],[-122.30083333333333,37.58972222222222]],"type":"LineString"}
}
