{
  "id": 2032054139,
  "type": "Feature",
  "properties": {
    "geom:area": 0,
    "geom:bbox": "-122.563170,36.734490,-122.364740,37.668650",
    "geom:latitude": 37.24270187170323,
    "geom:longitude": -122.51759324369881,
    "src:alt_label": "swim-takeoff",
    "src:geom": "swim",
    "swim:elevations": [
      183,
      490,
      921,
      1167,
      1256,
      1759,
      2364,
      2528,
      2960,
      3374,
      3600,
      3669,
      3892,
      4341,
      4579,
      4958,
      5293,
      5428,
      5728,
      5966,
      6105,
      6471,
      6561,
      6954
    ],
    "swim:geom": "takeoff",
    "swim:timestamps": [
      1785502965,
      1785502998,
      1785503034,
      1785503065,
      1785503074,
      1785503116,
      1785503157,
      1785503169,
      1785503206,
      1785503246,
      1785503272,
      1785503285,
      1785503319,
      1785503360,
      1785503385,
      1785503421,
      1785503454,
      1785503472,
      1785503508,
      1785503538,
      1785503556,
      1785503600,
      1785503612,
      1785503662
    ],
    "wof:geomhash": "6f46506e85715bdb2dee40acd30139b9",
    "wof:id": 2032054139,
    "wof:repo": "sfomuseum-data-flights-2026-07"
  },
  "bbox": [
    -122.56317,
    36.73449,
    -122.36474,
    37.66865
  ],
  "geometry": {"coordinates":[[-122.39061,37.62539],[-122.42056,37.63832],[-122.45331,37.65247],[-122.48717,37.66665],[-122.49903,37.66865],[-122.55162,37.64466],[-122.55825,37.59355],[-122.55655,37.57791],[-122.55544,37.52764],[-122.55642,37.47023],[-122.55641,37.43018],[-122.5569,37.4089],[-122.55923,37.35054],[-122.56067,37.27897],[-122.56116,37.23245],[-122.56192,37.16643],[-122.56272,37.10461],[-122.56317,37.07157],[-122.5554,37.00303],[-122.52324,36.95096],[-122.50185,36.92171],[-122.44555,36.84465],[-122.42973,36.82306],[-122.36474,36.73449]],"type":"LineString"}
}
