{
  "id": 2031969585,
  "type": "Feature",
  "properties": {
    "geom:area": 0,
    "geom:bbox": "-122.383333,37.633333,-79.929167,43.995000",
    "geom:latitude": 42.38750685739492,
    "geom:longitude": -101.32113950841574,
    "src:alt_label": "swim-path",
    "src:geom": "swim",
    "swim:altitudes": [
      "006",
      "031",
      "064",
      "125",
      "171",
      "220",
      "232",
      "264",
      "279",
      "287",
      "300",
      "310",
      "317",
      "319",
      "327",
      "330C",
      "330C",
      "330C",
      "330C",
      "330C",
      "332",
      "341",
      "350C",
      "350C",
      "350C",
      "351C",
      "351C",
      "350C",
      "350C",
      "350C",
      "350C",
      "350C",
      "350C",
      "351C",
      "350C",
      "350C",
      "350C",
      "350C",
      "350C",
      "350C",
      "350C",
      "350C",
      "350C",
      "350C",
      "350C",
      "350C",
      "351C",
      "350C",
      "350C",
      "350C",
      "350C",
      "350C",
      "350C",
      "351C",
      "350C",
      "350C",
      "350C",
      "350C",
      "350C",
      "350C",
      "351C",
      "351C",
      "350C",
      "350C",
      "351C",
      "350C",
      "350C",
      "350C",
      "350C",
      "350C",
      "350C",
      "351C",
      "350C",
      "350C",
      "350C",
      "350C",
      "350C",
      "350C",
      "351C",
      "350C",
      "350C",
      "350C",
      "350C",
      "350C",
      "350C",
      "350C",
      "350C",
      "350C",
      "351C",
      "351C",
      "351C",
      "350C",
      "350C",
      "351C",
      "350C",
      "350C",
      "350C",
      "350C",
      "350C",
      "350C",
      "350C",
      "350C",
      "350C",
      "351C",
      "350C",
      "350C",
      "350C",
      "350C",
      "350C",
      "350C",
      "350C",
      "350C",
      "350C",
      "350C",
      "350C",
      "350C",
      "350C",
      "350C",
      "350C",
      "350C",
      "350C",
      "350C",
      "350C",
      "350C",
      "350C",
      "350C",
      "350C",
      "350C",
      "350C",
      "350C",
      "350C",
      "350C",
      "350C",
      "350C",
      "350C",
      "350C",
      "350C",
      "350C",
      "350C",
      "350C",
      "350C",
      "350C",
      "350C",
      "350C",
      "350C",
      "350C",
      "351C",
      "350C",
      "350C",
      "351C",
      "351C",
      "350C",
      "350C",
      "350C",
      "350C",
      "350C",
      "350C",
      "350C",
      "350C",
      "351C",
      "350C",
      "350C",
      "350C",
      "350C",
      "350C",
      "350C",
      "350C",
      "350C",
      "351C",
      "351C",
      "351C",
      "350C",
      "350C",
      "350C",
      "350C",
      "350C",
      "350C",
      "350C",
      "350C",
      "350C",
      "350C",
      "350C",
      "350C",
      "350C",
      "350C",
      "351C",
      "350C",
      "350C",
      "350C",
      "350C",
      "350C",
      "351C",
      "350C",
      "350C",
      "350C",
      "350C",
      "350C",
      "350C",
      "351C",
      "350C",
      "350C",
      "350C",
      "350C",
      "350C",
      "350C",
      "350C",
      "350C",
      "350C",
      "350C",
      "350C",
      "350C",
      "350C",
      "350C",
      "341C",
      "340C",
      "340C",
      "340C",
      "340C",
      "341C",
      "341C",
      "341C",
      "340C",
      "335",
      "332",
      "325",
      "322",
      "313",
      "310C",
      "310C",
      "310C",
      "310C",
      "310C",
      "308",
      "298",
      "288",
      "278",
      "268",
      "258",
      "248",
      "240C",
      "228",
      "211",
      "189",
      "183",
      "171",
      "164",
      "153",
      "149",
      "132C",
      "130",
      "130C",
      "119",
      "111",
      "098",
      "089",
      "084",
      "066",
      "047",
      "040",
      "040",
      "040",
      "040",
      "040",
      "040",
      "040",
      "036",
      "032",
      "025",
      "024",
      "018",
      "015"
    ],
    "swim:geom": "path",
    "swim:speeds": [
      159,
      171,
      283,
      391,
      421,
      456,
      464,
      489,
      508,
      514,
      513,
      514,
      516,
      515,
      515,
      513,
      513,
      513,
      513,
      521,
      517,
      519,
      511,
      512,
      510,
      511,
      512,
      512,
      511,
      511,
      513,
      514,
      516,
      517,
      517,
      517,
      517,
      517,
      516,
      516,
      517,
      518,
      520,
      519,
      519,
      519,
      518,
      517,
      517,
      517,
      516,
      516,
      523,
      522,
      520,
      518,
      516,
      516,
      516,
      517,
      519,
      520,
      520,
      520,
      518,
      517,
      516,
      517,
      515,
      515,
      515,
      515,
      514,
      515,
      514,
      514,
      515,
      516,
      516,
      516,
      516,
      515,
      515,
      515,
      515,
      515,
      515,
      515,
      515,
      515,
      515,
      514,
      514,
      513,
      511,
      510,
      509,
      508,
      507,
      507,
      508,
      510,
      511,
      511,
      511,
      511,
      512,
      513,
      514,
      514,
      514,
      514,
      514,
      514,
      514,
      514,
      514,
      514,
      514,
      514,
      514,
      514,
      513,
      513,
      513,
      512,
      512,
      513,
      514,
      515,
      515,
      515,
      515,
      515,
      516,
      516,
      517,
      517,
      517,
      516,
      513,
      511,
      511,
      512,
      513,
      515,
      516,
      516,
      518,
      521,
      522,
      522,
      522,
      521,
      520,
      519,
      520,
      519,
      520,
      520,
      520,
      519,
      519,
      519,
      520,
      521,
      523,
      523,
      524,
      524,
      524,
      524,
      523,
      523,
      523,
      522,
      522,
      520,
      518,
      518,
      516,
      515,
      514,
      515,
      515,
      515,
      515,
      514,
      514,
      514,
      515,
      515,
      514,
      515,
      514,
      514,
      513,
      512,
      513,
      512,
      510,
      508,
      507,
      507,
      508,
      507,
      511,
      511,
      511,
      511,
      511,
      512,
      512,
      512,
      514,
      514,
      515,
      516,
      516,
      518,
      519,
      518,
      500,
      499,
      499,
      498,
      497,
      496,
      497,
      497,
      497,
      498,
      498,
      485,
      481,
      474,
      462,
      449,
      447,
      446,
      445,
      429,
      413,
      410,
      397,
      397,
      383,
      386,
      374,
      377,
      374,
      362,
      364,
      323,
      301,
      301,
      289,
      278,
      240,
      236,
      236,
      219,
      222,
      189,
      182,
      170,
      174,
      140,
      141,
      137,
      138
    ],
    "swim:timestamps": [
      1784994287,
      1784994359,
      1784994479,
      1784994659,
      1784994780,
      1784994960,
      1784995020,
      1784995200,
      1784995320,
      1784995380,
      1784995448,
      1784995508,
      1784995561,
      1784995568,
      1784995621,
      1784995688,
      1784995748,
      1784995809,
      1784995869,
      1784995929,
      1784995981,
      1784996049,
      1784996161,
      1784996169,
      1784996229,
      1784996289,
      1784996349,
      1784996409,
      1784996462,
      1784996469,
      1784996650,
      1784996702,
      1784996770,
      1784996830,
      1784996890,
      1784996950,
      1784997010,
      1784997070,
      1784997130,
      1784997190,
      1784997250,
      1784997311,
      1784997371,
      1784997431,
      1784997491,
      1784997611,
      1784997671,
      1784997731,
      1784997791,
      1784998031,
      1784998092,
      1784998152,
      1784998452,
      1784998572,
      1784998632,
      1784998692,
      1784998752,
      1784998812,
      1784998873,
      1784998933,
      1784998993,
      1784999053,
      1784999173,
      1784999233,
      1784999473,
      1784999533,
      1784999594,
      1784999619,
      1784999679,
      1784999739,
      1784999774,
      1784999799,
      1784999834,
      1784999859,
      1784999894,
      1784999919,
      1784999980,
      1785000040,
      1785000074,
      1785000100,
      1785000134,
      1785000160,
      1785000194,
      1785000220,
      1785000254,
      1785000280,
      1785000340,
      1785000375,
      1785000400,
      1785000435,
      1785000460,
      1785000520,
      1785000555,
      1785000580,
      1785000640,
      1785000700,
      1785000761,
      1785000821,
      1785000881,
      1785000941,
      1785001001,
      1785001121,
      1785001181,
      1785001241,
      1785001301,
      1785001361,
      1785001421,
      1785001468,
      1785001482,
      1785001528,
      1785001542,
      1785001588,
      1785001662,
      1785001708,
      1785001722,
      1785001782,
      1785001828,
      1785001842,
      1785001888,
      1785001902,
      1785001948,
      1785001962,
      1785002022,
      1785002069,
      1785002129,
      1785002189,
      1785002249,
      1785002309,
      1785002369,
      1785002429,
      1785002549,
      1785002730,
      1785002790,
      1785002850,
      1785002910,
      1785002970,
      1785003030,
      1785003090,
      1785003150,
      1785003210,
      1785003270,
      1785003330,
      1785003390,
      1785003451,
      1785003511,
      1785003571,
      1785003631,
      1785003691,
      1785003751,
      1785003811,
      1785003871,
      1785003931,
      1785003991,
      1785004051,
      1785004111,
      1785004139,
      1785004172,
      1785004199,
      1785004232,
      1785004292,
      1785004364,
      1785004379,
      1785004439,
      1785004499,
      1785004544,
      1785004559,
      1785004604,
      1785004619,
      1785004664,
      1785004679,
      1785004724,
      1785004739,
      1785004800,
      1785004844,
      1785004860,
      1785004905,
      1785004920,
      1785004980,
      1785005025,
      1785005040,
      1785005100,
      1785005145,
      1785005160,
      1785005220,
      1785005265,
      1785005325,
      1785005385,
      1785005445,
      1785005461,
      1785005505,
      1785005521,
      1785005581,
      1785005626,
      1785005641,
      1785005686,
      1785005746,
      1785005761,
      1785005806,
      1785005821,
      1785005866,
      1785005941,
      1785006062,
      1785006254,
      1785006314,
      1785006324,
      1785006385,
      1785006445,
      1785006505,
      1785006565,
      1785006615,
      1785006625,
      1785006675,
      1785006685,
      1785006795,
      1785006855,
      1785006865,
      1785006915,
      1785006925,
      1785006975,
      1785006985,
      1785007045,
      1785007106,
      1785007216,
      1785007226,
      1785007276,
      1785007286,
      1785007346,
      1785007406,
      1785007466,
      1785007526,
      1785007586,
      1785007646,
      1785007706,
      1785007766,
      1785007827,
      1785007887,
      1785007947,
      1785008007,
      1785008067,
      1785008127,
      1785008187,
      1785008247,
      1785008344,
      1785008367,
      1785008404,
      1785008427,
      1785008464,
      1785008487,
      1785008548,
      1785008584,
      1785008608,
      1785008644,
      1785008668,
      1785008728,
      1785008765,
      1785008788,
      1785008848,
      1785008908,
      1785008968,
      1785009005,
      1785009028,
      1785009065,
      1785009088,
      1785009125,
      1785009148,
      1785009186,
      1785009208,
      1785009246,
      1785009269,
      1785009306,
      1785009329
    ],
    "wof:geomhash": "d092ab9a94132d55d747af5cf4274f55",
    "wof:id": 2031969585,
    "wof:repo": "sfomuseum-data-flights-2026-07"
  },
  "bbox": [
    -122.38333333333334,
    37.63333333333333,
    -79.92916666666667,
    43.995
  ],
  "geometry": {"coordinates":[[-122.38333333333334,37.63333333333333],[-122.37777777777777,37.66111111111111],[-122.22083333333333,37.71527777777778],[-122.01861111111111,37.94083333333333],[-121.85749999999999,38.13166666666667],[-121.56527777777778,38.43083333333333],[-121.4375,38.513888888888886],[-121.0175,38.76861111111111],[-120.73305555555555,38.93944444444444],[-120.58833333333332,39.02583333333333],[-120.42361111111111,39.12166666666667],[-120.27694444444444,39.20888888888889],[-120.14611111111111,39.28722222222222],[-120.12944444444443,39.29666666666667],[-120.01055555555556,39.36638888888889],[-119.83555555555554,39.468333333333334],[-119.68777777777778,39.55277777777778],[-119.53944444444444,39.63944444444444],[-119.38972222222223,39.72638888888889],[-119.23861111111111,39.81222222222222],[-119.11388888888888,39.88305555555556],[-118.93138888888889,39.976111111111116],[-118.63416666666667,40.10416666666667],[-118.60749999999999,40.11527777777778],[-118.4475,40.183055555555555],[-118.28444444444445,40.25194444444445],[-118.11694444444444,40.32194444444445],[-117.95666666666666,40.39194444444444],[-117.82277777777777,40.45027777777778],[-117.79444444444444,40.462500000000006],[-117.30388888888889,40.67333333333333],[-117.16722222222222,40.731388888888894],[-117.0025,40.801111111111105],[-116.83444444444444,40.871944444444445],[-116.66694444444445,40.94194444444444],[-116.50083333333333,41.01111111111111],[-116.33333333333333,41.080555555555556],[-116.16583333333334,41.14944444444444],[-115.99833333333333,41.21805555555556],[-115.83111111111111,41.28611111111111],[-115.66277777777778,41.35416666666667],[-115.49305555555556,41.4225],[-115.3236111111111,41.49],[-115.14444444444445,41.544444444444444],[-114.96583333333334,41.59055555555556],[-114.6,41.68333333333333],[-114.41638888888889,41.72944444444445],[-114.23611111111111,41.77444444444444],[-114.05499999999999,41.81888888888889],[-113.32277777777777,41.99638888888889],[-113.14083333333333,42.03972222222222],[-112.95777777777778,42.08277777777778],[-112.0375,42.33111111111111],[-111.64777777777779,42.4525],[-111.49861111111112,42.49861111111111],[-111.31916666666666,42.55361111111111],[-111.11277777777777,42.61638888888889],[-110.93527777777778,42.669999999999995],[-110.75305555555556,42.724444444444444],[-110.57444444444444,42.77777777777778],[-110.39027777777778,42.83222222222223],[-110.20944444444444,42.88527777777778],[-109.8436111111111,42.99166666666667],[-109.65722222222223,43.044999999999995],[-108.92027777777778,43.24861111111111],[-108.72888888888889,43.272777777777776],[-108.53388888888888,43.29138888888889],[-108.4588888888889,43.29833333333333],[-108.26555555555555,43.31638888888889],[-108.07055555555556,43.33388888888889],[-107.9563888888889,43.344166666666666],[-107.87777777777777,43.35111111111111],[-107.76055555555556,43.361111111111114],[-107.68361111111112,43.36805555555556],[-107.56694444444445,43.378055555555555],[-107.49083333333333,43.38444444444444],[-107.29416666666667,43.40083333333333],[-107.10027777777778,43.41694444444444],[-106.98305555555555,43.42611111111111],[-106.90305555555557,43.4325],[-106.77694444444444,43.442499999999995],[-106.70138888888889,43.44833333333333],[-106.58083333333333,43.4575],[-106.50472222222223,43.46333333333334],[-106.38555555555556,43.47222222222222],[-106.30916666666667,43.47805555555556],[-106.11222222222221,43.492222222222225],[-106.03277777777778,43.49805555555556],[-105.91638888888889,43.51027777777778],[-105.79972222222221,43.52361111111111],[-105.7213888888889,43.532777777777774],[-105.5261111111111,43.555],[-105.40972222222223,43.56805555555556],[-105.33194444444445,43.57666666666667],[-105.13944444444445,43.59805555555556],[-104.94638888888889,43.61888888888889],[-104.75333333333333,43.63972222222222],[-104.56166666666667,43.66],[-104.36833333333333,43.68],[-104.17555555555556,43.69972222222222],[-103.98138888888889,43.71888888888889],[-103.59333333333333,43.75694444444444],[-103.39805555555556,43.775555555555556],[-103.20416666666667,43.79333333333333],[-103.00805555555556,43.811388888888885],[-102.81333333333333,43.82888888888889],[-102.61888888888888,43.845],[-102.46777777777778,43.85527777777778],[-102.415,43.85888888888889],[-102.2713888888889,43.868611111111115],[-102.2213888888889,43.87222222222222],[-102.07166666666666,43.882222222222225],[-101.83722222222222,43.89722222222222],[-101.68138888888889,43.907222222222224],[-101.64111111111112,43.90972222222222],[-101.44305555555556,43.92194444444444],[-101.2875,43.93138888888889],[-101.2475,43.933611111111105],[-101.09194444444444,43.94277777777778],[-101.05,43.945277777777775],[-100.89277777777778,43.95388888888889],[-100.85666666666665,43.95583333333334],[-100.66083333333334,43.96666666666667],[-100.50083333333333,43.97527777777778],[-100.30472222222222,43.98527777777778],[-100.10972222222222,43.995],[-99.91333333333334,43.99194444444444],[-99.7175,43.973333333333336],[-99.52361111111111,43.95444444444445],[-99.33,43.934999999999995],[-98.9363888888889,43.894999999999996],[-98.36472222222221,43.83416666666667],[-98.16861111111112,43.8125],[-97.97361111111111,43.79055555555556],[-97.77722222222222,43.76833333333333],[-97.58305555555555,43.74583333333334],[-97.38805555555557,43.723055555555554],[-97.19222222222223,43.69972222222222],[-96.99972222222222,43.67666666666666],[-96.80499999999999,43.65333333333333],[-96.57055555555556,43.64416666666666],[-96.3775,43.63861111111111],[-96.18555555555555,43.63305555555556],[-95.99138888888889,43.62694444444445],[-95.795,43.620555555555555],[-95.59694444444445,43.61361111111111],[-95.39916666666667,43.60638888888889],[-95.20083333333334,43.598888888888894],[-95.00222222222222,43.590833333333336],[-94.80166666666666,43.5825],[-94.60388888888889,43.573888888888895],[-94.4038888888889,43.565],[-94.20138888888889,43.55555555555555],[-94.03388888888888,43.54722222222222],[-93.81777777777778,43.53638888888889],[-93.73777777777778,43.532222222222224],[-93.61944444444444,43.52611111111111],[-93.54166666666667,43.52194444444444],[-93.42277777777778,43.51555555555556],[-93.22194444444445,43.50416666666667],[-93.02416666666666,43.49305555555556],[-92.9475,43.48833333333334],[-92.75138888888888,43.47694444444445],[-92.55027777777778,43.464444444444446],[-92.3913888888889,43.45444444444445],[-92.35111111111111,43.45166666666667],[-92.19277777777778,43.44138888888889],[-92.15027777777779,43.43861111111111],[-92.03166666666667,43.43083333333333],[-91.9525,43.425555555555555],[-91.83027777777778,43.41722222222222],[-91.75138888888888,43.41166666666666],[-91.55055555555555,43.3975],[-91.3913888888889,43.38611111111111],[-91.35277777777777,43.38333333333333],[-91.1913888888889,43.37111111111111],[-91.1525,43.36833333333333],[-90.955,43.35333333333333],[-90.79777777777778,43.34138888888889],[-90.76138888888889,43.33861111111111],[-90.56694444444445,43.323055555555555],[-90.4088888888889,43.31055555555555],[-90.36944444444444,43.30722222222222],[-90.16250000000001,43.29],[-90.03972222222222,43.27972222222222],[-89.8461111111111,43.26305555555555],[-89.65333333333334,43.24611111111111],[-89.46055555555556,43.22888888888889],[-89.38694444444445,43.222500000000004],[-89.24083333333333,43.20916666666667],[-89.19472222222223,43.205000000000005],[-88.99833333333333,43.18666666666666],[-88.88777777777779,43.17527777777777],[-88.80749999999999,43.16861111111111],[-88.65833333333335,43.151666666666664],[-88.4675,43.13305555555556],[-88.42583333333334,43.13138888888889],[-88.27027777777778,43.11555555555556],[-88.23583333333333,43.11222222222222],[-88.08083333333333,43.095555555555556],[-87.85638888888889,43.071111111111115],[-87.47694444444444,43.028888888888886],[-86.85722222222222,42.956944444444446],[-86.66777777777779,42.93444444444444],[-86.63,42.92972222222222],[-86.44277777777778,42.906666666666666],[-86.25472222222223,42.88166666666667],[-86.0775,42.83444444444444],[-85.90444444444445,42.780277777777776],[-85.75972222222222,42.734722222222224],[-85.72916666666667,42.725],[-85.585,42.67944444444444],[-85.55027777777778,42.66833333333333],[-85.23166666666667,42.56583333333333],[-85.05638888888889,42.50888888888889],[-85.02027777777778,42.49722222222222],[-84.88138888888888,42.45194444444445],[-84.84333333333333,42.43944444444444],[-84.69944444444445,42.39222222222222],[-84.66444444444446,42.38055555555555],[-84.48194444444445,42.32027777777778],[-84.30666666666666,42.261944444444445],[-84.00027777777778,42.159166666666664],[-83.96416666666667,42.14666666666667],[-83.8325,42.10194444444445],[-83.79861111111111,42.09055555555556],[-83.63083333333333,42.03333333333333],[-83.46416666666667,41.975833333333334],[-83.2936111111111,41.91694444444444],[-83.13277777777778,41.861111111111114],[-82.96416666666667,41.801944444444445],[-82.79694444444445,41.74333333333333],[-82.63166666666666,41.68472222222222],[-82.46277777777777,41.62444444444444],[-82.30277777777778,41.56722222222223],[-82.14777777777779,41.50972222222222],[-82,41.442499999999995],[-81.85972222222222,41.378055555555555],[-81.72527777777778,41.316111111111105],[-81.58361111111111,41.250277777777775],[-81.44527777777778,41.18583333333333],[-81.29027777777777,41.11361111111111],[-81.06333333333333,41.025],[-81.01472222222222,41.00833333333333],[-80.92861111111111,40.97694444444445],[-80.8775,40.96],[-80.80055555555555,40.93222222222222],[-80.77527777777777,40.92361111111111],[-80.65083333333334,40.87833333333333],[-80.5761111111111,40.81805555555556],[-80.54333333333334,40.79222222222222],[-80.48361111111112,40.73972222222222],[-80.45527777777778,40.71666666666667],[-80.375,40.646388888888886],[-80.32555555555555,40.60305555555556],[-80.29777777777778,40.58888888888889],[-80.19305555555556,40.5825],[-80.10055555555554,40.57916666666667],[-80.01,40.577222222222225],[-79.94166666666668,40.57222222222222],[-79.92916666666667,40.5625],[-79.93416666666667,40.51611111111111],[-79.94777777777779,40.50861111111111],[-79.99777777777778,40.48638888888889],[-80.00972222222222,40.48277777777778],[-80.06,40.480000000000004],[-80.07222222222222,40.481944444444444],[-80.11833333333333,40.48222222222223],[-80.12722222222222,40.483333333333334],[-80.16805555555555,40.48305555555556],[-80.18611111111112,40.485]],"type":"LineString"}
}
