{
  "id": 2031963641,
  "type": "Feature",
  "properties": {
    "geom:area": 0,
    "geom:bbox": "-122.357520,37.492490,-121.273400,37.613700",
    "geom:latitude": 37.5417574330281,
    "geom:longitude": -121.82243260333439,
    "src:alt_label": "swim-approach",
    "src:geom": "swim",
    "swim:elevations": [
      4516,
      4256,
      4052,
      3875,
      3701,
      3577,
      3350,
      3230,
      3194,
      3116,
      3019,
      2876,
      2763,
      2560,
      2407,
      2089,
      1897,
      1882,
      1827,
      1738,
      1564,
      1281,
      1191,
      1097,
      1024,
      944,
      785,
      642,
      462,
      365,
      336,
      328,
      130,
      73,
      4
    ],
    "swim:geom": "approach",
    "swim:timestamps": [
      1785011756,
      1785011784,
      1785011807,
      1785011827,
      1785011847,
      1785011862,
      1785011892,
      1785011936,
      1785011946,
      1785011967,
      1785011996,
      1785012016,
      1785012032,
      1785012074,
      1785012097,
      1785012148,
      1785012175,
      1785012181,
      1785012199,
      1785012237,
      1785012257,
      1785012294,
      1785012307,
      1785012330,
      1785012357,
      1785012370,
      1785012407,
      1785012436,
      1785012475,
      1785012504,
      1785012513,
      1785012516,
      1785012567,
      1785012585,
      1785012600
    ],
    "wof:geomhash": "48f978d762226070d6da00d0f874369f",
    "wof:id": 2031963641,
    "wof:repo": "sfomuseum-data-flights-2026-07"
  },
  "bbox": [
    -122.35752,
    37.49249,
    -121.2734,
    37.6137
  ],
  "geometry": {"coordinates":[[-121.2734,37.59105],[-121.32743,37.5848],[-121.37286,37.5797],[-121.41022,37.57549],[-121.44958,37.57093],[-121.47712,37.56772],[-121.53418,37.56107],[-121.61062,37.55215],[-121.62693,37.54969],[-121.65908,37.54211],[-121.70102,37.53215],[-121.72968,37.52539],[-121.75159,37.5202],[-121.80815,37.50671],[-121.83787,37.49958],[-121.90547,37.49249],[-121.94139,37.49457],[-121.94972,37.49504],[-121.97374,37.4964],[-122.02283,37.49922],[-122.04913,37.50064],[-122.097,37.50494],[-122.11241,37.51076],[-122.13828,37.52122],[-122.16571,37.53299],[-122.1779,37.53811],[-122.21257,37.55272],[-122.23816,37.56356],[-122.27239,37.57788],[-122.29325,37.58666],[-122.29902,37.58898],[-122.30107,37.58984],[-122.33522,37.6044],[-122.34729,37.60942],[-122.35752,37.6137]],"type":"LineString"}
}
