{
  "id": 2031992243,
  "type": "Feature",
  "properties": {
    "geom:area": 0,
    "geom:bbox": "-122.761730,37.458130,-122.134980,38.502840",
    "geom:latitude": 37.8489244211198,
    "geom:longitude": -122.50447061743263,
    "src:alt_label": "swim-approach",
    "src:geom": "swim",
    "swim:elevations": [
      7293,
      6966,
      6520,
      6353,
      6042,
      5859,
      5498,
      5318,
      5024,
      4937,
      4771,
      4517,
      4365,
      4022,
      3657,
      3411,
      3416,
      3353,
      3353,
      3333,
      3143,
      3025,
      2932,
      2821,
      2743,
      2390,
      2009,
      1746,
      1639,
      1361,
      1248,
      1065,
      998,
      949,
      914,
      880,
      731,
      605,
      525,
      506,
      351,
      254,
      183,
      82
    ],
    "swim:geom": "approach",
    "swim:timestamps": [
      1785178022,
      1785178058,
      1785178108,
      1785178128,
      1785178165,
      1785178185,
      1785178227,
      1785178249,
      1785178283,
      1785178296,
      1785178314,
      1785178346,
      1785178365,
      1785178405,
      1785178447,
      1785178502,
      1785178509,
      1785178565,
      1785178588,
      1785178614,
      1785178647,
      1785178668,
      1785178682,
      1785178704,
      1785178716,
      1785178752,
      1785178789,
      1785178824,
      1785178836,
      1785178866,
      1785178898,
      1785178946,
      1785178958,
      1785178970,
      1785178996,
      1785179033,
      1785179067,
      1785179092,
      1785179109,
      1785179119,
      1785179153,
      1785179180,
      1785179197,
      1785179227
    ],
    "wof:geomhash": "b196d81e71677dca9adce096553a7572",
    "wof:id": 2031992243,
    "wof:repo": "sfomuseum-data-flights-2026-07"
  },
  "bbox": [
    -122.76173,
    37.45813,
    -122.13498,
    38.50284
  ],
  "geometry": {"coordinates":[[-122.68974,38.50284],[-122.70817,38.43709],[-122.73272,38.34885],[-122.74225,38.31437],[-122.76016,38.24929],[-122.76173,38.21547],[-122.74368,38.14263],[-122.73303,38.1062],[-122.71674,38.04984],[-122.71064,38.02872],[-122.70179,37.99835],[-122.6867,37.94649],[-122.67725,37.91803],[-122.63995,37.86804],[-122.59284,37.82363],[-122.53496,37.76896],[-122.52821,37.76253],[-122.47178,37.70934],[-122.45084,37.68964],[-122.42625,37.66661],[-122.39495,37.63707],[-122.37527,37.61857],[-122.3629,37.60566],[-122.34818,37.58349],[-122.34084,37.57101],[-122.31946,37.53397],[-122.29742,37.49636],[-122.26114,37.47147],[-122.24633,37.46645],[-122.20719,37.45813],[-122.16394,37.46156],[-122.13498,37.49245],[-122.14158,37.50135],[-122.14867,37.5094],[-122.1642,37.52667],[-122.19366,37.54492],[-122.22286,37.55706],[-122.24436,37.56613],[-122.2584,37.57204],[-122.26655,37.57543],[-122.29197,37.58611],[-122.31109,37.5942],[-122.32404,37.59961],[-122.34569,37.60873]],"type":"LineString"}
}
