{
  "id": 2032049885,
  "type": "Feature",
  "properties": {
    "geom:area": 0,
    "geom:bbox": "-122.754340,37.399200,-122.083250,38.470030",
    "geom:latitude": 37.821463905289804,
    "geom:longitude": -122.46006225299398,
    "src:alt_label": "swim-approach",
    "src:geom": "swim",
    "swim:elevations": [
      8016,
      7955,
      7697,
      7593,
      7386,
      7275,
      6796,
      6457,
      6088,
      5742,
      5587,
      5130,
      4849,
      4654,
      4285,
      4000,
      3714,
      3413,
      3353,
      3353,
      3353,
      3353,
      3348,
      3137,
      2965,
      2800,
      2541,
      2262,
      2189,
      1881,
      1766,
      1621,
      1493,
      1429,
      1400,
      1352,
      1311,
      1221,
      1151,
      951,
      828,
      684,
      494,
      429,
      258,
      140,
      75
    ],
    "swim:geom": "approach",
    "swim:timestamps": [
      1785488706,
      1785488720,
      1785488748,
      1785488761,
      1785488780,
      1785488790,
      1785488838,
      1785488869,
      1785488903,
      1785488936,
      1785488951,
      1785488994,
      1785489021,
      1785489041,
      1785489079,
      1785489106,
      1785489135,
      1785489177,
      1785489195,
      1785489214,
      1785489255,
      1785489289,
      1785489316,
      1785489353,
      1785489379,
      1785489402,
      1785489435,
      1785489474,
      1785489483,
      1785489529,
      1785489556,
      1785489577,
      1785489600,
      1785489614,
      1785489633,
      1785489669,
      1785489693,
      1785489726,
      1785489753,
      1785489796,
      1785489826,
      1785489856,
      1785489897,
      1785489915,
      1785489957,
      1785489986,
      1785490004
    ],
    "wof:geomhash": "f3844f58ba54721a9a4fa0bec16bca37",
    "wof:id": 2032049885,
    "wof:repo": "sfomuseum-data-flights-2026-07"
  },
  "bbox": [
    -122.75434,
    37.3992,
    -122.08325,
    38.47003
  ],
  "geometry": {"coordinates":[[-122.51642,38.47003],[-122.53761,38.44944],[-122.57835,38.40987],[-122.59577,38.3919],[-122.62375,38.36468],[-122.63859,38.35031],[-122.70612,38.28448],[-122.74769,38.24134],[-122.75434,38.18086],[-122.73799,38.12267],[-122.73068,38.0967],[-122.70865,38.02153],[-122.69522,37.97644],[-122.68555,37.94259],[-122.65715,37.88485],[-122.62146,37.8508],[-122.58322,37.81422],[-122.52881,37.76283],[-122.50631,37.74165],[-122.48389,37.72053],[-122.43573,37.67557],[-122.40025,37.64217],[-122.37443,37.61774],[-122.34532,37.57996],[-122.33229,37.55149],[-122.31833,37.52632],[-122.29754,37.49227],[-122.27402,37.45334],[-122.26831,37.44389],[-122.21467,37.41706],[-122.18145,37.40683],[-122.15764,37.3992],[-122.13015,37.4007],[-122.11908,37.40997],[-122.10648,37.42476],[-122.08385,37.45197],[-122.08325,37.47258],[-122.10493,37.49567],[-122.12546,37.51252],[-122.16677,37.53125],[-122.19497,37.54309],[-122.22352,37.55507],[-122.25977,37.57029],[-122.27456,37.57647],[-122.30893,37.59095],[-122.33281,37.60092],[-122.34684,37.60686]],"type":"LineString"}
}
