{
  "id": 2032053789,
  "type": "Feature",
  "properties": {
    "geom:area": 0,
    "geom:bbox": "-122.391667,37.616667,-104.660556,39.853611",
    "geom:latitude": 38.42484984941101,
    "geom:longitude": -113.45942715978218,
    "src:alt_label": "swim-path",
    "src:geom": "swim",
    "swim:altitudes": [
      "004",
      "007",
      "025",
      "044",
      "063",
      "084",
      "105",
      "117",
      "132",
      "153",
      "170",
      "187",
      "202",
      "216",
      "229",
      "244",
      "256",
      "267",
      "278",
      "288",
      "299",
      "309",
      "311",
      "320",
      "328",
      "330",
      "341",
      "342",
      "350",
      "352",
      "362",
      "370C",
      "370C",
      "370C",
      "370C",
      "370C",
      "370C",
      "370C",
      "370C",
      "370C",
      "370C",
      "370C",
      "370C",
      "370C",
      "370C",
      "370C",
      "370C",
      "370C",
      "370C",
      "370C",
      "370C",
      "370C",
      "370C",
      "370C",
      "370C",
      "370C",
      "370C",
      "370C",
      "370C",
      "370C",
      "370C",
      "370C",
      "370C",
      "370C",
      "370C",
      "370C",
      "370C",
      "370C",
      "370C",
      "370C",
      "370C",
      "370C",
      "370C",
      "370C",
      "370C",
      "370C",
      "370C",
      "370C",
      "370C",
      "370C",
      "370C",
      "370C",
      "370C",
      "370C",
      "370C",
      "370C",
      "370C",
      "370C",
      "370C",
      "370C",
      "370C",
      "370C",
      "370C",
      "370C",
      "370C",
      "370C",
      "370C",
      "370C",
      "370C",
      "370C",
      "370C",
      "370C",
      "370C",
      "370C",
      "370C",
      "370C",
      "370C",
      "370C",
      "370C",
      "370C",
      "370C",
      "370C",
      "370C",
      "370C",
      "370C",
      "370C",
      "370C",
      "370C",
      "370C",
      "370C",
      "370C",
      "370C",
      "370",
      "365",
      "356",
      "346",
      "337",
      "326",
      "318",
      "308",
      "298",
      "287",
      "278",
      "267",
      "257",
      "250",
      "240",
      "231",
      "221",
      "214",
      "205",
      "199",
      "190",
      "182",
      "179",
      "178",
      "168",
      "162",
      "151",
      "149",
      "144",
      "142",
      "136",
      "133",
      "126",
      "124",
      "120",
      "120",
      "121",
      "120",
      "113",
      "108",
      "098",
      "093",
      "080",
      "073",
      "070",
      "064",
      "061",
      "055",
      "054"
    ],
    "swim:geom": "path",
    "swim:speeds": [
      163,
      159,
      210,
      247,
      267,
      290,
      304,
      338,
      365,
      373,
      388,
      400,
      412,
      422,
      435,
      439,
      446,
      458,
      468,
      476,
      483,
      489,
      489,
      491,
      499,
      502,
      500,
      502,
      500,
      502,
      496,
      490,
      494,
      489,
      490,
      490,
      492,
      495,
      493,
      495,
      493,
      494,
      494,
      493,
      494,
      493,
      493,
      493,
      493,
      493,
      493,
      493,
      492,
      492,
      492,
      492,
      492,
      492,
      492,
      492,
      493,
      493,
      493,
      494,
      494,
      494,
      494,
      494,
      494,
      494,
      494,
      493,
      493,
      494,
      494,
      494,
      495,
      496,
      495,
      495,
      496,
      496,
      497,
      498,
      498,
      498,
      497,
      497,
      497,
      497,
      497,
      497,
      498,
      498,
      498,
      498,
      498,
      499,
      499,
      499,
      492,
      482,
      481,
      479,
      478,
      478,
      477,
      477,
      477,
      478,
      478,
      478,
      478,
      478,
      477,
      470,
      469,
      467,
      466,
      466,
      466,
      465,
      465,
      465,
      470,
      480,
      486,
      493,
      494,
      494,
      481,
      473,
      465,
      462,
      459,
      445,
      439,
      429,
      425,
      414,
      405,
      386,
      382,
      371,
      348,
      343,
      344,
      347,
      345,
      328,
      302,
      289,
      278,
      273,
      275,
      272,
      253,
      229,
      223,
      211,
      213,
      205,
      210,
      206,
      199,
      192,
      175,
      173,
      170,
      171,
      99
    ],
    "swim:timestamps": [
      1785501076,
      1785501092,
      1785501152,
      1785501212,
      1785501272,
      1785501332,
      1785501392,
      1785501452,
      1785501512,
      1785501572,
      1785501632,
      1785501692,
      1785501752,
      1785501812,
      1785501872,
      1785501932,
      1785501992,
      1785502052,
      1785502112,
      1785502172,
      1785502232,
      1785502292,
      1785502300,
      1785502360,
      1785502412,
      1785502420,
      1785502473,
      1785502480,
      1785502533,
      1785502540,
      1785502593,
      1785502653,
      1785502660,
      1785502713,
      1785502720,
      1785502773,
      1785502833,
      1785502840,
      1785502893,
      1785502900,
      1785502953,
      1785503013,
      1785503020,
      1785503073,
      1785503081,
      1785503133,
      1785503141,
      1785503193,
      1785503201,
      1785503253,
      1785503261,
      1785503321,
      1785503373,
      1785503381,
      1785503433,
      1785503441,
      1785503501,
      1785503553,
      1785503561,
      1785503613,
      1785503621,
      1785503673,
      1785503681,
      1785503741,
      1785503801,
      1785503861,
      1785503921,
      1785503981,
      1785504042,
      1785504102,
      1785504162,
      1785504222,
      1785504282,
      1785504342,
      1785504402,
      1785504462,
      1785504522,
      1785504582,
      1785504642,
      1785504702,
      1785504762,
      1785504823,
      1785504883,
      1785504943,
      1785505003,
      1785505071,
      1785505123,
      1785505131,
      1785505183,
      1785505243,
      1785505303,
      1785505311,
      1785505363,
      1785505371,
      1785505431,
      1785505483,
      1785505491,
      1785505544,
      1785505551,
      1785505611,
      1785505672,
      1785505724,
      1785505732,
      1785505792,
      1785505844,
      1785505852,
      1785505904,
      1785505912,
      1785505964,
      1785506024,
      1785506032,
      1785506084,
      1785506092,
      1785506144,
      1785506152,
      1785506204,
      1785506212,
      1785506272,
      1785506332,
      1785506393,
      1785506453,
      1785506513,
      1785506573,
      1785506633,
      1785506693,
      1785506753,
      1785506813,
      1785506873,
      1785506933,
      1785506993,
      1785507053,
      1785507114,
      1785507174,
      1785507234,
      1785507294,
      1785507310,
      1785507354,
      1785507370,
      1785507414,
      1785507424,
      1785507474,
      1785507490,
      1785507534,
      1785507550,
      1785507594,
      1785507610,
      1785507654,
      1785507670,
      1785507714,
      1785507731,
      1785507774,
      1785507785,
      1785507835,
      1785507851,
      1785507895,
      1785507905,
      1785507955,
      1785507971,
      1785508015,
      1785508032,
      1785508075,
      1785508090,
      1785508135,
      1785508150,
      1785508210,
      1785508255,
      1785508270,
      1785508315,
      1785508330,
      1785508375,
      1785508435
    ],
    "wof:geomhash": "7826341050eb31ca7e15b05e676d3f3e",
    "wof:id": 2032053789,
    "wof:repo": "sfomuseum-data-flights-2026-07"
  },
  "bbox": [
    -122.39166666666668,
    37.61666666666667,
    -104.66055555555556,
    39.853611111111114
  ],
  "geometry": {"coordinates":[[-122.38333333333334,37.61666666666667],[-122.39166666666668,37.62583333333333],[-122.38416666666667,37.66916666666666],[-122.33805555555556,37.724444444444444],[-122.36083333333333,37.793055555555554],[-122.38777777777779,37.869166666666665],[-122.35333333333332,37.94499999999999],[-122.24388888888889,37.96888888888889],[-122.11861111111111,37.98888888888889],[-121.98083333333334,37.989444444444445],[-121.84805555555555,37.99],[-121.69666666666667,37.99055555555556],[-121.55055555555555,37.990833333333335],[-121.40333333333334,37.99138888888889],[-121.25166666666667,37.99111111111111],[-121.09583333333333,37.99333333333333],[-120.94388888888889,38.01583333333333],[-120.78527777777778,38.040277777777774],[-120.62388888888889,38.065],[-120.45972222222223,38.08972222222222],[-120.29055555555556,38.115],[-120.12027777777777,38.140277777777776],[-120.08944444444444,38.14222222222222],[-119.91861111111112,38.16833333333333],[-119.77555555555556,38.190555555555555],[-119.74444444444444,38.19361111111111],[-119.60027777777778,38.21555555555556],[-119.57,38.21805555555556],[-119.42777777777778,38.24],[-119.39805555555556,38.2425],[-119.26138888888889,38.263333333333335],[-119.09416666666667,38.28638888888889],[-119.09138888888889,38.285],[-118.92305555555556,38.309999999999995],[-118.88916666666667,38.31333333333333],[-118.75361111111111,38.33027777777778],[-118.5786111111111,38.33527777777778],[-118.54638888888888,38.33638888888889],[-118.40611111111112,38.34],[-118.37472222222222,38.340833333333336],[-118.23166666666667,38.34444444444445],[-118.05027777777778,38.348888888888894],[-118.01722222222222,38.349722222222226],[-117.87555555555555,38.35305555555556],[-117.84388888888888,38.35388888888889],[-117.7,38.356944444444444],[-117.66694444444445,38.3575],[-117.52555555555556,38.36],[-117.49166666666667,38.36055555555556],[-117.36444444444444,38.362500000000004],[-117.31611111111111,38.36333333333334],[-117.13861111111112,38.36666666666667],[-116.99444444444444,38.36888888888889],[-116.96305555555556,38.36944444444445],[-116.82027777777778,38.37138888888889],[-116.78583333333333,38.371944444444445],[-116.64722222222223,38.37361111111111],[-116.47111111111111,38.37583333333333],[-116.47083333333333,38.37555555555556],[-116.29416666666667,38.37722222222222],[-116.29694444444445,38.37722222222222],[-116.12166666666666,38.37861111111111],[-116.12166666666666,38.37861111111111],[-115.94527777777778,38.38],[-115.77194444444444,38.380833333333335],[-115.59666666666666,38.38138888888889],[-115.42166666666667,38.38166666666667],[-115.23138888888889,38.38166666666667],[-115.05777777777777,38.38166666666667],[-114.88416666666667,38.38138888888889],[-114.7088888888889,38.38055555555555],[-114.53527777777778,38.379444444444445],[-114.36027777777777,38.37833333333333],[-114.18444444444445,38.37694444444445],[-114.00861111111111,38.375277777777775],[-113.83527777777778,38.373333333333335],[-113.6588888888889,38.37083333333334],[-113.48416666666667,38.36833333333333],[-113.30777777777777,38.365833333333335],[-113.13305555555554,38.36277777777778],[-112.9538888888889,38.358333333333334],[-112.78083333333333,38.349444444444444],[-112.60166666666666,38.34027777777778],[-112.42555555555556,38.331388888888895],[-112.25027777777778,38.32222222222222],[-112.07305555555556,38.312777777777775],[-111.89750000000001,38.30305555555555],[-111.8888888888889,38.30277777777778],[-111.7225,38.29333333333333],[-111.54888888888888,38.28333333333333],[-111.37166666666666,38.27305555555555],[-111.36222222222221,38.2725],[-111.1975,38.26222222222222],[-111.18916666666667,38.26166666666666],[-111.01194444444444,38.250277777777775],[-110.86194444444443,38.240833333333335],[-110.835,38.23916666666667],[-110.68611111111112,38.22944444444445],[-110.64944444444446,38.22694444444445],[-110.47666666666667,38.21527777777778],[-110.30194444444444,38.20305555555556],[-110.16861111111112,38.19361111111111],[-110.13444444444445,38.19138888888889],[-109.96833333333333,38.17944444444444],[-109.83361111111111,38.169444444444444],[-109.8025,38.16722222222222],[-109.66777777777779,38.157222222222224],[-109.63416666666667,38.15472222222222],[-109.50111111111111,38.144444444444446],[-109.33388888888888,38.13166666666667],[-109.3,38.12916666666667],[-109.16722222222222,38.11833333333333],[-109.13361111111112,38.115833333333335],[-109.00777777777778,38.10583333333334],[-108.96666666666667,38.10527777777778],[-108.84333333333333,38.138333333333335],[-108.81333333333333,38.14972222222222],[-108.66638888888889,38.206944444444446],[-108.52083333333333,38.263888888888886],[-108.37333333333332,38.32138888888889],[-108.22638888888889,38.378055555555555],[-108.0786111111111,38.434999999999995],[-107.93194444444445,38.49111111111111],[-107.78277777777778,38.54694444444444],[-107.63444444444445,38.6025],[-107.48,38.660555555555554],[-107.32444444444444,38.71944444444445],[-107.14166666666668,38.788333333333334],[-107.01277777777777,38.836111111111116],[-106.84861111111111,38.8975],[-106.69444444444444,38.95444444444445],[-106.54194444444444,39.01083333333333],[-106.39361111111111,39.065],[-106.24444444444444,39.11944444444445],[-106.0961111111111,39.172777777777775],[-106.03333333333333,39.2],[-105.95222222222222,39.224722222222226],[-105.9,39.25],[-105.81416666666667,39.27444444444444],[-105.76666666666667,39.3],[-105.6825,39.32166666666667],[-105.63333333333334,39.35],[-105.5586111111111,39.36694444444444],[-105.5,39.38333333333333],[-105.42083333333333,39.413333333333334],[-105.38333333333334,39.416666666666664],[-105.29805555555555,39.4175],[-105.26666666666667,39.416666666666664],[-105.17361111111111,39.418055555555554],[-105.13333333333334,39.416666666666664],[-105.06333333333333,39.41861111111111],[-105.05,39.416666666666664],[-104.96388888888889,39.426944444444445],[-104.93333333333334,39.43333333333333],[-104.87527777777777,39.45916666666667],[-104.85,39.46666666666667],[-104.79027777777777,39.489444444444445],[-104.76666666666667,39.5],[-104.71777777777778,39.51638888888889],[-104.7,39.53333333333333],[-104.67750000000001,39.565555555555555],[-104.66666666666667,39.583333333333336],[-104.66305555555556,39.62111111111111],[-104.66666666666667,39.63333333333333],[-104.66666666666667,39.7],[-104.66194444444444,39.730555555555554],[-104.66666666666667,39.75],[-104.6613888888889,39.778055555555554],[-104.66666666666667,39.8],[-104.66055555555556,39.828611111111115],[-104.66166666666668,39.853611111111114]],"type":"LineString"}
}
