{
  "id": 2032054811,
  "type": "Feature",
  "properties": {
    "geom:area": 0,
    "geom:bbox": "-126.779167,37.629444,-122.395556,37.844167",
    "geom:latitude": 37.768260562843714,
    "geom:longitude": -124.57989549193769,
    "src:alt_label": "swim-path",
    "src:geom": "swim",
    "swim:altitudes": [
      "006",
      "028",
      "028",
      "039",
      "050C",
      "057",
      "074C",
      "079",
      "095C",
      "101",
      "122",
      "135C",
      "139",
      "158",
      "165",
      "175",
      "204",
      "219",
      "233",
      "242C",
      "254C",
      "257",
      "265C",
      "268",
      "277C",
      "280",
      "287C",
      "290",
      "299",
      "309",
      "319",
      "328",
      "340C",
      "340C",
      "340C",
      "340C",
      "340C",
      "340",
      "340C",
      "340C",
      "340C"
    ],
    "swim:geom": "path",
    "swim:speeds": [
      181,
      189,
      185,
      233,
      260,
      274,
      280,
      283,
      290,
      293,
      303,
      300,
      311,
      320,
      352,
      381,
      401,
      407,
      413,
      420,
      430,
      432,
      440,
      438,
      440,
      445,
      450,
      454,
      463,
      470,
      476,
      482,
      485,
      485,
      485,
      485,
      485,
      480,
      485,
      484,
      484
    ],
    "swim:timestamps": [
      1785521336,
      1785521389,
      1785521396,
      1785521456,
      1785521499,
      1785521516,
      1785521560,
      1785521576,
      1785521620,
      1785521636,
      1785521696,
      1785521740,
      1785521756,
      1785521816,
      1785521876,
      1785521936,
      1785522057,
      1785522117,
      1785522177,
      1785522221,
      1785522280,
      1785522297,
      1785522341,
      1785522357,
      1785522400,
      1785522417,
      1785522461,
      1785522477,
      1785522537,
      1785522597,
      1785522658,
      1785522718,
      1785522778,
      1785522838,
      1785522898,
      1785522958,
      1785523018,
      1785523061,
      1785523078,
      1785523138,
      1785523198
    ],
    "wof:geomhash": "0295605dcb1c7e58f850e428039e545a",
    "wof:id": 2032054811,
    "wof:repo": "sfomuseum-data-flights-2026-07"
  },
  "bbox": [
    -126.77916666666667,
    37.629444444444445,
    -122.39555555555556,
    37.844166666666666
  ],
  "geometry": {"coordinates":[[-122.39555555555556,37.629444444444445],[-122.45,37.65],[-122.45333333333333,37.65361111111111],[-122.52,37.67638888888889],[-122.58333333333333,37.666666666666664],[-122.6125,37.68138888888889],[-122.68333333333334,37.68333333333333],[-122.71222222222222,37.6875],[-122.78333333333333,37.68333333333333],[-122.81611111111111,37.69305555555555],[-122.92333333333333,37.69916666666666],[-123,37.7],[-123.03194444444445,37.70472222222222],[-123.1463888888889,37.711111111111116],[-123.26527777777778,37.71666666666667],[-123.39750000000001,37.72361111111111],[-123.67416666666666,37.73722222222222],[-123.81722222222221,37.744166666666665],[-123.96305555555556,37.75055555555556],[-124.06666666666666,37.75],[-124.21666666666667,37.75],[-124.26361111111112,37.763888888888886],[-124.36666666666666,37.766666666666666],[-124.41555555555556,37.77027777777778],[-124.53333333333333,37.766666666666666],[-124.5736111111111,37.776666666666664],[-124.68333333333334,37.766666666666666],[-124.73416666666667,37.783055555555556],[-124.89583333333334,37.78916666666667],[-125.06083333333333,37.79527777777778],[-125.23027777777779,37.801111111111105],[-125.39916666666667,37.80694444444444],[-125.56888888888888,37.81222222222222],[-125.73722222222223,37.8175],[-125.90833333333335,37.822500000000005],[-126.07944444444443,37.827222222222225],[-126.27055555555556,37.83222222222223],[-126.36666666666666,37.833333333333336],[-126.43972222222223,37.83638888888889],[-126.61055555555555,37.84055555555556],[-126.77916666666667,37.844166666666666]],"type":"LineString"}
}
