{
  "id": 2032054315,
  "type": "Feature",
  "properties": {
    "geom:area": 0,
    "geom:bbox": "-122.396210,37.628270,-121.260020,38.415220",
    "geom:latitude": 38.02458549536608,
    "geom:longitude": -121.8379117471549,
    "src:alt_label": "swim-takeoff",
    "src:geom": "swim",
    "swim:elevations": [
      369,
      667,
      1131,
      1260,
      1469,
      1777,
      2052,
      2199,
      2243,
      2737,
      3259,
      3369,
      3911,
      4283,
      4638,
      5085,
      5228,
      5574,
      5896,
      6073,
      6103,
      6153,
      6396,
      6498,
      7081,
      7207,
      7372,
      7396,
      7666,
      7733,
      7898,
      8065,
      8281
    ],
    "swim:geom": "takeoff",
    "swim:timestamps": [
      1785528808,
      1785528830,
      1785528867,
      1785528879,
      1785528902,
      1785528928,
      1785528948,
      1785528957,
      1785528960,
      1785528994,
      1785529039,
      1785529053,
      1785529096,
      1785529128,
      1785529155,
      1785529196,
      1785529213,
      1785529252,
      1785529282,
      1785529298,
      1785529301,
      1785529305,
      1785529328,
      1785529341,
      1785529407,
      1785529419,
      1785529437,
      1785529440,
      1785529473,
      1785529482,
      1785529501,
      1785529522,
      1785529551
    ],
    "wof:geomhash": "47fddbb46df5ede380feabf2d2f7784f",
    "wof:id": 2032054315,
    "wof:repo": "sfomuseum-data-flights-2026-07"
  },
  "bbox": [
    -122.39621,
    37.62827,
    -121.26002,
    38.41522
  ],
  "geometry": {"coordinates":[[-122.3909,37.62827],[-122.39621,37.64308],[-122.36457,37.66111],[-122.35024,37.66554],[-122.32177,37.67572],[-122.28547,37.69006],[-122.25611,37.70164],[-122.24325,37.70671],[-122.23872,37.70847],[-122.1961,37.73922],[-122.14765,37.79201],[-122.13172,37.80948],[-122.08098,37.86591],[-122.03295,37.90405],[-121.98953,37.9333],[-121.92146,37.9797],[-121.89415,37.99842],[-121.8255,38.04521],[-121.77386,38.08056],[-121.74496,38.09982],[-121.7396,38.10339],[-121.73262,38.10809],[-121.69005,38.13631],[-121.66801,38.15085],[-121.54496,38.23268],[-121.52225,38.24784],[-121.48841,38.27038],[-121.48119,38.27517],[-121.41863,38.3162],[-121.40014,38.32755],[-121.36284,38.35268],[-121.32092,38.37842],[-121.26002,38.41522]],"type":"LineString"}
}
