{
  "id": 2031961147,
  "type": "Feature",
  "properties": {
    "date:cessation_lower": "2026-07-25",
    "date:cessation_upper": "2026-07-25",
    "date:inception_lower": "2026-07-24",
    "date:inception_upper": "2026-07-24",
    "edtf:cessation": "2026-07-25T01:07:39Z",
    "edtf:inception": "2026-07-24T20:46:00Z",
    "flysfo:actual_timestamp": -1,
    "flysfo:airline": "UA",
    "flysfo:date": "2026-07-24",
    "flysfo:estimated_timestamp": -1,
    "flysfo:event": "D",
    "flysfo:flight_number": "UA8291",
    "flysfo:gate": "",
    "flysfo:journey": "SFO-IAD",
    "flysfo:scheduled_timestamp": 1784925480,
    "flysfo:timestamp": 1784925480,
    "geom:area": 0,
    "geom:bbox": "-122.370943,37.617990,-77.453702,38.949246",
    "geom:latitude": 38.283618000000004,
    "geom:longitude": -99.9123225,
    "iata:airline": "UA",
    "icao:airline": "UAL",
    "lbl:latitude": 37.61799,
    "lbl:longitude": -122.370943,
    "sfomuseum:airline_id": 1159285413,
    "sfomuseum:arrival_id": 102528817,
    "sfomuseum:departure_id": 102527513,
    "sfomuseum:flight_id": "20260724-D-UAL-8291",
    "sfomuseum:flight_number": [
      "UAL8291",
      "UA8291"
    ],
    "sfomuseum:placetype": "flight",
    "src:geom": "flysfo",
    "src:geom_alt": [
      "swim-path"
    ],
    "wof:belongsto": [],
    "wof:concordances": {
      "swim:flight_ref": "152748544"
    },
    "wof:country": "US",
    "wof:created": 1784996311,
    "wof:geomhash": "1c4ce661f6692034a082b31062a17f5e",
    "wof:hierarchy": [
      {
        "custom_id": 2031961147,
        "flight_id": 2031961147
      }
    ],
    "wof:id": 2031961147,
    "wof:involves": [
      102528817,
      102527513,
      1159285413,
      -1
    ],
    "wof:lastmodified": 1784996395,
    "wof:name": "UA8291 (SFO-IAD)",
    "wof:parent_id": -1,
    "wof:placetype": "custom",
    "wof:placetype_alt": [
      "flight"
    ],
    "wof:repo": "sfomuseum-data-flights-2026-07",
    "wof:superseded_by": [],
    "wof:supersedes": []
  },
  "bbox": [
    -122.370943,
    37.61799,
    -77.453702,
    38.949246
  ],
  "geometry": {"coordinates":[[-122.370943,37.61799],[-77.453702,38.949246]],"type":"MultiPoint"}
}
