{
  "id": 2032052717,
  "type": "Feature",
  "properties": {
    "geom:area": 0,
    "geom:bbox": "-122.383333,37.616667,-111.976111,40.770278",
    "geom:latitude": 39.68925386137948,
    "geom:longitude": -117.14320569134136,
    "src:alt_label": "swim-path",
    "src:geom": "swim",
    "swim:altitudes": [
      "004",
      "025",
      "037",
      "045",
      "063",
      "068",
      "082",
      "104",
      "115",
      "128",
      "146",
      "165",
      "181",
      "201",
      "217",
      "233",
      "247",
      "259",
      "280",
      "283",
      "291",
      "307",
      "315",
      "317",
      "325",
      "328",
      "330",
      "330",
      "330",
      "336",
      "342",
      "350C",
      "350C",
      "350C",
      "350C",
      "350C",
      "350C",
      "350C",
      "350C",
      "350C",
      "350C",
      "350C",
      "350C",
      "350C",
      "350C",
      "350C",
      "350C",
      "350C",
      "350C",
      "350C",
      "350C",
      "350C",
      "350C",
      "350C",
      "350C",
      "350C",
      "350C",
      "350C",
      "350C",
      "350C",
      "350C",
      "350C",
      "350C",
      "350C",
      "350C",
      "350C",
      "350C",
      "350C",
      "350C",
      "350C",
      "350C",
      "350C",
      "350C",
      "350C",
      "350C",
      "347",
      "337",
      "330C",
      "330C",
      "330",
      "330",
      "330",
      "327",
      "316",
      "306",
      "294",
      "275",
      "256",
      "237",
      "219",
      "201",
      "182",
      "172",
      "170C",
      "170C",
      "170",
      "169C",
      "162",
      "157",
      "142",
      "131",
      "128",
      "121",
      "115",
      "112",
      "109",
      "106",
      "100",
      "097",
      "091",
      "087",
      "083",
      "079",
      "074",
      "067",
      "063",
      "057",
      "053",
      "047",
      "044"
    ],
    "swim:geom": "path",
    "swim:speeds": [
      166,
      235,
      271,
      275,
      272,
      280,
      290,
      298,
      340,
      377,
      384,
      395,
      410,
      418,
      428,
      437,
      445,
      456,
      467,
      475,
      476,
      487,
      487,
      487,
      488,
      491,
      493,
      496,
      493,
      494,
      493,
      490,
      489,
      487,
      487,
      486,
      485,
      484,
      483,
      483,
      489,
      483,
      484,
      483,
      484,
      483,
      484,
      484,
      486,
      485,
      486,
      486,
      485,
      485,
      484,
      484,
      484,
      483,
      483,
      483,
      483,
      482,
      482,
      482,
      482,
      482,
      483,
      483,
      483,
      482,
      482,
      482,
      482,
      483,
      483,
      483,
      481,
      484,
      484,
      482,
      484,
      485,
      486,
      480,
      473,
      462,
      447,
      436,
      422,
      409,
      397,
      388,
      369,
      371,
      355,
      343,
      347,
      334,
      337,
      337,
      327,
      330,
      320,
      321,
      295,
      277,
      261,
      259,
      244,
      232,
      223,
      226,
      216,
      219,
      217,
      218,
      187,
      179,
      172,
      175
    ],
    "swim:timestamps": [
      1785552053,
      1785552126,
      1785552169,
      1785552185,
      1785552229,
      1785552245,
      1785552289,
      1785552350,
      1785552410,
      1785552470,
      1785552530,
      1785552590,
      1785552650,
      1785552710,
      1785552770,
      1785552830,
      1785552890,
      1785552950,
      1785553055,
      1785553070,
      1785553115,
      1785553191,
      1785553235,
      1785553251,
      1785553295,
      1785553311,
      1785553371,
      1785553415,
      1785553431,
      1785553475,
      1785553491,
      1785553551,
      1785553596,
      1785553611,
      1785553656,
      1785553671,
      1785553716,
      1785553731,
      1785553776,
      1785553791,
      1785553836,
      1785553851,
      1785553896,
      1785553911,
      1785553956,
      1785553972,
      1785554016,
      1785554032,
      1785554076,
      1785554092,
      1785554136,
      1785554152,
      1785554196,
      1785554212,
      1785554257,
      1785554272,
      1785554317,
      1785554332,
      1785554377,
      1785554392,
      1785554437,
      1785554452,
      1785554497,
      1785554512,
      1785554557,
      1785554572,
      1785554617,
      1785554632,
      1785554677,
      1785554692,
      1785554737,
      1785554752,
      1785554797,
      1785554857,
      1785554917,
      1785554977,
      1785555038,
      1785555098,
      1785555158,
      1785555218,
      1785555278,
      1785555338,
      1785555398,
      1785555458,
      1785555518,
      1785555578,
      1785555638,
      1785555698,
      1785555758,
      1785555819,
      1785555879,
      1785555939,
      1785555985,
      1785555999,
      1785556059,
      1785556105,
      1785556119,
      1785556159,
      1785556179,
      1785556239,
      1785556285,
      1785556299,
      1785556327,
      1785556359,
      1785556387,
      1785556419,
      1785556441,
      1785556479,
      1785556501,
      1785556540,
      1785556568,
      1785556600,
      1785556634,
      1785556660,
      1785556694,
      1785556720,
      1785556754,
      1785556780,
      1785556814,
      1785556840
    ],
    "wof:geomhash": "23451d8a87acaa483cbae62e1d6a6a05",
    "wof:id": 2032052717,
    "wof:repo": "sfomuseum-data-flights-2026-07"
  },
  "bbox": [
    -122.38333333333334,
    37.61666666666667,
    -111.97611111111111,
    40.77027777777778
  ],
  "geometry": {"coordinates":[[-122.38333333333334,37.61666666666667],[-122.36666666666666,37.666666666666664],[-122.3086111111111,37.683611111111105],[-122.28333333333333,37.7],[-122.23055555555555,37.72777777777778],[-122.2,37.75],[-122.1575,37.78138888888889],[-122.07916666666667,37.83916666666667],[-121.99472222222222,37.900555555555556],[-121.89833333333334,37.970555555555556],[-121.80361111111111,38.03861111111111],[-121.69166666666668,38.10194444444445],[-121.56388888888888,38.15611111111111],[-121.43583333333333,38.21055555555556],[-121.30138888888888,38.26722222222222],[-121.16611111111112,38.323888888888895],[-121.02888888888889,38.38138888888889],[-120.88916666666667,38.439722222222215],[-120.63277777777778,38.5425],[-120.59277777777777,38.5625],[-120.48166666666667,38.60583333333334],[-120.28861111111111,38.68694444444444],[-120.17361111111111,38.73083333333334],[-120.13611111111112,38.74916666666667],[-120.01888888888888,38.79388888888889],[-119.97805555555556,38.81305555555555],[-119.82249999999999,38.87555555555556],[-119.70611111111111,38.919999999999995],[-119.64333333333335,38.9475],[-119.55027777777778,38.9825],[-119.48611111111111,39.01027777777778],[-119.33222222222221,39.071111111111115],[-119.24055555555556,39.10583333333334],[-119.17777777777778,39.13194444444444],[-119.08611111111111,39.16583333333333],[-119.02388888888889,39.19222222222222],[-118.93388888888889,39.22638888888889],[-118.86749999999999,39.25333333333333],[-118.78166666666667,39.28444444444444],[-118.71305555555556,39.31333333333333],[-118.60333333333332,39.35583333333334],[-118.5586111111111,39.37277777777778],[-118.45194444444445,39.413888888888884],[-118.40305555555557,39.4325],[-118.29527777777777,39.473888888888894],[-118.26305555555555,39.48638888888889],[-118.14,39.533055555555556],[-118.13861111111112,39.53361111111111],[-117.98361111111112,39.5925],[-117.94833333333334,39.605555555555554],[-117.82694444444444,39.65083333333333],[-117.79166666666667,39.663888888888884],[-117.66972222222223,39.709722222222226],[-117.61444444444444,39.730555555555554],[-117.51138888888889,39.76916666666666],[-117.45916666666668,39.78861111111111],[-117.36694444444444,39.82277777777778],[-117.30194444444444,39.84666666666667],[-117.21027777777778,39.88055555555555],[-117.14527777777778,39.904444444444444],[-117.05305555555556,39.93833333333333],[-116.98972222222223,39.961666666666666],[-116.86638888888888,40.006388888888885],[-116.8325,40.01861111111111],[-116.71027777777778,40.06305555555555],[-116.67583333333334,40.07555555555556],[-116.55361111111111,40.11972222222222],[-116.52055555555556,40.13166666666667],[-116.39694444444446,40.17583333333333],[-116.36444444444444,40.1875],[-116.2388888888889,40.23222222222223],[-116.20611111111111,40.244166666666665],[-116.08277777777778,40.28777777777778],[-115.92333333333333,40.344166666666666],[-115.76305555555555,40.400555555555556],[-115.60388888888889,40.45583333333334],[-115.44555555555556,40.51083333333333],[-115.28555555555555,40.566111111111105],[-115.12527777777777,40.62111111111111],[-114.96416666666667,40.67611111111111],[-114.79194444444444,40.70444444444445],[-114.60916666666667,40.70916666666667],[-114.43027777777779,40.713055555555556],[-114.25527777777778,40.716944444444444],[-114.08305555555555,40.72027777777778],[-113.915,40.723333333333336],[-113.75111111111111,40.726111111111116],[-113.59166666666667,40.725833333333334],[-113.43861111111111,40.72555555555556],[-113.28972222222222,40.725],[-113.14333333333335,40.724444444444444],[-113.0025,40.72361111111111],[-112.89083333333333,40.72805555555556],[-112.86444444444444,40.722500000000004],[-112.73722222222223,40.72138888888889],[-112.63472222222222,40.724722222222226],[-112.61166666666666,40.72],[-112.52444444444444,40.72527777777778],[-112.48972222222223,40.726111111111116],[-112.36916666666666,40.74611111111111],[-112.27444444444444,40.76305555555555],[-112.25222222222222,40.763333333333335],[-112.19,40.77027777777778],[-112.13916666666667,40.757222222222225],[-112.09638888888888,40.72833333333333],[-112.08555555555554,40.69416666666666],[-112.085,40.66166666666666],[-112.07722222222222,40.62305555555555],[-112.07722222222222,40.593333333333334],[-112.06194444444444,40.5575],[-112.02916666666667,40.543055555555554],[-111.9875,40.55361111111111],[-111.97694444444444,40.58861111111111],[-111.97611111111111,40.608333333333334],[-111.985,40.64833333333333],[-111.98333333333333,40.66833333333333],[-111.99111111111111,40.705555555555556],[-111.98944444444444,40.720555555555556],[-111.99527777777777,40.751666666666665],[-111.99472222222222,40.76861111111111]],"type":"LineString"}
}
