{
  "id": 2031977985,
  "type": "Feature",
  "properties": {
    "geom:area": 0,
    "geom:bbox": "-123.493230,36.972150,-122.098470,37.613660",
    "geom:latitude": 37.29392637301599,
    "geom:longitude": -122.69931145124158,
    "src:alt_label": "swim-approach",
    "src:geom": "swim",
    "swim:elevations": [
      6483,
      6391,
      5807,
      5098,
      4962,
      4609,
      4529,
      4498,
      4028,
      3799,
      3550,
      3491,
      3183,
      3142,
      3048,
      3048,
      3048,
      3048,
      3036,
      3001,
      2908,
      2733,
      2443,
      2438,
      2438,
      2438,
      2438,
      2304,
      2270,
      2245,
      2192,
      1966,
      1842,
      1668,
      1518,
      1505,
      1466,
      1360,
      1195,
      1155,
      944,
      925,
      874,
      781,
      553,
      369,
      290,
      203,
      126,
      107,
      65,
      0
    ],
    "swim:geom": "approach",
    "swim:timestamps": [
      1785131917,
      1785131926,
      1785131977,
      1785132042,
      1785132054,
      1785132084,
      1785132090,
      1785132093,
      1785132135,
      1785132156,
      1785132177,
      1785132183,
      1785132207,
      1785132211,
      1785132230,
      1785132264,
      1785132270,
      1785132279,
      1785132300,
      1785132355,
      1785132368,
      1785132391,
      1785132433,
      1785132471,
      1785132483,
      1785132538,
      1785132541,
      1785132574,
      1785132580,
      1785132584,
      1785132591,
      1785132627,
      1785132645,
      1785132674,
      1785132713,
      1785132716,
      1785132725,
      1785132743,
      1785132776,
      1785132790,
      1785132836,
      1785132841,
      1785132853,
      1785132871,
      1785132918,
      1785132957,
      1785132980,
      1785133001,
      1785133022,
      1785133028,
      1785133040,
      1785133053
    ],
    "wof:geomhash": "810c9e19d512f127ee894b548409aeeb",
    "wof:id": 2031977985,
    "wof:repo": "sfomuseum-data-flights-2026-07"
  },
  "bbox": [
    -123.49323,
    36.97215,
    -122.09847,
    37.61366
  ],
  "geometry": {"coordinates":[[-123.49323,36.97215],[-123.4731,36.981],[-123.36347,37.03113],[-123.22625,37.0933],[-123.20089,37.10492],[-123.13663,37.13421],[-123.12424,37.13986],[-123.11808,37.14266],[-123.03395,37.18059],[-122.99232,37.19944],[-122.95132,37.21807],[-122.93969,37.22336],[-122.89319,37.24419],[-122.88489,37.24788],[-122.84833,37.26067],[-122.78101,37.27673],[-122.76882,37.27963],[-122.75045,37.28394],[-122.7075,37.29401],[-122.60509,37.3179],[-122.58268,37.32314],[-122.54498,37.33185],[-122.47524,37.3479],[-122.41183,37.36242],[-122.39227,37.36696],[-122.30502,37.38714],[-122.30047,37.38814],[-122.25229,37.39919],[-122.24438,37.40106],[-122.23924,37.40225],[-122.22961,37.40452],[-122.17928,37.41598],[-122.1558,37.4212],[-122.11804,37.43112],[-122.09847,37.46418],[-122.09914,37.46687],[-122.10181,37.47483],[-122.10805,37.48953],[-122.12826,37.5124],[-122.13917,37.52032],[-122.18126,37.53958],[-122.18502,37.54115],[-122.19606,37.54577],[-122.21276,37.55275],[-122.2571,37.57152],[-122.2892,37.58494],[-122.30615,37.59206],[-122.32162,37.59856],[-122.33596,37.60471],[-122.34014,37.60647],[-122.34848,37.60992],[-122.35797,37.61366]],"type":"LineString"}
}
