{
  "id": 2032018161,
  "type": "Feature",
  "properties": {
    "geom:area": 0,
    "geom:bbox": "-122.716389,37.515000,-122.050000,38.049167",
    "geom:latitude": 37.695070839443424,
    "geom:longitude": -122.35889119035704,
    "src:alt_label": "swim-path",
    "src:geom": "swim",
    "swim:altitudes": [
      "170",
      "133",
      "116",
      "110C",
      "102",
      "087",
      "073",
      "060",
      "054",
      "043",
      "033",
      "033",
      "030",
      "031",
      "024",
      "023",
      "016",
      "017",
      "008",
      "001"
    ],
    "swim:geom": "path",
    "swim:speeds": [
      372,
      354,
      352,
      313,
      267,
      270,
      265,
      259,
      212,
      200,
      185,
      189,
      171,
      175,
      157,
      163,
      143,
      146,
      144,
      146
    ],
    "swim:timestamps": [
      1785371490,
      1785371602,
      1785371670,
      1785371730,
      1785371782,
      1785371851,
      1785371911,
      1785371971,
      1785372022,
      1785372077,
      1785372137,
      1785372151,
      1785372198,
      1785372211,
      1785372257,
      1785372271,
      1785372323,
      1785372331,
      1785372391,
      1785372451
    ],
    "wof:geomhash": "5eddfe47c4e3a3a7066acd7352822759",
    "wof:id": 2032018161,
    "wof:repo": "sfomuseum-data-flights-2026-07"
  },
  "bbox": [
    -122.71638888888889,
    37.515,
    -122.05,
    38.049166666666665
  ],
  "geometry": {"coordinates":[[-122.71638888888889,38.049166666666665],[-122.63333333333334,37.86666666666667],[-122.56333333333333,37.79527777777778],[-122.48916666666666,37.72694444444445],[-122.4,37.7],[-122.30888888888889,37.675],[-122.22527777777778,37.64472222222222],[-122.14416666666668,37.61555555555556],[-122.08333333333333,37.583333333333336],[-122.05,37.53333333333333],[-122.1,37.516666666666666],[-122.10694444444444,37.515],[-122.16666666666667,37.53333333333333],[-122.16305555555556,37.529444444444444],[-122.21666666666667,37.55],[-122.21472222222222,37.55138888888889],[-122.26666666666667,37.56666666666667],[-122.26027777777777,37.57055555555556],[-122.31277777777777,37.5925],[-122.35833333333333,37.611666666666665]],"type":"LineString"}
}
