{
  "id": 2031991561,
  "type": "Feature",
  "properties": {
    "geom:area": 0,
    "geom:bbox": "-122.585500,36.739220,-121.888880,37.611950",
    "geom:latitude": 37.219974966459475,
    "geom:longitude": -122.24413656424848,
    "src:alt_label": "swim-approach",
    "src:geom": "swim",
    "swim:elevations": [
      5145,
      5068,
      4765,
      4526,
      4418,
      4146,
      4080,
      3963,
      3922,
      3842,
      3714,
      3646,
      3622,
      3509,
      3321,
      3223,
      3030,
      2956,
      2841,
      2711,
      2621,
      2567,
      2442,
      2438,
      2428,
      2356,
      2250,
      2014,
      1996,
      1857,
      1849,
      1829,
      1829,
      1829,
      1829,
      1829,
      1829,
      1829,
      1829,
      1829,
      1829,
      1829,
      1829,
      1829,
      1821,
      1670,
      1476,
      1295,
      1219,
      1232,
      1219,
      1187,
      1124,
      1078,
      980,
      885,
      762,
      700,
      608,
      548,
      505,
      458,
      406,
      398,
      350,
      302,
      283,
      269,
      197,
      129,
      95,
      160
    ],
    "swim:geom": "approach",
    "swim:timestamps": [
      1785190588,
      1785190595,
      1785190625,
      1785190652,
      1785190664,
      1785190693,
      1785190711,
      1785190760,
      1785190773,
      1785190803,
      1785190843,
      1785190858,
      1785190861,
      1785190882,
      1785190915,
      1785190934,
      1785190971,
      1785190982,
      1785191007,
      1785191030,
      1785191048,
      1785191056,
      1785191082,
      1785191119,
      1785191142,
      1785191157,
      1785191176,
      1785191216,
      1785191222,
      1785191246,
      1785191252,
      1785191281,
      1785191338,
      1785191362,
      1785191365,
      1785191377,
      1785191395,
      1785191407,
      1785191425,
      1785191450,
      1785191486,
      1785191516,
      1785191534,
      1785191565,
      1785191569,
      1785191590,
      1785191624,
      1785191657,
      1785191685,
      1785191705,
      1785191746,
      1785191773,
      1785191786,
      1785191794,
      1785191818,
      1785191843,
      1785191868,
      1785191884,
      1785191907,
      1785191925,
      1785191937,
      1785191949,
      1785191961,
      1785191970,
      1785191979,
      1785191994,
      1785192003,
      1785192006,
      1785192027,
      1785192045,
      1785192055,
      1785192080
    ],
    "wof:geomhash": "3f02891021e6a129413ed004d8ff5077",
    "wof:id": 2031991561,
    "wof:repo": "sfomuseum-data-flights-2026-07"
  },
  "bbox": [
    -122.5855,
    36.73922,
    -121.88888,
    37.61195
  ],
  "geometry": {"coordinates":[[-121.88888,36.73922],[-121.89455,36.75039],[-121.91055,36.79999],[-121.92321,36.84535],[-121.92881,36.86499],[-121.94164,36.91105],[-121.9498,36.94039],[-122.00439,36.99236],[-122.02656,36.99702],[-122.07389,37.00664],[-122.13048,37.02329],[-122.15068,37.03064],[-122.15467,37.03208],[-122.1825,37.04229],[-122.22617,37.05849],[-122.25104,37.06787],[-122.29852,37.08529],[-122.31219,37.09026],[-122.34375,37.10159],[-122.37307,37.11201],[-122.39632,37.12013],[-122.40584,37.12356],[-122.43798,37.13512],[-122.48457,37.15194],[-122.51343,37.16227],[-122.53221,37.169],[-122.55641,37.17763],[-122.5855,37.21051],[-122.58403,37.21691],[-122.56352,37.23687],[-122.55613,37.24083],[-122.52954,37.2626],[-122.48382,37.31243],[-122.46439,37.33372],[-122.46197,37.33634],[-122.45245,37.34688],[-122.43518,37.36085],[-122.41939,37.36512],[-122.3943,37.36708],[-122.35994,37.36949],[-122.30974,37.37297],[-122.27279,37.37592],[-122.25123,37.37759],[-122.21487,37.3812],[-122.21014,37.38296],[-122.18957,37.39399],[-122.15635,37.41152],[-122.12386,37.42871],[-122.10365,37.44748],[-122.09308,37.46301],[-122.09989,37.49539],[-122.11943,37.51023],[-122.13188,37.51642],[-122.13937,37.51985],[-122.16167,37.52908],[-122.18373,37.53825],[-122.20554,37.54751],[-122.21863,37.55303],[-122.23816,37.56126],[-122.25152,37.56684],[-122.26006,37.57048],[-122.26859,37.5741],[-122.27689,37.57748],[-122.28297,37.58001],[-122.28898,37.5826],[-122.29911,37.58684],[-122.30551,37.58948],[-122.30764,37.59039],[-122.32256,37.59673],[-122.33546,37.6021],[-122.34223,37.60498],[-122.36031,37.61195]],"type":"LineString"}
}
