{
  "id": 2031969365,
  "type": "Feature",
  "properties": {
    "date:cessation_lower": "1970-01-01",
    "date:cessation_upper": "1970-01-01",
    "date:inception_lower": "2026-07-25",
    "date:inception_upper": "2026-07-25",
    "edtf:cessation": "1970-01-01T00:00:00Z",
    "edtf:inception": "2026-07-25T14:54:55-07:00",
    "flysfo:actual_timestamp": -1,
    "flysfo:airline": "UA",
    "flysfo:base_airline": "",
    "flysfo:base_flight_number": "7245",
    "flysfo:date": "2026-07-25",
    "flysfo:estimated_timestamp": 1785039900,
    "flysfo:event": "D",
    "flysfo:flight_number": "UA1603",
    "flysfo:gate": "E3",
    "flysfo:journey": "SFO-ATL",
    "flysfo:scheduled_timestamp": 1785039600,
    "flysfo:timestamp": 1785039900,
    "geom:area": 0,
    "geom:bbox": "-122.370943,33.636518,-84.430686,37.617990",
    "geom:latitude": 35.627254,
    "geom:longitude": -103.4008145,
    "iata:airline": "UA",
    "iata:base_airline": "",
    "icao:aircraft": "B38M",
    "icao:airline": "UAL",
    "icao:base_airline": "CCA",
    "lbl:latitude": 37.618578,
    "lbl:longitude": -122.385434,
    "sfomuseum:aircraft_id": 1528104575,
    "sfomuseum:airline_id": 1159285413,
    "sfomuseum:arrival_id": 102526927,
    "sfomuseum:base_flight_id": "20260725-D-CCA-7245",
    "sfomuseum:departure_id": 102527513,
    "sfomuseum:flight_id": "20260725-D-UAL-1603",
    "sfomuseum:flight_number": [
      "UAL1603",
      "UA1603"
    ],
    "sfomuseum:placetype": "flight",
    "src:geom": "flysfo",
    "src:geom_alt": [
      "swim-path",
      "swim-takeoff"
    ],
    "swim:tail_number": "N37368",
    "wof:belongsto": [
      1947304067,
      102527513,
      1947304451,
      102191575,
      85633793,
      102087579,
      85922583,
      554784711,
      85688637,
      1947304495,
      1947304447,
      102085387
    ],
    "wof:country": "US",
    "wof:created": 1785082622,
    "wof:geomhash": "8306f5516cededf93440c49d2c7be198",
    "wof:hierarchy": [
      {
        "building_id": 1947304067,
        "campus_id": 102527513,
        "concourse_id": 1947304451,
        "continent_id": 102191575,
        "country_id": 85633793,
        "county_id": 102087579,
        "custom_id": 2031969365,
        "flight_id": 2031969365,
        "locality_id": 85922583,
        "postalcode_id": 554784711,
        "region_id": 85688637,
        "venue_id": 1947304495,
        "wing_id": 1947304447
      },
      {
        "building_id": 1947304067,
        "campus_id": 102527513,
        "concourse_id": 1947304451,
        "continent_id": 102191575,
        "country_id": 85633793,
        "county_id": 102085387,
        "custom_id": 2031969365,
        "flight_id": 2031969365,
        "region_id": 85688637,
        "venue_id": 1947304495,
        "wing_id": 1947304447
      }
    ],
    "wof:id": 2031969365,
    "wof:involves": [
      102527513,
      1159285413,
      1947304495,
      1159283605,
      1528104575,
      102526927
    ],
    "wof:lastmodified": 1785082795,
    "wof:name": "UA1603 (SFO-ATL)",
    "wof:parent_id": 1947304495,
    "wof:placetype": "custom",
    "wof:placetype_alt": [
      "flight"
    ],
    "wof:repo": "sfomuseum-data-flights-2026-07",
    "wof:superseded_by": [],
    "wof:supersedes": []
  },
  "bbox": [
    -122.370943,
    33.636518,
    -84.430686,
    37.61799
  ],
  "geometry": {"coordinates":[[-122.370943,37.61799],[-84.430686,33.636518]],"type":"MultiPoint"}
}
