{
  "id": 2031996759,
  "type": "Feature",
  "properties": {
    "geom:area": 0,
    "geom:bbox": "-121.341389,38.567222,-105.164444,48.653056",
    "geom:latitude": 44.35512465760559,
    "geom:longitude": -113.72583938836446,
    "src:alt_label": "swim-path",
    "src:geom": "swim",
    "swim:altitudes": [
      "263",
      "274",
      "285",
      "294",
      "301",
      "308",
      "316",
      "330C",
      "330C",
      "330C",
      "330C",
      "330C",
      "330C",
      "330",
      "330",
      "338",
      "350C",
      "350C",
      "350C",
      "350C",
      "350C",
      "350C",
      "350C",
      "350C",
      "350C",
      "350C",
      "350C",
      "350C",
      "350C",
      "350C",
      "350C",
      "350C",
      "350C",
      "350C",
      "350C",
      "350C",
      "350C",
      "350C",
      "350C",
      "350C",
      "350C",
      "350C",
      "350C",
      "350C",
      "350C",
      "350C",
      "350C",
      "350C",
      "350C",
      "350C",
      "350C",
      "350C",
      "349C",
      "350C",
      "350C",
      "350C",
      "350C",
      "350C",
      "350C",
      "350C",
      "350C",
      "350C",
      "350C",
      "350C",
      "350C",
      "350C",
      "350C",
      "350C",
      "350C",
      "350",
      "357",
      "365",
      "370C",
      "370C",
      "370C",
      "370C",
      "370C",
      "370C",
      "370C",
      "370C",
      "370C",
      "370C",
      "370C",
      "370C",
      "370C",
      "370C",
      "370C",
      "370C",
      "370C",
      "370C",
      "370C"
    ],
    "swim:geom": "path",
    "swim:speeds": [
      437,
      455,
      467,
      478,
      478,
      494,
      511,
      526,
      531,
      548,
      554,
      554,
      556,
      557,
      559,
      562,
      560,
      560,
      560,
      560,
      560,
      560,
      561,
      561,
      561,
      562,
      562,
      561,
      563,
      564,
      564,
      565,
      565,
      567,
      568,
      569,
      569,
      570,
      570,
      570,
      570,
      571,
      571,
      572,
      573,
      574,
      576,
      577,
      577,
      578,
      578,
      579,
      579,
      579,
      579,
      580,
      581,
      581,
      580,
      580,
      579,
      579,
      581,
      581,
      585,
      585,
      585,
      585,
      584,
      584,
      585,
      584,
      584,
      583,
      582,
      583,
      583,
      583,
      583,
      583,
      584,
      584,
      585,
      585,
      585,
      585,
      585,
      586,
      586,
      586,
      586
    ],
    "swim:timestamps": [
      1785209367,
      1785209428,
      1785209488,
      1785209548,
      1785209600,
      1785209660,
      1785209728,
      1785209840,
      1785209848,
      1785209908,
      1785209968,
      1785210021,
      1785210028,
      1785210081,
      1785210088,
      1785210148,
      1785210261,
      1785210268,
      1785210328,
      1785210381,
      1785210389,
      1785210441,
      1785210509,
      1785210561,
      1785210569,
      1785210629,
      1785210682,
      1785210749,
      1785210802,
      1785210869,
      1785210922,
      1785210982,
      1785211042,
      1785211102,
      1785211162,
      1785211222,
      1785211282,
      1785211342,
      1785211402,
      1785211462,
      1785211523,
      1785211583,
      1785211643,
      1785211703,
      1785211763,
      1785211823,
      1785211883,
      1785211943,
      1785212003,
      1785212063,
      1785212123,
      1785212183,
      1785212303,
      1785212363,
      1785212424,
      1785212484,
      1785212544,
      1785212604,
      1785212664,
      1785212724,
      1785212784,
      1785212844,
      1785212964,
      1785213024,
      1785213745,
      1785213805,
      1785213865,
      1785213925,
      1785213985,
      1785214045,
      1785214105,
      1785214165,
      1785214225,
      1785214286,
      1785214346,
      1785214406,
      1785214466,
      1785214526,
      1785214586,
      1785214646,
      1785214706,
      1785214766,
      1785214826,
      1785214886,
      1785214946,
      1785215006,
      1785215066,
      1785215126,
      1785215186,
      1785215246,
      1785215307
    ],
    "wof:geomhash": "8fe276abd6ae0d9ba48e8a42c787de4c",
    "wof:id": 2031996759,
    "wof:repo": "sfomuseum-data-flights-2026-07"
  },
  "bbox": [
    -121.34138888888889,
    38.56722222222223,
    -105.16444444444446,
    48.653055555555554
  ],
  "geometry": {"coordinates":[[-121.34138888888889,38.56722222222223],[-121.20444444444445,38.6475],[-121.07166666666666,38.725],[-120.93388888888889,38.805],[-120.82333333333332,38.86694444444444],[-120.67916666666667,38.95],[-120.53277777777778,39.03638888888889],[-120.22805555555556,39.20805555555556],[-120.22722222222222,39.21055555555556],[-120.06666666666666,39.30083333333333],[-119.905,39.39194444444444],[-119.745,39.48083333333334],[-119.74333333333334,39.4825],[-119.60499999999999,39.5925],[-119.60444444444444,39.59527777777778],[-119.49805555555555,39.72833333333333],[-119.28333333333333,39.993611111111115],[-119.28166666666667,39.99583333333334],[-119.17472222222223,40.126666666666665],[-119.06666666666666,40.259166666666665],[-119.065,40.26111111111111],[-118.95833333333334,40.39055555555556],[-118.8475,40.52472222222222],[-118.73777777777778,40.65694444444444],[-118.73777777777778,40.65694444444444],[-118.62638888888888,40.79055555555556],[-118.51638888888888,40.92166666666667],[-118.40444444444445,41.05472222222222],[-118.2936111111111,41.18555555555555],[-118.17861111111111,41.321111111111115],[-118.0675,41.450833333333335],[-117.95416666666667,41.58277777777778],[-117.83944444444444,41.715833333333336],[-117.72444444444444,41.84861111111111],[-117.60777777777777,41.98222222222223],[-117.49222222222222,42.11416666666667],[-117.37527777777777,42.246944444444445],[-117.27888888888889,42.35583333333334],[-117.16027777777778,42.48916666666667],[-117.01861111111111,42.647777777777776],[-116.89972222222222,42.77972222222222],[-116.78027777777778,42.91222222222222],[-116.66111111111111,43.043055555555554],[-116.54027777777777,43.175555555555555],[-116.41861111111112,43.308055555555555],[-116.29694444444445,43.44],[-116.16305555555556,43.5675],[-115.99694444444445,43.67194444444444],[-115.8286111111111,43.77444444444444],[-115.65972222222223,43.87694444444445],[-115.48972222222223,43.97944444444445],[-115.31916666666666,44.081944444444446],[-114.97611111111111,44.285555555555554],[-114.80361111111111,44.386944444444445],[-114.63083333333333,44.488055555555555],[-114.45583333333333,44.58972222222222],[-114.27972222222222,44.69138888888889],[-114.10472222222222,44.791666666666664],[-113.92861111111111,44.89222222222222],[-113.76305555555555,44.98583333333333],[-113.58638888888889,45.08527777777778],[-113.40694444444445,45.18611111111111],[-113.02416666666666,45.39805555555556],[-112.84027777777777,45.49944444444444],[-110.7675,46.76833333333333],[-110.56305555555555,46.845555555555556],[-110.35666666666665,46.92305555555555],[-110.14750000000001,47.00083333333333],[-109.93972222222223,47.07777777777778],[-109.73222222222222,47.15361111111111],[-109.5225,47.22944444444445],[-109.31222222222222,47.30472222222222],[-109.10027777777778,47.38],[-108.88916666666667,47.45444444444445],[-108.67861111111111,47.528055555555554],[-108.46555555555555,47.60194444444445],[-108.25361111111111,47.675],[-108.04027777777777,47.74777777777778],[-107.82527777777777,47.82027777777778],[-107.60888888888888,47.893055555555556],[-107.39333333333335,47.96472222222223],[-107.16277777777778,48.04055555555556],[-106.94277777777778,48.11277777777778],[-106.72555555555556,48.183055555555555],[-106.50472222222223,48.25277777777778],[-106.28361111111111,48.32],[-106.05944444444444,48.38805555555555],[-105.83722222222222,48.45472222222222],[-105.61138888888888,48.52194444444444],[-105.38972222222223,48.58722222222222],[-105.16444444444446,48.653055555555554]],"type":"LineString"}
}
