{
  "id": 2031982261,
  "type": "Feature",
  "properties": {
    "geom:area": 0,
    "geom:bbox": "-123.365960,37.631250,-122.404040,37.724880",
    "geom:latitude": 37.69500891224737,
    "geom:longitude": -122.88116382907998,
    "src:alt_label": "swim-takeoff",
    "src:geom": "swim",
    "swim:elevations": [
      407,
      701,
      856,
      974,
      1043,
      1171,
      1501,
      1663,
      1946,
      2456,
      2802,
      3093,
      3372,
      3711,
      4561,
      4832,
      5212,
      5307
    ],
    "swim:geom": "takeoff",
    "swim:timestamps": [
      1785089506,
      1785089528,
      1785089559,
      1785089581,
      1785089597,
      1785089610,
      1785089662,
      1785089686,
      1785089710,
      1785089748,
      1785089775,
      1785089802,
      1785089826,
      1785089856,
      1785089936,
      1785089965,
      1785090006,
      1785090017
    ],
    "wof:geomhash": "010f3a1fc1ef8b9cc476c3f7aaed7612",
    "wof:id": 2031982261,
    "wof:repo": "sfomuseum-data-flights-2026-07"
  },
  "bbox": [
    -123.36596,
    37.63125,
    -122.40404,
    37.72488
  ],
  "geometry": {"coordinates":[[-122.40404,37.63125],[-122.42129,37.63882],[-122.44848,37.65082],[-122.47207,37.6611],[-122.49035,37.66908],[-122.50886,37.67445],[-122.59561,37.68055],[-122.64161,37.68323],[-122.68959,37.68607],[-122.76731,37.69077],[-122.82458,37.69415],[-122.88107,37.69745],[-122.93329,37.70051],[-123.00037,37.70439],[-123.17786,37.71443],[-123.24547,37.71817],[-123.34103,37.72351],[-123.36596,37.72488]],"type":"LineString"}
}
