{
  "id": 2032038049,
  "type": "Feature",
  "properties": {
    "geom:area": 0,
    "geom:bbox": "-122.394444,33.649444,-84.150000,38.683611",
    "geom:latitude": 37.317060276735894,
    "geom:longitude": -102.98766658099886,
    "src:alt_label": "swim-path",
    "src:geom": "swim",
    "swim:altitudes": [
      "010",
      "013",
      "039",
      "058",
      "088",
      "110",
      "149",
      "170",
      "188",
      "204",
      "236",
      "252",
      "266",
      "288",
      "304",
      "320",
      "335",
      "350",
      "363",
      "376",
      "388C",
      "390C",
      "390C",
      "390C",
      "390C",
      "390C",
      "390C",
      "390C",
      "390C",
      "390C",
      "390C",
      "390C",
      "390C",
      "390C",
      "390C",
      "390C",
      "390C",
      "390C",
      "390C",
      "390C",
      "390C",
      "390C",
      "390C",
      "390C",
      "390C",
      "390C",
      "390C",
      "390C",
      "390C",
      "390C",
      "390C",
      "390C",
      "390C",
      "390C",
      "390C",
      "390C",
      "390C",
      "390C",
      "390C",
      "390C",
      "390C",
      "390C",
      "390C",
      "390C",
      "390C",
      "390C",
      "390C",
      "390C",
      "390C",
      "390C",
      "390C",
      "390C",
      "390C",
      "390C",
      "390C",
      "390C",
      "390C",
      "390C",
      "390C",
      "390C",
      "390C",
      "390C",
      "390C",
      "390C",
      "390C",
      "390C",
      "390C",
      "390C",
      "390C",
      "390C",
      "390C",
      "390C",
      "390C",
      "390C",
      "390C",
      "390C",
      "390C",
      "395",
      "406",
      "410C",
      "410C",
      "410C",
      "410C",
      "410C",
      "410C",
      "410C",
      "410C",
      "410C",
      "410C",
      "410C",
      "410C",
      "410C",
      "410C",
      "410C",
      "410C",
      "410C",
      "410C",
      "410C",
      "410C",
      "410C",
      "410C",
      "410C",
      "410C",
      "410C",
      "410C",
      "410C",
      "410C",
      "410C",
      "410C",
      "410C",
      "410C",
      "410C",
      "410C",
      "410C",
      "410C",
      "410C",
      "410C",
      "410C",
      "410C",
      "410C",
      "410C",
      "410C",
      "410C",
      "410C",
      "410C",
      "410C",
      "410C",
      "410C",
      "410C",
      "410C",
      "410C",
      "410C",
      "410C",
      "410C",
      "410C",
      "410C",
      "410C",
      "410C",
      "410C",
      "410C",
      "410C",
      "410C",
      "410C",
      "410C",
      "410C",
      "410C",
      "410C",
      "410C",
      "410C",
      "410C",
      "410C",
      "410C",
      "410C",
      "410C",
      "410C",
      "410C",
      "410C",
      "410C",
      "410C",
      "410C",
      "410C",
      "410C",
      "410C",
      "410C",
      "410C",
      "410C",
      "410C",
      "410C",
      "410C",
      "410C",
      "410C",
      "410C",
      "410C",
      "410C",
      "410C",
      "410C",
      "410C",
      "410C",
      "410C",
      "410C",
      "410C",
      "410C",
      "410C",
      "410C",
      "410C",
      "410C",
      "410C",
      "410C",
      "410C",
      "410C",
      "410C",
      "410C",
      "410C",
      "410C",
      "410C",
      "410C",
      "410C",
      "410C",
      "410C",
      "410C",
      "410C",
      "410C",
      "410C",
      "410C",
      "410C",
      "410C",
      "410C",
      "410C",
      "410C",
      "410C",
      "410C",
      "410",
      "410",
      "410",
      "410",
      "410",
      "410",
      "410",
      "410",
      "410",
      "410",
      "410",
      "410",
      "410",
      "410",
      "410",
      "410",
      "410",
      "410",
      "410",
      "410",
      "410",
      "410",
      "410",
      "410",
      "410",
      "410",
      "410",
      "410",
      "410",
      "410",
      "410",
      "410",
      "410",
      "410",
      "409",
      "396",
      "383",
      "369",
      "361",
      "346",
      "332",
      "311",
      "295",
      "271",
      "262",
      "242",
      "214",
      "197",
      "186",
      "159",
      "141",
      "133",
      "120",
      "120",
      "120",
      "099",
      "075",
      "070",
      "057",
      "053",
      "050",
      "045",
      "040",
      "040",
      "040",
      "040",
      "039",
      "035",
      "030",
      "026",
      "021",
      "018",
      "014",
      "012",
      "010"
    ],
    "swim:geom": "path",
    "swim:speeds": [
      158,
      156,
      194,
      272,
      291,
      324,
      401,
      416,
      437,
      457,
      484,
      495,
      505,
      530,
      531,
      527,
      528,
      518,
      518,
      510,
      502,
      498,
      499,
      499,
      500,
      499,
      500,
      502,
      502,
      502,
      503,
      504,
      503,
      503,
      503,
      502,
      501,
      501,
      500,
      499,
      498,
      498,
      497,
      498,
      498,
      499,
      500,
      501,
      502,
      502,
      502,
      502,
      502,
      502,
      503,
      503,
      503,
      504,
      504,
      505,
      506,
      506,
      505,
      505,
      505,
      505,
      505,
      504,
      503,
      503,
      502,
      502,
      501,
      500,
      500,
      499,
      499,
      498,
      498,
      498,
      498,
      498,
      497,
      496,
      495,
      494,
      494,
      493,
      493,
      493,
      492,
      493,
      493,
      492,
      490,
      489,
      489,
      488,
      485,
      480,
      475,
      471,
      471,
      479,
      474,
      479,
      485,
      492,
      491,
      488,
      490,
      484,
      476,
      473,
      471,
      470,
      471,
      475,
      479,
      481,
      484,
      485,
      487,
      489,
      491,
      492,
      492,
      492,
      492,
      492,
      491,
      490,
      488,
      487,
      487,
      488,
      489,
      489,
      490,
      489,
      492,
      488,
      491,
      488,
      490,
      490,
      487,
      490,
      487,
      490,
      488,
      490,
      488,
      490,
      489,
      490,
      489,
      490,
      491,
      490,
      491,
      491,
      491,
      492,
      491,
      491,
      492,
      492,
      492,
      492,
      492,
      492,
      492,
      492,
      492,
      492,
      492,
      492,
      491,
      491,
      491,
      491,
      490,
      490,
      490,
      490,
      489,
      489,
      489,
      489,
      489,
      489,
      488,
      488,
      488,
      486,
      485,
      485,
      484,
      483,
      483,
      482,
      481,
      480,
      479,
      476,
      474,
      472,
      470,
      471,
      470,
      472,
      471,
      474,
      473,
      476,
      475,
      478,
      481,
      480,
      484,
      482,
      484,
      483,
      484,
      484,
      484,
      484,
      484,
      485,
      484,
      483,
      484,
      478,
      477,
      473,
      472,
      470,
      468,
      467,
      465,
      464,
      463,
      463,
      463,
      463,
      464,
      464,
      464,
      464,
      465,
      465,
      465,
      465,
      465,
      465,
      465,
      465,
      465,
      465,
      465,
      465,
      465,
      465,
      465,
      465,
      465,
      473,
      485,
      486,
      487,
      493,
      498,
      501,
      502,
      500,
      486,
      463,
      446,
      445,
      419,
      408,
      404,
      394,
      393,
      321,
      302,
      300,
      295,
      292,
      285,
      282,
      273,
      272,
      232,
      216,
      209,
      209,
      190,
      194,
      188,
      156,
      134,
      135,
      130,
      130
    ],
    "swim:timestamps": [
      1785459276,
      1785459289,
      1785459349,
      1785459409,
      1785459469,
      1785459529,
      1785459649,
      1785459709,
      1785459769,
      1785459829,
      1785459949,
      1785460009,
      1785460070,
      1785460190,
      1785460250,
      1785460312,
      1785460370,
      1785460430,
      1785460493,
      1785460550,
      1785460610,
      1785460673,
      1785460733,
      1785460790,
      1785460853,
      1785460913,
      1785460971,
      1785461033,
      1785461094,
      1785461151,
      1785461214,
      1785461274,
      1785461331,
      1785461394,
      1785461454,
      1785461511,
      1785461574,
      1785461634,
      1785461694,
      1785461754,
      1785461815,
      1785461875,
      1785461935,
      1785461995,
      1785462055,
      1785462175,
      1785462235,
      1785462295,
      1785462355,
      1785462415,
      1785462475,
      1785462535,
      1785462596,
      1785462656,
      1785462716,
      1785462776,
      1785462836,
      1785462896,
      1785462956,
      1785463076,
      1785463134,
      1785463194,
      1785463254,
      1785463317,
      1785463375,
      1785463435,
      1785463497,
      1785463555,
      1785463615,
      1785463675,
      1785463735,
      1785463795,
      1785463855,
      1785463915,
      1785463975,
      1785464038,
      1785464096,
      1785464156,
      1785464216,
      1785464276,
      1785464396,
      1785464456,
      1785464516,
      1785464576,
      1785464636,
      1785464696,
      1785464756,
      1785464817,
      1785464877,
      1785464937,
      1785465057,
      1785465117,
      1785465177,
      1785465237,
      1785465297,
      1785465357,
      1785465417,
      1785465477,
      1785465537,
      1785465598,
      1785465658,
      1785465713,
      1785465773,
      1785465838,
      1785465893,
      1785465953,
      1785466018,
      1785466074,
      1785466134,
      1785466198,
      1785466254,
      1785466314,
      1785466379,
      1785466434,
      1785466494,
      1785466559,
      1785466614,
      1785466674,
      1785466739,
      1785466795,
      1785466915,
      1785466975,
      1785467035,
      1785467095,
      1785467155,
      1785467215,
      1785467276,
      1785467336,
      1785467396,
      1785467456,
      1785467516,
      1785467576,
      1785467636,
      1785467696,
      1785467756,
      1785467816,
      1785467876,
      1785467937,
      1785467997,
      1785468057,
      1785468094,
      1785468114,
      1785468154,
      1785468174,
      1785468214,
      1785468274,
      1785468294,
      1785468334,
      1785468354,
      1785468394,
      1785468415,
      1785468454,
      1785468475,
      1785468514,
      1785468535,
      1785468574,
      1785468595,
      1785468634,
      1785468695,
      1785468715,
      1785468755,
      1785468775,
      1785468815,
      1785468875,
      1785468895,
      1785468935,
      1785468955,
      1785468995,
      1785469015,
      1785469055,
      1785469076,
      1785469115,
      1785469136,
      1785469175,
      1785469196,
      1785469235,
      1785469256,
      1785469295,
      1785469316,
      1785469355,
      1785469376,
      1785469415,
      1785469437,
      1785469475,
      1785469497,
      1785469535,
      1785469596,
      1785469617,
      1785469656,
      1785469677,
      1785469716,
      1785469737,
      1785469776,
      1785469797,
      1785469836,
      1785469896,
      1785469956,
      1785470016,
      1785470076,
      1785470136,
      1785470196,
      1785470256,
      1785470316,
      1785470376,
      1785470436,
      1785470496,
      1785470557,
      1785470617,
      1785470655,
      1785470677,
      1785470715,
      1785470737,
      1785470775,
      1785470797,
      1785470835,
      1785470857,
      1785470895,
      1785470917,
      1785470955,
      1785470977,
      1785471015,
      1785471037,
      1785471075,
      1785471097,
      1785471135,
      1785471157,
      1785471195,
      1785471217,
      1785471255,
      1785471277,
      1785471315,
      1785471337,
      1785471375,
      1785471397,
      1785471435,
      1785471457,
      1785471495,
      1785471517,
      1785471556,
      1785471578,
      1785471616,
      1785471638,
      1785471676,
      1785471698,
      1785471736,
      1785471758,
      1785471796,
      1785471818,
      1785471856,
      1785471878,
      1785471916,
      1785471938,
      1785471976,
      1785471998,
      1785472036,
      1785472058,
      1785472096,
      1785472118,
      1785472156,
      1785472178,
      1785472216,
      1785472238,
      1785472276,
      1785472298,
      1785472336,
      1785472358,
      1785472396,
      1785472418,
      1785472456,
      1785472478,
      1785472516,
      1785472538,
      1785472576,
      1785472598,
      1785472636,
      1785472658,
      1785472696,
      1785472756,
      1785472790,
      1785472816,
      1785472881,
      1785472936,
      1785472996,
      1785473056,
      1785473117,
      1785473177,
      1785473237,
      1785473297,
      1785473307,
      1785473357,
      1785473367,
      1785473417,
      1785473439,
      1785473477,
      1785473499,
      1785473537,
      1785473553,
      1785473597,
      1785473619,
      1785473657,
      1785473673,
      1785473717,
      1785473733,
      1785473777,
      1785473793,
      1785473837
    ],
    "wof:geomhash": "e4020ab84826bda273541340a8488368",
    "wof:id": 2032038049,
    "wof:repo": "sfomuseum-data-flights-2026-07"
  },
  "bbox": [
    -122.39444444444445,
    33.64944444444444,
    -84.15,
    38.683611111111105
  ],
  "geometry": {"coordinates":[[-122.38333333333334,37.61666666666667],[-122.39444444444445,37.62694444444445],[-122.37472222222222,37.66277777777778],[-122.29388888888889,37.690555555555555],[-122.19972222222222,37.72],[-122.09583333333333,37.74666666666667],[-121.83777777777777,37.81111111111111],[-121.69972222222222,37.845555555555556],[-121.55444444444444,37.88138888888889],[-121.4025,37.91861111111111],[-121.08305555555555,37.993611111111115],[-120.91277777777778,38.020833333333336],[-120.73944444444444,38.04722222222222],[-120.3786111111111,38.10138888888889],[-120.19472222222223,38.12861111111111],[-119.99305555555556,38.156666666666666],[-119.82888888888888,38.1825],[-119.64972222222222,38.20805555555556],[-119.45444444444445,38.23416666666667],[-119.28,38.26027777777778],[-119.10777777777777,38.284166666666664],[-118.93472222222222,38.3075],[-118.76166666666667,38.33027777777778],[-118.58638888888889,38.355000000000004],[-118.41777777777779,38.37722222222222],[-118.23416666666667,38.40138888888889],[-118.06722222222221,38.42305555555555],[-117.8825,38.44638888888888],[-117.70722222222223,38.468611111111116],[-117.56333333333333,38.48638888888889],[-117.35,38.51277777777778],[-117.17027777777778,38.526666666666664],[-117.0225,38.53444444444444],[-116.8111111111111,38.54472222222222],[-116.6675,38.55166666666666],[-116.48805555555556,38.56027777777778],[-116.31222222222222,38.568333333333335],[-116.13333333333334,38.575833333333335],[-115.95777777777778,38.583333333333336],[-115.78027777777778,38.59055555555556],[-115.60194444444444,38.597500000000004],[-115.42666666666668,38.60416666666667],[-115.24,38.61083333333333],[-115.06194444444444,38.61694444444444],[-114.88611111111112,38.62277777777778],[-114.53277777777778,38.63388888888889],[-114.35444444444444,38.638888888888886],[-114.1738888888889,38.64361111111111],[-113.99555555555555,38.64833333333333],[-113.81888888888888,38.652499999999996],[-113.63944444444445,38.656388888888884],[-113.46277777777777,38.66027777777778],[-113.2825,38.66361111111111],[-113.10222222222221,38.66694444444444],[-112.92444444444445,38.66972222222222],[-112.74416666666667,38.6725],[-112.56611111111111,38.67472222222222],[-112.38527777777779,38.67666666666666],[-112.20694444444445,38.67861111111111],[-111.84722222222221,38.68138888888889],[-111.65972222222223,38.6825],[-111.48055555555555,38.683055555555555],[-111.30111111111111,38.683611111111105],[-111.12722222222222,38.683611111111105],[-110.94250000000001,38.683611111111105],[-110.78305555555555,38.683055555555555],[-110.60222222222221,38.6825],[-110.42444444444445,38.681666666666665],[-110.24694444444445,38.680277777777775],[-110.07027777777778,38.678888888888885],[-109.89277777777778,38.67666666666666],[-109.71416666666667,38.666666666666664],[-109.5375,38.65694444444444],[-109.36388888888888,38.647777777777776],[-109.18805555555556,38.63861111111111],[-109.01083333333334,38.62861111111111],[-108.835,38.618611111111115],[-108.66166666666668,38.608333333333334],[-108.4875,38.59777777777778],[-108.30972222222222,38.58694444444445],[-107.96000000000001,38.56444444444444],[-107.78527777777778,38.55277777777778],[-107.5761111111111,38.538333333333334],[-107.40277777777779,38.52638888888889],[-107.22694444444444,38.51361111111111],[-107.07138888888889,38.5025],[-106.89833333333334,38.489444444444445],[-106.72583333333334,38.47666666666667],[-106.55111111111111,38.463055555555556],[-106.38083333333333,38.44944444444444],[-106.03166666666667,38.421388888888885],[-105.86,38.40694444444444],[-105.6913888888889,38.39277777777778],[-105.51722222222222,38.3775],[-105.34638888888888,38.362500000000004],[-105.17666666666668,38.347500000000004],[-104.9975,38.32944444444445],[-104.8286111111111,38.30888888888889],[-104.6575,38.28861111111111],[-104.49111111111111,38.27583333333333],[-104.32277777777777,38.27916666666667],[-104.18777777777778,38.279444444444444],[-104.01972222222223,38.29111111111111],[-103.81944444444444,38.3175],[-103.68388888888889,38.33027777777778],[-103.51416666666667,38.35444444444445],[-103.30722222222222,38.373333333333335],[-103.1388888888889,38.371944444444445],[-103,38.359722222222224],[-102.7911111111111,38.34277777777778],[-102.65722222222223,38.331944444444446],[-102.48416666666667,38.31805555555556],[-102.28416666666666,38.30166666666666],[-102.15277777777779,38.28944444444444],[-101.99027777777778,38.27333333333333],[-101.78805555555556,38.2575],[-101.65833333333335,38.24527777777778],[-101.49138888888889,38.23027777777778],[-101.28527777777778,38.21194444444445],[-101.15,38.19944444444444],[-100.8086111111111,38.16916666666666],[-100.63666666666667,38.15222222222222],[-100.46333333333334,38.13527777777778],[-100.29222222222222,38.10805555555556],[-100.12444444444444,38.07638888888889],[-99.955,38.04],[-99.78888888888889,37.9975],[-99.62472222222222,37.95583333333334],[-99.46083333333334,37.91416666666667],[-99.29472222222222,37.87166666666667],[-99.1325,37.82972222222222],[-98.97083333333333,37.78777777777778],[-98.80916666666667,37.745555555555555],[-98.64833333333334,37.70333333333333],[-98.48916666666666,37.66111111111111],[-98.32527777777777,37.6175],[-98.16472222222222,37.574444444444445],[-98.00555555555556,37.53138888888889],[-97.81222222222222,37.47888888888889],[-97.65194444444445,37.43527777777778],[-97.56611111111111,37.41222222222222],[-97.4925,37.39138888888889],[-97.40583333333333,37.36666666666667],[-97.33055555555555,37.34638888888889],[-97.24444444444444,37.323055555555555],[-97.08388888888888,37.27777777777778],[-97.01194444444444,37.2575],[-96.92361111111111,37.23305555555556],[-96.85,37.21194444444445],[-96.76361111111112,37.18694444444444],[-96.69083333333333,37.166666666666664],[-96.60305555555556,37.141666666666666],[-96.53138888888888,37.12111111111111],[-96.44194444444445,37.09527777777778],[-96.3775,37.07694444444445],[-96.28083333333333,37.049166666666665],[-96.21583333333334,37.030277777777776],[-96.1211111111111,37.0025],[-95.9588888888889,36.95722222222223],[-95.89416666666668,36.93666666666666],[-95.79944444444445,36.90888888888889],[-95.73444444444445,36.88972222222222],[-95.63777777777779,36.86138888888889],[-95.47638888888889,36.81333333333333],[-95.41194444444444,36.79416666666666],[-95.31555555555555,36.765277777777776],[-95.25138888888888,36.74638888888889],[-95.1538888888889,36.716944444444444],[-95.09055555555555,36.69777777777777],[-94.99333333333334,36.66861111111111],[-94.92666666666668,36.64833333333333],[-94.83194444444445,36.61972222222222],[-94.80055555555555,36.61],[-94.67361111111111,36.57138888888889],[-94.63972222222223,36.56083333333333],[-94.51361111111112,36.52222222222222],[-94.47972222222222,36.51166666666666],[-94.3536111111111,36.47277777777778],[-94.32277777777777,36.46333333333334],[-94.19638888888889,36.424166666666665],[-94.16194444444444,36.413333333333334],[-94.03888888888889,36.375],[-94.005,36.36416666666667],[-93.89972222222222,36.331388888888895],[-93.83444444444444,36.31083333333333],[-93.74388888888889,36.282222222222224],[-93.58611111111111,36.23222222222223],[-93.52305555555556,36.21222222222222],[-93.43027777777779,36.1825],[-93.36555555555555,36.16166666666666],[-93.27277777777778,36.132222222222225],[-93.21055555555556,36.11194444444445],[-93.11833333333333,36.08222222222223],[-93.05277777777778,36.06111111111111],[-92.96000000000001,36.03472222222222],[-92.7975,36.000277777777775],[-92.63694444444445,35.96333333333334],[-92.47833333333334,35.92527777777777],[-92.3175,35.88666666666666],[-92.15972222222223,35.848888888888894],[-92.00111111111111,35.81083333333333],[-91.8436111111111,35.772777777777776],[-91.68388888888889,35.734722222222224],[-91.52805555555555,35.6975],[-91.3711111111111,35.66],[-91.21472222222222,35.621944444444445],[-91.06166666666667,35.584722222222226],[-90.9075,35.54694444444444],[-90.8286111111111,35.52305555555555],[-90.75444444444445,35.509166666666665],[-90.67194444444445,35.490833333333335],[-90.60194444444444,35.47138888888889],[-90.5175,35.452222222222225],[-90.44472222222223,35.43222222222222],[-90.3625,35.41305555555555],[-90.28999999999999,35.39333333333333],[-90.20666666666666,35.37388888888889],[-90.13194444444444,35.35333333333333],[-90.05055555555555,35.33305555555556],[-89.97361111111111,35.31305555555555],[-89.89250000000001,35.29388888888889],[-89.81777777777778,35.27333333333333],[-89.73527777777778,35.253055555555555],[-89.65805555555556,35.23222222222223],[-89.57888888888888,35.212500000000006],[-89.49888888888889,35.191111111111105],[-89.42222222222223,35.17194444444444],[-89.34166666666667,35.15],[-89.26611111111112,35.13],[-89.18277777777779,35.108333333333334],[-89.11,35.09],[-89.0275,35.0675],[-88.95527777777778,35.049166666666665],[-88.87583333333333,35.02722222222222],[-88.80277777777778,35.00805555555556],[-88.72305555555556,34.986666666666665],[-88.6525,34.966944444444444],[-88.57388888888889,34.946666666666665],[-88.5025,34.927499999999995],[-88.44305555555556,34.911944444444444],[-88.35333333333332,34.89111111111111],[-88.29194444444444,34.876666666666665],[-88.20166666666667,34.855000000000004],[-88.14277777777778,34.840833333333336],[-88.05166666666666,34.81861111111112],[-87.99055555555556,34.80361111111111],[-87.90055555555556,34.78138888888889],[-87.8411111111111,34.766666666666666],[-87.75111111111111,34.74444444444445],[-87.68944444444445,34.72916666666667],[-87.59944444444444,34.706944444444446],[-87.53555555555555,34.691111111111105],[-87.44527777777778,34.66861111111111],[-87.38555555555556,34.653888888888886],[-87.29388888888889,34.630833333333335],[-87.23333333333333,34.61555555555556],[-87.14222222222223,34.5925],[-87.08055555555555,34.57694444444445],[-86.99083333333333,34.55416666666667],[-86.93138888888889,34.53916666666667],[-86.84222222222222,34.51638888888889],[-86.78194444444445,34.50083333333333],[-86.69416666666667,34.47833333333333],[-86.63166666666666,34.46222222222222],[-86.54305555555555,34.43944444444444],[-86.48388888888888,34.42388888888889],[-86.39500000000001,34.40083333333333],[-86.33138888888888,34.38444444444444],[-86.23805555555556,34.36],[-86.17583333333334,34.343611111111116],[-86.08194444444445,34.31916666666667],[-86.01611111111112,34.30222222222222],[-85.9225,34.278055555555554],[-85.8561111111111,34.26083333333333],[-85.74333333333334,34.23111111111111],[-85.69694444444445,34.219166666666666],[-85.58749999999999,34.19027777777777],[-85.43805555555556,34.15083333333333],[-85.35,34.13333333333333],[-85.29583333333333,34.11361111111111],[-85.15,34.083333333333336],[-85.0363888888889,34.033055555555556],[-84.93972222222223,33.95416666666667],[-84.83694444444444,33.89055555555556],[-84.73222222222222,33.82611111111112],[-84.64083333333333,33.769444444444446],[-84.55416666666666,33.73277777777778],[-84.4575,33.73277777777778],[-84.43333333333334,33.733333333333334],[-84.36083333333333,33.73305555555556],[-84.33333333333333,33.733333333333334],[-84.26777777777778,33.73305555555556],[-84.21666666666667,33.733333333333334],[-84.17833333333334,33.73027777777778],[-84.15,33.7],[-84.15861111111111,33.67583333333333],[-84.18333333333334,33.666666666666664],[-84.21833333333333,33.64944444444444],[-84.25,33.65],[-84.28277777777778,33.64944444444444],[-84.3,33.65],[-84.34055555555555,33.64944444444444],[-84.35,33.65],[-84.38472222222222,33.64944444444444],[-84.4,33.65],[-84.43083333333334,33.64944444444444]],"type":"LineString"}
}
