{
  "id": 2032050893,
  "type": "Feature",
  "properties": {
    "geom:area": 0,
    "geom:bbox": "-122.403889,37.616667,-74.808611,40.629722",
    "geom:latitude": 39.190208568964685,
    "geom:longitude": -98.30835245731595,
    "src:alt_label": "swim-path",
    "src:geom": "swim",
    "swim:altitudes": [
      "006",
      "015",
      "017",
      "029",
      "052",
      "055",
      "077",
      "099",
      "109",
      "121",
      "138",
      "155",
      "169",
      "183",
      "196",
      "209",
      "220",
      "232",
      "242",
      "251",
      "259",
      "268",
      "276",
      "283",
      "293",
      "301",
      "307",
      "318",
      "325",
      "330C",
      "330C",
      "330C",
      "330C",
      "330C",
      "330C",
      "330C",
      "330C",
      "330C",
      "330C",
      "330C",
      "330C",
      "330C",
      "330C",
      "330C",
      "330C",
      "330C",
      "330C",
      "330C",
      "330C",
      "330C",
      "330C",
      "330C",
      "330C",
      "330C",
      "330C",
      "330C",
      "330C",
      "330C",
      "330C",
      "330C",
      "330C",
      "330C",
      "330C",
      "330C",
      "330C",
      "330C",
      "330C",
      "330C",
      "330C",
      "330C",
      "330C",
      "330C",
      "330C",
      "330C",
      "330C",
      "330C",
      "330C",
      "330C",
      "330C",
      "330C",
      "331C",
      "330C",
      "330C",
      "330C",
      "330C",
      "330C",
      "330C",
      "330C",
      "330C",
      "330C",
      "330C",
      "330C",
      "330C",
      "330C",
      "330C",
      "330C",
      "330C",
      "330C",
      "330C",
      "330C",
      "330C",
      "330C",
      "330C",
      "330C",
      "330C",
      "330C",
      "330C",
      "330C",
      "330C",
      "330C",
      "330C",
      "330C",
      "330C",
      "330C",
      "330C",
      "330C",
      "330C",
      "330C",
      "330C",
      "330C",
      "330C",
      "330C",
      "330C",
      "330C",
      "330C",
      "330C",
      "333",
      "338",
      "345",
      "350C",
      "350C",
      "350C",
      "350C",
      "350C",
      "350C",
      "350C",
      "350C",
      "350C",
      "350C",
      "350C",
      "350C",
      "350C",
      "350C",
      "350C",
      "350C",
      "350C",
      "351C",
      "350C",
      "350C",
      "350C",
      "350C",
      "350C",
      "350C",
      "350C",
      "350C",
      "350C",
      "350C",
      "350C",
      "350C",
      "350C",
      "350C",
      "350C",
      "350C",
      "350C",
      "350C",
      "350C",
      "350C",
      "350C",
      "350C",
      "350C",
      "350C",
      "350C",
      "350C",
      "350C",
      "350C",
      "351C",
      "350C",
      "350C",
      "350C",
      "350C",
      "350C",
      "350C",
      "351C",
      "351C",
      "349C",
      "350C",
      "350C",
      "351C",
      "350C",
      "350C",
      "350C",
      "350C",
      "350C",
      "350C",
      "351C",
      "350C",
      "350C",
      "350C",
      "350C",
      "350C",
      "350C",
      "350C",
      "350C",
      "350C",
      "350C",
      "350C",
      "350C",
      "350C",
      "351C",
      "351C",
      "350C",
      "350C",
      "350C",
      "350C",
      "350C",
      "350C",
      "351C",
      "350",
      "349",
      "340",
      "330",
      "318",
      "310C",
      "310C",
      "310C",
      "310C",
      "310C",
      "310C",
      "310C",
      "310C",
      "310C",
      "310C",
      "310C",
      "310C",
      "310C",
      "310C",
      "310C",
      "310C",
      "310C",
      "310C",
      "310C",
      "310C",
      "310C",
      "310C",
      "310C",
      "310C",
      "310C",
      "310C",
      "310C",
      "310C",
      "310C",
      "310C",
      "310C",
      "310C",
      "310C",
      "310C",
      "310C",
      "310C",
      "310C",
      "310C",
      "306",
      "306",
      "296",
      "296",
      "290C",
      "290C",
      "290C",
      "290C",
      "290C",
      "290C",
      "288",
      "287",
      "284",
      "283",
      "280",
      "280",
      "276",
      "276",
      "272",
      "272",
      "267",
      "266",
      "263",
      "262",
      "259",
      "258",
      "254",
      "253",
      "250C",
      "250C",
      "250",
      "246",
      "244",
      "237",
      "234",
      "226",
      "225",
      "216",
      "215",
      "197",
      "197",
      "183",
      "183",
      "174",
      "174",
      "163",
      "165",
      "153",
      "154",
      "143",
      "143",
      "134",
      "127",
      "124",
      "122",
      "114",
      "112",
      "104",
      "102",
      "097",
      "096",
      "085",
      "082",
      "080",
      "080",
      "080",
      "066",
      "063",
      "060",
      "060",
      "060",
      "060",
      "060",
      "055",
      "052",
      "050",
      "050",
      "050",
      "050",
      "043",
      "040",
      "040",
      "040",
      "033",
      "020",
      "012",
      "005",
      "110"
    ],
    "swim:geom": "path",
    "swim:speeds": [
      161,
      172,
      179,
      269,
      277,
      275,
      293,
      302,
      348,
      385,
      395,
      406,
      415,
      428,
      435,
      447,
      456,
      461,
      469,
      476,
      484,
      489,
      495,
      500,
      502,
      502,
      501,
      503,
      503,
      500,
      497,
      497,
      496,
      497,
      497,
      497,
      498,
      499,
      500,
      500,
      500,
      500,
      500,
      499,
      499,
      498,
      497,
      496,
      494,
      494,
      495,
      496,
      497,
      498,
      499,
      497,
      497,
      497,
      498,
      499,
      499,
      500,
      500,
      501,
      507,
      503,
      503,
      503,
      503,
      503,
      503,
      504,
      504,
      505,
      505,
      504,
      503,
      502,
      502,
      504,
      506,
      507,
      507,
      507,
      507,
      507,
      508,
      508,
      509,
      510,
      511,
      511,
      512,
      513,
      513,
      512,
      510,
      509,
      509,
      509,
      509,
      510,
      511,
      511,
      511,
      506,
      511,
      511,
      511,
      512,
      512,
      512,
      513,
      513,
      512,
      510,
      512,
      510,
      512,
      514,
      513,
      512,
      513,
      512,
      513,
      513,
      513,
      514,
      515,
      514,
      513,
      513,
      512,
      511,
      511,
      510,
      510,
      509,
      509,
      509,
      509,
      507,
      505,
      504,
      503,
      504,
      503,
      502,
      502,
      501,
      500,
      500,
      501,
      500,
      499,
      498,
      497,
      496,
      495,
      495,
      494,
      494,
      494,
      495,
      496,
      499,
      501,
      503,
      505,
      505,
      506,
      506,
      506,
      507,
      509,
      510,
      509,
      505,
      500,
      496,
      494,
      494,
      495,
      495,
      498,
      495,
      498,
      495,
      495,
      496,
      496,
      496,
      496,
      497,
      498,
      498,
      497,
      497,
      497,
      497,
      497,
      496,
      495,
      492,
      491,
      492,
      494,
      496,
      499,
      493,
      474,
      469,
      481,
      503,
      505,
      509,
      515,
      514,
      514,
      512,
      509,
      502,
      501,
      501,
      500,
      498,
      499,
      498,
      498,
      498,
      498,
      498,
      498,
      498,
      498,
      498,
      497,
      495,
      494,
      493,
      493,
      475,
      493,
      492,
      492,
      492,
      493,
      491,
      492,
      490,
      491,
      489,
      489,
      489,
      489,
      488,
      489,
      488,
      466,
      459,
      451,
      455,
      458,
      458,
      470,
      470,
      471,
      470,
      466,
      470,
      470,
      470,
      469,
      468,
      467,
      466,
      475,
      474,
      476,
      477,
      477,
      477,
      476,
      475,
      472,
      471,
      471,
      470,
      465,
      463,
      461,
      434,
      429,
      423,
      422,
      416,
      416,
      406,
      405,
      395,
      396,
      386,
      387,
      384,
      384,
      376,
      376,
      391,
      391,
      391,
      390,
      354,
      344,
      346,
      341,
      344,
      338,
      321,
      312,
      299,
      296,
      298,
      293,
      290,
      291,
      292,
      291,
      284,
      261,
      219,
      214,
      217,
      216,
      207,
      202,
      204,
      203,
      198,
      201,
      202,
      194,
      193,
      191,
      189,
      185,
      140,
      137,
      131
    ],
    "swim:timestamps": [
      1785512327,
      1785512352,
      1785512371,
      1785512431,
      1785512472,
      1785512491,
      1785512551,
      1785512611,
      1785512671,
      1785512731,
      1785512791,
      1785512851,
      1785512912,
      1785512972,
      1785513032,
      1785513092,
      1785513152,
      1785513212,
      1785513270,
      1785513332,
      1785513392,
      1785513450,
      1785513512,
      1785513573,
      1785513630,
      1785513693,
      1785513751,
      1785513811,
      1785513871,
      1785513931,
      1785513991,
      1785514051,
      1785514113,
      1785514171,
      1785514231,
      1785514291,
      1785514351,
      1785514411,
      1785514472,
      1785514532,
      1785514592,
      1785514652,
      1785514712,
      1785514772,
      1785514832,
      1785514892,
      1785514952,
      1785515012,
      1785515132,
      1785515193,
      1785515253,
      1785515313,
      1785515373,
      1785515433,
      1785515493,
      1785515673,
      1785515733,
      1785515793,
      1785515853,
      1785515913,
      1785515974,
      1785516034,
      1785516094,
      1785516154,
      1785516210,
      1785516274,
      1785516334,
      1785516390,
      1785516454,
      1785516510,
      1785516570,
      1785516634,
      1785516695,
      1785516755,
      1785516815,
      1785516871,
      1785516931,
      1785516991,
      1785517051,
      1785517115,
      1785517175,
      1785517231,
      1785517291,
      1785517351,
      1785517412,
      1785517472,
      1785517532,
      1785517592,
      1785517652,
      1785517712,
      1785517772,
      1785517832,
      1785517892,
      1785517952,
      1785518012,
      1785518072,
      1785518133,
      1785518193,
      1785518253,
      1785518313,
      1785518373,
      1785518433,
      1785518493,
      1785518553,
      1785518613,
      1785518663,
      1785518673,
      1785518733,
      1785518793,
      1785518853,
      1785518914,
      1785518974,
      1785519034,
      1785519094,
      1785519154,
      1785519204,
      1785519214,
      1785519264,
      1785519334,
      1785519384,
      1785519454,
      1785519514,
      1785519565,
      1785519635,
      1785519685,
      1785519745,
      1785519805,
      1785519865,
      1785519925,
      1785519995,
      1785520055,
      1785520106,
      1785520166,
      1785520235,
      1785520286,
      1785520346,
      1785520416,
      1785520476,
      1785520536,
      1785520596,
      1785520646,
      1785520707,
      1785520767,
      1785520827,
      1785520887,
      1785520947,
      1785521007,
      1785521067,
      1785521127,
      1785521187,
      1785521247,
      1785521307,
      1785521367,
      1785521428,
      1785521488,
      1785521548,
      1785521608,
      1785521668,
      1785521728,
      1785521788,
      1785521848,
      1785521908,
      1785521968,
      1785522029,
      1785522089,
      1785522149,
      1785522209,
      1785522269,
      1785522329,
      1785522389,
      1785522449,
      1785522509,
      1785522569,
      1785522629,
      1785522690,
      1785522750,
      1785522810,
      1785522870,
      1785522930,
      1785522990,
      1785523050,
      1785523110,
      1785523170,
      1785523230,
      1785523289,
      1785523351,
      1785523409,
      1785523469,
      1785523529,
      1785523591,
      1785523650,
      1785523710,
      1785523770,
      1785523831,
      1785523891,
      1785523951,
      1785524012,
      1785524072,
      1785524132,
      1785524192,
      1785524252,
      1785524312,
      1785524373,
      1785524431,
      1785524491,
      1785524551,
      1785524611,
      1785524671,
      1785524731,
      1785524791,
      1785524851,
      1785524911,
      1785524972,
      1785525032,
      1785525092,
      1785525152,
      1785525212,
      1785525272,
      1785525278,
      1785525332,
      1785525392,
      1785525452,
      1785525512,
      1785525518,
      1785525572,
      1785525632,
      1785525638,
      1785525693,
      1785525753,
      1785525813,
      1785525819,
      1785525873,
      1785525879,
      1785525933,
      1785525939,
      1785525999,
      1785526059,
      1785526119,
      1785526179,
      1785526233,
      1785526239,
      1785526292,
      1785526299,
      1785526359,
      1785526412,
      1785526419,
      1785526472,
      1785526480,
      1785526532,
      1785526540,
      1785526592,
      1785526600,
      1785526652,
      1785526660,
      1785526712,
      1785526720,
      1785526772,
      1785526780,
      1785526832,
      1785526840,
      1785526893,
      1785526900,
      1785526953,
      1785526960,
      1785527013,
      1785527020,
      1785527073,
      1785527081,
      1785527133,
      1785527141,
      1785527193,
      1785527201,
      1785527253,
      1785527261,
      1785527313,
      1785527321,
      1785527373,
      1785527381,
      1785527433,
      1785527441,
      1785527493,
      1785527501,
      1785527554,
      1785527561,
      1785527614,
      1785527621,
      1785527674,
      1785527682,
      1785527734,
      1785527742,
      1785527802,
      1785527854,
      1785527862,
      1785527914,
      1785527922,
      1785527974,
      1785527982,
      1785528034,
      1785528042,
      1785528094,
      1785528102,
      1785528154,
      1785528162,
      1785528214,
      1785528222,
      1785528275,
      1785528283,
      1785528335,
      1785528343,
      1785528395,
      1785528403,
      1785528455,
      1785528493,
      1785528515,
      1785528526,
      1785528575,
      1785528585,
      1785528635,
      1785528646,
      1785528695,
      1785528706,
      1785528755,
      1785528766,
      1785528815,
      1785528875,
      1785528936,
      1785528996,
      1785529006,
      1785529056,
      1785529116,
      1785529125,
      1785529176,
      1785529187,
      1785529236,
      1785529247,
      1785529296,
      1785529356,
      1785529367,
      1785529416,
      1785529476,
      1785529536,
      1785529597,
      1785529657,
      1785529717,
      1785529777,
      1785529837,
      1785529897,
      1785529957
    ],
    "wof:geomhash": "b6efb6247592cc5cae0375a15e822b4e",
    "wof:id": 2032050893,
    "wof:repo": "sfomuseum-data-flights-2026-07"
  },
  "bbox": [
    -122.4038888888889,
    37.61666666666667,
    -74.8086111111111,
    40.62972222222222
  ],
  "geometry": {"coordinates":[[-122.38333333333334,37.61666666666667],[-122.4,37.63333333333333],[-122.4038888888889,37.64694444444444],[-122.33388888888888,37.676944444444445],[-122.26666666666667,37.7],[-122.24527777777777,37.706944444444446],[-122.15722222222223,37.748333333333335],[-122.06638888888888,37.79416666666666],[-121.96277777777777,37.83361111111111],[-121.83416666666666,37.8575],[-121.69916666666667,37.8825],[-121.56277777777777,37.9075],[-121.42,37.93388888888889],[-121.27472222222222,37.96],[-121.125,37.98694444444445],[-120.94277777777778,38.01583333333333],[-120.78472222222221,38.040277777777774],[-120.62444444444444,38.06472222222222],[-120.48111111111112,38.084722222222226],[-120.29833333333333,38.11361111111111],[-120.13055555555555,38.13861111111111],[-119.98027777777779,38.159166666666664],[-119.78805555555556,38.18833333333333],[-119.6125,38.21333333333334],[-119.45972222222223,38.23305555555556],[-119.28444444444445,38.25944444444445],[-119.14861111111112,38.278055555555554],[-118.9388888888889,38.30611111111111],[-118.765,38.32972222222222],[-118.59333333333333,38.35277777777778],[-118.42277777777778,38.376666666666665],[-118.24888888888889,38.39944444444444],[-118.07777777777777,38.421388888888885],[-117.90305555555557,38.443888888888885],[-117.72944444444444,38.465833333333336],[-117.55083333333333,38.488055555555555],[-117.37638888888888,38.50944444444445],[-117.19527777777778,38.51833333333333],[-117.01666666666667,38.514722222222225],[-116.83749999999999,38.51083333333333],[-116.65805555555556,38.50666666666667],[-116.47944444444444,38.50194444444445],[-116.30222222222221,38.49722222222222],[-116.12416666666665,38.492222222222225],[-115.95,38.48722222222222],[-115.77277777777778,38.48166666666667],[-115.5961111111111,38.475833333333334],[-115.42333333333333,38.47],[-115.08888888888889,38.45777777777778],[-114.91444444444446,38.450833333333335],[-114.73916666666666,38.443888888888885],[-114.56138888888889,38.436388888888885],[-114.38472222222222,38.42861111111111],[-114.21000000000001,38.420833333333334],[-114.03277777777778,38.4125],[-113.50527777777778,38.38666666666666],[-113.33027777777778,38.3775],[-113.15472222222223,38.36805555555556],[-112.97611111111111,38.36138888888889],[-112.80083333333333,38.3675],[-112.6211111111111,38.37305555555555],[-112.44500000000001,38.37833333333333],[-112.26805555555555,38.38361111111111],[-112.08888888888889,38.388333333333335],[-111.91111111111111,38.39277777777778],[-111.73333333333333,38.39694444444444],[-111.55305555555556,38.401111111111106],[-111.37805555555555,38.40472222222222],[-111.19861111111112,38.40833333333333],[-111.02027777777778,38.41166666666666],[-110.8561111111111,38.41444444444444],[-110.67666666666668,38.41694444444444],[-110.49944444444445,38.42166666666667],[-110.32305555555556,38.425555555555555],[-110.14250000000001,38.42944444444444],[-109.96666666666667,38.43277777777777],[-109.79027777777777,38.43611111111111],[-109.61305555555555,38.439166666666665],[-109.43666666666667,38.44194444444444],[-109.2213888888889,38.44472222222222],[-109.04194444444444,38.446666666666665],[-108.89888888888889,38.44833333333333],[-108.7213888888889,38.44944444444444],[-108.54055555555556,38.45055555555556],[-108.36361111111111,38.45166666666667],[-108.18527777777778,38.4525],[-108.005,38.45305555555556],[-107.8261111111111,38.453611111111115],[-107.60944444444443,38.453611111111115],[-107.42944444444444,38.45333333333333],[-107.25083333333333,38.45305555555556],[-107.09194444444444,38.44638888888888],[-106.91250000000001,38.42305555555555],[-106.73388888888888,38.40083333333333],[-106.55361111111111,38.39805555555556],[-106.375,38.41555555555556],[-106.19694444444445,38.4325],[-106.01305555555555,38.44972222222222],[-105.83472222222221,38.465833333333336],[-105.64083333333333,38.483333333333334],[-105.46222222222222,38.49916666666667],[-105.28166666666667,38.515],[-105.10277777777777,38.53055555555555],[-104.92277777777778,38.545833333333334],[-104.74416666666667,38.56027777777778],[-104.60583333333332,38.57],[-104.56611111111111,38.57472222222223],[-104.38416666666667,38.58916666666667],[-104.20583333333333,38.60305555555556],[-104.02916666666667,38.61694444444444],[-103.85111111111111,38.63027777777778],[-103.66777777777779,38.64361111111111],[-103.48611111111111,38.65694444444444],[-103.30277777777778,38.66972222222222],[-103.12222222222222,38.68194444444444],[-102.97916666666667,38.690555555555555],[-102.94194444444445,38.69416666666666],[-102.79805555555555,38.70194444444445],[-102.57694444444444,38.717777777777776],[-102.4375,38.72638888888889],[-102.21361111111112,38.74],[-102.03027777777778,38.75083333333333],[-101.89,38.75888888888889],[-101.66888888888889,38.771388888888886],[-101.52722222222222,38.778888888888886],[-101.34222222222222,38.788888888888884],[-101.15805555555556,38.79861111111111],[-100.97666666666667,38.80777777777777],[-100.79555555555555,38.81638888888889],[-100.57055555555556,38.82694444444445],[-100.38861111111112,38.83527777777778],[-100.24805555555555,38.84111111111111],[-100.06333333333333,38.84916666666667],[-99.84444444444443,38.85805555555556],[-99.70055555555555,38.86361111111111],[-99.52,38.870555555555555],[-99.30083333333333,38.87833333333333],[-99.11694444444444,38.88472222222222],[-98.93861111111111,38.89055555555556],[-98.75638888888889,38.89611111111111],[-98.60583333333332,38.900555555555556],[-98.42472222222223,38.90555555555555],[-98.24444444444444,38.910555555555554],[-98.06527777777778,38.915],[-97.88722222222223,38.91916666666666],[-97.72638888888889,38.92305555555555],[-97.54777777777778,38.93527777777778],[-97.34916666666666,38.962500000000006],[-97.19611111111111,38.98277777777778],[-97.01888888888888,39.006388888888885],[-96.84583333333333,39.029444444444444],[-96.66722222222222,39.052499999999995],[-96.49111111111111,39.07527777777778],[-96.31611111111111,39.09722222222222],[-96.14055555555557,39.119166666666665],[-95.96666666666667,39.14083333333333],[-95.79027777777777,39.16222222222222],[-95.61416666666666,39.183611111111105],[-95.42416666666666,39.20638888888889],[-95.2388888888889,39.22805555555556],[-95.07555555555555,39.246944444444445],[-94.89833333333334,39.26722222222222],[-94.7238888888889,39.28666666666666],[-94.54916666666666,39.30972222222222],[-94.3736111111111,39.33277777777778],[-94.19583333333334,39.355555555555554],[-94.01888888888888,39.37777777777778],[-93.83833333333332,39.400277777777774],[-93.67222222222223,39.420833333333334],[-93.49277777777777,39.44277777777778],[-93.31444444444445,39.46416666666667],[-93.13416666666667,39.48555555555556],[-92.95583333333333,39.506388888888885],[-92.77666666666667,39.52722222222222],[-92.59388888888888,39.54805555555556],[-92.41472222222222,39.56805555555556],[-92.235,39.588055555555556],[-92.05666666666666,39.60722222222223],[-91.88,39.62638888888889],[-91.66888888888889,39.64861111111111],[-91.49388888888889,39.666666666666664],[-91.31833333333333,39.684999999999995],[-91.14111111111112,39.70277777777778],[-90.96472222222222,39.72027777777778],[-90.82388888888889,39.735],[-90.61472222222221,39.75416666666667],[-90.46666666666667,39.7625],[-90.28944444444444,39.75527777777778],[-90.10888888888888,39.74861111111111],[-89.90166666666667,39.7425],[-89.75,39.73833333333334],[-89.57,39.74166666666667],[-89.39055555555557,39.74777777777778],[-89.18972222222223,39.754444444444445],[-89.01027777777777,39.760555555555555],[-88.83166666666666,39.76611111111111],[-88.65611111111112,39.77111111111111],[-88.47694444444444,39.77611111111111],[-88.29805555555555,39.780833333333334],[-88.11861111111111,39.785555555555554],[-87.93805555555556,39.78972222222222],[-87.76277777777777,39.79361111111111],[-87.58305555555555,39.79722222222222],[-87.40944444444445,39.800555555555555],[-87.2175,39.816944444444445],[-87.04277777777777,39.83361111111111],[-86.86361111111111,39.85055555555556],[-86.68388888888889,39.86694444444444],[-86.50222222222222,39.88361111111111],[-86.33722222222222,39.93388888888889],[-86.24861111111112,40.028888888888886],[-86.1913888888889,40.151944444444446],[-86.09277777777777,40.26166666666666],[-85.92888888888889,40.31166666666666],[-85.74277777777777,40.3175],[-85.55416666666666,40.323055555555555],[-85.35944444444443,40.32833333333333],[-85.17333333333333,40.333333333333336],[-85.16111111111111,40.33361111111111],[-84.98694444444445,40.33777777777778],[-84.82472222222222,40.34138888888889],[-84.64583333333334,40.34527777777778],[-84.46277777777777,40.348888888888894],[-84.42583333333334,40.349444444444444],[-84.28055555555555,40.35194444444445],[-84.09777777777778,40.355000000000004],[-84.065,40.355555555555554],[-83.91638888888889,40.3575],[-83.71833333333333,40.36027777777778],[-83.5363888888889,40.36222222222222],[-83.51833333333333,40.36222222222222],[-83.35638888888889,40.36388888888889],[-83.33583333333333,40.36416666666667],[-83.17527777777778,40.36555555555556],[-83.15111111111112,40.365833333333335],[-82.97111111111111,40.36666666666667],[-82.79083333333332,40.3675],[-82.60916666666667,40.36833333333333],[-82.43027777777779,40.368611111111115],[-82.27444444444444,40.368611111111115],[-82.26027777777777,40.368611111111115],[-82.12722222222222,40.365],[-82.08277777777778,40.36833333333333],[-81.90277777777779,40.36805555555556],[-81.73444444444445,40.364444444444445],[-81.72527777777778,40.367222222222225],[-81.55666666666666,40.364444444444445],[-81.55027777777778,40.36611111111111],[-81.37972222222221,40.36555555555556],[-81.37055555555555,40.365],[-81.20166666666667,40.363055555555555],[-81.2075,40.36361111111111],[-81.0261111111111,40.36083333333333],[-81.03138888888888,40.361666666666665],[-80.84916666666666,40.35944444444445],[-80.85,40.35944444444445],[-80.6713888888889,40.35638888888889],[-80.67472222222223,40.35777777777778],[-80.51527777777778,40.40472222222222],[-80.51472222222222,40.405],[-80.39,40.486111111111114],[-80.38777777777779,40.48777777777778],[-80.26305555555555,40.56916666666667],[-80.26277777777777,40.56944444444445],[-80.11416666666666,40.62916666666667],[-80.11472222222221,40.62972222222222],[-79.94305555555556,40.62083333333334],[-79.92500000000001,40.62],[-79.77416666666666,40.60472222222222],[-79.75444444444445,40.60333333333333],[-79.60444444444444,40.587500000000006],[-79.57944444444443,40.58583333333333],[-79.42555555555556,40.57],[-79.41361111111112,40.56861111111112],[-79.27166666666666,40.55416666666667],[-79.27416666666666,40.55444444444444],[-79.09944444444444,40.53583333333333],[-79.09638888888888,40.535555555555554],[-78.93027777777779,40.51777777777777],[-78.92500000000001,40.51722222222222],[-78.75694444444444,40.49888888888889],[-78.71972222222223,40.495],[-78.58805555555556,40.480555555555554],[-78.55055555555555,40.47638888888889],[-78.41805555555555,40.461666666666666],[-78.38472222222222,40.45777777777778],[-78.25194444444445,40.44277777777778],[-78.21722222222222,40.43888888888888],[-78.08777777777777,40.424166666666665],[-78.05083333333333,40.419999999999995],[-77.88694444444445,40.40083333333333],[-77.76222222222222,40.38611111111111],[-77.72888888888889,40.382222222222225],[-77.61166666666666,40.36833333333333],[-77.57944444444443,40.364444444444445],[-77.44888888888889,40.34861111111111],[-77.43111111111112,40.34638888888889],[-77.30555555555556,40.331388888888895],[-77.2875,40.32916666666667],[-77.16166666666668,40.31361111111111],[-77.16250000000001,40.31388888888888],[-77.02666666666667,40.29222222222222],[-77.02555555555556,40.29194444444444],[-76.89500000000001,40.261944444444445],[-76.89305555555556,40.26138888888889],[-76.75694444444444,40.23861111111111],[-76.75916666666667,40.23916666666667],[-76.62333333333332,40.218611111111116],[-76.61833333333333,40.217777777777776],[-76.47805555555556,40.19638888888888],[-76.46722222222222,40.19472222222222],[-76.3561111111111,40.177499999999995],[-76.26666666666667,40.166666666666664],[-76.22916666666667,40.157777777777774],[-76.21666666666667,40.15],[-76.11083333333333,40.13944444444444],[-76.08333333333333,40.13333333333333],[-75.99027777777778,40.120555555555555],[-75.96666666666667,40.11666666666667],[-75.8875,40.10444444444445],[-75.86666666666666,40.1],[-75.78388888888888,40.08777777777778],[-75.76666666666667,40.083333333333336],[-75.67888888888889,40.07916666666667],[-75.57333333333332,40.073888888888895],[-75.46777777777778,40.06888888888889],[-75.36194444444443,40.06361111111111],[-75.35,40.06666666666667],[-75.26333333333334,40.05888888888889],[-75.19666666666667,40.03138888888889],[-75.2,40.016666666666666],[-75.15305555555557,39.98416666666667],[-75.13333333333334,39.983333333333334],[-75.07916666666667,39.9925],[-75.06666666666666,40],[-75.00861111111111,40.00805555555556],[-74.93916666666667,40.02333333333333],[-74.93333333333334,40.03333333333333],[-74.86861111111111,40.03916666666667],[-74.8086111111111,40.026944444444446],[-74.84777777777778,39.98388888888889],[-74.89805555555556,39.948055555555555],[-74.96000000000001,39.927499999999995],[-75.02555555555556,39.91444444444444],[-75.09222222222222,39.90138888888889],[-75.14472222222223,39.89083333333333],[-75.19194444444445,39.88138888888889],[-75.23722222222223,39.87222222222222]],"type":"LineString"}
}
