{
  "id": 2031981001,
  "type": "Feature",
  "properties": {
    "date:cessation_lower": "2026-07-26",
    "date:cessation_upper": "2026-07-26",
    "date:inception_lower": "2026-07-26",
    "date:inception_upper": "2026-07-26",
    "edtf:cessation": "2026-07-26T19:35:54Z",
    "edtf:inception": "2026-07-26T17:54:00Z",
    "flysfo:actual_timestamp": -1,
    "flysfo:airline": "DL",
    "flysfo:date": "2026-07-26",
    "flysfo:estimated_timestamp": 1785075480,
    "flysfo:event": "D",
    "flysfo:flight_number": "DL460",
    "flysfo:gate": "",
    "flysfo:journey": "SFO-BFL",
    "flysfo:scheduled_timestamp": 1785075480,
    "flysfo:timestamp": 1785075480,
    "geom:area": 0,
    "geom:bbox": "-122.370943,35.425802,-119.047271,37.617990",
    "geom:latitude": 36.521896,
    "geom:longitude": -120.70910699999999,
    "iata:airline": "DL",
    "icao:airline": "DAL",
    "lbl:latitude": 37.61799,
    "lbl:longitude": -122.370943,
    "sfomuseum:airline_id": 1159284261,
    "sfomuseum:arrival_id": 102527035,
    "sfomuseum:departure_id": 102527513,
    "sfomuseum:flight_id": "20260726-D-DAL-460",
    "sfomuseum:flight_number": [
      "DAL460",
      "DL460"
    ],
    "sfomuseum:placetype": "flight",
    "src:geom": "flysfo",
    "src:geom_alt": [
      "swim-path"
    ],
    "wof:belongsto": [],
    "wof:concordances": {
      "swim:flight_ref": "152912764"
    },
    "wof:country": "US",
    "wof:created": 1785168877,
    "wof:geomhash": "7977975fa4ad0a35973dcf84bbb5a31a",
    "wof:hierarchy": [
      {
        "custom_id": 2031981001,
        "flight_id": 2031981001
      }
    ],
    "wof:id": 2031981001,
    "wof:involves": [
      102527035,
      102527513,
      1159284261,
      -1
    ],
    "wof:lastmodified": 1785169194,
    "wof:name": "DL460 (SFO-BFL)",
    "wof:parent_id": -1,
    "wof:placetype": "custom",
    "wof:placetype_alt": [
      "flight"
    ],
    "wof:repo": "sfomuseum-data-flights-2026-07",
    "wof:superseded_by": [],
    "wof:supersedes": []
  },
  "bbox": [
    -122.370943,
    35.425802,
    -119.047271,
    37.61799
  ],
  "geometry": {"coordinates":[[-122.370943,37.61799],[-119.047271,35.425802]],"type":"MultiPoint"}
}
