{
  "id": 2032032761,
  "type": "Feature",
  "properties": {
    "geom:area": 0,
    "geom:bbox": "-123.395833,37.433333,-122.081111,47.614444",
    "geom:latitude": 42.385915153558656,
    "geom:longitude": -123.09943959324006,
    "src:alt_label": "swim-path",
    "src:geom": "swim",
    "swim:altitudes": [
      "029",
      "040",
      "051",
      "078",
      "089",
      "130",
      "154",
      "198",
      "217",
      "235",
      "250",
      "279",
      "292",
      "308",
      "333",
      "348C",
      "350C",
      "350C",
      "350C",
      "350C",
      "350C",
      "350C",
      "350C",
      "350C",
      "350C",
      "350C",
      "350C",
      "350C",
      "350C",
      "350C",
      "350C",
      "350C",
      "350C",
      "350C",
      "350C",
      "350C",
      "350C",
      "350C",
      "350C",
      "350C",
      "350C",
      "350C",
      "350C",
      "350C",
      "350C",
      "350C",
      "350C",
      "350C",
      "350C",
      "350C",
      "350C",
      "350C",
      "350C",
      "350C",
      "350C",
      "350C",
      "350C",
      "350C",
      "350C",
      "350C",
      "350C",
      "350C",
      "350C",
      "350C",
      "350C",
      "350C",
      "350C",
      "350C",
      "350C",
      "350C",
      "350C",
      "350C",
      "350C",
      "350C",
      "350C",
      "350C",
      "350C",
      "350",
      "350",
      "350",
      "350",
      "350",
      "348",
      "322",
      "302",
      "284",
      "267",
      "250",
      "240C",
      "240C",
      "237",
      "228",
      "213",
      "194",
      "191",
      "175",
      "165",
      "157",
      "147",
      "140",
      "127",
      "124",
      "119",
      "115",
      "110",
      "110C",
      "110",
      "110C",
      "103",
      "097",
      "089",
      "085",
      "077",
      "067",
      "064",
      "057",
      "046",
      "042",
      "031",
      "032",
      "029",
      "023",
      "020",
      "015",
      "007",
      "110"
    ],
    "swim:geom": "path",
    "swim:speeds": [
      224,
      241,
      247,
      251,
      271,
      348,
      360,
      377,
      390,
      401,
      414,
      436,
      443,
      444,
      443,
      437,
      432,
      430,
      429,
      428,
      427,
      426,
      425,
      424,
      424,
      424,
      424,
      425,
      426,
      427,
      427,
      427,
      428,
      428,
      429,
      430,
      431,
      432,
      431,
      429,
      429,
      428,
      428,
      427,
      427,
      426,
      425,
      423,
      424,
      422,
      421,
      421,
      421,
      421,
      422,
      423,
      424,
      425,
      425,
      426,
      426,
      433,
      434,
      436,
      435,
      437,
      437,
      437,
      436,
      434,
      434,
      433,
      433,
      434,
      434,
      436,
      436,
      438,
      438,
      439,
      440,
      438,
      382,
      369,
      388,
      414,
      426,
      418,
      406,
      375,
      373,
      382,
      385,
      377,
      371,
      367,
      357,
      358,
      347,
      349,
      343,
      340,
      302,
      294,
      268,
      263,
      254,
      258,
      255,
      257,
      247,
      251,
      242,
      219,
      216,
      204,
      199,
      199,
      182,
      184,
      181,
      183,
      180,
      182,
      154,
      137
    ],
    "swim:timestamps": [
      1785431089,
      1785431121,
      1785431143,
      1785431204,
      1785431242,
      1785431422,
      1785431482,
      1785431602,
      1785431662,
      1785431722,
      1785431782,
      1785431902,
      1785431963,
      1785432023,
      1785432143,
      1785432203,
      1785432263,
      1785432323,
      1785432383,
      1785432443,
      1785432503,
      1785432563,
      1785432623,
      1785432683,
      1785432744,
      1785432804,
      1785432864,
      1785432924,
      1785432984,
      1785433044,
      1785433104,
      1785433164,
      1785433224,
      1785433284,
      1785433404,
      1785433464,
      1785433525,
      1785433585,
      1785433645,
      1785433705,
      1785433765,
      1785433812,
      1785433825,
      1785433932,
      1785433945,
      1785434005,
      1785434112,
      1785434125,
      1785434173,
      1785434233,
      1785434306,
      1785434366,
      1785434413,
      1785434426,
      1785434486,
      1785434546,
      1785434606,
      1785434713,
      1785434726,
      1785434773,
      1785434786,
      1785434954,
      1785434966,
      1785435014,
      1785435027,
      1785435087,
      1785435134,
      1785435147,
      1785435207,
      1785435254,
      1785435267,
      1785435314,
      1785435327,
      1785435374,
      1785435387,
      1785435434,
      1785435447,
      1785435495,
      1785435507,
      1785435555,
      1785435615,
      1785435675,
      1785435735,
      1785435795,
      1785435855,
      1785435915,
      1785435975,
      1785436035,
      1785436095,
      1785436155,
      1785436216,
      1785436276,
      1785436336,
      1785436396,
      1785436404,
      1785436456,
      1785436489,
      1785436516,
      1785436549,
      1785436576,
      1785436615,
      1785436636,
      1785436669,
      1785436696,
      1785436729,
      1785436756,
      1785436790,
      1785436816,
      1785436849,
      1785436876,
      1785436915,
      1785436937,
      1785436969,
      1785437035,
      1785437057,
      1785437095,
      1785437150,
      1785437177,
      1785437270,
      1785437309,
      1785437330,
      1785437369,
      1785437390,
      1785437429,
      1785437489,
      1785437549
    ],
    "wof:geomhash": "cff73b77c8ca99fc02c4b663649474a5",
    "wof:id": 2032032761,
    "wof:repo": "sfomuseum-data-flights-2026-07"
  },
  "bbox": [
    -123.39583333333334,
    37.43333333333333,
    -122.08111111111111,
    47.614444444444445
  ],
  "geometry": {"coordinates":[[-122.31055555555555,47.524166666666666],[-122.315,47.5575],[-122.33749999999999,47.58222222222223],[-122.42166666666667,47.614444444444445],[-122.4875,47.61055555555556],[-122.75666666666666,47.4325],[-122.86166666666666,47.36277777777778],[-123.07138888888889,47.21527777777778],[-123.16527777777779,47.12888888888889],[-123.26194444444444,47.03972222222222],[-123.3611111111111,46.9475],[-123.39583333333334,46.712500000000006],[-123.39166666666668,46.59055555555556],[-123.38777777777779,46.46666666666667],[-123.38027777777778,46.21805555555556],[-123.37638888888888,46.09777777777778],[-123.37305555555555,45.9775],[-123.36916666666666,45.85916666666667],[-123.36555555555555,45.73916666666667],[-123.36194444444443,45.62111111111111],[-123.35833333333333,45.50361111111111],[-123.35472222222222,45.38444444444444],[-123.35138888888888,45.26583333333333],[-123.34777777777778,45.14861111111111],[-123.34416666666667,45.02916666666667],[-123.34083333333332,44.90861111111111],[-123.33749999999999,44.78861111111111],[-123.33444444444444,44.69416666666666],[-123.33111111111111,44.57416666666667],[-123.3275,44.45416666666667],[-123.32222222222222,44.336111111111116],[-123.31722222222221,44.21611111111111],[-123.31277777777777,44.097500000000004],[-123.30805555555555,43.97555555555556],[-123.29861111111111,43.73583333333333],[-123.29388888888889,43.61666666666667],[-123.28916666666666,43.495555555555555],[-123.28444444444445,43.37638888888889],[-123.27972222222222,43.257222222222225],[-123.27555555555556,43.138333333333335],[-123.27083333333333,43.01916666666666],[-123.26555555555555,42.911944444444444],[-123.26611111111112,42.89972222222222],[-123.2575,42.675555555555555],[-123.25666666666666,42.651944444444446],[-123.25222222222222,42.533055555555556],[-123.24472222222222,42.32944444444445],[-123.24361111111111,42.29972222222222],[-123.24,42.20666666666667],[-123.23583333333333,42.09027777777778],[-123.23083333333334,41.952222222222225],[-123.22666666666667,41.83361111111111],[-123.22305555555556,41.73972222222222],[-123.22222222222223,41.718611111111116],[-123.21805555555555,41.60166666666667],[-123.21388888888889,41.48222222222223],[-123.20944444444444,41.350833333333334],[-123.20416666666667,41.13972222222222],[-123.20361111111112,41.113055555555555],[-123.20166666666667,41.04527777777778],[-123.20083333333334,41.01777777777777],[-123.19222222222223,40.65972222222222],[-123.19194444444445,40.654444444444444],[-123.1888888888889,40.53805555555555],[-123.1888888888889,40.533055555555556],[-123.18555555555555,40.41],[-123.18305555555555,40.29611111111111],[-123.18277777777779,40.28722222222222],[-123.17972222222222,40.165277777777774],[-123.17694444444444,40.05611111111111],[-123.17666666666668,40.04555555555555],[-123.1738888888889,39.93722222222222],[-123.17361111111111,39.92666666666666],[-123.16805555555555,39.816944444444445],[-123.16722222222222,39.803888888888885],[-123.16222222222223,39.69555555555555],[-123.16166666666668,39.68222222222222],[-123.15694444444445,39.57361111111111],[-123.15611111111112,39.558611111111105],[-123.15138888888889,39.45305555555556],[-123.14611111111111,39.34388888888889],[-123.1413888888889,39.19833333333333],[-123.20527777777778,39.10027777777778],[-123.32,39.05694444444444],[-123.37638888888888,38.96388888888889],[-123.33333333333333,38.85777777777778],[-123.21027777777778,38.78777777777778],[-123.07972222222222,38.73361111111111],[-122.9525,38.67833333333333],[-122.89111111111112,38.58722222222222],[-122.85666666666665,38.486666666666665],[-122.82222222222222,38.385555555555555],[-122.78722222222223,38.28194444444444],[-122.75416666666666,38.18055555555555],[-122.75,38.166666666666664],[-122.72638888888889,38.08222222222223],[-122.71666666666667,38.03333333333333],[-122.69833333333334,37.98555555555556],[-122.68333333333334,37.93333333333333],[-122.66694444444445,37.897777777777776],[-122.61666666666666,37.85],[-122.59444444444443,37.82472222222223],[-122.55,37.78333333333333],[-122.52583333333334,37.76027777777778],[-122.48333333333333,37.71666666666667],[-122.46388888888889,37.70194444444445],[-122.43333333333334,37.666666666666664],[-122.40611111111112,37.64833333333333],[-122.36666666666666,37.61666666666667],[-122.35333333333332,37.59166666666667],[-122.33333333333333,37.55],[-122.31916666666666,37.52777777777778],[-122.3,37.483333333333334],[-122.21666666666667,37.45],[-122.20305555555557,37.44694444444444],[-122.15,37.43333333333333],[-122.1,37.43333333333333],[-122.08111111111111,37.439722222222215],[-122.13333333333334,37.516666666666666],[-122.1463888888889,37.5225],[-122.18333333333334,37.53333333333333],[-122.2125,37.55027777777777],[-122.23333333333333,37.56666666666667],[-122.26777777777778,37.57361111111111],[-122.31583333333333,37.59388888888889],[-122.35749999999999,37.61138888888889]],"type":"LineString"}
}
