{
  "id": 2032018961,
  "type": "Feature",
  "properties": {
    "geom:area": 0,
    "geom:bbox": "-122.358650,37.433620,-121.320310,37.611860",
    "geom:latitude": 37.51857071946643,
    "geom:longitude": -121.8437190036768,
    "src:alt_label": "swim-approach",
    "src:geom": "swim",
    "swim:elevations": [
      4719,
      4566,
      4331,
      3791,
      3532,
      3417,
      3192,
      3119,
      3077,
      2852,
      2168,
      2134,
      2134,
      2134,
      2134,
      2134,
      2134,
      2073,
      1831,
      1621,
      1096,
      1035,
      902,
      730,
      616,
      577,
      400,
      332,
      213,
      164,
      113,
      0
    ],
    "swim:geom": "approach",
    "swim:timestamps": [
      1785337006,
      1785337025,
      1785337057,
      1785337104,
      1785337128,
      1785337146,
      1785337178,
      1785337192,
      1785337202,
      1785337231,
      1785337307,
      1785337330,
      1785337342,
      1785337362,
      1785337374,
      1785337394,
      1785337431,
      1785337449,
      1785337495,
      1785337530,
      1785337611,
      1785337629,
      1785337657,
      1785337699,
      1785337733,
      1785337745,
      1785337788,
      1785337811,
      1785337847,
      1785337861,
      1785337876,
      1785337907
    ],
    "wof:geomhash": "c58f186b02f290a0e113e469e81363fe",
    "wof:id": 2032018961,
    "wof:repo": "sfomuseum-data-flights-2026-07"
  },
  "bbox": [
    -122.35865,
    37.43362,
    -121.32031,
    37.61186
  ],
  "geometry": {"coordinates":[[-121.32031,37.58588],[-121.35347,37.58225],[-121.41277,37.57543],[-121.49357,37.56601],[-121.53635,37.56104],[-121.56518,37.55771],[-121.61868,37.55131],[-121.63991,37.54646],[-121.65279,37.53982],[-121.68092,37.51523],[-121.75226,37.45104],[-121.77637,37.43579],[-121.79217,37.43362],[-121.82128,37.43469],[-121.83822,37.43555],[-121.86477,37.43671],[-121.91645,37.43891],[-121.94132,37.44018],[-121.99714,37.45923],[-122.04094,37.47794],[-122.13442,37.51746],[-122.1513,37.5246],[-122.17569,37.53486],[-122.20986,37.54928],[-122.23687,37.56064],[-122.24605,37.56453],[-122.28017,37.57896],[-122.2958,37.5854],[-122.32004,37.59563],[-122.32906,37.59939],[-122.33877,37.60348],[-122.35865,37.61186]],"type":"LineString"}
}
