{
  "id": 2032050221,
  "type": "Feature",
  "properties": {
    "geom:area": 0,
    "geom:bbox": "-122.332778,32.766389,-97.050000,38.308056",
    "geom:latitude": 36.375377259237375,
    "geom:longitude": -109.51804927292875,
    "src:alt_label": "swim-path",
    "src:geom": "swim",
    "swim:altitudes": [
      "012",
      "028",
      "043",
      "048",
      "067",
      "070",
      "091",
      "105",
      "125",
      "144",
      "162",
      "180",
      "197",
      "210",
      "223",
      "236",
      "249",
      "254",
      "262",
      "270",
      "280",
      "290",
      "299",
      "307",
      "314",
      "321",
      "331",
      "338",
      "346",
      "353",
      "355",
      "360C",
      "360C",
      "360C",
      "360C",
      "360C",
      "360C",
      "360C",
      "361C",
      "360C",
      "360C",
      "360C",
      "360C",
      "360C",
      "360C",
      "360C",
      "360C",
      "360C",
      "361C",
      "360C",
      "360C",
      "360C",
      "360C",
      "360C",
      "360C",
      "360C",
      "360C",
      "360C",
      "360C",
      "360C",
      "360C",
      "360C",
      "361C",
      "361C",
      "361C",
      "360C",
      "360C",
      "360C",
      "360C",
      "360C",
      "360C",
      "360C",
      "360C",
      "360C",
      "360C",
      "360C",
      "360C",
      "360C",
      "360C",
      "360C",
      "360C",
      "360C",
      "360C",
      "360C",
      "360C",
      "360C",
      "360C",
      "360C",
      "360C",
      "360C",
      "360C",
      "361C",
      "360C",
      "360C",
      "359C",
      "360C",
      "360C",
      "360C",
      "360C",
      "360C",
      "360C",
      "360C",
      "360C",
      "360C",
      "360C",
      "360C",
      "360C",
      "360C",
      "360C",
      "360C",
      "360C",
      "360C",
      "360C",
      "360C",
      "360C",
      "359C",
      "360C",
      "360C",
      "360C",
      "360C",
      "360C",
      "360C",
      "360C",
      "360C",
      "360C",
      "360C",
      "360C",
      "360C",
      "360C",
      "360C",
      "360C",
      "360C",
      "360C",
      "360C",
      "360C",
      "360C",
      "360C",
      "360C",
      "360C",
      "360C",
      "360C",
      "360C",
      "360C",
      "360C",
      "360C",
      "360C",
      "360C",
      "360C",
      "360C",
      "360C",
      "360C",
      "360C",
      "360C",
      "360C",
      "360C",
      "360C",
      "360C",
      "360C",
      "360C",
      "360C",
      "360C",
      "360C",
      "360C",
      "360C",
      "360C",
      "360C",
      "360C",
      "360C",
      "360C",
      "360C",
      "360C",
      "360C",
      "360C",
      "360C",
      "360C",
      "360C",
      "360C",
      "360C",
      "360C",
      "360C",
      "360C",
      "360C",
      "360C",
      "360C",
      "360C",
      "360C",
      "360C",
      "360C",
      "360C",
      "360C",
      "360C",
      "360C",
      "360C",
      "360C",
      "360C",
      "360C",
      "360C",
      "360C",
      "360C",
      "360C",
      "360C",
      "360C",
      "360C",
      "360C",
      "360C",
      "360C",
      "360C",
      "360C",
      "360C",
      "360C",
      "360C",
      "360C",
      "360C",
      "360C",
      "360C",
      "360C",
      "360C",
      "360C",
      "360C",
      "360C",
      "360C",
      "360C",
      "360C",
      "360C",
      "360C",
      "360C",
      "360C",
      "360C",
      "360C",
      "360C",
      "360C",
      "360C",
      "360C",
      "360C",
      "360C",
      "360C",
      "356",
      "346",
      "336",
      "327",
      "317",
      "306",
      "284",
      "263",
      "242",
      "222",
      "202",
      "184",
      "165",
      "156",
      "138",
      "117",
      "107",
      "100",
      "089",
      "080",
      "073",
      "069",
      "062",
      "053",
      "050",
      "038",
      "029",
      "020",
      "013",
      "005"
    ],
    "swim:geom": "path",
    "swim:speeds": [
      162,
      208,
      245,
      256,
      268,
      283,
      288,
      322,
      344,
      356,
      364,
      376,
      376,
      391,
      398,
      402,
      406,
      414,
      424,
      435,
      436,
      437,
      439,
      440,
      444,
      445,
      447,
      448,
      448,
      445,
      440,
      439,
      439,
      439,
      440,
      441,
      441,
      444,
      444,
      445,
      445,
      445,
      445,
      446,
      446,
      447,
      447,
      447,
      446,
      445,
      444,
      441,
      440,
      440,
      439,
      438,
      438,
      438,
      438,
      440,
      441,
      442,
      442,
      443,
      442,
      441,
      440,
      439,
      438,
      438,
      437,
      437,
      436,
      436,
      436,
      436,
      436,
      436,
      436,
      437,
      437,
      436,
      435,
      435,
      434,
      434,
      434,
      434,
      434,
      435,
      434,
      434,
      433,
      433,
      431,
      432,
      431,
      430,
      430,
      429,
      429,
      429,
      428,
      427,
      429,
      427,
      429,
      431,
      432,
      435,
      435,
      436,
      436,
      435,
      435,
      435,
      435,
      436,
      436,
      436,
      436,
      437,
      437,
      438,
      438,
      437,
      437,
      436,
      436,
      435,
      436,
      436,
      436,
      437,
      437,
      436,
      434,
      432,
      430,
      433,
      434,
      431,
      436,
      437,
      434,
      438,
      439,
      438,
      440,
      440,
      438,
      436,
      435,
      434,
      434,
      434,
      433,
      432,
      431,
      431,
      432,
      431,
      430,
      429,
      429,
      429,
      428,
      428,
      428,
      428,
      428,
      427,
      427,
      428,
      429,
      429,
      427,
      426,
      426,
      426,
      427,
      428,
      428,
      428,
      430,
      428,
      431,
      429,
      431,
      429,
      430,
      429,
      431,
      430,
      430,
      430,
      430,
      430,
      431,
      430,
      431,
      431,
      431,
      431,
      431,
      431,
      431,
      431,
      431,
      430,
      431,
      431,
      431,
      431,
      431,
      431,
      431,
      431,
      431,
      430,
      430,
      430,
      430,
      429,
      428,
      428,
      429,
      429,
      429,
      429,
      429,
      430,
      430,
      431,
      431,
      431,
      432,
      432,
      435,
      437,
      437,
      440,
      440,
      428,
      416,
      401,
      366,
      350,
      353,
      317,
      302,
      295,
      255,
      249,
      245,
      241,
      240,
      237,
      237,
      233,
      228,
      213,
      194,
      178,
      136,
      141
    ],
    "swim:timestamps": [
      1785496037,
      1785496103,
      1785496152,
      1785496163,
      1785496212,
      1785496223,
      1785496272,
      1785496332,
      1785496392,
      1785496452,
      1785496512,
      1785496572,
      1785496632,
      1785496692,
      1785496752,
      1785496812,
      1785496873,
      1785496933,
      1785496993,
      1785497053,
      1785497113,
      1785497173,
      1785497233,
      1785497293,
      1785497353,
      1785497413,
      1785497473,
      1785497533,
      1785497593,
      1785497636,
      1785497653,
      1785497697,
      1785497713,
      1785497758,
      1785497773,
      1785497816,
      1785497834,
      1785497876,
      1785497894,
      1785497936,
      1785497954,
      1785497996,
      1785498014,
      1785498058,
      1785498074,
      1785498116,
      1785498134,
      1785498176,
      1785498194,
      1785498237,
      1785498254,
      1785498296,
      1785498314,
      1785498356,
      1785498374,
      1785498416,
      1785498434,
      1785498477,
      1785498494,
      1785498537,
      1785498554,
      1785498597,
      1785498614,
      1785498656,
      1785498675,
      1785498716,
      1785498735,
      1785498776,
      1785498795,
      1785498837,
      1785498855,
      1785498897,
      1785498915,
      1785498957,
      1785498975,
      1785499016,
      1785499035,
      1785499076,
      1785499095,
      1785499138,
      1785499155,
      1785499215,
      1785499257,
      1785499275,
      1785499316,
      1785499335,
      1785499376,
      1785499439,
      1785499485,
      1785499499,
      1785499546,
      1785499559,
      1785499606,
      1785499619,
      1785499666,
      1785499677,
      1785499737,
      1785499786,
      1785499797,
      1785499846,
      1785499857,
      1785499919,
      1785499966,
      1785499980,
      1785500026,
      1785500037,
      1785500097,
      1785500146,
      1785500158,
      1785500206,
      1785500218,
      1785500278,
      1785500326,
      1785500386,
      1785500398,
      1785500446,
      1785500458,
      1785500506,
      1785500518,
      1785500566,
      1785500578,
      1785500626,
      1785500638,
      1785500686,
      1785500698,
      1785500747,
      1785500759,
      1785500807,
      1785500819,
      1785500867,
      1785500879,
      1785500927,
      1785500939,
      1785500987,
      1785500999,
      1785501059,
      1785501107,
      1785501167,
      1785501231,
      1785501287,
      1785501347,
      1785501411,
      1785501467,
      1785501527,
      1785501591,
      1785501647,
      1785501707,
      1785501771,
      1785501827,
      1785501887,
      1785501947,
      1785502012,
      1785502068,
      1785502128,
      1785502192,
      1785502248,
      1785502308,
      1785502372,
      1785502428,
      1785502488,
      1785502552,
      1785502608,
      1785502668,
      1785502732,
      1785502788,
      1785502848,
      1785502912,
      1785502972,
      1785503032,
      1785503093,
      1785503153,
      1785503213,
      1785503273,
      1785503333,
      1785503393,
      1785503453,
      1785503573,
      1785503633,
      1785503693,
      1785503753,
      1785503813,
      1785503873,
      1785503933,
      1785503993,
      1785504021,
      1785504054,
      1785504081,
      1785504114,
      1785504142,
      1785504174,
      1785504202,
      1785504234,
      1785504262,
      1785504294,
      1785504322,
      1785504354,
      1785504382,
      1785504414,
      1785504442,
      1785504474,
      1785504502,
      1785504534,
      1785504562,
      1785504594,
      1785504622,
      1785504654,
      1785504682,
      1785504714,
      1785504742,
      1785504774,
      1785504802,
      1785504835,
      1785504862,
      1785504895,
      1785504922,
      1785504955,
      1785504982,
      1785505015,
      1785505042,
      1785505075,
      1785505102,
      1785505135,
      1785505162,
      1785505222,
      1785505283,
      1785505315,
      1785505343,
      1785505375,
      1785505403,
      1785505435,
      1785505463,
      1785505523,
      1785505583,
      1785505643,
      1785505703,
      1785505763,
      1785505823,
      1785505883,
      1785505943,
      1785506003,
      1785506063,
      1785506123,
      1785506183,
      1785506243,
      1785506304,
      1785506364,
      1785506424,
      1785506484,
      1785506544,
      1785506599,
      1785506660,
      1785506720,
      1785506784,
      1785506844,
      1785506904,
      1785506964,
      1785507024,
      1785507086,
      1785507144,
      1785507204,
      1785507212,
      1785507266,
      1785507325,
      1785507385,
      1785507440,
      1785507505
    ],
    "wof:geomhash": "a658e5328bbcb50b209efa6bb87c7992",
    "wof:id": 2032050221,
    "wof:repo": "sfomuseum-data-flights-2026-07"
  },
  "bbox": [
    -122.33277777777778,
    32.76638888888889,
    -97.05,
    38.308055555555555
  ],
  "geometry": {"coordinates":[[-97.05,32.88333333333333],[-97.06666666666666,32.833333333333336],[-97.07972222222222,32.78333333333333],[-97.1,32.766666666666666],[-97.16111111111111,32.76638888888889],[-97.18333333333334,32.766666666666666],[-97.25583333333333,32.77472222222222],[-97.35166666666666,32.80222222222222],[-97.45916666666668,32.83305555555556],[-97.57027777777778,32.86527777777778],[-97.68083333333334,32.89666666666667],[-97.79861111111111,32.93],[-97.91638888888889,32.96361111111111],[-98.03972222222222,32.998333333333335],[-98.16527777777779,33.03361111111111],[-98.295,33.073055555555555],[-98.42111111111112,33.11388888888889],[-98.52944444444444,33.14888888888889],[-98.66111111111111,33.19138888888889],[-98.7961111111111,33.234722222222224],[-98.93222222222222,33.27833333333333],[-99.07,33.32194444444445],[-99.2063888888889,33.36527777777778],[-99.34277777777777,33.40833333333333],[-99.48138888888889,33.45194444444445],[-99.6236111111111,33.49277777777778],[-99.76444444444445,33.53194444444444],[-99.90694444444445,33.57138888888889],[-100.04194444444444,33.60861111111111],[-100.14527777777778,33.636944444444445],[-100.18055555555556,33.64666666666667],[-100.27388888888889,33.68055555555555],[-100.31138888888889,33.69694444444444],[-100.40277777777779,33.73694444444445],[-100.44250000000001,33.75416666666667],[-100.53527777777778,33.79416666666666],[-100.57416666666666,33.81111111111111],[-100.66638888888889,33.850833333333334],[-100.70555555555556,33.867777777777775],[-100.79888888888888,33.908055555555556],[-100.83916666666666,33.92527777777777],[-100.93222222222222,33.96527777777778],[-100.97194444444445,33.98222222222223],[-101.06527777777778,34.02194444444444],[-101.11722222222221,34.04416666666666],[-101.19777777777779,34.078611111111115],[-101.25222222222222,34.10166666666667],[-101.33305555555555,34.13583333333333],[-101.38444444444445,34.157777777777774],[-101.46444444444445,34.19138888888889],[-101.51638888888888,34.21333333333334],[-101.59472222222222,34.24638888888889],[-101.64916666666667,34.26916666666666],[-101.72694444444444,34.30166666666666],[-101.7786111111111,34.32333333333334],[-101.85888888888888,34.356944444444444],[-101.91194444444444,34.37888888888889],[-101.99027777777778,34.41166666666666],[-102.04305555555555,34.43333333333333],[-102.12444444444444,34.467222222222226],[-102.17805555555556,34.48916666666667],[-102.25722222222223,34.52194444444444],[-102.31083333333333,34.54388888888889],[-102.39250000000001,34.5775],[-102.44611111111111,34.599444444444444],[-102.52472222222222,34.63166666666667],[-102.57722222222222,34.653055555555554],[-102.6575,34.68583333333333],[-102.71083333333334,34.7075],[-102.79055555555556,34.74],[-102.84333333333333,34.76138888888889],[-102.92111111111112,34.79277777777778],[-102.97444444444444,34.81444444444444],[-103.05361111111111,34.846111111111114],[-103.10694444444444,34.8675],[-103.18611111111112,34.899166666666666],[-103.23972222222223,34.920833333333334],[-103.3175,34.95194444444445],[-103.37249999999999,34.973888888888894],[-103.45222222222222,35.00555555555555],[-103.50472222222223,35.02638888888889],[-103.63944444444445,35.07972222222222],[-103.7175,35.11055555555556],[-103.77111111111111,35.13166666666667],[-103.84861111111111,35.16222222222222],[-103.9038888888889,35.18388888888889],[-103.99333333333334,35.21888888888889],[-104.12833333333333,35.27166666666667],[-104.24361111111111,35.31527777777777],[-104.26472222222222,35.324444444444445],[-104.36888888888888,35.36388888888889],[-104.39416666666668,35.374722222222225],[-104.50416666666666,35.41555555555556],[-104.52527777777777,35.42527777777777],[-104.63805555555557,35.467777777777776],[-104.6575,35.476111111111116],[-104.78944444444444,35.52638888888889],[-104.89750000000001,35.56638888888889],[-104.92166666666667,35.57666666666667],[-105.03277777777778,35.617222222222225],[-105.05416666666666,35.62694444444445],[-105.1863888888889,35.67722222222222],[-105.28777777777778,35.71638888888889],[-105.31916666666666,35.72833333333333],[-105.41916666666667,35.766666666666666],[-105.45055555555555,35.77861111111111],[-105.58361111111111,35.82944444444445],[-105.68444444444445,35.8675],[-105.71916666666667,35.880833333333335],[-105.81861111111111,35.91833333333333],[-105.85499999999999,35.93222222222222],[-105.99277777777777,35.98416666666667],[-106.11027777777777,36.028055555555554],[-106.2213888888889,36.06944444444445],[-106.26916666666666,36.08722222222222],[-106.35555555555555,36.11944444444445],[-106.39666666666668,36.13472222222222],[-106.49361111111111,36.17055555555555],[-106.52444444444444,36.18194444444444],[-106.6286111111111,36.22027777777778],[-106.6575,36.23083333333334],[-106.76611111111112,36.27055555555555],[-106.79416666666667,36.28111111111111],[-106.90333333333334,36.32083333333334],[-106.93138888888889,36.33111111111111],[-107.03916666666666,36.37027777777778],[-107.06666666666666,36.38027777777778],[-107.2038888888889,36.43],[-107.20305555555557,36.42944444444444],[-107.33888888888889,36.47833333333333],[-107.34138888888889,36.47944444444445],[-107.47666666666667,36.52777777777778],[-107.47666666666667,36.528055555555554],[-107.61361111111111,36.57694444444445],[-107.61222222222221,36.57638888888889],[-107.75333333333333,36.626666666666665],[-107.88777777777779,36.674166666666665],[-108.02333333333333,36.721944444444446],[-108.15833333333335,36.76833333333333],[-108.30194444444444,36.81111111111111],[-108.44111111111111,36.85388888888889],[-108.58166666666666,36.896388888888886],[-108.72277777777778,36.939722222222215],[-108.86416666666666,36.9825],[-109.00805555555556,37.02583333333333],[-109.14777777777779,37.06777777777778],[-109.29055555555556,37.11027777777778],[-109.4388888888889,37.15361111111111],[-109.57777777777777,37.195277777777775],[-109.72,37.23694444444445],[-109.8611111111111,37.278055555555554],[-109.99833333333333,37.31805555555556],[-110.14555555555556,37.36055555555556],[-110.28916666666666,37.401666666666664],[-110.42750000000001,37.441111111111105],[-110.5736111111111,37.48277777777778],[-110.715,37.522777777777776],[-110.85249999999999,37.561388888888885],[-111,37.597500000000004],[-111.14694444444446,37.63194444444444],[-111.285,37.66416666666667],[-111.43666666666667,37.69944444444444],[-111.58111111111111,37.73305555555556],[-111.71972222222223,37.764722222222225],[-111.86916666666666,37.79861111111111],[-112.01194444444444,37.830555555555556],[-112.18166666666667,37.86138888888889],[-112.32833333333333,37.88777777777778],[-112.47222222222223,37.91361111111111],[-112.61944444444444,37.939722222222215],[-112.76472222222222,37.96527777777778],[-112.90972222222223,37.99055555555556],[-113.05555555555556,38.01611111111111],[-113.20138888888889,38.04111111111111],[-113.34833333333333,38.06638888888889],[-113.49472222222222,38.09111111111111],[-113.78722222222223,38.14],[-113.93333333333334,38.16416666666667],[-114.08166666666666,38.18861111111111],[-114.22722222222222,38.212500000000006],[-114.37638888888888,38.23638888888889],[-114.52277777777778,38.26],[-114.67111111111112,38.28361111111111],[-114.82083333333333,38.305277777777775],[-114.90083333333334,38.308055555555555],[-114.97027777777778,38.297777777777775],[-115.05166666666666,38.29083333333333],[-115.12249999999999,38.284166666666664],[-115.20166666666667,38.27833333333333],[-115.27194444444444,38.27027777777778],[-115.35305555555556,38.26305555555555],[-115.41250000000001,38.2575],[-115.50416666666666,38.24888888888889],[-115.56333333333333,38.24305555555556],[-115.6538888888889,38.23527777777778],[-115.71361111111112,38.22888888888889],[-115.80583333333333,38.22],[-115.86583333333333,38.21416666666667],[-115.95611111111111,38.205555555555556],[-116.01638888888888,38.19944444444444],[-116.10777777777777,38.190555555555555],[-116.16666666666667,38.18472222222222],[-116.25888888888889,38.17527777777777],[-116.31666666666666,38.169444444444444],[-116.41000000000001,38.16],[-116.4675,38.15416666666667],[-116.56055555555555,38.144444444444446],[-116.61861111111111,38.13861111111111],[-116.71111111111111,38.12888888888889],[-116.77083333333333,38.12277777777778],[-116.86194444444443,38.113055555555555],[-116.92194444444445,38.10666666666667],[-117.01305555555555,38.096944444444446],[-117.07305555555556,38.09055555555556],[-117.13694444444445,38.08361111111111],[-117.23055555555555,38.07361111111111],[-117.29472222222222,38.06638888888889],[-117.38444444444445,38.05638888888888],[-117.44694444444445,38.04972222222222],[-117.53666666666666,38.03944444444444],[-117.59805555555555,38.032777777777774],[-117.68527777777778,38.02305555555555],[-117.7475,38.01583333333333],[-117.89722222222223,37.99861111111111],[-118.04472222222222,37.98166666666667],[-118.13222222222221,37.97138888888889],[-118.19583333333334,37.96388888888889],[-118.28361111111111,37.953611111111115],[-118.34416666666667,37.94638888888888],[-118.43333333333334,37.93583333333333],[-118.49416666666667,37.92861111111111],[-118.64416666666668,37.91027777777778],[-118.7925,37.89222222222222],[-118.94277777777778,37.875277777777775],[-119.09694444444445,37.85777777777778],[-119.24944444444445,37.84],[-119.39777777777779,37.822500000000005],[-119.54888888888888,37.80472222222222],[-119.69972222222222,37.78666666666666],[-119.85194444444444,37.768055555555556],[-120.00583333333333,37.74888888888889],[-120.15777777777778,37.730000000000004],[-120.31083333333333,37.71083333333333],[-120.46138888888889,37.69222222222222],[-120.60555555555555,37.675555555555555],[-120.74694444444445,37.65888888888889],[-120.87527777777777,37.64361111111111],[-120.99833333333333,37.628055555555555],[-121.12083333333332,37.611666666666665],[-121.23333333333333,37.6],[-121.33333333333333,37.583333333333336],[-121.45,37.56666666666667],[-121.53527777777778,37.56111111111111],[-121.62138888888889,37.55083333333333],[-121.70277777777778,37.532222222222224],[-121.7538888888889,37.48444444444444],[-121.81916666666666,37.453611111111115],[-121.9,37.45],[-121.9825,37.453611111111115],[-122.05472222222222,37.48361111111111],[-122.06666666666666,37.483333333333334],[-122.13333333333334,37.516666666666666],[-122.18527777777778,37.538888888888884],[-122.24083333333333,37.56222222222222],[-122.28333333333333,37.583333333333336],[-122.33277777777778,37.600833333333334]],"type":"LineString"}
}
