{
  "id": 2031991555,
  "type": "Feature",
  "properties": {
    "geom:area": 0,
    "geom:bbox": "-122.333333,36.066667,-86.738889,40.213889",
    "geom:latitude": 39.070886910563075,
    "geom:longitude": -104.23825192167484,
    "src:alt_label": "swim-path",
    "src:geom": "swim",
    "swim:altitudes": [
      "030",
      "042",
      "051",
      "065",
      "069",
      "090",
      "100",
      "112",
      "115",
      "123",
      "123",
      "141",
      "142",
      "160",
      "161",
      "179",
      "193",
      "194",
      "215",
      "215",
      "225",
      "236",
      "246",
      "247",
      "254",
      "254",
      "270",
      "273",
      "284",
      "284",
      "293",
      "294",
      "307",
      "307",
      "316",
      "317",
      "325",
      "334",
      "335",
      "340C",
      "340C",
      "339C",
      "339C",
      "340C",
      "340C",
      "339C",
      "340C",
      "340C",
      "340C",
      "340C",
      "339C",
      "339C",
      "339C",
      "339C",
      "339C",
      "340C",
      "340C",
      "340C",
      "340C",
      "340C",
      "340C",
      "340C",
      "339C",
      "339C",
      "339C",
      "340C",
      "340C",
      "339C",
      "339C",
      "340C",
      "340C",
      "340C",
      "339C",
      "339C",
      "339C",
      "340C",
      "340C",
      "340C",
      "340C",
      "340C",
      "339C",
      "339C",
      "340C",
      "340C",
      "340C",
      "339C",
      "339C",
      "339C",
      "339C",
      "340C",
      "340C",
      "340C",
      "340C",
      "340C",
      "340C",
      "340C",
      "339C",
      "339C",
      "339C",
      "339C",
      "339C",
      "339C",
      "339C",
      "339C",
      "340C",
      "340C",
      "339C",
      "339C",
      "340C",
      "340C",
      "340C",
      "339C",
      "339C",
      "339C",
      "339C",
      "339C",
      "339C",
      "339C",
      "339C",
      "339C",
      "340C",
      "339C",
      "339C",
      "340C",
      "340C",
      "340C",
      "340C",
      "340C",
      "340C",
      "340C",
      "340C",
      "340C",
      "339C",
      "339C",
      "339C",
      "339C",
      "339C",
      "339C",
      "339C",
      "339C",
      "339C",
      "340C",
      "339C",
      "340C",
      "340C",
      "340C",
      "340C",
      "339C",
      "339C",
      "339C",
      "340C",
      "340C",
      "340C",
      "339C",
      "339C",
      "339C",
      "340C",
      "340C",
      "340C",
      "340C",
      "340C",
      "339",
      "347",
      "355",
      "359C",
      "360C",
      "359C",
      "360C",
      "360C",
      "359C",
      "359C",
      "359C",
      "360C",
      "360C",
      "360C",
      "360C",
      "360C",
      "360C",
      "359C",
      "359C",
      "359C",
      "359C",
      "360C",
      "360C",
      "360C",
      "359C",
      "359C",
      "359C",
      "359C",
      "360C",
      "360C",
      "360C",
      "360C",
      "360C",
      "360C",
      "359C",
      "359C",
      "359C",
      "359C",
      "359C",
      "359C",
      "359C",
      "359C",
      "359C",
      "359C",
      "359C",
      "359C",
      "360C",
      "360C",
      "360C",
      "360C",
      "360C",
      "360C",
      "360C",
      "359C",
      "359C",
      "359C",
      "359C",
      "359C",
      "359C",
      "360C",
      "360C",
      "359C",
      "360C",
      "360C",
      "360C",
      "359C",
      "359C",
      "359C",
      "359C",
      "360C",
      "360C",
      "359C",
      "359C",
      "359C",
      "359C",
      "359C",
      "359C",
      "360C",
      "360C",
      "360C",
      "360C",
      "360C",
      "360C",
      "359C",
      "359C",
      "359C",
      "359C",
      "359C",
      "359C",
      "360C",
      "360C",
      "360C",
      "360C",
      "360C",
      "360C",
      "360C",
      "359C",
      "359C",
      "359C",
      "359C",
      "359C",
      "359C",
      "360C",
      "360C",
      "360C",
      "359C",
      "360C",
      "360C",
      "359C",
      "359C",
      "359C",
      "359C",
      "360C",
      "359C",
      "360C",
      "359C",
      "359C",
      "368",
      "376",
      "380C",
      "379C",
      "380C",
      "380C",
      "380C",
      "380C",
      "379C",
      "379C",
      "379C",
      "379C",
      "379C",
      "380C",
      "380C",
      "380C",
      "380C",
      "380C",
      "380C",
      "379C",
      "379C",
      "379C",
      "379C",
      "379C",
      "379C",
      "379C",
      "379C",
      "379C",
      "380C",
      "380C",
      "380C",
      "380C",
      "380C",
      "379C",
      "379C",
      "379C",
      "379C",
      "379C",
      "380C",
      "380C",
      "380C",
      "380C",
      "380C",
      "380C",
      "379C",
      "379C",
      "379C",
      "379C",
      "379C",
      "379C",
      "380C",
      "380C",
      "380C",
      "380C",
      "380C",
      "380C",
      "380C",
      "380C",
      "380C",
      "380C",
      "380C",
      "380C",
      "379C",
      "379C",
      "379C",
      "380C",
      "379C",
      "380C",
      "380C",
      "379C",
      "379C",
      "380C",
      "379C",
      "380C",
      "380C",
      "380C",
      "379C",
      "379C",
      "380C",
      "379C",
      "380C",
      "379",
      "380",
      "375",
      "355",
      "330",
      "308",
      "287",
      "267",
      "249",
      "238",
      "230",
      "212",
      "194",
      "177",
      "160",
      "143",
      "128",
      "111",
      "104",
      "099",
      "093",
      "080",
      "069",
      "059",
      "054",
      "040",
      "030",
      "021",
      "012",
      "005"
    ],
    "swim:geom": "path",
    "swim:speeds": [
      213,
      234,
      249,
      270,
      246,
      280,
      288,
      294,
      312,
      341,
      309,
      365,
      341,
      372,
      359,
      371,
      398,
      386,
      391,
      395,
      393,
      398,
      404,
      407,
      419,
      421,
      428,
      435,
      408,
      409,
      413,
      413,
      408,
      407,
      407,
      407,
      408,
      407,
      406,
      406,
      405,
      422,
      421,
      431,
      448,
      447,
      440,
      440,
      437,
      433,
      431,
      430,
      430,
      430,
      430,
      432,
      432,
      435,
      437,
      438,
      439,
      438,
      437,
      436,
      436,
      437,
      437,
      437,
      436,
      436,
      436,
      435,
      433,
      432,
      432,
      433,
      434,
      435,
      436,
      436,
      435,
      435,
      436,
      436,
      436,
      436,
      436,
      437,
      438,
      437,
      438,
      437,
      437,
      436,
      437,
      435,
      435,
      435,
      434,
      433,
      432,
      433,
      435,
      436,
      438,
      439,
      440,
      441,
      442,
      442,
      442,
      441,
      440,
      438,
      436,
      435,
      434,
      434,
      433,
      434,
      434,
      435,
      437,
      439,
      441,
      441,
      446,
      442,
      442,
      444,
      442,
      441,
      440,
      438,
      436,
      435,
      434,
      434,
      434,
      434,
      435,
      435,
      436,
      438,
      439,
      439,
      440,
      440,
      440,
      440,
      441,
      440,
      440,
      439,
      439,
      438,
      438,
      437,
      438,
      436,
      434,
      430,
      429,
      429,
      428,
      427,
      424,
      431,
      425,
      429,
      426,
      429,
      428,
      429,
      430,
      429,
      431,
      429,
      431,
      431,
      430,
      432,
      430,
      432,
      430,
      432,
      430,
      432,
      430,
      434,
      430,
      435,
      432,
      437,
      436,
      436,
      436,
      436,
      435,
      435,
      433,
      435,
      432,
      434,
      431,
      432,
      432,
      432,
      432,
      432,
      433,
      432,
      433,
      433,
      433,
      433,
      433,
      433,
      434,
      433,
      434,
      436,
      435,
      438,
      436,
      436,
      438,
      437,
      438,
      437,
      437,
      437,
      436,
      437,
      436,
      437,
      436,
      438,
      437,
      438,
      438,
      438,
      438,
      436,
      434,
      434,
      433,
      432,
      432,
      432,
      433,
      433,
      434,
      434,
      434,
      434,
      434,
      433,
      433,
      432,
      432,
      432,
      432,
      432,
      432,
      432,
      432,
      432,
      431,
      431,
      431,
      431,
      431,
      430,
      430,
      430,
      428,
      428,
      428,
      428,
      427,
      426,
      425,
      425,
      425,
      423,
      423,
      423,
      423,
      423,
      423,
      449,
      471,
      474,
      475,
      480,
      475,
      477,
      474,
      476,
      473,
      473,
      472,
      473,
      472,
      474,
      437,
      450,
      411,
      431,
      409,
      409,
      409,
      410,
      411,
      411,
      412,
      412,
      414,
      414,
      413,
      413,
      409,
      408,
      408,
      408,
      409,
      410,
      412,
      411,
      405,
      405,
      404,
      401,
      401,
      400,
      401,
      400,
      400,
      399,
      399,
      399,
      399,
      399,
      399,
      400,
      400,
      400,
      400,
      410,
      419,
      446,
      452,
      450,
      424,
      426,
      428,
      429,
      429,
      428,
      428,
      427,
      425,
      425,
      418,
      403,
      389,
      389,
      384,
      381,
      369,
      366,
      360,
      352,
      339,
      333,
      268,
      249,
      239,
      240,
      240,
      238,
      236,
      200,
      195,
      185,
      174,
      134,
      127
    ],
    "swim:timestamps": [
      1785152254,
      1785152291,
      1785152314,
      1785152352,
      1785152363,
      1785152412,
      1785152434,
      1785152472,
      1785152482,
      1785152532,
      1785152541,
      1785152592,
      1785152601,
      1785152652,
      1785152661,
      1785152721,
      1785152775,
      1785152781,
      1785152835,
      1785152841,
      1785152892,
      1785152961,
      1785153012,
      1785153021,
      1785153072,
      1785153081,
      1785153136,
      1785153143,
      1785153196,
      1785153203,
      1785153253,
      1785153263,
      1785153313,
      1785153323,
      1785153373,
      1785153383,
      1785153433,
      1785153493,
      1785153503,
      1785153553,
      1785153563,
      1785153616,
      1785153623,
      1785153683,
      1785153745,
      1785153796,
      1785153856,
      1785153864,
      1785153917,
      1785153977,
      1785154037,
      1785154044,
      1785154104,
      1785154157,
      1785154164,
      1785154217,
      1785154224,
      1785154284,
      1785154344,
      1785154405,
      1785154465,
      1785154525,
      1785154585,
      1785154645,
      1785154705,
      1785154765,
      1785154825,
      1785154885,
      1785154946,
      1785155006,
      1785155066,
      1785155126,
      1785155186,
      1785155246,
      1785155306,
      1785155366,
      1785155426,
      1785155486,
      1785155546,
      1785155607,
      1785155667,
      1785155727,
      1785155787,
      1785155847,
      1785155907,
      1785155967,
      1785156027,
      1785156087,
      1785156147,
      1785156207,
      1785156238,
      1785156267,
      1785156328,
      1785156358,
      1785156388,
      1785156419,
      1785156448,
      1785156479,
      1785156508,
      1785156568,
      1785156599,
      1785156628,
      1785156659,
      1785156688,
      1785156748,
      1785156808,
      1785156839,
      1785156899,
      1785156928,
      1785156959,
      1785157019,
      1785157049,
      1785157079,
      1785157109,
      1785157169,
      1785157229,
      1785157260,
      1785157289,
      1785157320,
      1785157349,
      1785157380,
      1785157409,
      1785157440,
      1785157469,
      1785157529,
      1785157560,
      1785157577,
      1785157589,
      1785157620,
      1785157637,
      1785157649,
      1785157680,
      1785157710,
      1785157740,
      1785157770,
      1785157800,
      1785157830,
      1785157861,
      1785157877,
      1785157937,
      1785157981,
      1785157997,
      1785158041,
      1785158057,
      1785158118,
      1785158161,
      1785158178,
      1785158221,
      1785158238,
      1785158281,
      1785158298,
      1785158341,
      1785158358,
      1785158418,
      1785158461,
      1785158478,
      1785158521,
      1785158538,
      1785158582,
      1785158598,
      1785158658,
      1785158718,
      1785158778,
      1785158838,
      1785158899,
      1785158959,
      1785159019,
      1785159096,
      1785159139,
      1785159156,
      1785159199,
      1785159217,
      1785159259,
      1785159277,
      1785159319,
      1785159337,
      1785159379,
      1785159397,
      1785159439,
      1785159499,
      1785159517,
      1785159560,
      1785159577,
      1785159620,
      1785159637,
      1785159680,
      1785159697,
      1785159740,
      1785159757,
      1785159800,
      1785159817,
      1785159860,
      1785159877,
      1785159920,
      1785159938,
      1785160058,
      1785160100,
      1785160118,
      1785160160,
      1785160178,
      1785160220,
      1785160238,
      1785160280,
      1785160298,
      1785160341,
      1785160358,
      1785160401,
      1785160418,
      1785160461,
      1785160478,
      1785160521,
      1785160538,
      1785160581,
      1785160598,
      1785160641,
      1785160658,
      1785160701,
      1785160719,
      1785160761,
      1785160779,
      1785160839,
      1785160881,
      1785160899,
      1785160941,
      1785160959,
      1785161019,
      1785161062,
      1785161079,
      1785161122,
      1785161139,
      1785161199,
      1785161242,
      1785161302,
      1785161319,
      1785161362,
      1785161379,
      1785161422,
      1785161440,
      1785161482,
      1785161542,
      1785161560,
      1785161602,
      1785161620,
      1785161662,
      1785161722,
      1785161740,
      1785161783,
      1785161800,
      1785161843,
      1785161860,
      1785161903,
      1785161963,
      1785161980,
      1785162023,
      1785162040,
      1785162100,
      1785162143,
      1785162160,
      1785162203,
      1785162221,
      1785162263,
      1785162281,
      1785162323,
      1785162341,
      1785162383,
      1785162401,
      1785162443,
      1785162461,
      1785162503,
      1785162521,
      1785162564,
      1785162581,
      1785162641,
      1785162701,
      1785162761,
      1785162821,
      1785162942,
      1785163002,
      1785163122,
      1785163182,
      1785163242,
      1785163302,
      1785163362,
      1785163422,
      1785163542,
      1785163723,
      1785163843,
      1785163903,
      1785163963,
      1785164023,
      1785164083,
      1785164143,
      1785164187,
      1785164203,
      1785164263,
      1785164308,
      1785164323,
      1785164368,
      1785164383,
      1785164428,
      1785164444,
      1785164488,
      1785164504,
      1785164548,
      1785164564,
      1785164608,
      1785164624,
      1785164668,
      1785164684,
      1785164728,
      1785164744,
      1785164788,
      1785164804,
      1785164864,
      1785164908,
      1785164924,
      1785164968,
      1785164984,
      1785165028,
      1785165044,
      1785165089,
      1785165104,
      1785165165,
      1785165225,
      1785165269,
      1785165285,
      1785165329,
      1785165345,
      1785165389,
      1785165405,
      1785165449,
      1785165465,
      1785165525,
      1785165569,
      1785165585,
      1785165629,
      1785165645,
      1785165689,
      1785165705,
      1785165765,
      1785165809,
      1785165825,
      1785165885,
      1785165930,
      1785165946,
      1785165990,
      1785166006,
      1785166050,
      1785166066,
      1785166110,
      1785166126,
      1785166186,
      1785166230,
      1785166246,
      1785166350,
      1785166410,
      1785166470,
      1785166530,
      1785166590,
      1785166650,
      1785166711,
      1785166771,
      1785166831,
      1785166891,
      1785166951,
      1785167011,
      1785167071,
      1785167131,
      1785167159,
      1785167191,
      1785167251,
      1785167311,
      1785167371,
      1785167432,
      1785167489,
      1785167549,
      1785167669,
      1785167729,
      1785167792,
      1785167852,
      1785167912,
      1785167972,
      1785168032,
      1785168092,
      1785168152,
      1785168209,
      1785168269,
      1785168330,
      1785168390
    ],
    "wof:geomhash": "851f1a7e6df5d433a98ae3261af52e44",
    "wof:id": 2031991555,
    "wof:repo": "sfomuseum-data-flights-2026-07"
  },
  "bbox": [
    -122.33333333333333,
    36.06666666666667,
    -86.7388888888889,
    40.21388888888889
  ],
  "geometry": {"coordinates":[[-86.75,36.06666666666667],[-86.78694444444444,36.09916666666667],[-86.78333333333333,36.13333333333333],[-86.78055555555555,36.17194444444444],[-86.77666666666667,36.181666666666665],[-86.775,36.24805555555556],[-86.76666666666667,36.28333333333333],[-86.77055555555556,36.32777777777778],[-86.76666666666667,36.35],[-86.76416666666667,36.415277777777774],[-86.76138888888889,36.41722222222222],[-86.75777777777778,36.51583333333333],[-86.75666666666666,36.51861111111111],[-86.75055555555555,36.61833333333333],[-86.74527777777777,36.621944444444445],[-86.7388888888889,36.72833333333333],[-86.74777777777778,36.83416666666667],[-86.74083333333333,36.83972222222222],[-86.75694444444444,36.943888888888885],[-86.75333333333333,36.95055555555556],[-86.76583333333333,37.05333333333333],[-86.77638888888889,37.171388888888885],[-86.78416666666666,37.278055555555554],[-86.785,37.28472222222222],[-86.85194444444444,37.375277777777775],[-86.85944444444443,37.37916666666667],[-86.98333333333333,37.433055555555555],[-86.99444444444444,37.4375],[-87.10749999999999,37.48638888888889],[-87.11388888888888,37.48916666666667],[-87.23555555555555,37.541666666666664],[-87.24777777777778,37.54666666666667],[-87.36,37.594722222222224],[-87.37444444444444,37.600833333333334],[-87.485,37.64805555555556],[-87.50166666666667,37.655],[-87.6111111111111,37.70138888888889],[-87.735,37.75361111111111],[-87.75472222222223,37.761944444444445],[-87.86305555555555,37.8075],[-87.88083333333333,37.815],[-88.0111111111111,37.86944444444445],[-88.01222222222222,37.86972222222222],[-88.14805555555556,37.924166666666665],[-88.32055555555556,37.93583333333333],[-88.46333333333334,37.940555555555555],[-88.60749999999999,37.961666666666666],[-88.61388888888888,37.96333333333334],[-88.7525,37.9975],[-88.89750000000001,38.032777777777774],[-89.03972222222222,38.06722222222223],[-89.0436111111111,38.068333333333335],[-89.18694444444445,38.10277777777778],[-89.33,38.136944444444445],[-89.33222222222221,38.1375],[-89.47722222222222,38.17222222222222],[-89.47833333333334,38.1725],[-89.62777777777777,38.2075],[-89.77583333333334,38.2425],[-89.9238888888889,38.27722222222222],[-90.07305555555556,38.31194444444444],[-90.22361111111111,38.34638888888889],[-90.37333333333332,38.38111111111111],[-90.54083333333332,38.41916666666666],[-90.68861111111111,38.4525],[-90.82138888888889,38.4825],[-90.97111111111111,38.51583333333333],[-91.12055555555555,38.54888888888889],[-91.27027777777778,38.581944444444446],[-91.43166666666667,38.6175],[-91.58138888888888,38.650277777777774],[-91.73111111111112,38.68222222222222],[-91.8786111111111,38.71388888888889],[-92.0275,38.745555555555555],[-92.17555555555556,38.776944444444446],[-92.32444444444444,38.80833333333333],[-92.46777777777778,38.83833333333334],[-92.61916666666666,38.86972222222222],[-92.76888888888888,38.900555555555556],[-92.91888888888889,38.93138888888889],[-93.06833333333333,38.961666666666666],[-93.21944444444445,38.99194444444444],[-93.36916666666666,39.02194444444444],[-93.50361111111111,39.04888888888889],[-93.65166666666667,39.07805555555556],[-93.80361111111111,39.10777777777778],[-93.95527777777778,39.13722222222222],[-94.10666666666665,39.16638888888889],[-94.25694444444444,39.19833333333333],[-94.39222222222223,39.25694444444444],[-94.46305555555556,39.28805555555555],[-94.52833333333334,39.31666666666667],[-94.69194444444445,39.38861111111111],[-94.7388888888889,39.40972222222222],[-94.82472222222222,39.44944444444444],[-94.8736111111111,39.47222222222222],[-94.95833333333334,39.51138888888889],[-95.00666666666666,39.53361111111111],[-95.08944444444444,39.571111111111115],[-95.22305555555556,39.63055555555555],[-95.28055555555555,39.65555555555555],[-95.365,39.67777777777778],[-95.43027777777779,39.68611111111111],[-95.51861111111111,39.697222222222216],[-95.67611111111111,39.71666666666667],[-95.83027777777778,39.73527777777778],[-95.90138888888889,39.743611111111115],[-96.06055555555555,39.7625],[-96.14583333333334,39.7725],[-96.21888888888888,39.78111111111111],[-96.37666666666667,39.799166666666665],[-96.46638888888889,39.809444444444445],[-96.53333333333333,39.81722222222223],[-96.62805555555555,39.82777777777778],[-96.78027777777778,39.844722222222224],[-96.93694444444445,39.86222222222222],[-96.99666666666667,39.86888888888889],[-97.08555555555554,39.87833333333333],[-97.15305555555557,39.885555555555555],[-97.24888888888889,39.895833333333336],[-97.30972222222222,39.902499999999996],[-97.40305555555557,39.9125],[-97.46583333333334,39.91888888888889],[-97.56,39.92861111111111],[-97.72083333333333,39.945277777777775],[-97.78416666666666,39.95166666666667],[-97.84638888888888,39.95805555555556],[-97.88027777777778,39.961666666666666],[-97.94361111111111,39.967777777777776],[-98.00444444444445,39.97416666666667],[-98.02277777777778,39.975833333333334],[-98.10138888888888,39.98361111111111],[-98.17972222222222,39.99138888888889],[-98.2575,39.99916666666667],[-98.34638888888888,40.007777777777775],[-98.4113888888889,40.01416666666667],[-98.49694444444445,40.0225],[-98.56777777777778,40.02916666666667],[-98.6286111111111,40.035],[-98.785,40.04972222222222],[-98.87944444444443,40.058611111111105],[-98.94083333333333,40.064166666666665],[-99.0375,40.073055555555555],[-99.10027777777778,40.078611111111115],[-99.2575,40.09277777777778],[-99.35499999999999,40.10138888888889],[-99.41666666666667,40.106944444444444],[-99.51361111111112,40.11527777777778],[-99.57694444444444,40.12083333333334],[-99.67166666666667,40.12888888888889],[-99.73472222222222,40.13444444444444],[-99.83111111111111,40.1425],[-99.89277777777778,40.147777777777776],[-100.0525,40.16083333333333],[-100.14333333333335,40.16833333333333],[-100.20972222222223,40.17361111111111],[-100.30361111111111,40.18138888888889],[-100.36861111111111,40.18666666666666],[-100.48861111111111,40.19611111111111],[-100.525,40.19888888888889],[-100.68277777777779,40.20527777777778],[-100.83916666666666,40.20722222222223],[-100.99388888888889,40.20861111111111],[-101.15055555555556,40.21],[-101.30666666666666,40.21138888888889],[-101.45944444444444,40.21222222222222],[-101.61444444444444,40.213055555555556],[-101.80055555555555,40.209722222222226],[-101.92333333333333,40.21388888888889],[-101.95444444444445,40.211111111111116],[-102.07777777777777,40.21388888888889],[-102.1111111111111,40.21194444444445],[-102.2363888888889,40.21388888888889],[-102.26722222222222,40.21138888888889],[-102.39222222222223,40.21361111111111],[-102.42444444444445,40.21138888888889],[-102.54861111111111,40.213055555555556],[-102.58083333333333,40.21055555555556],[-102.7038888888889,40.21222222222222],[-102.85666666666665,40.21138888888889],[-102.89555555555556,40.20888888888889],[-103.01194444444444,40.21027777777778],[-103.05111111111111,40.2075],[-103.16888888888889,40.20888888888889],[-103.2075,40.20666666666667],[-103.32638888888889,40.20722222222223],[-103.365,40.205000000000005],[-103.48222222222222,40.205555555555556],[-103.52277777777778,40.203611111111115],[-103.64055555555557,40.203611111111115],[-103.68055555555556,40.20194444444445],[-103.7975,40.20138888888889],[-103.84055555555555,40.19944444444444],[-103.9563888888889,40.19888888888889],[-104.00138888888888,40.196666666666665],[-104.31777777777778,40.19166666666666],[-104.42805555555556,40.190555555555555],[-104.47361111111111,40.18888888888888],[-104.58611111111111,40.18722222222222],[-104.62805555555555,40.18555555555555],[-104.74138888888889,40.18388888888889],[-104.78527777777778,40.181666666666665],[-104.89527777777778,40.18],[-104.94111111111111,40.178888888888885],[-105.05083333333333,40.17638888888889],[-105.09638888888888,40.17361111111111],[-105.2075,40.17222222222222],[-105.25805555555556,40.17027777777778],[-105.36333333333333,40.16111111111111],[-105.41333333333334,40.157777777777774],[-105.51861111111111,40.14722222222222],[-105.56888888888888,40.1425],[-105.67333333333333,40.13333333333333],[-105.72555555555556,40.1275],[-105.82777777777777,40.119166666666665],[-105.88055555555555,40.11361111111111],[-105.98277777777778,40.10472222222222],[-106.0363888888889,40.099444444444444],[-106.14055555555557,40.09],[-106.19305555555556,40.08388888888889],[-106.35027777777778,40.06944444444445],[-106.45444444444445,40.05972222222222],[-106.50694444444444,40.053888888888885],[-106.62388888888889,40.043055555555554],[-106.66472222222222,40.038888888888884],[-106.82166666666666,40.0225],[-106.9388888888889,40.01111111111111],[-106.97833333333334,40.006388888888885],[-107.09527777777777,39.995],[-107.13527777777779,39.99055555555556],[-107.29194444444444,39.97416666666667],[-107.41722222222222,39.961111111111116],[-107.57222222222222,39.94472222222222],[-107.60277777777777,39.940555555555555],[-107.71416666666667,39.92916666666667],[-107.75888888888889,39.924166666666665],[-107.87138888888889,39.911944444444444],[-107.91583333333334,39.90694444444444],[-108.02888888888889,39.89416666666666],[-108.19027777777778,39.876111111111115],[-108.22222222222223,39.8725],[-108.35333333333332,39.8575],[-108.38333333333334,39.85388888888889],[-108.50611111111111,39.83972222222222],[-108.65694444444445,39.82222222222222],[-108.68861111111111,39.81861111111112],[-108.80972222222222,39.80416666666667],[-108.83999999999999,39.800555555555555],[-108.96027777777778,39.78611111111111],[-108.99055555555556,39.782222222222224],[-109.11277777777777,39.7675],[-109.26555555555555,39.74888888888889],[-109.3275,39.74111111111111],[-109.42111111111112,39.72972222222222],[-109.48416666666667,39.72166666666667],[-109.63666666666667,39.7025],[-109.72722222222222,39.691111111111105],[-109.79027777777777,39.683055555555555],[-109.88194444444444,39.671388888888885],[-109.94472222222223,39.663333333333334],[-110.03388888888888,39.651666666666664],[-110.0975,39.64333333333333],[-110.1888888888889,39.63138888888889],[-110.24944444444445,39.62361111111111],[-110.34222222222222,39.61138888888889],[-110.40194444444445,39.60333333333333],[-110.49333333333334,39.59111111111111],[-110.55472222222222,39.58277777777778],[-110.64527777777778,39.57055555555556],[-110.7063888888889,39.56222222222222],[-110.79777777777778,39.55],[-110.86,39.54138888888889],[-111.01222222222222,39.52027777777778],[-111.16388888888889,39.49916666666667],[-111.31722222222221,39.4775],[-111.46722222222222,39.45611111111111],[-111.76972222222223,39.4125],[-111.91833333333334,39.39055555555556],[-112.2213888888889,39.345555555555556],[-112.37666666666667,39.32222222222222],[-112.52527777777777,39.29805555555556],[-112.66888888888889,39.26555555555556],[-112.81638888888888,39.23222222222223],[-112.96138888888889,39.19916666666666],[-113.25055555555555,39.1325],[-113.685,39.03111111111111],[-113.9725,38.963055555555556],[-114.11472222222221,38.928888888888885],[-114.25944444444444,38.89388888888889],[-114.40277777777779,38.85916666666667],[-114.54722222222222,38.82416666666667],[-114.69777777777779,38.82833333333333],[-114.78305555555555,38.86944444444445],[-114.82805555555555,38.910555555555554],[-114.93916666666667,39.00888888888889],[-115.00583333333333,39.06916666666667],[-115.05222222222221,39.10888888888889],[-115.11833333333333,39.16694444444444],[-115.1613888888889,39.20583333333334],[-115.22888888888889,39.266666666666666],[-115.27277777777778,39.305],[-115.33999999999999,39.36388888888889],[-115.38361111111112,39.40361111111111],[-115.45,39.46388888888889],[-115.49861111111112,39.49777777777778],[-115.58972222222222,39.530277777777776],[-115.65055555555556,39.53388888888889],[-115.73861111111111,39.51611111111111],[-115.78805555555556,39.49027777777778],[-115.85111111111111,39.441111111111105],[-115.89166666666668,39.41138888888889],[-115.97305555555556,39.3525],[-116.00166666666667,39.336111111111116],[-116.12583333333333,39.27388888888889],[-116.22777777777777,39.22277777777778],[-116.24972222222222,39.211666666666666],[-116.35111111111111,39.160555555555554],[-116.37555555555555,39.14833333333333],[-116.46527777777779,39.10305555555556],[-116.49944444444445,39.08583333333333],[-116.58805555555556,39.04083333333333],[-116.61277777777777,39.028055555555554],[-116.73305555555555,38.96666666666667],[-116.85305555555556,38.905277777777776],[-116.95138888888889,38.85472222222222],[-116.97527777777778,38.8425],[-117.07416666666666,38.79138888888889],[-117.09666666666666,38.77972222222222],[-117.19694444444445,38.72805555555556],[-117.21805555555555,38.716944444444444],[-117.31527777777778,38.66638888888889],[-117.33777777777777,38.65472222222222],[-117.45611111111111,38.59277777777778],[-117.5325,38.52833333333333],[-117.55472222222222,38.48916666666667],[-117.58972222222222,38.426944444444445],[-117.6125,38.386944444444445],[-117.6463888888889,38.32666666666667],[-117.66861111111112,38.28722222222222],[-117.72527777777778,38.18527777777778],[-117.75888888888889,38.12416666666667],[-117.78,38.08583333333333],[-117.83583333333333,37.983333333333334],[-117.87333333333332,37.915277777777774],[-117.89166666666668,37.88138888888889],[-117.92611111111111,37.81944444444445],[-117.94666666666667,37.78194444444444],[-117.9863888888889,37.720555555555556],[-118.02388888888889,37.69027777777777],[-118.10666666666665,37.66138888888889],[-118.16166666666668,37.65972222222222],[-118.29638888888888,37.71222222222222],[-118.36305555555555,37.7725],[-118.41027777777778,37.80416666666667],[-118.64555555555556,37.824444444444445],[-118.79638888888888,37.815],[-118.95111111111112,37.80472222222222],[-119.10194444444444,37.79472222222222],[-119.2525,37.78444444444444],[-119.40055555555556,37.774166666666666],[-119.55111111111111,37.76361111111111],[-119.69777777777779,37.753055555555555],[-119.8475,37.742222222222225],[-119.99527777777777,37.73111111111111],[-120.1413888888889,37.72],[-120.28333333333333,37.70888888888889],[-120.42027777777778,37.698055555555555],[-120.55499999999999,37.68222222222222],[-120.63333333333334,37.666666666666664],[-120.68666666666667,37.666666666666664],[-120.81416666666667,37.65138888888889],[-120.94222222222223,37.63611111111111],[-121.06472222222222,37.62],[-121.18694444444445,37.60333333333333],[-121.31666666666666,37.583333333333336],[-121.41666666666667,37.56666666666667],[-121.63333333333334,37.55],[-121.71666666666667,37.56666666666667],[-121.7775,37.55277777777778],[-121.81472222222222,37.492222222222225],[-121.84972222222221,37.436388888888885],[-121.93194444444445,37.439722222222215],[-122.00638888888889,37.46555555555556],[-122.07055555555556,37.4925],[-122.13055555555555,37.518055555555556],[-122.18333333333334,37.55],[-122.25,37.56666666666667],[-122.3,37.583333333333336],[-122.33333333333333,37.6]],"type":"LineString"}
}
