{
  "id": 2032035001,
  "type": "Feature",
  "properties": {
    "geom:area": 0,
    "geom:bbox": "-123.103970,37.409490,-122.064910,38.491690",
    "geom:latitude": 37.84324391175082,
    "geom:longitude": -122.52816899063275,
    "src:alt_label": "swim-approach",
    "src:geom": "swim",
    "swim:elevations": [
      7590,
      7370,
      7008,
      6699,
      6543,
      6288,
      6000,
      5751,
      5553,
      5502,
      5462,
      5427,
      5321,
      5010,
      4663,
      4500,
      4194,
      3783,
      3619,
      3451,
      3364,
      3353,
      3353,
      3353,
      3334,
      3164,
      2921,
      2794,
      2540,
      2413,
      2200,
      2104,
      1973,
      1885,
      1667,
      1469,
      1439,
      1335,
      1316,
      1308,
      1219,
      1157,
      1093,
      1022,
      887,
      820,
      719,
      676,
      610,
      546,
      406,
      372,
      225,
      123,
      42
    ],
    "swim:geom": "approach",
    "swim:timestamps": [
      1785476627,
      1785476651,
      1785476693,
      1785476728,
      1785476747,
      1785476775,
      1785476807,
      1785476834,
      1785476857,
      1785476863,
      1785476869,
      1785476872,
      1785476887,
      1785476921,
      1785476963,
      1785476981,
      1785477017,
      1785477056,
      1785477071,
      1785477101,
      1785477134,
      1785477170,
      1785477204,
      1785477236,
      1785477260,
      1785477284,
      1785477321,
      1785477344,
      1785477386,
      1785477403,
      1785477440,
      1785477450,
      1785477473,
      1785477485,
      1785477525,
      1785477567,
      1785477576,
      1785477600,
      1785477603,
      1785477606,
      1785477654,
      1785477684,
      1785477714,
      1785477741,
      1785477774,
      1785477791,
      1785477810,
      1785477820,
      1785477831,
      1785477849,
      1785477886,
      1785477896,
      1785477926,
      1785477952,
      1785477971
    ],
    "wof:geomhash": "8f9a0811effbe3060504350e20400b18",
    "wof:id": 2032035001,
    "wof:repo": "sfomuseum-data-flights-2026-07"
  },
  "bbox": [
    -123.10397,
    37.40949,
    -122.06491,
    38.49169
  ],
  "geometry": {"coordinates":[[-123.10397,38.49169],[-123.06028,38.45701],[-122.98416,38.39752],[-122.92308,38.34894],[-122.89014,38.32263],[-122.84289,38.28483],[-122.78972,38.24041],[-122.75974,38.19496],[-122.74673,38.15443],[-122.74352,38.14379],[-122.74042,38.13323],[-122.73891,38.12799],[-122.73147,38.1021],[-122.71522,38.04448],[-122.69526,37.97489],[-122.68675,37.94512],[-122.65997,37.88854],[-122.6073,37.8369],[-122.58722,37.81808],[-122.54821,37.78156],[-122.50779,37.74353],[-122.46807,37.70603],[-122.43504,37.67493],[-122.40299,37.6447],[-122.37936,37.62238],[-122.35859,37.5992],[-122.33895,37.55899],[-122.32514,37.53449],[-122.29821,37.49133],[-122.28708,37.47378],[-122.2505,37.44552],[-122.23708,37.44136],[-122.20649,37.4318],[-122.19047,37.42676],[-122.13746,37.40949],[-122.0855,37.41166],[-122.07888,37.419],[-122.06669,37.44],[-122.06564,37.44267],[-122.06491,37.44541],[-122.08812,37.48229],[-122.10661,37.50338],[-122.13203,37.51856],[-122.15753,37.52931],[-122.18853,37.54251],[-122.20489,37.54949],[-122.22315,37.55719],[-122.23264,37.5612],[-122.24265,37.5654],[-122.2581,37.57186],[-122.28653,37.58382],[-122.29394,37.58696],[-122.31772,37.59696],[-122.33839,37.60571],[-122.35296,37.61178]],"type":"LineString"}
}
