{
  "id": 2032002623,
  "type": "Feature",
  "properties": {
    "date:cessation_lower": "2026-07-28",
    "date:cessation_upper": "2026-07-28",
    "date:inception_lower": "2026-07-28",
    "date:inception_upper": "2026-07-28",
    "edtf:cessation": "2026-07-28T05:59:24-07:00",
    "edtf:inception": "2026-07-28T16:59:00Z",
    "flysfo:actual_timestamp": -1,
    "flysfo:airline": "AA",
    "flysfo:base_airline": "",
    "flysfo:base_flight_number": "6173",
    "flysfo:date": "2026-07-28",
    "flysfo:estimated_timestamp": 1785269340,
    "flysfo:event": "A",
    "flysfo:flight_number": "AA2387",
    "flysfo:gate": "B16",
    "flysfo:journey": "DFW-SFO",
    "flysfo:scheduled_timestamp": 1785269160,
    "flysfo:timestamp": 1785269340,
    "geom:area": 0,
    "geom:bbox": "-122.370943,32.903660,-97.050966,37.617990",
    "geom:latitude": 35.260825,
    "geom:longitude": -109.7109545,
    "iata:airline": "AA",
    "iata:base_airline": "",
    "icao:aircraft": "A321",
    "icao:airline": "AAL",
    "icao:base_airline": "GLO",
    "lbl:latitude": 37.61799,
    "lbl:longitude": -122.370943,
    "sfomuseum:aircraft_id": 1159289411,
    "sfomuseum:airline_id": 1159283849,
    "sfomuseum:arrival_id": 102527513,
    "sfomuseum:base_flight_id": "20260728-A-GLO-6173",
    "sfomuseum:departure_id": 102528541,
    "sfomuseum:flight_id": "20260728-A-AAL-2387",
    "sfomuseum:flight_number": [
      "AAL2387",
      "AA2387"
    ],
    "sfomuseum:placetype": "flight",
    "src:geom": "flysfo",
    "src:geom_alt": [
      "swim-path",
      "swim-approach"
    ],
    "swim:tail_number": "N193UW",
    "wof:belongsto": [
      1947304067,
      102527513,
      1947304261,
      102191575,
      85633793,
      102087579,
      85922583,
      554784711,
      85688637,
      1947304265,
      1947304259,
      102085387
    ],
    "wof:concordances": {
      "swim:flight_ref": "153073625"
    },
    "wof:country": "US",
    "wof:created": 1785340901,
    "wof:geomhash": "865973335526f09b753756c305bf4946",
    "wof:hierarchy": [
      {
        "building_id": 1947304067,
        "campus_id": 102527513,
        "concourse_id": 1947304261,
        "continent_id": 102191575,
        "country_id": 85633793,
        "county_id": 102087579,
        "custom_id": 2032002623,
        "flight_id": 2032002623,
        "locality_id": 85922583,
        "postalcode_id": 554784711,
        "region_id": 85688637,
        "venue_id": 1947304265,
        "wing_id": 1947304259
      },
      {
        "building_id": 1947304067,
        "campus_id": 102527513,
        "concourse_id": 1947304261,
        "continent_id": 102191575,
        "country_id": 85633793,
        "county_id": 102085387,
        "custom_id": 2032002623,
        "flight_id": 2032002623,
        "region_id": 85688637,
        "venue_id": 1947304265,
        "wing_id": 1947304259
      }
    ],
    "wof:id": 2032002623,
    "wof:involves": [
      1947304265,
      1779770725,
      1159289411,
      102527513,
      102528541,
      1159283849
    ],
    "wof:lastmodified": 1785341969,
    "wof:name": "AA2387 (DFW-SFO)",
    "wof:parent_id": 1947304265,
    "wof:placetype": "custom",
    "wof:placetype_alt": [
      "flight"
    ],
    "wof:repo": "sfomuseum-data-flights-2026-07",
    "wof:superseded_by": [],
    "wof:supersedes": []
  },
  "bbox": [
    -122.370943,
    32.90366,
    -97.050966,
    37.61799
  ],
  "geometry": {"coordinates":[[-97.050966,32.90366],[-122.370943,37.61799]],"type":"MultiPoint"}
}
