{
  "id": 2032010851,
  "type": "Feature",
  "properties": {
    "geom:area": 0,
    "geom:bbox": "-122.548130,36.728620,-121.453200,37.668180",
    "geom:latitude": 37.19100294292583,
    "geom:longitude": -122.05398141059662,
    "src:alt_label": "swim-takeoff",
    "src:geom": "swim",
    "swim:elevations": [
      1134,
      1436,
      1735,
      2017,
      2523,
      3103,
      3348,
      3987,
      4540,
      4730,
      4979,
      5274,
      5990,
      6540,
      6633,
      7198,
      7626,
      7783,
      8219,
      8230,
      8230,
      8230,
      8230,
      8234,
      8342,
      8508,
      8722,
      8918
    ],
    "swim:geom": "takeoff",
    "swim:timestamps": [
      1785257997,
      1785258023,
      1785258044,
      1785258063,
      1785258100,
      1785258134,
      1785258150,
      1785258192,
      1785258237,
      1785258254,
      1785258288,
      1785258311,
      1785258371,
      1785258431,
      1785258440,
      1785258490,
      1785258529,
      1785258545,
      1785258584,
      1785258620,
      1785258637,
      1785258654,
      1785258671,
      1785258694,
      1785258709,
      1785258731,
      1785258762,
      1785258791
    ],
    "wof:geomhash": "7ed6e583d06f367515ea9cd3b6006893",
    "wof:id": 2032010851,
    "wof:repo": "sfomuseum-data-flights-2026-07"
  },
  "bbox": [
    -122.54813,
    36.72862,
    -121.4532,
    37.66818
  ],
  "geometry": {"coordinates":[[-122.47309,37.66095],[-122.50827,37.66818],[-122.53716,37.65582],[-122.54813,37.63447],[-122.52871,37.5866],[-122.50415,37.54335],[-122.49258,37.52289],[-122.45299,37.47423],[-122.39229,37.42901],[-122.36924,37.41183],[-122.31911,37.37464],[-122.28231,37.3477],[-122.18658,37.27782],[-122.08621,37.20356],[-122.07004,37.19158],[-121.98273,37.12659],[-121.91503,37.07613],[-121.8885,37.05589],[-121.81876,37.00475],[-121.75476,36.95724],[-121.72461,36.93358],[-121.69503,36.9104],[-121.66572,36.88829],[-121.6252,36.85754],[-121.59884,36.8378],[-121.56074,36.80933],[-121.50609,36.76826],[-121.4532,36.72862]],"type":"LineString"}
}
