{
  "id": 2032004875,
  "type": "Feature",
  "properties": {
    "geom:area": 0,
    "geom:bbox": "-122.352850,37.419790,-121.253000,37.611760",
    "geom:latitude": 37.53477794812096,
    "geom:longitude": -121.81302737518894,
    "src:alt_label": "swim-approach",
    "src:geom": "swim",
    "swim:elevations": [
      4638,
      4428,
      4301,
      3829,
      3683,
      3376,
      3354,
      3353,
      3353,
      3353,
      3305,
      3145,
      3036,
      2850,
      2745,
      2743,
      2722,
      2474,
      2266,
      2132,
      2060,
      1875,
      1829,
      1800,
      1566,
      1435,
      1338,
      1066,
      972,
      761,
      661,
      620,
      427,
      329,
      286,
      173,
      52
    ],
    "swim:geom": "approach",
    "swim:timestamps": [
      1785276907,
      1785276927,
      1785276941,
      1785276980,
      1785276994,
      1785277031,
      1785277073,
      1785277085,
      1785277106,
      1785277113,
      1785277154,
      1785277181,
      1785277216,
      1785277251,
      1785277288,
      1785277301,
      1785277324,
      1785277367,
      1785277397,
      1785277431,
      1785277456,
      1785277482,
      1785277527,
      1785277546,
      1785277584,
      1785277610,
      1785277624,
      1785277664,
      1785277685,
      1785277736,
      1785277763,
      1785277773,
      1785277826,
      1785277855,
      1785277867,
      1785277898,
      1785277931
    ],
    "wof:geomhash": "164ac82ad926224f3aee7141647b8520",
    "wof:id": 2032004875,
    "wof:repo": "sfomuseum-data-flights-2026-07"
  },
  "bbox": [
    -122.35285,
    37.41979,
    -121.253,
    37.61176
  ],
  "geometry": {"coordinates":[[-121.253,37.59403],[-121.29327,37.58866],[-121.322,37.58524],[-121.39952,37.57671],[-121.42725,37.57365],[-121.4997,37.56527],[-121.57541,37.55654],[-121.59535,37.55421],[-121.62933,37.55007],[-121.63994,37.55007],[-121.69606,37.56689],[-121.73258,37.5791],[-121.78074,37.59121],[-121.81914,37.56891],[-121.81768,37.5252],[-121.81494,37.51035],[-121.81396,37.48206],[-121.83049,37.43448],[-121.8683,37.41979],[-121.91313,37.42633],[-121.94334,37.43876],[-121.97499,37.4522],[-122.02791,37.47464],[-122.04745,37.48294],[-122.08619,37.49938],[-122.10947,37.50918],[-122.12122,37.51415],[-122.15438,37.52819],[-122.17171,37.53548],[-122.21224,37.55259],[-122.2335,37.56155],[-122.24111,37.56475],[-122.2809,37.58151],[-122.30066,37.58977],[-122.30899,37.59332],[-122.3303,37.60227],[-122.35285,37.61176]],"type":"LineString"}
}
