{
  "id": 2031941431,
  "type": "Feature",
  "properties": {
    "geom:area": 0,
    "geom:bbox": "-122.679722,37.416667,-71.016667,43.129722",
    "geom:latitude": 41.880681869062855,
    "geom:longitude": -97.65993084268533,
    "src:alt_label": "swim-path",
    "src:geom": "swim",
    "swim:altitudes": [
      "005",
      "019",
      "035",
      "051",
      "056",
      "073",
      "078",
      "098",
      "111",
      "119",
      "141",
      "174",
      "188",
      "205",
      "217",
      "229",
      "248",
      "259",
      "274",
      "280",
      "280",
      "285",
      "302",
      "317",
      "320C",
      "320C",
      "320C",
      "320C",
      "320C",
      "320C",
      "320C",
      "320C",
      "320C",
      "320C",
      "320C",
      "320C",
      "320C",
      "320C",
      "320C",
      "320C",
      "320C",
      "320C",
      "320C",
      "320C",
      "320C",
      "320C",
      "320C",
      "320C",
      "320C",
      "320C",
      "320C",
      "320C",
      "320C",
      "320C",
      "320C",
      "320C",
      "320C",
      "320C",
      "321C",
      "320C",
      "320C",
      "320C",
      "320C",
      "320C",
      "320C",
      "320C",
      "320C",
      "320C",
      "320C",
      "320C",
      "321C",
      "320C",
      "320C",
      "320C",
      "320C",
      "320C",
      "320C",
      "320C",
      "320C",
      "320C",
      "320C",
      "320C",
      "320C",
      "320C",
      "320C",
      "320C",
      "320C",
      "320C",
      "320C",
      "320C",
      "320C",
      "320C",
      "320C",
      "320C",
      "320C",
      "320C",
      "320C",
      "320C",
      "320C",
      "320C",
      "320C",
      "320C",
      "320C",
      "320C",
      "320C",
      "320C",
      "320C",
      "320C",
      "320C",
      "320C",
      "321C",
      "320C",
      "320C",
      "320C",
      "320C",
      "320C",
      "320C",
      "320C",
      "320C",
      "320C",
      "320C",
      "320C",
      "320C",
      "320C",
      "320C",
      "320C",
      "320C",
      "320C",
      "320C",
      "320C",
      "320C",
      "320C",
      "320C",
      "320C",
      "320C",
      "320C",
      "320C",
      "320C",
      "320C",
      "320C",
      "320C",
      "320C",
      "320C",
      "320C",
      "320C",
      "320C",
      "320C",
      "320C",
      "320C",
      "320C",
      "320C",
      "320C",
      "320C",
      "320C",
      "320C",
      "320C",
      "320C",
      "320C",
      "320C",
      "320C",
      "320C",
      "320C",
      "320C",
      "320C",
      "320C",
      "320C",
      "320C",
      "320C",
      "320C",
      "320C",
      "320C",
      "320C",
      "320C",
      "320C",
      "320C",
      "320C",
      "320C",
      "321C",
      "320C",
      "320C",
      "320C",
      "320C",
      "320C",
      "320C",
      "320C",
      "320C",
      "320C",
      "320C",
      "320C",
      "320C",
      "320C",
      "320C",
      "320C",
      "320C",
      "320C",
      "320C",
      "320C",
      "320C",
      "320C",
      "320C",
      "320",
      "324",
      "332",
      "340C",
      "340C",
      "340C",
      "340C",
      "340C",
      "340C",
      "340C",
      "340C",
      "340C",
      "340C",
      "340C",
      "341C",
      "341C",
      "340C",
      "340C",
      "340C",
      "340C",
      "340C",
      "340C",
      "340C",
      "340C",
      "340C",
      "340C",
      "340C",
      "340C",
      "340C",
      "340C",
      "340C",
      "340C",
      "340C",
      "340C",
      "340C",
      "340C",
      "340C",
      "340C",
      "340C",
      "340C",
      "341C",
      "340C",
      "340C",
      "340C",
      "340C",
      "340C",
      "340C",
      "340C",
      "340C",
      "340C",
      "340C",
      "340C",
      "340C",
      "340C",
      "340C",
      "340C",
      "340C",
      "340C",
      "340C",
      "340C",
      "340C",
      "340C",
      "340C",
      "340C",
      "340C",
      "340C",
      "340C",
      "340C",
      "340C",
      "340C",
      "340C",
      "340C",
      "340C",
      "340C",
      "340C",
      "340C",
      "340C",
      "340C",
      "340C",
      "340C",
      "340C",
      "340C",
      "340C",
      "340C",
      "340C",
      "340C",
      "340C",
      "340C",
      "340C",
      "340C",
      "340C",
      "340C",
      "340C",
      "340C",
      "340C",
      "340C",
      "340C",
      "340C",
      "340C",
      "340C",
      "340C",
      "340C",
      "340C",
      "340C",
      "340C",
      "340C",
      "340C",
      "340C",
      "340C",
      "340C",
      "340C",
      "340C",
      "340C",
      "340C",
      "340C",
      "340C",
      "340C",
      "340C",
      "340C",
      "340C",
      "340C",
      "340C",
      "340C",
      "340C",
      "340C",
      "340C",
      "340C",
      "340C",
      "340C",
      "341C",
      "340C",
      "340C",
      "340C",
      "340C",
      "340C",
      "340C",
      "340C",
      "340C",
      "340C",
      "340C",
      "340C",
      "340C",
      "340C",
      "340C",
      "340C",
      "340C",
      "340C",
      "340C",
      "340C",
      "340C",
      "340C",
      "340C",
      "340C",
      "340C",
      "340C",
      "340C",
      "340C",
      "340C",
      "340C",
      "340C",
      "340C",
      "340C",
      "340C",
      "340C",
      "340C",
      "340C",
      "340C",
      "340C",
      "340C",
      "340C",
      "340",
      "334",
      "324",
      "315",
      "305",
      "295",
      "290C",
      "290C",
      "290C",
      "290C",
      "288",
      "278",
      "262",
      "244",
      "226",
      "163",
      "145",
      "128",
      "123",
      "114",
      "110C",
      "110C",
      "110",
      "108C",
      "093",
      "088",
      "073",
      "060",
      "046",
      "040",
      "039",
      "030",
      "028",
      "026",
      "017",
      "012",
      "006",
      "110"
    ],
    "swim:geom": "path",
    "swim:speeds": [
      159,
      176,
      234,
      248,
      251,
      271,
      266,
      277,
      312,
      339,
      341,
      357,
      365,
      368,
      370,
      376,
      386,
      390,
      395,
      398,
      400,
      399,
      396,
      391,
      390,
      390,
      394,
      396,
      397,
      398,
      401,
      400,
      405,
      406,
      409,
      410,
      412,
      415,
      417,
      418,
      419,
      413,
      412,
      413,
      412,
      414,
      420,
      425,
      426,
      426,
      425,
      425,
      424,
      424,
      423,
      423,
      422,
      423,
      422,
      422,
      418,
      413,
      410,
      407,
      408,
      408,
      408,
      408,
      408,
      409,
      408,
      407,
      405,
      406,
      408,
      410,
      410,
      411,
      411,
      413,
      413,
      412,
      412,
      413,
      412,
      411,
      411,
      410,
      410,
      410,
      411,
      399,
      408,
      410,
      410,
      410,
      410,
      410,
      410,
      411,
      410,
      411,
      410,
      410,
      411,
      411,
      411,
      411,
      413,
      412,
      413,
      412,
      410,
      410,
      408,
      408,
      407,
      407,
      405,
      405,
      403,
      402,
      404,
      402,
      403,
      402,
      402,
      401,
      400,
      400,
      401,
      402,
      403,
      404,
      403,
      401,
      401,
      403,
      402,
      403,
      404,
      403,
      403,
      404,
      402,
      398,
      400,
      398,
      399,
      398,
      397,
      400,
      400,
      400,
      401,
      401,
      401,
      402,
      403,
      403,
      404,
      405,
      408,
      409,
      411,
      412,
      412,
      412,
      412,
      412,
      412,
      412,
      409,
      411,
      413,
      413,
      414,
      414,
      414,
      414,
      413,
      411,
      411,
      411,
      411,
      411,
      411,
      411,
      411,
      411,
      413,
      414,
      414,
      415,
      415,
      415,
      415,
      416,
      418,
      419,
      421,
      422,
      423,
      422,
      415,
      415,
      417,
      417,
      418,
      475,
      418,
      418,
      420,
      422,
      424,
      425,
      424,
      429,
      425,
      426,
      426,
      427,
      429,
      429,
      433,
      434,
      433,
      434,
      433,
      434,
      434,
      436,
      437,
      439,
      439,
      438,
      434,
      434,
      432,
      434,
      435,
      436,
      434,
      434,
      435,
      435,
      435,
      435,
      435,
      435,
      433,
      431,
      431,
      432,
      431,
      431,
      432,
      432,
      432,
      433,
      433,
      433,
      432,
      432,
      431,
      430,
      431,
      431,
      431,
      432,
      432,
      433,
      433,
      434,
      434,
      435,
      434,
      435,
      433,
      432,
      430,
      429,
      429,
      427,
      423,
      422,
      421,
      420,
      420,
      420,
      420,
      420,
      420,
      421,
      423,
      425,
      426,
      428,
      429,
      429,
      428,
      429,
      430,
      431,
      431,
      432,
      433,
      434,
      435,
      435,
      434,
      433,
      431,
      429,
      431,
      431,
      429,
      432,
      430,
      430,
      429,
      428,
      429,
      427,
      428,
      427,
      427,
      427,
      427,
      428,
      428,
      428,
      428,
      427,
      426,
      425,
      424,
      423,
      423,
      421,
      418,
      416,
      417,
      415,
      415,
      414,
      414,
      414,
      414,
      413,
      413,
      413,
      413,
      412,
      412,
      412,
      412,
      411,
      411,
      411,
      411,
      409,
      410,
      405,
      375,
      372,
      370,
      369,
      368,
      368,
      365,
      363,
      363,
      364,
      370,
      389,
      389,
      389,
      389,
      387,
      386,
      385,
      383,
      369,
      366,
      355,
      339,
      343,
      342,
      322,
      296,
      255,
      245,
      244,
      241,
      242,
      234,
      236,
      201,
      197,
      189,
      184,
      187,
      186,
      154,
      137,
      132,
      131
    ],
    "swim:timestamps": [
      1784810408,
      1784810450,
      1784810528,
      1784810570,
      1784810588,
      1784810636,
      1784810648,
      1784810709,
      1784810769,
      1784810829,
      1784810889,
      1784811009,
      1784811069,
      1784811129,
      1784811189,
      1784811249,
      1784811369,
      1784811430,
      1784811550,
      1784811610,
      1784811670,
      1784811730,
      1784811850,
      1784811970,
      1784812030,
      1784812136,
      1784812163,
      1784812196,
      1784812223,
      1784812256,
      1784812283,
      1784812316,
      1784812343,
      1784812376,
      1784812403,
      1784812437,
      1784812463,
      1784812523,
      1784812557,
      1784812583,
      1784812617,
      1784812677,
      1784812703,
      1784812737,
      1784812764,
      1784812824,
      1784812857,
      1784812884,
      1784812917,
      1784812977,
      1784813004,
      1784813064,
      1784813097,
      1784813124,
      1784813158,
      1784813184,
      1784813218,
      1784813244,
      1784813278,
      1784813304,
      1784813338,
      1784813398,
      1784813458,
      1784813518,
      1784813698,
      1784813758,
      1784813818,
      1784813879,
      1784813939,
      1784813999,
      1784814059,
      1784814119,
      1784814179,
      1784814359,
      1784814419,
      1784814479,
      1784814539,
      1784814600,
      1784814660,
      1784814720,
      1784814780,
      1784814840,
      1784814900,
      1784814960,
      1784815020,
      1784815080,
      1784815140,
      1784815260,
      1784815321,
      1784815381,
      1784815441,
      1784815511,
      1784815571,
      1784815621,
      1784815637,
      1784815681,
      1784815697,
      1784815741,
      1784815757,
      1784815763,
      1784815817,
      1784815823,
      1784815861,
      1784815921,
      1784815944,
      1784815981,
      1784816004,
      1784816064,
      1784816162,
      1784816184,
      1784816222,
      1784816282,
      1784816310,
      1784816342,
      1784816370,
      1784816402,
      1784816430,
      1784816462,
      1784816485,
      1784816522,
      1784816545,
      1784816605,
      1784816642,
      1784816665,
      1784816703,
      1784816725,
      1784816763,
      1784816785,
      1784816905,
      1784816970,
      1784817026,
      1784817086,
      1784817146,
      1784817206,
      1784817326,
      1784817446,
      1784817506,
      1784817571,
      1784817624,
      1784817684,
      1784817691,
      1784817752,
      1784817804,
      1784817872,
      1784817932,
      1784817984,
      1784817992,
      1784818044,
      1784818052,
      1784818104,
      1784818124,
      1784818225,
      1784818244,
      1784818285,
      1784818345,
      1784818364,
      1784818405,
      1784818424,
      1784818485,
      1784818525,
      1784818545,
      1784818585,
      1784818665,
      1784818705,
      1784818766,
      1784818785,
      1784818826,
      1784818845,
      1784818886,
      1784818905,
      1784818946,
      1784818965,
      1784819025,
      1784819085,
      1784819126,
      1784819145,
      1784819186,
      1784819206,
      1784819266,
      1784819306,
      1784819326,
      1784819427,
      1784819446,
      1784819506,
      1784819547,
      1784819566,
      1784819607,
      1784819626,
      1784819686,
      1784819746,
      1784819806,
      1784819866,
      1784819927,
      1784819987,
      1784820047,
      1784820107,
      1784820179,
      1784820239,
      1784820359,
      1784820419,
      1784820479,
      1784820539,
      1784820599,
      1784820660,
      1784820720,
      1784820840,
      1784820960,
      1784821020,
      1784821080,
      1784821138,
      1784821260,
      1784821381,
      1784821438,
      1784821498,
      1784821558,
      1784821619,
      1784821801,
      1784821860,
      1784821919,
      1784821979,
      1784822053,
      1784822114,
      1784822159,
      1784822174,
      1784822219,
      1784822279,
      1784822294,
      1784822340,
      1784822354,
      1784822461,
      1784822521,
      1784822580,
      1784822640,
      1784822761,
      1784822820,
      1784822880,
      1784823002,
      1784823062,
      1784823121,
      1784823181,
      1784823241,
      1784823361,
      1784823422,
      1784823541,
      1784823663,
      1784823721,
      1784823735,
      1784823855,
      1784823915,
      1784823975,
      1784824035,
      1784824215,
      1784824262,
      1784824275,
      1784824322,
      1784824382,
      1784824396,
      1784824456,
      1784824516,
      1784824563,
      1784824576,
      1784824636,
      1784824683,
      1784824696,
      1784824743,
      1784824816,
      1784824863,
      1784824876,
      1784824923,
      1784824983,
      1784824996,
      1784825043,
      1784825056,
      1784825103,
      1784825117,
      1784825177,
      1784825223,
      1784825237,
      1784825297,
      1784825344,
      1784825417,
      1784825464,
      1784825477,
      1784825537,
      1784825717,
      1784825777,
      1784825838,
      1784825898,
      1784825958,
      1784826018,
      1784826078,
      1784826138,
      1784826198,
      1784826258,
      1784826318,
      1784826378,
      1784826438,
      1784826570,
      1784826631,
      1784826691,
      1784826751,
      1784826871,
      1784826931,
      1784826991,
      1784827051,
      1784827171,
      1784827231,
      1784827291,
      1784827351,
      1784827412,
      1784827472,
      1784827532,
      1784827592,
      1784827731,
      1784827772,
      1784827832,
      1784827851,
      1784827892,
      1784827971,
      1784828012,
      1784828031,
      1784828072,
      1784828091,
      1784828133,
      1784828151,
      1784828193,
      1784828253,
      1784828272,
      1784828313,
      1784828392,
      1784828433,
      1784828452,
      1784828493,
      1784828512,
      1784828572,
      1784828632,
      1784828673,
      1784828733,
      1784828752,
      1784828793,
      1784828853,
      1784828914,
      1784828933,
      1784828974,
      1784828993,
      1784829034,
      1784829053,
      1784829094,
      1784829113,
      1784829154,
      1784829173,
      1784829214,
      1784829233,
      1784829293,
      1784829334,
      1784829353,
      1784829413,
      1784829454,
      1784829473,
      1784829514,
      1784829533,
      1784829654,
      1784829714,
      1784829834,
      1784829894,
      1784829954,
      1784830014,
      1784830134,
      1784830254,
      1784830315,
      1784830375,
      1784830435,
      1784830495,
      1784830555,
      1784830615,
      1784830675,
      1784830735,
      1784830795,
      1784830855,
      1784830976,
      1784831036,
      1784831096,
      1784831156,
      1784831216,
      1784831276,
      1784831456,
      1784831512,
      1784831576,
      1784831585,
      1784831636,
      1784831697,
      1784831757,
      1784831770,
      1784831817,
      1784831877,
      1784831885,
      1784831945,
      1784831997,
      1784832065,
      1784832117,
      1784832130,
      1784832190,
      1784832237,
      1784832245,
      1784832305,
      1784832357,
      1784832418,
      1784832478
    ],
    "wof:geomhash": "1b288aac8e5667d43dd4b4d86dcd98f6",
    "wof:id": 2031941431,
    "wof:repo": "sfomuseum-data-flights-2026-07"
  },
  "bbox": [
    -122.67972222222222,
    37.416666666666664,
    -71.01666666666667,
    43.12972222222222
  ],
  "geometry": {"coordinates":[[-71.01666666666667,42.36666666666667],[-71.05,42.4],[-71.11611111111111,42.442499999999995],[-71.13333333333334,42.483333333333334],[-71.14972222222222,42.507222222222225],[-71.18333333333334,42.56666666666667],[-71.18083333333334,42.57666666666667],[-71.21416666666667,42.64888888888889],[-71.25055555555555,42.72833333333333],[-71.33527777777778,42.78805555555555],[-71.465,42.80222222222222],[-71.72944444444444,42.831388888888895],[-71.86583333333333,42.846111111111114],[-72.00555555555556,42.861111111111114],[-72.1438888888889,42.87583333333333],[-72.2875,42.89055555555556],[-72.56055555555555,42.91861111111111],[-72.7213888888889,42.93444444444444],[-73.01777777777778,42.96361111111111],[-73.1675,42.97805555555556],[-73.3175,42.992222222222225],[-73.47444444444444,42.99777777777778],[-73.77194444444444,43.005],[-74.06777777777778,43.01111111111111],[-74.21638888888889,43.01361111111111],[-74.45416666666667,43.0225],[-74.54555555555555,43.027499999999996],[-74.60638888888889,43.02972222222222],[-74.69666666666667,43.03388888888889],[-74.75861111111111,43.03638888888889],[-74.85138888888888,43.040277777777774],[-74.91611111111112,43.043055555555554],[-75.00444444444445,43.04666666666667],[-75.06861111111111,43.049166666666665],[-75.16277777777778,43.05277777777778],[-75.22472222222223,43.055],[-75.32249999999999,43.05888888888889],[-75.48222222222222,43.06305555555555],[-75.54805555555555,43.06472222222222],[-75.61166666666666,43.06638888888889],[-75.70972222222223,43.06888888888889],[-75.86305555555555,43.07277777777778],[-75.9263888888889,43.074444444444445],[-76.0225,43.07666666666667],[-76.08416666666666,43.07805555555556],[-76.24111111111111,43.081388888888895],[-76.34027777777777,43.083333333333336],[-76.40194444444445,43.084722222222226],[-76.4975,43.08638888888889],[-76.66000000000001,43.08861111111111],[-76.72583333333334,43.08388888888889],[-76.88472222222222,43.06166666666666],[-76.98,43.04805555555556],[-77.03861111111111,43.04],[-77.13555555555556,43.02611111111111],[-77.19472222222223,43.01777777777777],[-77.29222222222222,43.00361111111111],[-77.35305555555556,42.99472222222222],[-77.4475,42.98111111111111],[-77.54083333333332,42.967222222222226],[-77.60388888888889,42.95805555555556],[-77.7725,42.93277777777777],[-77.92,42.91083333333333],[-78.06944444444444,42.88777777777778],[-78.51916666666666,42.81888888888889],[-78.67,42.8],[-78.8236111111111,42.79416666666666],[-78.97694444444444,42.78805555555555],[-79.13,42.78138888888889],[-79.28527777777778,42.77444444444444],[-79.43805555555556,42.76722222222222],[-79.58944444444444,42.76027777777778],[-79.74,42.753055555555555],[-80.21277777777777,42.728611111111114],[-80.36638888888888,42.72027777777778],[-80.52277777777778,42.71138888888889],[-80.6763888888889,42.70277777777778],[-80.83027777777778,42.69361111111111],[-80.98472222222222,42.68444444444444],[-81.14027777777778,42.67472222222222],[-81.29638888888888,42.67166666666667],[-81.44944444444445,42.68833333333333],[-81.60305555555556,42.705555555555556],[-81.75277777777778,42.72277777777778],[-81.89,42.73833333333334],[-82.04194444444444,42.75527777777778],[-82.19666666666667,42.77166666666667],[-82.50083333333333,42.80444444444444],[-82.65527777777778,42.823055555555555],[-82.80666666666666,42.844722222222224],[-82.95916666666668,42.865],[-83.15194444444445,42.88972222222222],[-83.30527777777777,42.91083333333333],[-83.41805555555555,42.92027777777778],[-83.45833333333334,42.92361111111111],[-83.59638888888888,42.93583333333333],[-83.61555555555555,42.9375],[-83.75,42.94944444444444],[-83.76805555555555,42.95111111111111],[-83.79444444444444,42.95333333333333],[-83.91805555555555,42.96361111111111],[-83.95138888888889,42.96638888888889],[-84.05722222222222,42.97527777777778],[-84.21000000000001,42.988055555555555],[-84.25916666666667,42.99194444444444],[-84.36388888888888,43.00055555555556],[-84.41583333333334,43.00472222222222],[-84.56916666666666,43.016666666666666],[-84.81666666666666,43.02777777777778],[-84.87944444444443,43.030277777777776],[-84.97472222222223,43.03388888888889],[-85.12777777777777,43.04],[-85.19416666666667,43.0425],[-85.28416666666666,43.045833333333334],[-85.34888888888888,43.04833333333333],[-85.4363888888889,43.05138888888889],[-85.47055555555556,43.05277777777778],[-85.58611111111111,43.05638888888888],[-85.65277777777779,43.058611111111105],[-85.73916666666666,43.06166666666666],[-85.80388888888889,43.06361111111111],[-85.9525,43.06861111111112],[-86.0475,43.07138888888889],[-86.09388888888888,43.07277777777778],[-86.20972222222223,43.07638888888889],[-86.24666666666667,43.0775],[-86.36333333333333,43.080555555555556],[-86.39750000000001,43.08166666666667],[-86.70055555555555,43.089444444444446],[-86.88194444444444,43.093611111111116],[-87.0038888888889,43.09638888888889],[-87.15555555555557,43.099722222222226],[-87.30972222222222,43.10305555555556],[-87.47222222222223,43.10583333333334],[-87.77833333333334,43.11055555555556],[-88.08277777777778,43.11472222222223],[-88.23666666666666,43.11638888888889],[-88.3888888888889,43.1175],[-88.54527777777777,43.12166666666667],[-88.69777777777779,43.12388888888889],[-88.69805555555556,43.12361111111111],[-88.85249999999999,43.125],[-89.00694444444444,43.12777777777778],[-89.15916666666668,43.12833333333333],[-89.31,43.12972222222222],[-89.46027777777778,43.126111111111115],[-89.46055555555556,43.125277777777775],[-89.6125,43.12027777777778],[-89.61944444444444,43.12],[-89.76444444444445,43.11416666666667],[-89.76722222222222,43.11416666666667],[-90.06416666666667,43.10138888888889],[-90.10055555555554,43.099722222222226],[-90.215,43.094722222222224],[-90.36888888888888,43.087500000000006],[-90.39944444444446,43.086111111111116],[-90.52,43.08027777777778],[-90.58138888888888,43.0775],[-90.73555555555555,43.07],[-90.82416666666666,43.065555555555555],[-90.88833333333334,43.0625],[-90.98027777777779,43.05777777777777],[-91.19611111111111,43.046388888888885],[-91.28722222222223,43.04138888888889],[-91.44194444444445,43.033055555555556],[-91.47555555555556,43.03111111111111],[-91.5975,43.024166666666666],[-91.65916666666668,43.02055555555555],[-91.75055555555555,43.015277777777776],[-91.81333333333333,43.01166666666666],[-91.90472222222223,43.00611111111111],[-91.965,43.00277777777778],[-92.08916666666666,43.00805555555556],[-92.27333333333333,43.00694444444444],[-92.36611111111111,42.99888888888889],[-92.43027777777779,42.993611111111115],[-92.52194444444444,42.98583333333333],[-92.58694444444444,42.98027777777778],[-92.73916666666666,42.966944444444444],[-92.83361111111111,42.95861111111111],[-92.89527777777778,42.95305555555556],[-93.14,42.93138888888889],[-93.2038888888889,42.92583333333333],[-93.35749999999999,42.91166666666666],[-93.44722222222222,42.90333333333333],[-93.51083333333334,42.89722222222222],[-93.60083333333333,42.88861111111111],[-93.66638888888889,42.882222222222225],[-93.81972222222223,42.867777777777775],[-93.97361111111111,42.8525],[-94.1275,42.837500000000006],[-94.28166666666667,42.82194444444445],[-94.43916666666667,42.80583333333333],[-94.59388888888888,42.79],[-94.755,42.772777777777776],[-94.90972222222223,42.756388888888885],[-95.09472222222222,42.73638888888889],[-95.23416666666667,42.721111111111114],[-95.5786111111111,42.68277777777777],[-95.73277777777778,42.66555555555556],[-95.85888888888888,42.65083333333333],[-96.01583333333333,42.6325],[-96.20444444444445,42.61055555555556],[-96.35944444444443,42.591944444444444],[-96.51194444444444,42.57361111111111],[-96.82138888888889,42.53805555555555],[-97.10166666666666,42.51888888888889],[-97.28805555555556,42.50611111111111],[-97.44444444444444,42.49472222222222],[-97.58194444444445,42.48305555555556],[-97.91305555555556,42.459722222222226],[-98.22361111111111,42.43555555555555],[-98.36194444444443,42.42472222222222],[-98.51972222222223,42.411944444444444],[-98.6825,42.39833333333333],[-98.83999999999999,42.38527777777778],[-99.33027777777778,42.34277777777778],[-99.47277777777778,42.32944444444445],[-99.63527777777779,42.315],[-99.79166666666667,42.300555555555555],[-99.96694444444445,42.284166666666664],[-100.14472222222223,42.26694444444444],[-100.27111111111111,42.25472222222222],[-100.29944444444445,42.25194444444445],[-100.43194444444445,42.23888888888889],[-100.5925,42.22277777777778],[-100.62472222222222,42.219722222222224],[-100.75277777777778,42.20666666666667],[-100.7825,42.203611111111115],[-101.0886111111111,42.169999999999995],[-101.25027777777778,42.15277777777778],[-101.39527777777778,42.13944444444444],[-101.55694444444444,42.121944444444445],[-101.90083333333334,42.0825],[-102.0761111111111,42.06388888888888],[-102.23555555555555,42.04555555555555],[-102.54083333333332,42.00888888888889],[-102.7,41.99027777777778],[-102.85888888888888,41.971944444444446],[-103.02083333333333,41.95194444444445],[-103.1825,41.93194444444444],[-103.50333333333333,41.8925],[-103.66361111111112,41.87722222222222],[-103.98416666666667,41.85111111111111],[-104.30694444444444,41.821111111111115],[-104.46805555555555,41.80722222222222],[-104.46805555555555,41.806666666666665],[-104.82277777777777,41.7725],[-104.98361111111112,41.757777777777775],[-105.14361111111111,41.74194444444444],[-105.30111111111111,41.72527777777778],[-105.77666666666667,41.67666666666666],[-105.905,41.66416666666667],[-105.93583333333333,41.65972222222222],[-106.0625,41.64722222222222],[-106.2225,41.63],[-106.25444444444445,41.62638888888889],[-106.41194444444444,41.60916666666667],[-106.57222222222222,41.59138888888889],[-106.68944444444445,41.57833333333333],[-106.72083333333333,41.57472222222223],[-106.88111111111111,41.55638888888888],[-107.00361111111111,41.54222222222222],[-107.03722222222223,41.538333333333334],[-107.16083333333334,41.52361111111111],[-107.34472222222222,41.50194444444445],[-107.47777777777777,41.486111111111114],[-107.50861111111111,41.4825],[-107.63361111111112,41.467222222222226],[-107.79305555555555,41.44777777777777],[-107.79305555555555,41.44777777777777],[-107.95138888888889,41.42805555555555],[-107.98305555555555,41.424166666666665],[-108.11138888888888,41.408055555555556],[-108.14277777777778,41.40416666666667],[-108.29972222222221,41.384166666666665],[-108.42694444444444,41.36805555555556],[-108.46055555555556,41.36361111111111],[-108.61749999999999,41.34305555555556],[-108.74277777777777,41.32666666666667],[-108.9325,41.30138888888889],[-109.05638888888889,41.28472222222222],[-109.08999999999999,41.280277777777776],[-109.24638888888889,41.25888888888889],[-109.70972222222223,41.19472222222222],[-109.86277777777777,41.17305555555555],[-110.01277777777777,41.151666666666664],[-110.16527777777779,41.129444444444445],[-110.31527777777778,41.10777777777778],[-110.46861111111112,41.085],[-110.61833333333333,41.062777777777775],[-110.76944444444445,41.040277777777774],[-110.92083333333333,41.01722222222222],[-111.07416666666666,40.99388888888889],[-111.22805555555556,40.97],[-111.3888888888889,40.94499999999999],[-111.54166666666667,40.92111111111111],[-111.87333333333332,40.86805555555556],[-112.03472222222221,40.84861111111111],[-112.19305555555556,40.84305555555556],[-112.34888888888888,40.83722222222222],[-112.66361111111112,40.824444444444445],[-112.81833333333333,40.81805555555556],[-112.9775,40.81111111111111],[-113.13472222222222,40.80416666666667],[-113.44722222222222,40.78944444444444],[-113.6036111111111,40.78194444444444],[-113.7625,40.77388888888889],[-113.9238888888889,40.76555555555556],[-114.08138888888888,40.7575],[-114.23805555555556,40.74888888888889],[-114.39694444444446,40.74],[-114.55277777777778,40.73111111111111],[-114.89833333333334,40.71138888888889],[-115.02277777777778,40.70305555555556],[-115.17972222222222,40.69305555555555],[-115.21333333333334,40.69194444444444],[-115.33833333333332,40.683055555555555],[-115.52666666666667,40.67055555555555],[-115.65,40.66222222222222],[-115.68194444444445,40.660555555555554],[-115.80499999999999,40.651944444444446],[-115.83611111111111,40.65],[-115.96027777777778,40.64111111111111],[-115.99,40.638888888888886],[-116.11194444444443,40.63],[-116.26722222222222,40.61888888888889],[-116.32888888888888,40.614444444444445],[-116.4238888888889,40.6075],[-116.64055555555557,40.59111111111111],[-116.73305555555555,40.58444444444444],[-116.79416666666667,40.57972222222222],[-116.88444444444445,40.57194444444445],[-116.94388888888889,40.5625],[-117.08749999999999,40.52611111111111],[-117.23388888888888,40.488055555555555],[-117.31805555555555,40.465833333333336],[-117.46222222222222,40.42777777777778],[-117.51944444444445,40.41277777777778],[-117.60472222222222,40.39],[-117.775,40.34444444444445],[-117.91805555555555,40.30583333333333],[-117.9475,40.29805555555556],[-118.06,40.2675],[-118.09277777777777,40.25861111111111],[-118.19972222222222,40.22944444444445],[-118.23361111111112,40.22027777777778],[-118.34055555555555,40.19083333333333],[-118.37388888888889,40.181666666666665],[-118.48305555555555,40.151666666666664],[-118.51361111111112,40.143055555555556],[-118.6236111111111,40.112500000000004],[-118.65305555555557,40.10388888888889],[-118.7911111111111,40.061388888888885],[-118.89944444444446,40.02861111111111],[-118.92916666666667,40.01972222222222],[-119.06527777777778,39.97833333333333],[-119.1738888888889,39.945277777777775],[-119.20416666666667,39.93611111111111],[-119.31194444444444,39.903055555555554],[-119.34055555555555,39.894444444444446],[-119.61305555555555,39.809999999999995],[-119.74888888888889,39.76777777777777],[-120.02194444444444,39.68222222222222],[-120.15194444444445,39.64111111111111],[-120.27416666666666,39.602222222222224],[-120.3963888888889,39.56333333333333],[-120.64083333333333,39.484722222222224],[-120.88444444444445,39.405833333333334],[-121.00611111111111,39.36611111111111],[-121.12333333333332,39.32083333333334],[-121.22611111111111,39.26083333333333],[-121.32944444444443,39.20111111111111],[-121.43305555555555,39.14055555555556],[-121.54027777777777,39.07805555555556],[-121.64861111111112,39.01416666666667],[-121.75861111111111,38.94944444444444],[-121.86861111111111,38.884166666666665],[-121.97777777777777,38.81944444444445],[-122.21833333333333,38.67611111111111],[-122.32638888888889,38.611111111111114],[-122.43527777777778,38.54527777777778],[-122.52,38.465],[-122.60416666666666,38.384166666666665],[-122.67861111111111,38.30888888888889],[-122.67972222222222,38.01277777777778],[-122.66666666666667,37.916666666666664],[-122.61611111111111,37.845],[-122.6,37.81666666666667],[-122.54138888888889,37.77444444444444],[-122.47527777777778,37.711666666666666],[-122.415,37.655277777777776],[-122.4,37.63333333333333],[-122.35888888888888,37.60027777777778],[-122.32805555555555,37.54277777777778],[-122.31666666666666,37.516666666666666],[-122.28333333333333,37.46666666666667],[-122.2475,37.42916666666667],[-122.15,37.416666666666664],[-122.13555555555556,37.450833333333335],[-122.13333333333334,37.46666666666667],[-122.15,37.516666666666666],[-122.18555555555555,37.53861111111111],[-122.2,37.55],[-122.25,37.56666666666667],[-122.28472222222221,37.580555555555556],[-122.32472222222222,37.597500000000004],[-122.36416666666666,37.61416666666667]],"type":"LineString"}
}
