{
  "id": 2031965051,
  "type": "Feature",
  "properties": {
    "geom:area": 0,
    "geom:bbox": "-122.353570,36.725280,-121.881500,37.609750",
    "geom:latitude": 37.21849213395031,
    "geom:longitude": -122.06990837103866,
    "src:alt_label": "swim-approach",
    "src:geom": "swim",
    "swim:elevations": [
      4572,
      4297,
      3998,
      3801,
      3597,
      3305,
      3243,
      3126,
      3022,
      2774,
      2600,
      2438,
      2438,
      2438,
      2180,
      2020,
      1989,
      1851,
      1586,
      1372,
      1222,
      1219,
      1165,
      909,
      821,
      777,
      747,
      608,
      545,
      515,
      354,
      303,
      244,
      148,
      104,
      59
    ],
    "swim:geom": "approach",
    "swim:timestamps": [
      1784992001,
      1784992038,
      1784992072,
      1784992090,
      1784992113,
      1784992155,
      1784992164,
      1784992192,
      1784992216,
      1784992257,
      1784992282,
      1784992345,
      1784992376,
      1784992384,
      1784992438,
      1784992464,
      1784992473,
      1784992503,
      1784992549,
      1784992571,
      1784992602,
      1784992623,
      1784992641,
      1784992678,
      1784992703,
      1784992737,
      1784992747,
      1784992780,
      1784992797,
      1784992807,
      1784992857,
      1784992872,
      1784992890,
      1784992924,
      1784992939,
      1784992955
    ],
    "wof:geomhash": "395dbe08896a59325988d088dbe27a83",
    "wof:id": 2031965051,
    "wof:repo": "sfomuseum-data-flights-2026-07"
  },
  "bbox": [
    -122.35357,
    36.72528,
    -121.8815,
    37.60975
  ],
  "geometry": {"coordinates":[[-121.8815,36.72528],[-121.90524,36.78092],[-121.91979,36.83211],[-121.92735,36.85962],[-121.937,36.89364],[-121.9546,36.95442],[-121.95926,36.96644],[-121.97418,37.00407],[-121.98672,37.03627],[-122.00781,37.09078],[-122.02051,37.12324],[-122.05251,37.20528],[-122.06646,37.24116],[-122.06958,37.24927],[-122.12186,37.29316],[-122.13501,37.32061],[-122.13201,37.33056],[-122.11402,37.3617],[-122.09519,37.40878],[-122.09754,37.43182],[-122.10924,37.46296],[-122.12489,37.47988],[-122.13589,37.4925],[-122.15702,37.51609],[-122.17342,37.53176],[-122.20207,37.54607],[-122.21122,37.54991],[-122.23927,37.56166],[-122.25261,37.56739],[-122.26021,37.5705],[-122.29354,37.58453],[-122.30308,37.58854],[-122.3147,37.59348],[-122.33531,37.60211],[-122.34401,37.60576],[-122.35357,37.60975]],"type":"LineString"}
}
