{
  "id": 2031981613,
  "type": "Feature",
  "properties": {
    "geom:area": 0,
    "geom:bbox": "-122.397222,37.631667,-70.948611,45.090556",
    "geom:latitude": 42.96668775713202,
    "geom:longitude": -96.95688381441002,
    "src:alt_label": "swim-path",
    "src:geom": "swim",
    "swim:altitudes": [
      "012",
      "025",
      "048",
      "093",
      "116",
      "133",
      "151",
      "166",
      "182",
      "195",
      "208",
      "218",
      "230",
      "250",
      "258",
      "266",
      "273",
      "281",
      "290",
      "300",
      "308",
      "322",
      "328",
      "335",
      "350C",
      "350C",
      "350C",
      "350C",
      "350C",
      "350C",
      "350C",
      "350C",
      "350C",
      "350C",
      "350C",
      "350C",
      "350C",
      "350C",
      "350C",
      "350C",
      "350C",
      "350C",
      "350C",
      "350C",
      "350C",
      "350C",
      "350C",
      "350C",
      "351C",
      "350C",
      "350C",
      "350C",
      "350C",
      "350C",
      "351C",
      "350C",
      "350C",
      "350C",
      "350C",
      "350C",
      "350C",
      "350C",
      "350C",
      "350C",
      "350C",
      "350C",
      "350C",
      "350C",
      "350C",
      "350C",
      "350C",
      "350C",
      "350C",
      "350C",
      "350C",
      "350C",
      "350C",
      "350C",
      "350C",
      "350C",
      "350C",
      "350C",
      "350C",
      "350C",
      "350C",
      "350C",
      "350C",
      "350C",
      "350C",
      "350C",
      "350C",
      "350C",
      "350C",
      "350C",
      "350C",
      "350C",
      "350C",
      "350C",
      "350C",
      "350C",
      "350C",
      "350C",
      "350C",
      "350C",
      "350C",
      "350C",
      "350C",
      "350C",
      "350C",
      "350C",
      "350C",
      "350C",
      "350C",
      "350C",
      "350C",
      "350C",
      "350C",
      "350C",
      "350C",
      "350C",
      "350C",
      "350C",
      "350C",
      "350C",
      "350C",
      "350C",
      "350C",
      "350C",
      "350C",
      "350C",
      "350C",
      "350C",
      "350C",
      "350C",
      "350C",
      "350C",
      "350C",
      "350C",
      "350C",
      "350C",
      "350C",
      "350C",
      "350C",
      "350C",
      "350C",
      "350C",
      "350C",
      "350C",
      "350C",
      "350C",
      "350C",
      "350C",
      "350C",
      "350C",
      "350C",
      "350C",
      "350C",
      "350C",
      "350C",
      "350C",
      "350C",
      "350C",
      "350C",
      "350C",
      "350C",
      "350C",
      "350C",
      "350C",
      "350C",
      "350C",
      "350C",
      "350C",
      "350C",
      "350C",
      "350C",
      "350C",
      "351C",
      "350C",
      "350C",
      "350C",
      "350C",
      "350C",
      "350C",
      "350C",
      "350C",
      "351C",
      "351C",
      "351C",
      "350C",
      "350C",
      "350C",
      "350C",
      "350C",
      "350C",
      "350C",
      "350C",
      "350C",
      "350C",
      "350C",
      "350C",
      "350C",
      "350C",
      "350C",
      "350C",
      "350C",
      "350C",
      "350C",
      "350C",
      "350C",
      "350C",
      "350C",
      "350C",
      "350C",
      "350C",
      "350C",
      "350C",
      "350C",
      "350C",
      "351C",
      "351C",
      "351C",
      "350C",
      "350C",
      "350C",
      "350C",
      "350C",
      "351C",
      "350C",
      "350C",
      "350C",
      "350C",
      "350C",
      "350C",
      "350C",
      "350C",
      "350C",
      "350C",
      "350C",
      "350C",
      "350C",
      "350C",
      "350C",
      "350C",
      "350C",
      "350C",
      "350C",
      "350C",
      "350C",
      "350C",
      "350C",
      "351C",
      "350C",
      "350C",
      "350C",
      "350C",
      "351C",
      "350C",
      "350C",
      "350C",
      "350C",
      "350",
      "350",
      "350",
      "350",
      "350",
      "323",
      "290",
      "261",
      "234",
      "220",
      "204",
      "185",
      "172",
      "153",
      "147",
      "127",
      "120",
      "110",
      "106",
      "100",
      "097",
      "090",
      "087",
      "080",
      "076",
      "068",
      "061",
      "056",
      "035",
      "030",
      "009",
      "004",
      "002"
    ],
    "swim:geom": "path",
    "swim:speeds": [
      150,
      234,
      270,
      298,
      385,
      404,
      418,
      431,
      439,
      449,
      457,
      464,
      472,
      484,
      484,
      497,
      502,
      507,
      511,
      514,
      517,
      519,
      525,
      527,
      527,
      527,
      526,
      526,
      525,
      523,
      522,
      523,
      523,
      524,
      524,
      524,
      522,
      522,
      521,
      522,
      522,
      521,
      520,
      520,
      519,
      518,
      518,
      518,
      517,
      517,
      514,
      513,
      512,
      512,
      514,
      514,
      512,
      511,
      510,
      508,
      508,
      508,
      509,
      509,
      509,
      509,
      510,
      511,
      511,
      511,
      511,
      511,
      510,
      510,
      509,
      509,
      509,
      509,
      509,
      509,
      510,
      511,
      511,
      511,
      511,
      510,
      510,
      509,
      509,
      508,
      508,
      508,
      508,
      508,
      508,
      508,
      508,
      507,
      507,
      508,
      508,
      511,
      511,
      511,
      509,
      509,
      509,
      508,
      508,
      509,
      508,
      507,
      508,
      507,
      508,
      508,
      508,
      509,
      510,
      510,
      511,
      510,
      512,
      512,
      514,
      515,
      514,
      513,
      513,
      514,
      514,
      514,
      514,
      514,
      514,
      515,
      515,
      519,
      520,
      520,
      520,
      520,
      520,
      522,
      523,
      524,
      525,
      524,
      524,
      525,
      526,
      525,
      525,
      525,
      524,
      524,
      524,
      524,
      524,
      524,
      523,
      521,
      518,
      517,
      517,
      518,
      520,
      522,
      524,
      524,
      524,
      523,
      523,
      525,
      527,
      531,
      534,
      534,
      533,
      532,
      530,
      529,
      530,
      531,
      533,
      539,
      535,
      538,
      534,
      536,
      533,
      534,
      533,
      533,
      531,
      532,
      530,
      530,
      528,
      526,
      524,
      525,
      524,
      523,
      523,
      521,
      521,
      521,
      521,
      520,
      521,
      521,
      520,
      519,
      519,
      517,
      514,
      513,
      513,
      511,
      503,
      495,
      492,
      492,
      492,
      493,
      497,
      499,
      497,
      490,
      456,
      451,
      451,
      451,
      452,
      454,
      455,
      456,
      456,
      456,
      456,
      460,
      461,
      462,
      460,
      456,
      455,
      455,
      454,
      455,
      456,
      456,
      457,
      458,
      462,
      465,
      465,
      468,
      468,
      468,
      468,
      467,
      467,
      468,
      470,
      479,
      481,
      469,
      465,
      419,
      403,
      390,
      373,
      358,
      361,
      349,
      333,
      318,
      320,
      299,
      300,
      287,
      283,
      283,
      286,
      252,
      217,
      218,
      210,
      203,
      134,
      129,
      132
    ],
    "swim:timestamps": [
      1785091772,
      1785091832,
      1785091892,
      1785092013,
      1785092133,
      1785092193,
      1785092253,
      1785092313,
      1785092373,
      1785092433,
      1785092493,
      1785092553,
      1785092613,
      1785092734,
      1785092790,
      1785092850,
      1785092910,
      1785092970,
      1785093030,
      1785093090,
      1785093154,
      1785093270,
      1785093330,
      1785093390,
      1785093515,
      1785093571,
      1785093631,
      1785093695,
      1785093811,
      1785093871,
      1785093931,
      1785093991,
      1785094055,
      1785094115,
      1785094171,
      1785094236,
      1785094296,
      1785094352,
      1785094412,
      1785094472,
      1785094532,
      1785094592,
      1785094652,
      1785094712,
      1785094832,
      1785094892,
      1785094953,
      1785095073,
      1785095133,
      1785095193,
      1785095373,
      1785095433,
      1785095493,
      1785095553,
      1785095794,
      1785095854,
      1785095974,
      1785096034,
      1785096094,
      1785096214,
      1785096274,
      1785096394,
      1785096515,
      1785096575,
      1785096635,
      1785096695,
      1785096755,
      1785096815,
      1785096935,
      1785096995,
      1785097055,
      1785097115,
      1785097175,
      1785097221,
      1785097236,
      1785097296,
      1785097341,
      1785097356,
      1785097401,
      1785097416,
      1785097476,
      1785097521,
      1785097536,
      1785097582,
      1785097642,
      1785097656,
      1785097702,
      1785097716,
      1785097776,
      1785097822,
      1785097836,
      1785097882,
      1785097896,
      1785097957,
      1785098017,
      1785098062,
      1785098077,
      1785098122,
      1785098137,
      1785098182,
      1785098197,
      1785098257,
      1785098317,
      1785098377,
      1785098423,
      1785098437,
      1785098483,
      1785098603,
      1785098723,
      1785098783,
      1785098843,
      1785099023,
      1785099075,
      1785099084,
      1785099136,
      1785099144,
      1785099204,
      1785099264,
      1785099316,
      1785099324,
      1785099376,
      1785099384,
      1785099436,
      1785099504,
      1785099616,
      1785099676,
      1785099736,
      1785099917,
      1785099977,
      1785100037,
      1785100097,
      1785100217,
      1785100277,
      1785100337,
      1785100409,
      1785100469,
      1785100530,
      1785100590,
      1785100650,
      1785100710,
      1785100770,
      1785100830,
      1785100890,
      1785100950,
      1785101010,
      1785101070,
      1785101130,
      1785101190,
      1785101250,
      1785101371,
      1785101431,
      1785101491,
      1785101551,
      1785101611,
      1785101731,
      1785101791,
      1785101851,
      1785101911,
      1785101971,
      1785102032,
      1785102092,
      1785102152,
      1785102224,
      1785102284,
      1785102344,
      1785102404,
      1785102464,
      1785102524,
      1785102596,
      1785102656,
      1785102777,
      1785102897,
      1785102957,
      1785103017,
      1785103077,
      1785103197,
      1785103257,
      1785103317,
      1785103377,
      1785103438,
      1785103498,
      1785103558,
      1785103678,
      1785103738,
      1785103798,
      1785103836,
      1785103858,
      1785103896,
      1785103918,
      1785103956,
      1785103978,
      1785104016,
      1785104076,
      1785104136,
      1785104159,
      1785104196,
      1785104219,
      1785104257,
      1785104279,
      1785104317,
      1785104351,
      1785104377,
      1785104437,
      1785104471,
      1785104497,
      1785104557,
      1785104591,
      1785104617,
      1785104651,
      1785104677,
      1785104711,
      1785104737,
      1785104797,
      1785104831,
      1785104892,
      1785104918,
      1785105012,
      1785105038,
      1785105072,
      1785105098,
      1785105158,
      1785105218,
      1785105278,
      1785105338,
      1785105398,
      1785105459,
      1785105519,
      1785105639,
      1785105699,
      1785105759,
      1785106420,
      1785106517,
      1785106577,
      1785106660,
      1785106721,
      1785106757,
      1785106817,
      1785106841,
      1785106878,
      1785106901,
      1785106938,
      1785106998,
      1785107021,
      1785107058,
      1785107081,
      1785107141,
      1785107178,
      1785107201,
      1785107238,
      1785107261,
      1785107322,
      1785107418,
      1785107478,
      1785107502,
      1785107562,
      1785107599,
      1785107622,
      1785107719,
      1785107779,
      1785107839,
      1785107959,
      1785108019,
      1785108079,
      1785108139,
      1785108199,
      1785108259,
      1785108320,
      1785108380,
      1785108440,
      1785108500,
      1785108560,
      1785108620,
      1785108655,
      1785108715,
      1785108740,
      1785108800,
      1785108835,
      1785108895,
      1785108920,
      1785108955,
      1785108980,
      1785109016,
      1785109041,
      1785109101,
      1785109136,
      1785109221,
      1785109256,
      1785109281,
      1785109341,
      1785109401,
      1785109521,
      1785109562,
      1785109581
    ],
    "wof:geomhash": "13b3e48d563ce60ea19a8e4d80ffe655",
    "wof:id": 2031981613,
    "wof:repo": "sfomuseum-data-flights-2026-07"
  },
  "bbox": [
    -122.39722222222223,
    37.63166666666667,
    -70.94861111111112,
    45.09055555555556
  ],
  "geometry": {"coordinates":[[-122.39722222222223,37.63166666666667],[-122.36722222222221,37.67027777777778],[-122.27916666666667,37.69694444444444],[-122.13666666666667,37.80472222222222],[-121.995,37.96083333333333],[-121.91111111111111,38.05166666666666],[-121.81833333333333,38.15333333333333],[-121.72833333333334,38.25138888888889],[-121.63722222222223,38.35027777777778],[-121.53083333333333,38.44361111111111],[-121.39194444444445,38.507222222222225],[-121.27222222222223,38.56361111111111],[-121.12138888888889,38.63388888888889],[-120.82472222222222,38.770833333333336],[-120.6975,38.82638888888889],[-120.54333333333334,38.89722222222222],[-120.38722222222223,38.967777777777776],[-120.22833333333334,39.03805555555555],[-120.06972222222223,39.111666666666665],[-119.91055555555556,39.18444444444444],[-119.71583333333334,39.27111111111111],[-119.42333333333333,39.39888888888889],[-119.25694444444444,39.47138888888889],[-119.09083333333332,39.54555555555555],[-118.71722222222222,39.706944444444446],[-118.58749999999999,39.7625],[-118.41972222222223,39.83416666666667],[-118.21611111111112,39.92055555555555],[-117.92166666666667,40.04416666666666],[-117.72722222222222,40.125],[-117.5611111111111,40.19416666666666],[-117.39250000000001,40.26361111111111],[-117.2238888888889,40.33277777777778],[-117.05361111111111,40.40222222222222],[-116.91361111111112,40.45888888888889],[-116.73666666666666,40.530277777777776],[-116.56777777777778,40.59805555555556],[-116.40333333333334,40.663888888888884],[-116.23222222222222,40.73166666666667],[-116.06416666666667,40.79805555555556],[-115.89333333333335,40.865],[-115.72611111111111,40.930277777777775],[-115.55416666666666,40.99666666666667],[-115.38416666666667,41.0625],[-115.04333333333334,41.192499999999995],[-114.87416666666665,41.256388888888885],[-114.70416666666667,41.32055555555556],[-114.36083333333333,41.44888888888889],[-114.19055555555556,41.51166666666666],[-114.0175,41.57527777777778],[-113.50583333333333,41.76083333333333],[-113.33277777777778,41.82333333333334],[-113.1588888888889,41.88527777777778],[-112.99277777777777,41.94416666666666],[-112.28861111111111,42.17944444444444],[-112.10944444444443,42.22777777777778],[-111.74888888888889,42.32638888888889],[-111.56694444444445,42.37416666666667],[-111.385,42.41361111111111],[-111.02472222222222,42.48444444444444],[-110.83,42.522777777777776],[-110.45194444444445,42.564166666666665],[-110.07055555555556,42.59527777777778],[-109.89250000000001,42.64416666666666],[-109.71666666666667,42.70055555555556],[-109.53888888888889,42.75833333333333],[-109.3611111111111,42.81583333333333],[-109.18472222222222,42.87222222222222],[-108.80805555555555,42.99166666666667],[-108.63111111111111,43.04722222222222],[-108.45361111111112,43.1025],[-108.27583333333334,43.1575],[-108.0961111111111,43.21277777777778],[-107.99138888888889,43.244166666666665],[-107.91583333333334,43.261944444444445],[-107.7325,43.303888888888885],[-107.58694444444444,43.336666666666666],[-107.54777777777778,43.34527777777778],[-107.40083333333334,43.37777777777778],[-107.3625,43.38638888888889],[-107.1763888888889,43.427499999999995],[-107.02722222222222,43.46027777777778],[-106.99111111111111,43.46805555555556],[-106.84166666666667,43.500277777777775],[-106.68083333333334,43.535],[-106.60833333333333,43.550555555555555],[-106.49555555555555,43.574444444444445],[-106.42083333333333,43.59055555555556],[-106.26972222222223,43.62222222222222],[-106.12027777777777,43.649166666666666],[-106.0436111111111,43.66],[-105.93,43.67611111111111],[-105.8888888888889,43.68194444444444],[-105.69972222222222,43.70916666666667],[-105.50611111111111,43.73722222222222],[-105.35527777777777,43.76444444444444],[-105.31888888888888,43.772777777777776],[-105.16944444444445,43.80472222222222],[-105.13,43.81305555555555],[-104.98111111111112,43.84305555555556],[-104.94333333333334,43.850833333333334],[-104.75194444444445,43.88916666666667],[-104.56277777777777,43.92777777777778],[-104.37333333333332,43.96416666666667],[-104.2238888888889,43.99444444444445],[-104.185,44.00111111111111],[-104.03555555555555,44.030833333333334],[-103.6563888888889,44.10333333333333],[-103.2761111111111,44.175],[-103.08888888888889,44.209722222222226],[-102.89722222222223,44.245],[-102.32888888888888,44.346944444444446],[-102.13833333333334,44.38055555555555],[-102.13694444444445,44.380833333333335],[-101.94861111111112,44.413333333333334],[-101.94527777777778,44.413888888888884],[-101.75333333333333,44.44694444444444],[-101.56194444444444,44.47944444444445],[-101.36777777777777,44.51222222222222],[-101.37083333333332,44.51166666666666],[-101.17472222222223,44.544444444444444],[-101.17472222222223,44.544444444444444],[-100.98194444444445,44.57611111111112],[-100.78666666666666,44.60805555555556],[-100.3963888888889,44.67027777777778],[-100.20111111111112,44.700833333333335],[-100.01027777777777,44.730555555555554],[-99.42750000000001,44.81888888888889],[-99.23388888888888,44.847500000000004],[-99.0375,44.876111111111115],[-98.8436111111111,44.903888888888886],[-98.44527777777778,44.96027777777778],[-98.25277777777778,44.98694444444445],[-98.05555555555556,45.013888888888886],[-97.85499999999999,45.04055555555556],[-97.61833333333333,45.07222222222222],[-97.41527777777779,45.09055555555556],[-97.21194444444444,45.086111111111116],[-97.00638888888889,45.08027777777778],[-96.84416666666667,45.07527777777778],[-96.5975,45.06666666666667],[-96.39500000000001,45.059444444444445],[-96.1888888888889,45.05166666666666],[-95.9825,45.04361111111111],[-95.77722222222222,45.03527777777778],[-95.56861111111111,45.02611111111111],[-95.3625,45.016666666666666],[-95.1575,45.007222222222225],[-94.95333333333333,44.9975],[-94.54916666666666,44.976111111111116],[-94.34583333333333,44.96472222222223],[-94.13777777777779,44.95277777777778],[-93.935,44.94083333333333],[-93.72833333333334,44.92777777777778],[-93.31861111111111,44.901666666666664],[-93.10694444444444,44.885555555555555],[-92.90055555555556,44.86611111111111],[-92.69472222222223,44.84722222222222],[-92.49277777777777,44.82833333333333],[-92.28833333333333,44.80888888888889],[-92.08722222222222,44.78916666666667],[-91.88666666666667,44.769444444444446],[-91.68472222222222,44.757222222222225],[-91.4863888888889,44.745],[-91.24638888888889,44.73027777777778],[-91.04472222222222,44.717222222222226],[-90.83999999999999,44.70388888888889],[-90.63777777777779,44.69],[-90.44305555555556,44.67638888888889],[-90.19916666666667,44.659166666666664],[-89.79194444444444,44.62861111111111],[-89.38722222222223,44.596944444444446],[-89.18277777777779,44.58027777777778],[-88.97916666666667,44.56361111111111],[-88.77277777777778,44.546388888888885],[-88.36,44.51],[-88.15861111111111,44.47694444444445],[-87.95666666666666,44.437777777777775],[-87.75833333333334,44.39861111111111],[-87.56083333333333,44.35888888888889],[-87.36166666666666,44.31861111111112],[-87.1563888888889,44.276666666666664],[-86.76527777777778,44.19583333333333],[-86.56916666666666,44.15472222222222],[-86.38138888888888,44.11472222222223],[-86.26444444444445,44.089444444444446],[-86.185,44.072500000000005],[-86.07083333333333,44.047777777777775],[-85.98583333333333,44.02916666666667],[-85.8736111111111,44.005],[-85.79083333333332,43.98694444444445],[-85.67777777777778,43.96222222222222],[-85.47694444444444,43.91777777777777],[-85.28527777777778,43.874722222222225],[-85.20194444444445,43.85611111111111],[-85.08555555555554,43.82972222222222],[-85.00555555555556,43.811388888888885],[-84.89611111111111,43.78666666666666],[-84.81388888888888,43.76777777777777],[-84.70222222222222,43.742222222222225],[-84.62333333333332,43.723888888888894],[-84.50972222222222,43.6975],[-84.32055555555556,43.65333333333333],[-84.20111111111112,43.625277777777775],[-84.12888888888888,43.608333333333334],[-83.9213888888889,43.55916666666666],[-83.82666666666667,43.53638888888889],[-83.73388888888888,43.51416666666667],[-83.63805555555557,43.49055555555556],[-83.54333333333334,43.4675],[-83.44638888888889,43.443888888888885],[-83.35333333333332,43.421388888888885],[-83.16777777777779,43.37583333333333],[-83.07388888888889,43.3525],[-82.88916666666667,43.30638888888888],[-82.79305555555555,43.282222222222224],[-82.51638888888888,43.22166666666667],[-82.41944444444445,43.20111111111111],[-82.33055555555555,43.1825],[-82.23444444444445,43.16222222222222],[-82.05055555555555,43.12305555555555],[-81.87388888888889,43.085],[-81.69305555555556,43.045833333333334],[-81.51194444444444,43.00666666666667],[-81.33555555555554,42.967777777777776],[-81.15444444444445,42.92777777777778],[-80.97472222222223,42.88722222222222],[-80.61361111111111,42.805277777777775],[-80.435,42.76444444444444],[-80.25972222222222,42.723888888888894],[-78.38305555555554,42.55],[-78.11472222222221,42.56666666666667],[-77.94500000000001,42.57694444444445],[-77.69722222222222,42.59138888888889],[-77.52805555555555,42.593611111111116],[-77.41583333333334,42.578611111111115],[-77.2475,42.58694444444445],[-77.17666666666668,42.590833333333336],[-77.07666666666667,42.596944444444446],[-77.005,42.60111111111111],[-76.90305555555557,42.60722222222223],[-76.72888888888889,42.6175],[-76.6613888888889,42.62111111111111],[-76.55611111111111,42.62694444444445],[-76.4875,42.63027777777778],[-76.32805555555555,42.629444444444445],[-76.21444444444445,42.62444444444444],[-76.16055555555556,42.62138888888889],[-76.0586111111111,42.61555555555556],[-75.99111111111111,42.606944444444444],[-75.81861111111111,42.605555555555554],[-75.54805555555555,42.62555555555556],[-75.37722222222222,42.638888888888886],[-75.30972222222222,42.64388888888889],[-75.1325,42.6575],[-75.03055555555555,42.665],[-74.9575,42.669999999999995],[-74.68111111111112,42.68666666666666],[-74.50555555555556,42.68555555555555],[-74.33055555555555,42.68666666666666],[-73.99416666666667,42.68805555555555],[-73.78444444444445,42.68888888888888],[-73.60638888888889,42.68888888888888],[-73.43027777777779,42.68833333333333],[-73.25,42.68805555555555],[-73.06611111111111,42.68722222222222],[-72.89944444444446,42.686388888888885],[-72.7225,42.68472222222222],[-72.52888888888889,42.671388888888885],[-72.36611111111111,42.651944444444446],[-72.22,42.634166666666665],[-72.07583333333334,42.617777777777775],[-71.98333333333333,42.6],[-71.85,42.583333333333336],[-71.80499999999999,42.58444444444444],[-71.66666666666667,42.56222222222222],[-71.6,42.55],[-71.48333333333333,42.53333333333333],[-71.43194444444445,42.51694444444444],[-71.36666666666666,42.5],[-71.32416666666666,42.49472222222222],[-71.26666666666667,42.483333333333334],[-71.22611111111111,42.46388888888889],[-71.13972222222223,42.41861111111111],[-71.08333333333333,42.38333333333333],[-70.97083333333333,42.330555555555556],[-70.95,42.3],[-70.94861111111112,42.280277777777776],[-70.9725,42.22527777777778],[-71.03222222222222,42.224722222222226],[-71.02972222222222,42.314166666666665],[-71.01666666666667,42.333333333333336],[-71.01277777777777,42.348888888888894]],"type":"LineString"}
}
