{
  "id": 2032035089,
  "type": "Feature",
  "properties": {
    "geom:area": 0,
    "geom:bbox": "-124.141389,37.386111,-122.083333,45.664167",
    "geom:latitude": 41.2268862440052,
    "geom:longitude": -123.19596448974198,
    "src:alt_label": "swim-path",
    "src:geom": "swim",
    "swim:altitudes": [
      "015",
      "033",
      "040",
      "067",
      "101",
      "117",
      "144",
      "168",
      "191",
      "211",
      "227",
      "241",
      "257",
      "270",
      "284",
      "295",
      "308",
      "322",
      "335",
      "346",
      "350C",
      "350C",
      "350C",
      "350C",
      "350C",
      "350C",
      "349C",
      "350C",
      "350C",
      "350C",
      "350C",
      "350C",
      "350C",
      "350C",
      "350C",
      "350C",
      "350C",
      "350C",
      "350C",
      "350C",
      "350C",
      "350C",
      "350C",
      "350C",
      "350C",
      "350C",
      "350C",
      "350C",
      "350C",
      "350C",
      "350C",
      "349C",
      "350C",
      "350C",
      "350C",
      "350C",
      "350C",
      "350C",
      "350C",
      "350C",
      "350C",
      "350C",
      "346",
      "336",
      "327",
      "317",
      "307",
      "297",
      "287",
      "277",
      "267",
      "253",
      "230",
      "211",
      "193",
      "182",
      "173",
      "154",
      "140",
      "138",
      "125",
      "120",
      "111",
      "109C",
      "110",
      "110C",
      "110",
      "109C",
      "107",
      "103",
      "093",
      "090",
      "080",
      "078",
      "070",
      "069",
      "070",
      "069",
      "066",
      "059",
      "049",
      "032",
      "021",
      "018",
      "013",
      "011",
      "006",
      "005",
      "110"
    ],
    "swim:geom": "path",
    "swim:speeds": [
      155,
      226,
      251,
      264,
      268,
      330,
      355,
      362,
      371,
      378,
      387,
      403,
      415,
      425,
      436,
      447,
      451,
      450,
      447,
      448,
      433,
      437,
      438,
      437,
      435,
      432,
      428,
      425,
      424,
      423,
      424,
      422,
      423,
      422,
      422,
      425,
      425,
      426,
      429,
      435,
      437,
      442,
      448,
      451,
      453,
      452,
      449,
      410,
      393,
      396,
      390,
      389,
      400,
      402,
      404,
      410,
      452,
      474,
      474,
      475,
      484,
      484,
      483,
      482,
      476,
      474,
      468,
      463,
      456,
      449,
      440,
      438,
      424,
      402,
      385,
      373,
      373,
      363,
      342,
      328,
      297,
      293,
      267,
      267,
      258,
      259,
      251,
      255,
      252,
      254,
      255,
      254,
      245,
      249,
      249,
      248,
      253,
      251,
      251,
      245,
      200,
      193,
      165,
      165,
      127,
      129,
      114,
      118,
      114
    ],
    "swim:timestamps": [
      1785446429,
      1785446489,
      1785446502,
      1785446549,
      1785446610,
      1785446670,
      1785446730,
      1785446790,
      1785446850,
      1785446910,
      1785446970,
      1785447030,
      1785447090,
      1785447150,
      1785447210,
      1785447270,
      1785447330,
      1785447391,
      1785447451,
      1785447511,
      1785447571,
      1785447631,
      1785447691,
      1785447751,
      1785447811,
      1785447871,
      1785447931,
      1785447991,
      1785448051,
      1785448113,
      1785448173,
      1785448232,
      1785448293,
      1785448353,
      1785448412,
      1785448473,
      1785448533,
      1785448592,
      1785448653,
      1785448713,
      1785448772,
      1785448834,
      1785448894,
      1785448952,
      1785449013,
      1785449074,
      1785449133,
      1785449193,
      1785449254,
      1785449313,
      1785449373,
      1785449435,
      1785449493,
      1785449553,
      1785449615,
      1785449673,
      1785449734,
      1785449795,
      1785449855,
      1785449915,
      1785449975,
      1785450035,
      1785450096,
      1785450156,
      1785450216,
      1785450276,
      1785450336,
      1785450396,
      1785450456,
      1785450516,
      1785450576,
      1785450636,
      1785450696,
      1785450756,
      1785450817,
      1785450839,
      1785450877,
      1785450937,
      1785450979,
      1785450997,
      1785451038,
      1785451057,
      1785451098,
      1785451117,
      1785451158,
      1785451177,
      1785451218,
      1785451237,
      1785451279,
      1785451297,
      1785451339,
      1785451357,
      1785451404,
      1785451417,
      1785451458,
      1785451477,
      1785451518,
      1785451538,
      1785451598,
      1785451638,
      1785451718,
      1785451778,
      1785451818,
      1785451838,
      1785451879,
      1785451898,
      1785451939,
      1785451958,
      1785452018
    ],
    "wof:geomhash": "ef42577661e02bbede9acf7ea31ac7e8",
    "wof:id": 2032035089,
    "wof:repo": "sfomuseum-data-flights-2026-07"
  },
  "bbox": [
    -124.1413888888889,
    37.38611111111111,
    -122.08333333333333,
    45.66416666666667
  ],
  "geometry": {"coordinates":[[-122.625,45.605555555555554],[-122.69833333333334,45.626666666666665],[-122.71972222222223,45.63583333333333],[-122.78694444444444,45.66416666666667],[-122.88777777777779,45.6575],[-122.92722222222223,45.581944444444446],[-122.93972222222223,45.47666666666667],[-122.95083333333334,45.378055555555555],[-122.96305555555556,45.27388888888889],[-122.99416666666667,45.1725],[-123.03944444444444,45.0825],[-123.09277777777777,44.975833333333334],[-123.14805555555556,44.86527777777778],[-123.2038888888889,44.75333333333333],[-123.26138888888889,44.636944444444445],[-123.31166666666667,44.5175],[-123.32444444444444,44.39138888888889],[-123.31944444444444,44.26583333333333],[-123.31472222222222,44.14361111111111],[-123.30944444444444,44.01555555555556],[-123.30472222222222,43.89388888888889],[-123.29972222222221,43.772777777777776],[-123.295,43.651111111111106],[-123.29027777777777,43.53111111111111],[-123.28555555555555,43.410555555555554],[-123.28083333333333,43.290277777777774],[-123.27638888888889,43.17194444444444],[-123.2713888888889,43.05305555555555],[-123.26694444444445,42.93611111111111],[-123.26277777777777,42.831388888888895],[-123.25777777777778,42.71472222222223],[-123.25416666666666,42.59805555555556],[-123.24888888888889,42.48222222222223],[-123.24527777777777,42.365833333333335],[-123.24138888888889,42.24805555555556],[-123.2363888888889,42.10666666666667],[-123.23194444444445,41.98916666666667],[-123.2275,41.87083333333334],[-123.22333333333333,41.75111111111111],[-123.21916666666667,41.62916666666667],[-123.215,41.50833333333333],[-123.21055555555556,41.38361111111111],[-123.20194444444445,41.27194444444444],[-123.18861111111111,41.14333333333333],[-123.17555555555556,41.01722222222222],[-123.16222222222223,40.89],[-123.15027777777779,40.77388888888889],[-123.19694444444445,40.6625],[-123.32638888888889,40.611111111111114],[-123.46305555555556,40.63527777777778],[-123.6061111111111,40.635],[-123.74472222222222,40.621944444444445],[-123.85194444444444,40.550555555555555],[-123.94,40.469722222222224],[-124.0436111111111,40.37638888888889],[-124.1261111111111,40.29416666666666],[-124.1413888888889,40.15972222222222],[-124.06388888888888,40.0425],[-123.98083333333334,39.92861111111111],[-123.89666666666668,39.81333333333333],[-123.80972222222222,39.693888888888885],[-123.72583333333334,39.57833333333333],[-123.64166666666668,39.46138888888889],[-123.55749999999999,39.345],[-123.47944444444444,39.23583333333333],[-123.39833333333334,39.12222222222222],[-123.31666666666666,39.007777777777775],[-123.2375,38.89611111111111],[-123.1588888888889,38.785],[-123.08305555555555,38.676944444444445],[-123.00694444444444,38.56888888888889],[-122.93277777777779,38.46277777777778],[-122.87805555555555,38.35416666666667],[-122.82944444444443,38.246944444444445],[-122.78416666666666,38.14722222222222],[-122.76666666666667,38.1],[-122.74055555555556,38.05],[-122.69833333333334,37.95638888888889],[-122.65,37.88333333333333],[-122.63027777777778,37.86027777777778],[-122.58333333333333,37.81666666666667],[-122.56527777777778,37.79833333333333],[-122.51666666666667,37.75],[-122.5038888888889,37.74],[-122.46666666666667,37.7],[-122.44611111111111,37.68527777777778],[-122.4,37.65],[-122.38916666666667,37.63194444444444],[-122.35,37.583333333333336],[-122.3461111111111,37.571111111111115],[-122.31666666666666,37.516666666666666],[-122.30694444444444,37.50666666666667],[-122.3,37.45],[-122.30777777777777,37.43888888888888],[-122.3,37.4],[-122.27055555555556,37.38611111111111],[-122.2,37.4],[-122.18666666666667,37.40277777777778],[-122.10416666666666,37.42527777777777],[-122.08333333333333,37.46666666666667],[-122.14083333333333,37.5225],[-122.2,37.54722222222222],[-122.23333333333333,37.56666666666667],[-122.25305555555556,37.569722222222225],[-122.28333333333333,37.583333333333336],[-122.2936111111111,37.58694444444445],[-122.31666666666666,37.6],[-122.33166666666666,37.60277777777778],[-122.36583333333333,37.617222222222225]],"type":"LineString"}
}
