{
  "id": 2031940775,
  "type": "Feature",
  "properties": {
    "geom:area": 0,
    "geom:bbox": "-122.333333,33.650000,-84.466667,37.991667",
    "geom:latitude": 36.19229255339803,
    "geom:longitude": -103.41130882122525,
    "src:alt_label": "swim-path",
    "src:geom": "swim",
    "swim:altitudes": [
      "025",
      "037",
      "049",
      "061",
      "074",
      "085",
      "100",
      "100",
      "116",
      "139",
      "182",
      "201",
      "215",
      "226",
      "238",
      "260",
      "269",
      "305",
      "312",
      "318C",
      "320C",
      "320C",
      "320C",
      "320C",
      "320C",
      "320C",
      "320C",
      "320C",
      "320C",
      "320C",
      "320C",
      "320C",
      "320C",
      "320C",
      "320C",
      "320C",
      "320C",
      "320C",
      "320C",
      "320C",
      "320C",
      "320C",
      "320C",
      "320C",
      "320C",
      "320C",
      "320C",
      "320C",
      "320C",
      "320C",
      "320C",
      "320C",
      "320C",
      "320C",
      "320C",
      "320C",
      "320C",
      "320C",
      "320C",
      "320C",
      "320C",
      "320C",
      "320C",
      "320C",
      "320",
      "327",
      "329",
      "337",
      "340C",
      "340C",
      "340C",
      "340C",
      "340C",
      "340C",
      "340C",
      "340C",
      "340C",
      "340C",
      "340C",
      "340C",
      "340C",
      "340C",
      "340C",
      "340C",
      "340C",
      "340C",
      "340C",
      "340C",
      "340C",
      "340C",
      "340C",
      "340C",
      "340C",
      "340C",
      "340C",
      "340C",
      "340C",
      "340C",
      "340C",
      "340C",
      "340C",
      "340C",
      "340C",
      "340C",
      "340C",
      "340C",
      "340C",
      "340C",
      "340C",
      "340C",
      "340C",
      "340C",
      "340C",
      "340C",
      "340C",
      "340C",
      "340C",
      "340C",
      "340C",
      "340C",
      "340C",
      "340C",
      "340C",
      "340C",
      "340C",
      "340C",
      "340C",
      "340C",
      "340C",
      "340C",
      "340C",
      "340C",
      "340C",
      "340C",
      "340C",
      "340C",
      "340C",
      "340C",
      "340C",
      "340C",
      "340C",
      "340C",
      "340C",
      "340C",
      "340C",
      "340C",
      "340C",
      "340C",
      "340C",
      "340C",
      "340C",
      "340C",
      "340C",
      "340C",
      "340C",
      "340C",
      "340C",
      "340C",
      "340C",
      "340C",
      "340C",
      "340C",
      "340C",
      "340C",
      "340C",
      "340C",
      "340C",
      "340C",
      "340C",
      "340C",
      "340C",
      "340C",
      "340C",
      "340C",
      "340C",
      "340C",
      "340C",
      "340C",
      "340C",
      "340C",
      "340C",
      "340C",
      "340C",
      "340C",
      "340C",
      "340C",
      "340C",
      "340C",
      "340C",
      "340C",
      "340C",
      "340C",
      "340C",
      "340C",
      "340C",
      "340C",
      "340C",
      "340C",
      "340C",
      "340C",
      "340C",
      "340C",
      "340C",
      "340C",
      "340C",
      "340C",
      "340C",
      "340C",
      "340C",
      "340C",
      "340C",
      "340C",
      "340C",
      "340C",
      "340C",
      "340C",
      "340C",
      "340C",
      "340C",
      "340C",
      "340C",
      "340C",
      "340C",
      "340C",
      "340C",
      "340C",
      "340C",
      "340C",
      "340C",
      "340C",
      "340C",
      "340C",
      "340C",
      "340C",
      "340C",
      "340C",
      "340C",
      "340C",
      "340C",
      "340C",
      "340C",
      "340C",
      "340C",
      "340C",
      "340C",
      "340C",
      "340C",
      "340C",
      "340C",
      "340C",
      "340C",
      "340C",
      "340C",
      "340C",
      "340C",
      "340C",
      "340C",
      "340C",
      "340",
      "334",
      "324",
      "320C",
      "320C",
      "320C",
      "320C",
      "320C",
      "320C",
      "320C",
      "320C",
      "320C",
      "320C",
      "320C",
      "320",
      "320",
      "301",
      "254",
      "246",
      "228",
      "213",
      "208",
      "187",
      "168",
      "147",
      "135",
      "130",
      "117",
      "109",
      "103",
      "101",
      "095",
      "093",
      "084",
      "081",
      "073",
      "070",
      "060",
      "058",
      "057",
      "045",
      "032",
      "021",
      "020",
      "013",
      "012",
      "006",
      "005"
    ],
    "swim:geom": "path",
    "swim:speeds": [
      185,
      242,
      253,
      261,
      263,
      273,
      312,
      355,
      355,
      370,
      361,
      361,
      361,
      373,
      392,
      408,
      416,
      437,
      442,
      450,
      460,
      468,
      470,
      471,
      472,
      473,
      474,
      474,
      473,
      471,
      470,
      468,
      468,
      468,
      469,
      470,
      475,
      476,
      474,
      472,
      471,
      470,
      468,
      467,
      468,
      468,
      469,
      469,
      469,
      469,
      469,
      470,
      470,
      470,
      471,
      472,
      471,
      472,
      472,
      471,
      469,
      470,
      468,
      466,
      467,
      460,
      459,
      455,
      455,
      465,
      466,
      466,
      468,
      470,
      472,
      473,
      474,
      473,
      466,
      463,
      462,
      465,
      466,
      467,
      467,
      468,
      467,
      468,
      467,
      466,
      465,
      463,
      462,
      460,
      458,
      456,
      454,
      453,
      453,
      452,
      452,
      452,
      451,
      449,
      449,
      448,
      449,
      449,
      449,
      449,
      449,
      449,
      450,
      450,
      450,
      451,
      459,
      453,
      455,
      457,
      456,
      457,
      457,
      458,
      458,
      458,
      458,
      457,
      457,
      457,
      456,
      456,
      453,
      451,
      452,
      452,
      452,
      453,
      452,
      452,
      451,
      451,
      455,
      457,
      458,
      458,
      459,
      459,
      458,
      453,
      452,
      450,
      451,
      449,
      449,
      448,
      448,
      447,
      447,
      447,
      448,
      448,
      447,
      447,
      449,
      448,
      448,
      448,
      448,
      448,
      444,
      448,
      443,
      446,
      443,
      445,
      445,
      444,
      445,
      445,
      445,
      445,
      445,
      445,
      445,
      445,
      445,
      449,
      448,
      446,
      447,
      445,
      446,
      447,
      445,
      445,
      446,
      444,
      446,
      444,
      447,
      443,
      445,
      444,
      445,
      445,
      446,
      446,
      446,
      447,
      447,
      447,
      447,
      447,
      447,
      446,
      445,
      445,
      444,
      443,
      443,
      443,
      442,
      442,
      441,
      440,
      439,
      440,
      441,
      442,
      443,
      445,
      446,
      447,
      448,
      456,
      456,
      459,
      461,
      462,
      462,
      462,
      461,
      461,
      461,
      460,
      461,
      458,
      458,
      457,
      453,
      453,
      450,
      448,
      448,
      447,
      447,
      447,
      447,
      447,
      453,
      457,
      458,
      458,
      458,
      458,
      457,
      457,
      452,
      451,
      449,
      448,
      446,
      445,
      440,
      424,
      414,
      403,
      390,
      384,
      368,
      365,
      356,
      354,
      347,
      344,
      338,
      327,
      300,
      287,
      272,
      258,
      246,
      243,
      245,
      225,
      221,
      218,
      220,
      218,
      191,
      181,
      145,
      141,
      139,
      138
    ],
    "swim:timestamps": [
      1784845772,
      1784845832,
      1784845873,
      1784845892,
      1784845933,
      1784845952,
      1784846053,
      1784846113,
      1784846171,
      1784846231,
      1784846352,
      1784846412,
      1784846472,
      1784846532,
      1784846592,
      1784846712,
      1784846772,
      1784847012,
      1784847073,
      1784847133,
      1784847193,
      1784847253,
      1784847313,
      1784847373,
      1784847493,
      1784847553,
      1784847613,
      1784847673,
      1784847733,
      1784847854,
      1784847914,
      1784847974,
      1784848034,
      1784848094,
      1784848154,
      1784848214,
      1784848515,
      1784848575,
      1784848695,
      1784848815,
      1784848875,
      1784848976,
      1784848995,
      1784849115,
      1784849156,
      1784849175,
      1784849312,
      1784849356,
      1784849372,
      1784849416,
      1784849432,
      1784849476,
      1784849493,
      1784849553,
      1784849613,
      1784849656,
      1784849673,
      1784849733,
      1784849776,
      1784849793,
      1784849896,
      1784849913,
      1784849956,
      1784850017,
      1784850033,
      1784850077,
      1784850093,
      1784850153,
      1784850197,
      1784850274,
      1784850317,
      1784850334,
      1784850394,
      1784850454,
      1784850514,
      1784850574,
      1784850634,
      1784850694,
      1784850754,
      1784850814,
      1784850874,
      1784850935,
      1784850995,
      1784851055,
      1784851115,
      1784851175,
      1784851235,
      1784851355,
      1784851415,
      1784851475,
      1784851535,
      1784851595,
      1784851656,
      1784851716,
      1784851776,
      1784851836,
      1784851896,
      1784851956,
      1784852016,
      1784852136,
      1784852196,
      1784852256,
      1784852316,
      1784852437,
      1784852497,
      1784852557,
      1784852619,
      1784852679,
      1784852739,
      1784852799,
      1784852859,
      1784852919,
      1784853039,
      1784853099,
      1784853159,
      1784853220,
      1784853318,
      1784853340,
      1784853400,
      1784853438,
      1784853460,
      1784853498,
      1784853520,
      1784853580,
      1784853618,
      1784853640,
      1784853678,
      1784853700,
      1784853760,
      1784853798,
      1784853820,
      1784853858,
      1784853919,
      1784853941,
      1784853979,
      1784854039,
      1784854061,
      1784854099,
      1784854121,
      1784854181,
      1784854219,
      1784854241,
      1784854279,
      1784854301,
      1784854339,
      1784854361,
      1784854399,
      1784854421,
      1784854481,
      1784854519,
      1784854541,
      1784854579,
      1784854602,
      1784854639,
      1784854662,
      1784854700,
      1784854722,
      1784854760,
      1784854820,
      1784854832,
      1784854842,
      1784854880,
      1784854952,
      1784855012,
      1784855060,
      1784855072,
      1784855120,
      1784855132,
      1784855180,
      1784855252,
      1784855360,
      1784855373,
      1784855421,
      1784855433,
      1784855481,
      1784855493,
      1784855553,
      1784855601,
      1784855613,
      1784855673,
      1784855721,
      1784855733,
      1784855781,
      1784855793,
      1784855841,
      1784855853,
      1784855901,
      1784855913,
      1784855973,
      1784856021,
      1784856033,
      1784856081,
      1784856094,
      1784856136,
      1784856154,
      1784856202,
      1784856257,
      1784856274,
      1784856317,
      1784856334,
      1784856377,
      1784856394,
      1784856437,
      1784856454,
      1784856497,
      1784856514,
      1784856557,
      1784856574,
      1784856622,
      1784856634,
      1784856677,
      1784856694,
      1784856737,
      1784856754,
      1784856802,
      1784856814,
      1784856857,
      1784856875,
      1784856918,
      1784856935,
      1784856983,
      1784856995,
      1784857031,
      1784857038,
      1784857091,
      1784857158,
      1784857211,
      1784857278,
      1784857338,
      1784857398,
      1784857518,
      1784857578,
      1784857639,
      1784857692,
      1784857699,
      1784857752,
      1784857759,
      1784857819,
      1784857879,
      1784857932,
      1784857939,
      1784857999,
      1784858059,
      1784858112,
      1784858119,
      1784858179,
      1784858229,
      1784858292,
      1784858300,
      1784858360,
      1784858410,
      1784858420,
      1784858480,
      1784858530,
      1784858540,
      1784858600,
      1784858660,
      1784858720,
      1784858770,
      1784858830,
      1784858890,
      1784858950,
      1784859071,
      1784859131,
      1784859191,
      1784859251,
      1784859311,
      1784859371,
      1784859611,
      1784859671,
      1784859731,
      1784859791,
      1784859912,
      1784859972,
      1784860092,
      1784860212,
      1784860231,
      1784860285,
      1784860332,
      1784860345,
      1784860411,
      1784860466,
      1784860531,
      1784860572,
      1784860586,
      1784860633,
      1784860651,
      1784860693,
      1784860711,
      1784860753,
      1784860772,
      1784860813,
      1784860826,
      1784860873,
      1784860885,
      1784860951,
      1784861005,
      1784861011,
      1784861065,
      1784861125,
      1784861185,
      1784861191,
      1784861245,
      1784861252,
      1784861305,
      1784861312
    ],
    "wof:geomhash": "99c660dedd9f5bf71b6924e8e5f87ba6",
    "wof:id": 2031940775,
    "wof:repo": "sfomuseum-data-flights-2026-07"
  },
  "bbox": [
    -122.33333333333333,
    33.65,
    -84.46666666666667,
    37.99166666666667
  ],
  "geometry": {"coordinates":[[-84.46666666666667,33.65],[-84.53333333333333,33.666666666666664],[-84.57722222222222,33.66888888888889],[-84.61666666666666,33.68333333333333],[-84.665,33.68416666666666],[-84.7,33.68333333333333],[-84.85111111111111,33.71638888888889],[-84.96083333333334,33.7475],[-85.06722222222221,33.776944444444446],[-85.18583333333333,33.81111111111111],[-85.41333333333334,33.87583333333333],[-85.5275,33.909444444444446],[-85.64166666666668,33.940555555555555],[-85.76138888888889,33.974444444444444],[-85.88694444444445,34.009166666666665],[-86.14500000000001,34.07472222222223],[-86.28,34.098888888888894],[-86.8411111111111,34.218333333333334],[-86.99138888888889,34.23416666666667],[-87.13944444444445,34.250277777777775],[-87.29388888888889,34.26694444444444],[-87.45361111111112,34.283055555555556],[-87.61583333333333,34.29972222222222],[-87.77583333333334,34.315555555555555],[-88.09277777777777,34.34722222222222],[-88.24972222222222,34.362500000000004],[-88.40944444444445,34.37777777777778],[-88.56638888888888,34.39277777777778],[-88.72500000000001,34.4075],[-89.03361111111111,34.43583333333333],[-89.18833333333333,34.44944444444444],[-89.34583333333333,34.46333333333334],[-89.50194444444445,34.47694444444445],[-89.66083333333334,34.49055555555556],[-89.82111111111111,34.50388888888889],[-89.97972222222222,34.51722222222222],[-90.77722222222222,34.580000000000005],[-90.9375,34.591944444444444],[-91.255,34.61527777777778],[-91.57583333333334,34.63777777777778],[-91.735,34.64833333333333],[-91.98666666666666,34.665277777777774],[-92.05055555555555,34.66916666666666],[-92.36083333333333,34.70388888888889],[-92.45694444444445,34.717777777777776],[-92.51666666666667,34.72638888888889],[-92.8625,34.77472222222222],[-92.98722222222223,34.79222222222222],[-93.02,34.79666666666667],[-93.14361111111111,34.81388888888888],[-93.17555555555556,34.818333333333335],[-93.30166666666666,34.83583333333333],[-93.33527777777778,34.84055555555556],[-93.4925,34.86138888888889],[-93.65166666666667,34.882777777777775],[-93.76666666666667,34.897777777777776],[-93.77722222222222,34.899166666666666],[-93.96833333333333,34.92444444444444],[-94.08111111111111,34.93888888888888],[-94.12472222222222,34.94444444444444],[-94.37583333333333,34.97666666666667],[-94.43388888888889,34.98416666666667],[-94.53194444444445,34.99638888888889],[-94.71277777777777,35.01888888888889],[-94.7461111111111,35.02361111111111],[-94.86583333333333,35.040277777777774],[-94.89805555555556,35.04472222222222],[-95.05055555555555,35.06527777777777],[-95.1713888888889,35.08166666666667],[-95.36305555555555,35.106944444444444],[-95.48388888888888,35.1225],[-95.52111111111111,35.12722222222222],[-95.67750000000001,35.14527777777778],[-95.83805555555556,35.16416666666667],[-96.00194444444445,35.18333333333333],[-96.1613888888889,35.20166666666667],[-96.32083333333333,35.2175],[-96.48111111111112,35.22972222222222],[-96.63611111111112,35.24277777777778],[-96.79222222222222,35.25555555555555],[-96.94833333333334,35.268055555555556],[-97.10805555555555,35.28055555555555],[-97.24083333333333,35.29083333333333],[-97.40055555555556,35.30305555555555],[-97.5611111111111,35.315],[-97.72,35.32638888888889],[-97.87888888888888,35.33833333333334],[-98.19111111111111,35.39361111111111],[-98.34388888888888,35.42055555555555],[-98.49944444444445,35.4475],[-98.65583333333333,35.474722222222226],[-98.81,35.50111111111111],[-98.965,35.527499999999996],[-99.12027777777777,35.553888888888885],[-99.27388888888889,35.57944444444445],[-99.42555555555556,35.60472222222222],[-99.57972222222222,35.63],[-99.73222222222222,35.655],[-99.88444444444445,35.67972222222222],[-100.18861111111111,35.72805555555556],[-100.33999999999999,35.75222222222222],[-100.49416666666667,35.77638888888889],[-100.64611111111111,35.79972222222222],[-100.94555555555556,35.845555555555556],[-101.095,35.868611111111115],[-101.24527777777777,35.89611111111111],[-101.39361111111111,35.92805555555555],[-101.5425,35.95722222222223],[-101.69083333333333,35.986666666666665],[-101.83944444444444,36.01611111111111],[-101.98833333333333,36.044999999999995],[-102.13777777777779,36.07416666666667],[-102.43694444444445,36.13166666666667],[-102.58583333333333,36.16],[-102.73611111111111,36.18861111111111],[-102.88777777777779,36.216944444444444],[-103.14444444444445,36.26416666666667],[-103.2075,36.27055555555555],[-103.3625,36.283055555555556],[-103.45916666666668,36.29111111111111],[-103.52027777777778,36.296388888888885],[-103.61555555555555,36.30416666666667],[-103.67666666666668,36.30583333333333],[-103.835,36.30972222222222],[-103.93138888888889,36.31111111111111],[-103.99166666666667,36.31194444444444],[-104.08916666666666,36.3125],[-104.14777777777779,36.309999999999995],[-104.30111111111111,36.30444444444444],[-104.40333333333334,36.30083333333333],[-104.455,36.294444444444444],[-104.55499999999999,36.2725],[-104.71138888888889,36.278888888888886],[-104.76083333333334,36.282777777777774],[-104.865,36.29138888888889],[-105.01166666666667,36.30333333333333],[-105.07,36.308611111111105],[-105.16583333333334,36.316944444444445],[-105.22361111111111,36.32222222222222],[-105.37222222222222,36.35277777777778],[-105.46527777777779,36.37638888888889],[-105.51805555555555,36.39805555555556],[-105.58361111111111,36.471111111111114],[-105.60527777777777,36.507777777777775],[-105.64972222222222,36.583333333333336],[-105.67416666666666,36.625],[-105.7175,36.698611111111106],[-105.74333333333334,36.74305555555556],[-105.8286111111111,36.85],[-105.91277777777778,36.89083333333333],[-105.96833333333333,36.90361111111111],[-106.06666666666666,36.91777777777777],[-106.11388888888888,36.92444444444444],[-106.21333333333334,36.93833333333333],[-106.27416666666666,36.94694444444444],[-106.36527777777778,36.959722222222226],[-106.42583333333334,36.968333333333334],[-106.51583333333333,36.98111111111111],[-106.66861111111112,37.0025],[-106.69166666666668,37.00694444444444],[-106.7286111111111,37.01083333333333],[-106.82305555555556,37.02361111111111],[-106.99972222222222,37.04888888888889],[-107.15444444444445,37.06944444444445],[-107.2825,37.086111111111116],[-107.30833333333334,37.09027777777778],[-107.43694444444445,37.10638888888889],[-107.46388888888889,37.10916666666667],[-107.58833333333332,37.12638888888889],[-107.77,37.14972222222222],[-108.04555555555555,37.184999999999995],[-108.07388888888889,37.18861111111111],[-108.19583333333334,37.20416666666667],[-108.22500000000001,37.20777777777778],[-108.34666666666666,37.223055555555554],[-108.3761111111111,37.227222222222224],[-108.53138888888888,37.245555555555555],[-108.65222222222222,37.26027777777778],[-108.68444444444445,37.263333333333335],[-108.83805555555556,37.28194444444444],[-108.95861111111111,37.29722222222222],[-108.99166666666667,37.30027777777777],[-109.11138888888888,37.315],[-109.14611111111111,37.31861111111112],[-109.26416666666667,37.33277777777778],[-109.29888888888888,37.33638888888889],[-109.41861111111112,37.35055555555556],[-109.45527777777778,37.35472222222222],[-109.61,37.37222222222222],[-109.72472222222223,37.385],[-109.76388888888889,37.38944444444444],[-109.87777777777777,37.401944444444446],[-109.91722222222222,37.406388888888884],[-110.02444444444444,37.41972222222222],[-110.05805555555555,37.42166666666667],[-110.185,37.43555555555555],[-110.33333333333333,37.44972222222222],[-110.36444444444444,37.45472222222222],[-110.4863888888889,37.46666666666667],[-110.51722222222222,37.47083333333334],[-110.64,37.48361111111111],[-110.70138888888889,37.49],[-110.7936111111111,37.49916666666667],[-110.85472222222222,37.50555555555555],[-110.94861111111112,37.51611111111111],[-111.01,37.52361111111111],[-111.10222222222221,37.53444444444444],[-111.16333333333334,37.541666666666664],[-111.2625,37.55361111111111],[-111.31833333333333,37.559999999999995],[-111.41166666666668,37.57083333333334],[-111.4738888888889,37.57777777777778],[-111.56638888888888,37.58833333333334],[-111.62666666666667,37.59527777777778],[-111.72555555555556,37.60666666666667],[-111.78055555555555,37.611111111111114],[-111.87527777777777,37.60527777777778],[-111.935,37.59583333333334],[-112.02638888888889,37.581388888888895],[-112.08638888888889,37.57166666666667],[-112.18277777777779,37.55694444444444],[-112.2388888888889,37.54833333333333],[-112.33027777777778,37.53444444444444],[-112.33027777777778,37.53444444444444],[-112.47972222222222,37.51222222222222],[-112.63388888888889,37.489444444444445],[-112.75611111111111,37.47138888888889],[-112.94583333333334,37.4675],[-113.10083333333333,37.471111111111114],[-113.2575,37.474444444444444],[-113.56694444444445,37.486666666666665],[-113.71638888888889,37.52194444444444],[-113.86666666666666,37.558611111111105],[-113.98611111111111,37.588055555555556],[-114.01805555555555,37.59583333333334],[-114.14055555555557,37.62444444444444],[-114.17166666666667,37.63138888888889],[-114.3275,37.66638888888889],[-114.4825,37.70111111111111],[-114.60777777777777,37.72944444444445],[-114.63916666666667,37.736666666666665],[-114.79416666666667,37.770833333333336],[-114.94972222222222,37.805277777777775],[-115.08555555555554,37.835],[-115.10749999999999,37.84],[-115.26472222222222,37.87416666666667],[-115.36527777777778,37.89805555555556],[-115.54972222222221,37.93555555555555],[-115.55222222222221,37.93611111111111],[-115.7063888888889,37.969166666666666],[-115.86166666666666,37.99166666666667],[-115.86166666666666,37.99166666666667],[-116.0213888888889,37.98888888888889],[-116.17666666666668,37.985],[-116.17666666666668,37.985],[-116.335,37.98111111111111],[-116.49111111111111,37.9775],[-116.65027777777779,37.973333333333336],[-116.77583333333334,37.96944444444445],[-116.93305555555555,37.965],[-117.09555555555555,37.959722222222226],[-117.26027777777777,37.95472222222222],[-117.58638888888889,37.94361111111111],[-117.74916666666667,37.937777777777775],[-117.90916666666668,37.93138888888889],[-118.07194444444444,37.92527777777777],[-118.23222222222222,37.91888888888889],[-118.39166666666668,37.91222222222222],[-119.03527777777778,37.865],[-119.19361111111111,37.84666666666667],[-119.34888888888888,37.82833333333333],[-119.5038888888889,37.80972222222222],[-119.81472222222222,37.7725],[-119.9675,37.75388888888889],[-120.27583333333334,37.71555555555556],[-120.56916666666666,37.67972222222222],[-120.61666666666666,37.666666666666664],[-120.75,37.666666666666664],[-120.84916666666666,37.64666666666667],[-120.88333333333334,37.65],[-121.01666666666667,37.63333333333333],[-121.13333333333334,37.61666666666667],[-121.26666666666667,37.583333333333336],[-121.34972222222221,37.58277777777778],[-121.38333333333334,37.583333333333336],[-121.46944444444445,37.56888888888889],[-121.51666666666667,37.56666666666667],[-121.58388888888888,37.55555555555555],[-121.61666666666666,37.55],[-121.68277777777779,37.536944444444444],[-121.71666666666667,37.53333333333333],[-121.77333333333333,37.51555555555556],[-121.8,37.516666666666666],[-121.85305555555556,37.49583333333334],[-121.86666666666666,37.5],[-121.96666666666667,37.5],[-122.0286111111111,37.499722222222225],[-122.03333333333333,37.5],[-122.10388888888889,37.50694444444444],[-122.17083333333333,37.535],[-122.23305555555555,37.561388888888885],[-122.23333333333333,37.56666666666667],[-122.28138888888888,37.58166666666667],[-122.28333333333333,37.583333333333336],[-122.32444444444444,37.599722222222226],[-122.33333333333333,37.6]],"type":"LineString"}
}
