{
  "id": 2032024993,
  "type": "Feature",
  "properties": {
    "geom:area": 0,
    "geom:bbox": "-122.543300,37.357170,-121.250110,37.667740",
    "geom:latitude": 37.4271985498132,
    "geom:longitude": -121.99993009484413,
    "src:alt_label": "swim-takeoff",
    "src:geom": "swim",
    "swim:elevations": [
      265,
      655,
      927,
      1349,
      1811,
      2641,
      3125,
      3284,
      3475,
      3604,
      3842,
      3963,
      4250,
      4402,
      4692,
      4740,
      4896,
      5082,
      5299,
      5730,
      6129,
      6282,
      6327,
      6464,
      6677
    ],
    "swim:geom": "takeoff",
    "swim:timestamps": [
      1785365814,
      1785365845,
      1785365872,
      1785365938,
      1785365993,
      1785366048,
      1785366086,
      1785366108,
      1785366138,
      1785366157,
      1785366181,
      1785366191,
      1785366238,
      1785366259,
      1785366297,
      1785366304,
      1785366332,
      1785366360,
      1785366388,
      1785366448,
      1785366508,
      1785366537,
      1785366544,
      1785366568,
      1785366601
    ],
    "wof:geomhash": "e8da3c54d68214ef6515d619513734cd",
    "wof:id": 2032024993,
    "wof:repo": "sfomuseum-data-flights-2026-07"
  },
  "bbox": [
    -122.5433,
    37.35717,
    -121.25011,
    37.66774
  ],
  "geometry": {"coordinates":[[-122.3914,37.62562],[-122.41524,37.63587],[-122.43703,37.64543],[-122.49717,37.66774],[-122.5433,37.62109],[-122.50634,37.55294],[-122.48187,37.50527],[-122.45746,37.47919],[-122.40745,37.45123],[-122.37339,37.43239],[-122.32795,37.41053],[-122.30709,37.40568],[-122.20323,37.38485],[-122.15264,37.37485],[-122.06353,37.35833],[-122.04588,37.35717],[-121.97451,37.35839],[-121.90277,37.3601],[-121.83129,37.36172],[-121.67102,37.36518],[-121.50966,37.3688],[-121.42875,37.37049],[-121.41,37.37081],[-121.3429,37.37209],[-121.25011,37.37381]],"type":"LineString"}
}
