{
  "id": 2032054349,
  "type": "Feature",
  "properties": {
    "geom:area": 0,
    "geom:bbox": "-122.559230,36.723840,-121.445930,37.668250",
    "geom:latitude": 37.21874971178443,
    "geom:longitude": -122.07750010028207,
    "src:alt_label": "swim-takeoff",
    "src:geom": "swim",
    "swim:elevations": [
      183,
      927,
      1055,
      1165,
      1529,
      2149,
      2417,
      3387,
      3705,
      4055,
      4258,
      4612,
      5251,
      5646,
      5911,
      6386,
      6655,
      7010,
      7010,
      7010,
      7010,
      7010,
      7010,
      7010,
      7010,
      7010,
      7010,
      7010,
      7010,
      7010
    ],
    "swim:geom": "takeoff",
    "swim:timestamps": [
      1785539728,
      1785539780,
      1785539796,
      1785539808,
      1785539833,
      1785539878,
      1785539896,
      1785539967,
      1785539994,
      1785540015,
      1785540033,
      1785540062,
      1785540115,
      1785540148,
      1785540172,
      1785540213,
      1785540238,
      1785540297,
      1785540352,
      1785540384,
      1785540413,
      1785540422,
      1785540452,
      1785540501,
      1785540535,
      1785540565,
      1785540582,
      1785540605,
      1785540628,
      1785540633
    ],
    "wof:geomhash": "0a143109ce3f67a100b3db1c7645bc81",
    "wof:id": 2032054349,
    "wof:repo": "sfomuseum-data-flights-2026-07"
  },
  "bbox": [
    -122.55923,
    36.72384,
    -121.44593,
    37.66825
  ],
  "geometry": {"coordinates":[[-122.38231,37.62175],[-122.42818,37.64216],[-122.44504,37.64961],[-122.45946,37.65565],[-122.49121,37.66825],[-122.55173,37.64591],[-122.55923,37.62346],[-122.50413,37.5378],[-122.48011,37.50099],[-122.45505,37.47539],[-122.42789,37.45485],[-122.38452,37.42314],[-122.30252,37.36317],[-122.24924,37.32408],[-122.21114,37.29608],[-122.1445,37.24658],[-122.10272,37.21561],[-122.00452,37.14278],[-121.91145,37.07345],[-121.85798,37.03354],[-121.80965,36.99747],[-121.79467,36.98628],[-121.74482,36.94886],[-121.66402,36.8881],[-121.60811,36.84606],[-121.55818,36.80848],[-121.52891,36.78646],[-121.49248,36.75888],[-121.45373,36.72972],[-121.44593,36.72384]],"type":"LineString"}
}
