{
  "id": 2032054097,
  "type": "Feature",
  "properties": {
    "geom:area": 0,
    "geom:bbox": "-122.416667,37.650000,-70.770278,44.525833",
    "geom:latitude": 42.745929068952584,
    "geom:longitude": -92.34285544642961,
    "src:alt_label": "swim-path",
    "src:geom": "swim",
    "swim:altitudes": [
      "019",
      "031",
      "035",
      "043",
      "060",
      "081",
      "100",
      "112",
      "124",
      "139",
      "150",
      "169",
      "181",
      "208",
      "217",
      "227",
      "239",
      "243",
      "248",
      "256",
      "265",
      "275",
      "283",
      "290C",
      "290C",
      "290C",
      "290C",
      "290C",
      "290C",
      "290C",
      "290C",
      "290C",
      "290C",
      "290C",
      "290C",
      "290C",
      "290C",
      "290C",
      "290C",
      "290C",
      "290C",
      "290C",
      "290C",
      "290C",
      "290C",
      "290C",
      "290C",
      "290C",
      "290C",
      "290C",
      "290C",
      "290C",
      "294",
      "310C",
      "310C",
      "310C",
      "310C",
      "310C",
      "310C",
      "310C",
      "310C",
      "310C",
      "310C",
      "310C",
      "310C",
      "310C",
      "310C",
      "310C",
      "310C",
      "310C",
      "310C",
      "310C",
      "310C",
      "310C",
      "310C",
      "310C",
      "310C",
      "310C",
      "310C",
      "310C",
      "310C",
      "310C",
      "310C",
      "310C",
      "310C",
      "310C",
      "310C",
      "310C",
      "310C",
      "310C",
      "310C",
      "310C",
      "310C",
      "310C",
      "310",
      "310",
      "318",
      "324",
      "326",
      "330C",
      "330C",
      "330C",
      "330C",
      "330C",
      "330C",
      "330C",
      "330C",
      "330C",
      "330C",
      "330C",
      "330C",
      "330C",
      "330C",
      "330C",
      "330C",
      "330C",
      "330C",
      "330C",
      "330C",
      "330C",
      "330C",
      "330C",
      "330C",
      "330C",
      "330C",
      "330C",
      "330C",
      "330C",
      "330C",
      "330C",
      "330C",
      "330C",
      "330C",
      "330C",
      "330C",
      "330C",
      "330C",
      "330C",
      "330C",
      "330C",
      "330C",
      "330C",
      "330C",
      "318",
      "310C",
      "310C",
      "310C",
      "310C",
      "310C",
      "310C",
      "310C",
      "310C",
      "310",
      "310",
      "301",
      "302",
      "290C",
      "290C",
      "290C",
      "290C",
      "290C",
      "290C",
      "290C",
      "290C",
      "290C",
      "290C",
      "290",
      "292",
      "301",
      "310C",
      "310C",
      "310C",
      "310C",
      "310C",
      "310C",
      "310C",
      "310C",
      "310C",
      "310C",
      "310C",
      "310C",
      "310C",
      "310C",
      "310C",
      "310C",
      "310C",
      "310C",
      "310C",
      "310C",
      "310C",
      "310C",
      "310C",
      "310C",
      "310C",
      "310C",
      "310C",
      "310C",
      "310C",
      "310C",
      "310C",
      "310C",
      "310C",
      "310C",
      "310C",
      "310C",
      "310C",
      "310C",
      "310C",
      "310C",
      "310C",
      "310C",
      "310C",
      "310C",
      "310C",
      "310C",
      "310C",
      "310C",
      "310C",
      "310C",
      "310C",
      "310C",
      "310C",
      "310C",
      "310C",
      "310C",
      "310C",
      "310C",
      "310C",
      "310C",
      "310C",
      "310C",
      "310C",
      "310C",
      "310C",
      "310C",
      "310C",
      "310C",
      "310C",
      "310C",
      "310C",
      "310C",
      "310C",
      "310C",
      "310C",
      "310C",
      "310C",
      "310C",
      "310C",
      "310C",
      "310C",
      "310C",
      "310C",
      "310C",
      "310C",
      "310C",
      "310C",
      "310C",
      "310C",
      "310C",
      "310C",
      "310C",
      "310C",
      "310C",
      "310C",
      "310C",
      "310C",
      "310C",
      "310C",
      "310C",
      "310C",
      "310C",
      "310C",
      "310C",
      "310C",
      "310C",
      "310C",
      "310C",
      "310C",
      "310C",
      "310C",
      "310C",
      "310C",
      "310C",
      "310C",
      "310C",
      "310C",
      "310C",
      "303",
      "301",
      "294",
      "292C",
      "290C",
      "290C",
      "290C",
      "290C",
      "290C",
      "290C",
      "290C",
      "290C",
      "290C",
      "290C",
      "290C",
      "290C",
      "290C",
      "290C",
      "290",
      "290",
      "290",
      "277",
      "252",
      "230",
      "218",
      "195",
      "176",
      "166",
      "157",
      "138",
      "121",
      "111",
      "101",
      "091",
      "075",
      "070",
      "062",
      "060",
      "059",
      "050",
      "044",
      "040",
      "028",
      "017",
      "005",
      "006",
      "019",
      "038",
      "042",
      "071",
      "092",
      "108",
      "115",
      "134",
      "154",
      "171",
      "185",
      "200",
      "212",
      "223",
      "232",
      "243",
      "254",
      "277",
      "291",
      "298C",
      "300C",
      "300C",
      "300",
      "312",
      "326",
      "337",
      "340C",
      "340C",
      "340C",
      "340C",
      "340C",
      "340C",
      "340C",
      "340C",
      "340C",
      "340C",
      "340C",
      "340C",
      "340C",
      "340C",
      "340C",
      "340C",
      "340C",
      "340C",
      "340C",
      "340C",
      "340C",
      "340C",
      "340C",
      "340C",
      "340C",
      "340C",
      "340C",
      "340C",
      "340C",
      "340C",
      "340C",
      "340C",
      "340C",
      "340C",
      "340C",
      "340C",
      "340C",
      "340C",
      "340C",
      "340C",
      "340C",
      "340C",
      "340C",
      "340C",
      "340C",
      "340C",
      "340C",
      "340C",
      "340C",
      "340C",
      "340C",
      "340C",
      "340C",
      "340C",
      "340C",
      "340C",
      "340C",
      "340C",
      "340C",
      "340C",
      "340C",
      "340C",
      "340C",
      "340C",
      "340C",
      "340C",
      "340C",
      "340C",
      "340C",
      "340C",
      "340C",
      "335",
      "325",
      "320C",
      "320C",
      "320C",
      "320C",
      "320C",
      "320",
      "311",
      "310",
      "310",
      "310",
      "310",
      "310",
      "299",
      "275",
      "252",
      "229",
      "205",
      "201",
      "191",
      "180",
      "168",
      "146",
      "131",
      "114",
      "110",
      "101",
      "100",
      "100",
      "098",
      "084",
      "071",
      "070",
      "070",
      "070",
      "070",
      "070",
      "070",
      "070",
      "065",
      "051",
      "040",
      "040",
      "040",
      "040",
      "040",
      "037",
      "028",
      "019",
      "012",
      "007"
    ],
    "swim:geom": "path",
    "swim:speeds": [
      184,
      211,
      228,
      251,
      280,
      299,
      305,
      343,
      372,
      388,
      401,
      407,
      419,
      433,
      444,
      454,
      456,
      461,
      475,
      490,
      499,
      499,
      505,
      505,
      504,
      502,
      502,
      506,
      503,
      503,
      503,
      504,
      508,
      509,
      511,
      512,
      513,
      514,
      514,
      513,
      511,
      508,
      507,
      506,
      507,
      508,
      510,
      511,
      512,
      513,
      513,
      513,
      512,
      513,
      509,
      510,
      515,
      517,
      518,
      519,
      518,
      519,
      519,
      519,
      519,
      519,
      519,
      522,
      523,
      523,
      523,
      522,
      522,
      522,
      522,
      520,
      522,
      520,
      522,
      520,
      522,
      525,
      522,
      524,
      522,
      522,
      520,
      513,
      510,
      507,
      506,
      505,
      504,
      504,
      504,
      505,
      505,
      502,
      501,
      501,
      502,
      503,
      504,
      505,
      505,
      505,
      504,
      503,
      503,
      502,
      501,
      501,
      500,
      500,
      499,
      499,
      499,
      500,
      500,
      500,
      499,
      499,
      498,
      497,
      495,
      492,
      489,
      485,
      483,
      483,
      483,
      492,
      483,
      483,
      484,
      485,
      485,
      485,
      485,
      486,
      486,
      487,
      487,
      487,
      486,
      485,
      486,
      486,
      487,
      487,
      488,
      488,
      488,
      488,
      489,
      488,
      490,
      484,
      482,
      482,
      481,
      481,
      481,
      481,
      482,
      480,
      479,
      478,
      486,
      486,
      485,
      483,
      481,
      477,
      475,
      474,
      472,
      471,
      474,
      480,
      482,
      484,
      480,
      481,
      483,
      485,
      487,
      489,
      489,
      489,
      488,
      487,
      487,
      486,
      485,
      485,
      484,
      483,
      482,
      480,
      479,
      478,
      479,
      487,
      489,
      492,
      498,
      499,
      500,
      500,
      499,
      500,
      500,
      502,
      504,
      506,
      507,
      508,
      509,
      511,
      511,
      511,
      511,
      513,
      514,
      515,
      515,
      515,
      512,
      506,
      504,
      501,
      501,
      502,
      503,
      503,
      503,
      503,
      504,
      504,
      505,
      506,
      507,
      508,
      509,
      509,
      509,
      509,
      509,
      509,
      509,
      509,
      509,
      509,
      509,
      510,
      505,
      499,
      509,
      512,
      506,
      505,
      504,
      497,
      495,
      494,
      493,
      490,
      489,
      489,
      490,
      491,
      491,
      491,
      491,
      491,
      490,
      490,
      490,
      490,
      490,
      490,
      489,
      489,
      489,
      489,
      489,
      482,
      483,
      483,
      483,
      487,
      486,
      488,
      488,
      487,
      487,
      489,
      489,
      488,
      485,
      483,
      482,
      475,
      473,
      472,
      471,
      472,
      472,
      461,
      453,
      421,
      406,
      380,
      370,
      370,
      357,
      343,
      313,
      301,
      297,
      296,
      295,
      292,
      259,
      243,
      230,
      227,
      194,
      187,
      197,
      164,
      157,
      215,
      259,
      254,
      253,
      266,
      303,
      367,
      386,
      392,
      409,
      423,
      431,
      441,
      450,
      459,
      462,
      464,
      463,
      461,
      456,
      469,
      471,
      470,
      467,
      451,
      444,
      445,
      454,
      454,
      453,
      454,
      451,
      453,
      450,
      451,
      457,
      456,
      460,
      460,
      464,
      464,
      466,
      466,
      468,
      468,
      468,
      467,
      467,
      467,
      467,
      467,
      466,
      466,
      465,
      464,
      463,
      463,
      462,
      462,
      461,
      461,
      460,
      460,
      461,
      460,
      459,
      458,
      457,
      456,
      454,
      453,
      452,
      453,
      453,
      441,
      439,
      438,
      436,
      434,
      434,
      433,
      433,
      432,
      432,
      432,
      431,
      429,
      426,
      425,
      426,
      427,
      428,
      429,
      430,
      430,
      433,
      434,
      434,
      432,
      446,
      449,
      449,
      450,
      449,
      448,
      438,
      439,
      441,
      442,
      441,
      442,
      442,
      440,
      429,
      420,
      409,
      361,
      347,
      343,
      337,
      320,
      314,
      306,
      307,
      307,
      299,
      301,
      281,
      274,
      268,
      265,
      265,
      274,
      275,
      254,
      234,
      233,
      204,
      197,
      166,
      178,
      187,
      191,
      198,
      182,
      176,
      153,
      134,
      134
    ],
    "swim:timestamps": [
      1785507494,
      1785507541,
      1785507554,
      1785507601,
      1785507661,
      1785507721,
      1785507781,
      1785507841,
      1785507901,
      1785507961,
      1785508021,
      1785508081,
      1785508141,
      1785508262,
      1785508322,
      1785508382,
      1785508442,
      1785508500,
      1785508560,
      1785508620,
      1785508680,
      1785508740,
      1785508802,
      1785508920,
      1785508982,
      1785509040,
      1785509103,
      1785509160,
      1785509220,
      1785509281,
      1785509401,
      1785509461,
      1785509521,
      1785509581,
      1785509643,
      1785509703,
      1785509761,
      1785509823,
      1785509881,
      1785509941,
      1785510002,
      1785510062,
      1785510124,
      1785510182,
      1785510242,
      1785510302,
      1785510362,
      1785510422,
      1785510482,
      1785510542,
      1785510602,
      1785510662,
      1785510722,
      1785510843,
      1785511083,
      1785511143,
      1785511203,
      1785511263,
      1785511323,
      1785511383,
      1785511443,
      1785511564,
      1785511624,
      1785511684,
      1785511744,
      1785511804,
      1785511864,
      1785511924,
      1785511984,
      1785512044,
      1785512104,
      1785512164,
      1785512225,
      1785512285,
      1785512345,
      1785512377,
      1785512405,
      1785512437,
      1785512465,
      1785512497,
      1785512525,
      1785512557,
      1785512585,
      1785512617,
      1785512645,
      1785512677,
      1785512705,
      1785512737,
      1785512765,
      1785512797,
      1785512825,
      1785512857,
      1785512885,
      1785512917,
      1785512945,
      1785512977,
      1785513038,
      1785513066,
      1785513098,
      1785513126,
      1785513158,
      1785513186,
      1785513218,
      1785513246,
      1785513278,
      1785513306,
      1785513338,
      1785513366,
      1785513398,
      1785513426,
      1785513458,
      1785513486,
      1785513518,
      1785513546,
      1785513578,
      1785513638,
      1785513698,
      1785513759,
      1785513819,
      1785513879,
      1785513939,
      1785513999,
      1785514059,
      1785514119,
      1785514179,
      1785514239,
      1785514299,
      1785514359,
      1785514419,
      1785514479,
      1785514540,
      1785514593,
      1785514600,
      1785514660,
      1785514713,
      1785514720,
      1785514773,
      1785514780,
      1785514833,
      1785514893,
      1785514900,
      1785514960,
      1785515014,
      1785515140,
      1785515200,
      1785515261,
      1785515314,
      1785515321,
      1785515374,
      1785515381,
      1785515434,
      1785515441,
      1785515494,
      1785515501,
      1785515554,
      1785515561,
      1785515626,
      1785515681,
      1785515747,
      1785515807,
      1785515867,
      1785515927,
      1785515987,
      1785516047,
      1785516107,
      1785516167,
      1785516227,
      1785516287,
      1785516347,
      1785516420,
      1785516480,
      1785516540,
      1785516600,
      1785516660,
      1785516720,
      1785516780,
      1785516840,
      1785516900,
      1785516960,
      1785517020,
      1785517080,
      1785517141,
      1785517261,
      1785517321,
      1785517381,
      1785517441,
      1785517501,
      1785517561,
      1785517621,
      1785517681,
      1785517741,
      1785517802,
      1785517862,
      1785517922,
      1785517982,
      1785518042,
      1785518102,
      1785518162,
      1785518222,
      1785518282,
      1785518342,
      1785518402,
      1785518462,
      1785518523,
      1785518583,
      1785518643,
      1785518703,
      1785518763,
      1785518823,
      1785518883,
      1785518955,
      1785519015,
      1785519075,
      1785519135,
      1785519195,
      1785519256,
      1785519316,
      1785519376,
      1785519436,
      1785519496,
      1785519556,
      1785519616,
      1785519676,
      1785519736,
      1785519796,
      1785519856,
      1785519916,
      1785519977,
      1785520037,
      1785520109,
      1785520169,
      1785520229,
      1785520289,
      1785520349,
      1785520409,
      1785520469,
      1785520529,
      1785520589,
      1785520649,
      1785520710,
      1785520770,
      1785520830,
      1785520890,
      1785520950,
      1785521010,
      1785521218,
      1785521278,
      1785521338,
      1785521398,
      1785521458,
      1785521518,
      1785521639,
      1785521699,
      1785521759,
      1785521819,
      1785521879,
      1785521939,
      1785521999,
      1785522059,
      1785522119,
      1785522180,
      1785522240,
      1785522300,
      1785522360,
      1785522420,
      1785522474,
      1785522480,
      1785522540,
      1785522594,
      1785522600,
      1785522654,
      1785522660,
      1785522714,
      1785522720,
      1785522774,
      1785522781,
      1785522841,
      1785522901,
      1785522955,
      1785522961,
      1785523015,
      1785523021,
      1785523081,
      1785523135,
      1785523141,
      1785523195,
      1785523201,
      1785523255,
      1785523261,
      1785523315,
      1785523321,
      1785523375,
      1785523381,
      1785523435,
      1785523495,
      1785523502,
      1785523562,
      1785523616,
      1785523676,
      1785523736,
      1785523796,
      1785523856,
      1785523916,
      1785523976,
      1785524036,
      1785524096,
      1785524156,
      1785524216,
      1785524277,
      1785524337,
      1785524397,
      1785524457,
      1785524517,
      1785524577,
      1785524603,
      1785524637,
      1785524697,
      1785524757,
      1785524817,
      1785524877,
      1785524938,
      1785524998,
      1785525054,
      1785525114,
      1785525174,
      1785525238,
      1785525294,
      1785525354,
      1785525418,
      1785525478,
      1785525538,
      1785525599,
      1785538388,
      1785538442,
      1785538497,
      1785538505,
      1785538565,
      1785538625,
      1785538685,
      1785538745,
      1785538805,
      1785538865,
      1785538926,
      1785538986,
      1785539046,
      1785539106,
      1785539166,
      1785539226,
      1785539286,
      1785539346,
      1785539466,
      1785539526,
      1785539587,
      1785539647,
      1785539707,
      1785539767,
      1785539827,
      1785539887,
      1785539947,
      1785540022,
      1785540067,
      1785540082,
      1785540127,
      1785540142,
      1785540187,
      1785540203,
      1785540247,
      1785540263,
      1785540308,
      1785540323,
      1785540368,
      1785540383,
      1785540428,
      1785540443,
      1785540488,
      1785540503,
      1785540548,
      1785540563,
      1785540608,
      1785540623,
      1785540668,
      1785540683,
      1785540728,
      1785540743,
      1785540788,
      1785540803,
      1785540864,
      1785540908,
      1785540924,
      1785540968,
      1785540984,
      1785541029,
      1785541044,
      1785541089,
      1785541104,
      1785541164,
      1785541224,
      1785541284,
      1785541344,
      1785541404,
      1785541465,
      1785541525,
      1785541585,
      1785541645,
      1785541705,
      1785541765,
      1785541825,
      1785541885,
      1785541945,
      1785542005,
      1785542065,
      1785542126,
      1785542138,
      1785542198,
      1785542258,
      1785542318,
      1785542378,
      1785542438,
      1785542498,
      1785542558,
      1785542618,
      1785542678,
      1785542738,
      1785542799,
      1785542859,
      1785542919,
      1785542979,
      1785543039,
      1785543099,
      1785543159,
      1785543219,
      1785543279,
      1785543340,
      1785543399,
      1785543460,
      1785543520,
      1785543580,
      1785543640,
      1785543700,
      1785543760,
      1785543820,
      1785543880,
      1785543940,
      1785544000,
      1785544061,
      1785544121,
      1785544181,
      1785544241,
      1785544301,
      1785544361,
      1785544422,
      1785544482,
      1785544542,
      1785544607,
      1785544662,
      1785544722,
      1785544782,
      1785544842,
      1785544848,
      1785544903,
      1785544962,
      1785545022,
      1785545083,
      1785545143,
      1785545203,
      1785545274,
      1785545322,
      1785545383,
      1785545448,
      1785545502,
      1785545562,
      1785545622,
      1785545683,
      1785545742,
      1785545804,
      1785545864,
      1785545924,
      1785545984,
      1785546044,
      1785546105,
      1785546163,
      1785546225
    ],
    "wof:geomhash": "1886f07aa6e0c6d5ab06194277e67744",
    "wof:id": 2032054097,
    "wof:repo": "sfomuseum-data-flights-2026-07"
  },
  "bbox": [
    -122.41666666666667,
    37.65,
    -70.77027777777778,
    44.52583333333333
  ],
  "geometry": {"coordinates":[[-122.41666666666667,37.65],[-122.39250000000001,37.66972222222222],[-122.36666666666666,37.666666666666664],[-122.31361111111111,37.68805555555555],[-122.23555555555555,37.731944444444444],[-122.15833333333335,37.788333333333334],[-122.07805555555555,37.845555555555556],[-121.99166666666667,37.90861111111111],[-121.89750000000001,37.975833333333334],[-121.795,38.04972222222222],[-121.70555555555556,38.112500000000004],[-121.57777777777777,38.20277777777778],[-121.46833333333333,38.28055555555555],[-121.23388888888888,38.43277777777777],[-121.11611111111111,38.50805555555556],[-120.99583333333334,38.58916666666667],[-120.86666666666666,38.674166666666665],[-120.76138888888889,38.74166666666667],[-120.62916666666666,38.8275],[-120.4925,38.91583333333333],[-120.35472222222222,39.00527777777778],[-120.21722222222222,39.095],[-120.05,39.20388888888889],[-119.79888888888888,39.362500000000004],[-119.62888888888888,39.47138888888889],[-119.51888888888888,39.54083333333333],[-119.3761111111111,39.630833333333335],[-119.23666666666666,39.71805555555556],[-119.09416666666667,39.806666666666665],[-118.95111111111112,39.89555555555555],[-118.66722222222222,40.07027777777778],[-118.51194444444444,40.14416666666666],[-118.34194444444444,40.192499999999995],[-118.16833333333334,40.24166666666667],[-117.99083333333333,40.291666666666664],[-117.81472222222222,40.34111111111111],[-117.64083333333333,40.38916666666667],[-117.45916666666668,40.439166666666665],[-117.28472222222221,40.48694444444445],[-117.10888888888888,40.53472222222222],[-116.93,40.58305555555556],[-116.75111111111111,40.630833333333335],[-116.57416666666666,40.67805555555555],[-116.40083333333334,40.723888888888894],[-116.22638888888889,40.76972222222222],[-116.04888888888888,40.81583333333333],[-115.87194444444444,40.86138888888889],[-115.69250000000001,40.9075],[-115.51416666666667,40.95305555555556],[-115.33416666666666,40.99888888888889],[-115.15861111111111,41.043055555555554],[-114.97972222222222,41.08722222222222],[-114.79861111111111,41.13166666666667],[-114.43166666666667,41.221111111111114],[-113.71277777777777,41.38638888888889],[-113.52833333333334,41.419999999999995],[-113.34194444444444,41.45388888888889],[-113.15416666666667,41.48722222222222],[-112.96555555555555,41.52055555555555],[-112.77777777777777,41.55333333333333],[-112.59194444444444,41.58555555555556],[-112.21611111111112,41.64972222222222],[-112.02638888888889,41.68138888888889],[-111.83749999999999,41.71277777777778],[-111.64694444444446,41.743611111111115],[-111.45805555555556,41.77444444444444],[-111.30444444444444,41.79944444444444],[-111.11222222222221,41.81944444444445],[-110.90222222222222,41.82972222222222],[-110.70694444444445,41.83861111111111],[-110.51444444444445,41.85805555555556],[-110.32694444444444,41.895833333333336],[-110.13722222222223,41.93222222222222],[-109.94944444444445,41.967222222222226],[-109.75916666666667,42.0025],[-109.68444444444445,42.0175],[-109.56861111111111,42.038333333333334],[-109.49555555555555,42.05277777777778],[-109.37888888888888,42.073888888888895],[-109.30555555555556,42.088055555555556],[-109.1875,42.10944444444445],[-109.07583333333334,42.13],[-108.99777777777778,42.14416666666666],[-108.885,42.16444444444444],[-108.80972222222222,42.17777777777778],[-108.69472222222223,42.19833333333333],[-108.61999999999999,42.21138888888889],[-108.50888888888889,42.23111111111111],[-108.43527777777778,42.24388888888889],[-108.32416666666666,42.26361111111111],[-108.25027777777778,42.27638888888889],[-108.17583333333334,42.28861111111111],[-108.06277777777777,42.30027777777777],[-107.98972222222223,42.308055555555555],[-107.87833333333333,42.319722222222225],[-107.80277777777778,42.3275],[-107.61527777777778,42.346944444444446],[-107.50166666666667,42.35861111111111],[-107.42888888888889,42.365833333333335],[-107.31722222222221,42.37916666666667],[-107.2425,42.39194444444444],[-107.1325,42.41083333333333],[-107.05972222222222,42.42305555555555],[-106.9675,42.43861111111111],[-106.87416666666665,42.45416666666667],[-106.78138888888888,42.469166666666666],[-106.6738888888889,42.48694444444445],[-106.59888888888888,42.49916666666667],[-106.49,42.516666666666666],[-106.41333333333334,42.528888888888886],[-106.30527777777777,42.546388888888885],[-106.23138888888889,42.558055555555555],[-106.12277777777777,42.57527777777778],[-106.04583333333333,42.587500000000006],[-105.93777777777778,42.60444444444445],[-105.75472222222223,42.63305555555556],[-105.56916666666666,42.66138888888889],[-105.38694444444445,42.689166666666665],[-105.20222222222222,42.716944444444444],[-105.01361111111112,42.74527777777778],[-104.82972222222222,42.7725],[-104.63916666666667,42.79972222222222],[-104.45333333333333,42.82666666666667],[-104.26833333333333,42.85277777777778],[-104.08444444444444,42.87861111111111],[-103.89972222222222,42.90416666666667],[-103.72027777777778,42.92861111111111],[-103.54027777777777,42.95277777777778],[-103.3611111111111,42.97666666666667],[-103.17861111111111,43.00083333333333],[-103.00194444444445,43.02361111111111],[-102.86277777777777,43.036944444444444],[-102.81888888888888,43.04694444444444],[-102.63916666666667,43.07],[-102.5025,43.08694444444445],[-102.45694444444445,43.09277777777778],[-102.32527777777777,43.10916666666667],[-102.27666666666667,43.115],[-102.14250000000001,43.13111111111111],[-101.95694444444445,43.15361111111111],[-101.9113888888889,43.15888888888889],[-101.7388888888889,43.17916666666667],[-101.55694444444444,43.20055555555556],[-101.19277777777778,43.242222222222225],[-101.01055555555556,43.26222222222222],[-100.82888888888888,43.28194444444444],[-100.64944444444446,43.30166666666666],[-100.64500000000001,43.30222222222222],[-100.46333333333334,43.32138888888889],[-100.46166666666667,43.32138888888889],[-100.27638888888889,43.340833333333336],[-100.27666666666667,43.340833333333336],[-100.0936111111111,43.36],[-100.09472222222222,43.36],[-99.90805555555556,43.37861111111111],[-99.9113888888889,43.37833333333333],[-99.68722222222223,43.401111111111106],[-99.54388888888889,43.414722222222224],[-99.32666666666667,43.43583333333333],[-99.14194444444445,43.45305555555556],[-98.96305555555556,43.469722222222224],[-98.77972222222222,43.486666666666665],[-98.6111111111111,43.50194444444445],[-98.42777777777778,43.51777777777777],[-98.24666666666667,43.53333333333333],[-98.06444444444445,43.549166666666665],[-97.88527777777779,43.564166666666665],[-97.70416666666667,43.57888888888889],[-97.51888888888888,43.593611111111116],[-97.2961111111111,43.61083333333333],[-97.1125,43.625],[-96.92972222222222,43.63861111111111],[-96.75055555555555,43.65361111111111],[-96.57277777777777,43.67833333333333],[-96.39416666666668,43.7025],[-96.21833333333333,43.726111111111116],[-96.05277777777778,43.77055555555555],[-95.86166666666666,43.84027777777778],[-95.69777777777779,43.901666666666664],[-95.5363888888889,43.968611111111116],[-95.3775,44.03916666666667],[-95.21972222222223,44.11027777777778],[-94.86916666666666,44.183611111111105],[-94.68166666666667,44.198055555555555],[-94.51722222222222,44.21027777777778],[-94.33083333333333,44.22361111111111],[-94.14277777777778,44.23694444444445],[-93.9538888888889,44.249722222222225],[-93.76583333333333,44.2625],[-93.57916666666667,44.275],[-93.39444444444445,44.28666666666666],[-93.20777777777778,44.29805555555556],[-93.02333333333333,44.30916666666666],[-92.7975,44.32277777777778],[-92.61388888888888,44.33305555555556],[-92.42833333333334,44.343333333333334],[-92.24,44.35333333333333],[-92.05611111111111,44.363055555555555],[-91.87027777777777,44.37222222222222],[-91.68444444444445,44.38138888888889],[-91.50166666666667,44.38972222222222],[-91.31694444444445,44.39805555555556],[-91.13083333333333,44.406388888888884],[-90.94194444444445,44.41416666666667],[-90.76444444444445,44.421388888888885],[-90.57222222222222,44.42916666666667],[-90.37694444444443,44.436388888888885],[-90.18333333333334,44.44361111111111],[-89.98916666666666,44.45027777777778],[-89.79555555555555,44.45666666666667],[-89.60166666666666,44.462500000000006],[-89.36888888888888,44.469166666666666],[-89.17194444444445,44.475],[-88.97777777777777,44.480000000000004],[-88.77916666666667,44.48444444444444],[-88.5825,44.48888888888889],[-88.38444444444445,44.49277777777778],[-88.18777777777778,44.496944444444445],[-87.98805555555556,44.5025],[-87.80222222222221,44.52583333333333],[-87.6061111111111,44.52333333333333],[-87.40666666666667,44.51],[-87.21277777777777,44.49666666666667],[-87.01277777777777,44.48277777777778],[-86.81305555555555,44.468611111111116],[-86.61611111111111,44.45416666666667],[-86.41666666666667,44.439166666666665],[-86.22305555555556,44.424166666666665],[-85.98916666666666,44.405833333333334],[-85.7975,44.390277777777776],[-85.56527777777778,44.37111111111111],[-85.37694444444443,44.355000000000004],[-85.18388888888889,44.33833333333334],[-84.98944444444444,44.321111111111115],[-84.79805555555555,44.303888888888885],[-84.60249999999999,44.28611111111111],[-84.41000000000001,44.268055555555556],[-84.21611111111112,44.249722222222225],[-84.02416666666666,44.23111111111111],[-83.82944444444443,44.21194444444445],[-83.63611111111112,44.192499999999995],[-83.44250000000001,44.1725],[-83.24777777777778,44.152499999999996],[-83.09388888888888,44.13638888888889],[-82.89666666666668,44.11527777777778],[-82.18694444444445,44.03611111111111],[-81.99361111111111,44.01361111111111],[-81.80166666666666,43.99138888888889],[-81.60944444444443,43.968333333333334],[-81.415,43.94499999999999],[-81.21777777777778,43.920833333333334],[-80.83111111111111,43.8725],[-80.68222222222222,43.85333333333333],[-80.47944444444444,43.82694444444445],[-80.28777777777778,43.80222222222222],[-80.09222222222222,43.77611111111111],[-79.90277777777779,43.750277777777775],[-79.71388888888889,43.724722222222226],[-79.52361111111111,43.69833333333333],[-79.33055555555555,43.671388888888885],[-79.13805555555557,43.64416666666666],[-78.94694444444445,43.61611111111111],[-78.75666666666666,43.58833333333334],[-78.57277777777777,43.561388888888885],[-78.38861111111112,43.53388888888889],[-78.20472222222223,43.507222222222225],[-78.20583333333333,43.506388888888885],[-78.02361111111111,43.478611111111114],[-77.83999999999999,43.45055555555556],[-77.83999999999999,43.45055555555556],[-77.6588888888889,43.42194444444444],[-77.65444444444445,43.421388888888885],[-77.47444444444444,43.393055555555556],[-77.47166666666666,43.3925],[-77.2925,43.36388888888889],[-77.28694444444444,43.36277777777778],[-77.10472222222222,43.33361111111111],[-76.89611111111111,43.29944444444444],[-76.74055555555556,43.27388888888889],[-76.71638888888889,43.269999999999996],[-76.5736111111111,43.24611111111111],[-76.53416666666666,43.239444444444445],[-76.35416666666666,43.20916666666667],[-76.2125,43.184999999999995],[-76.17305555555556,43.17833333333333],[-76.03194444444445,43.15416666666667],[-75.99722222222222,43.14805555555556],[-75.85472222222222,43.123333333333335],[-75.81944444444444,43.117222222222225],[-75.67805555555556,43.092222222222226],[-75.64083333333333,43.08555555555556],[-75.4625,43.053888888888885],[-75.4625,43.053888888888885],[-75.28472222222221,43.02222222222222],[-75.10944444444443,42.99055555555556],[-75.10666666666665,42.99],[-74.93277777777779,42.95861111111111],[-74.75194444444445,42.92472222222222],[-74.57472222222222,42.89194444444444],[-74.39444444444445,42.85805555555556],[-74.21944444444445,42.825],[-74.0611111111111,42.794999999999995],[-73.88472222222222,42.760555555555555],[-73.70805555555556,42.74611111111111],[-73.53027777777778,42.74472222222222],[-73.35027777777778,42.74333333333333],[-73.17166666666667,42.74138888888889],[-72.9713888888889,42.72416666666667],[-72.79694444444445,42.70388888888889],[-72.62444444444444,42.683611111111105],[-72.47555555555556,42.66555555555556],[-72.3086111111111,42.64472222222222],[-72.14888888888889,42.62638888888889],[-72.00638888888889,42.609722222222224],[-71.93333333333334,42.6],[-71.87138888888889,42.59277777777778],[-71.73916666666666,42.57361111111111],[-71.61222222222221,42.55333333333333],[-71.495,42.56222222222222],[-71.385,42.573055555555555],[-71.27555555555556,42.57333333333334],[-71.1675,42.534166666666664],[-71.08333333333333,42.5],[-71,42.45],[-70.91666666666667,42.38333333333333],[-70.94722222222222,42.31777777777778],[-70.96666666666667,42.25],[-71,42.2],[-71.05722222222222,42.18722222222222],[-71.06861111111111,42.23722222222222],[-71.04222222222222,42.28805555555555],[-71.02055555555556,42.33277777777778],[-70.98333333333333,42.36666666666667],[-70.91666666666667,42.36666666666667],[-70.83333333333333,42.38333333333333],[-70.82972222222222,42.38777777777778],[-70.77027777777778,42.43722222222222],[-70.795,42.50666666666667],[-70.88111111111111,42.55722222222222],[-70.98416666666667,42.61666666666667],[-71.1,42.6825],[-71.21777777777778,42.74861111111111],[-71.36027777777777,42.788333333333334],[-71.51694444444445,42.80444444444444],[-71.68055555555556,42.82027777777778],[-71.84555555555555,42.83583333333333],[-72.01694444444445,42.85194444444445],[-72.18305555555555,42.86694444444444],[-72.35388888888889,42.8825],[-72.52666666666667,42.897777777777776],[-72.86555555555555,42.926944444444445],[-73.0461111111111,42.94194444444444],[-73.21583333333334,42.95611111111111],[-73.40333333333334,42.97138888888889],[-73.58333333333333,42.98555555555556],[-73.75888888888889,42.99916666666667],[-73.93416666666667,43.0125],[-74.10499999999999,43.025277777777774],[-74.27111111111111,43.03722222222222],[-74.47555555555556,43.05166666666666],[-74.61333333333333,43.06166666666666],[-74.64861111111112,43.06361111111111],[-74.78555555555555,43.07333333333334],[-74.81972222222223,43.07472222222223],[-74.9563888888889,43.084722222222226],[-74.99111111111111,43.08694444444445],[-75.12583333333333,43.094722222222224],[-75.16222222222223,43.09444444444445],[-75.30111111111111,43.08388888888889],[-75.33972222222222,43.08083333333334],[-75.47916666666667,43.06888888888889],[-75.51444444444445,43.06583333333333],[-75.65472222222223,43.05361111111111],[-75.69361111111111,43.05027777777777],[-75.79833333333333,43.04083333333333],[-75.86861111111111,43.03444444444444],[-75.97638888888889,43.02472222222222],[-76.04472222222222,43.01861111111111],[-76.15222222222222,43.00861111111111],[-76.22027777777778,43.00222222222222],[-76.32555555555555,42.992222222222225],[-76.39888888888889,42.98555555555556],[-76.50277777777778,42.97555555555556],[-76.57305555555556,42.968611111111116],[-76.67666666666668,42.95888888888889],[-76.7461111111111,42.95194444444445],[-76.92166666666667,42.93444444444444],[-77.02416666666666,42.924166666666665],[-77.09333333333333,42.91722222222222],[-77.19638888888889,42.90694444444444],[-77.265,42.89972222222222],[-77.36888888888888,42.88916666666667],[-77.43861111111111,42.88194444444444],[-77.57249999999999,42.867777777777775],[-77.60944444444443,42.86388888888889],[-77.7725,42.84638888888889],[-77.9413888888889,42.82972222222222],[-78.11388888888888,42.83277777777778],[-78.28583333333333,42.83861111111111],[-78.45916666666668,42.84444444444445],[-78.63083333333333,42.85],[-78.79916666666666,42.85527777777778],[-78.9713888888889,42.86027777777778],[-79.14027777777778,42.865],[-79.31027777777777,42.86944444444445],[-79.48305555555555,42.87388888888889],[-79.65138888888889,42.87777777777778],[-79.81666666666666,42.88138888888889],[-79.98166666666667,42.88472222222222],[-80.14944444444446,42.88805555555555],[-80.315,42.89083333333333],[-80.47722222222222,42.89361111111111],[-80.50916666666667,42.89416666666666],[-80.67277777777778,42.896388888888886],[-80.83388888888888,42.89861111111111],[-80.99694444444445,42.900555555555556],[-81.16250000000001,42.90222222222222],[-81.32583333333334,42.90361111111111],[-81.48583333333333,42.905],[-81.64472222222223,42.905833333333334],[-81.81694444444445,42.906666666666666],[-81.97444444444444,42.907222222222224],[-82.13583333333334,42.9075],[-82.30194444444444,42.9075],[-82.46388888888889,42.907222222222224],[-82.62638888888888,42.90694444444444],[-82.79055555555556,42.906388888888884],[-82.95194444444445,42.913888888888884],[-83.08222222222221,42.983333333333334],[-83.1975,43.06916666666667],[-83.32527777777777,43.14611111111111],[-83.485,43.14861111111111],[-83.64888888888889,43.11027777777778],[-83.80194444444444,43.073888888888895],[-83.9625,43.03527777777778],[-84.12416666666665,42.99638888888889],[-84.2825,42.95777777777778],[-84.46472222222222,42.91305555555555],[-84.62333333333332,42.88027777777778],[-84.78972222222222,42.86277777777778],[-84.95444444444445,42.845555555555556],[-85.12027777777777,42.82777777777778],[-85.28416666666666,42.809999999999995],[-85.45083333333334,42.791666666666664],[-85.61638888888888,42.765277777777776],[-85.7775,42.736111111111114],[-85.93472222222222,42.70777777777778],[-86.08972222222222,42.67944444444444],[-86.24083333333333,42.65138888888889],[-86.35138888888888,42.630833333333335],[-86.4786111111111,42.60666666666667],[-86.60277777777777,42.58361111111111],[-86.73361111111112,42.558055555555555],[-86.88333333333334,42.516666666666666],[-86.98333333333333,42.5],[-87.08333333333333,42.46666666666667],[-87.2,42.43333333333333],[-87.27777777777777,42.40972222222222],[-87.31666666666666,42.4],[-87.38333333333334,42.38027777777778],[-87.5,42.35],[-87.58333333333333,42.3],[-87.64111111111112,42.237500000000004],[-87.70111111111112,42.18],[-87.76166666666667,42.1225],[-87.86666666666666,42.1],[-87.95,42.1],[-88.05083333333333,42.09166666666667],[-88.15,42.083333333333336],[-88.23333333333333,42.083333333333336],[-88.31666666666666,42.083333333333336],[-88.38333333333334,42.083333333333336],[-88.43333333333334,42.06666666666667],[-88.41666666666667,42.03333333333333],[-88.35222222222221,42.01694444444444],[-88.28333333333333,42.00277777777778],[-88.20944444444444,42.0025],[-88.13972222222223,42.0025],[-88.07555555555555,42.00277777777778],[-88.01333333333334,42.00277777777778],[-87.96666666666667,42],[-87.91305555555556,42.00277777777778]],"type":"LineString"}
}
