{
  "id": 2032054395,
  "type": "Feature",
  "properties": {
    "geom:area": 0,
    "geom:bbox": "-122.540278,35.871111,-77.474167,38.980000",
    "geom:latitude": 37.54631602079352,
    "geom:longitude": -98.62451817695884,
    "src:alt_label": "swim-path",
    "src:geom": "swim",
    "swim:altitudes": [
      "006",
      "024",
      "034",
      "043",
      "053",
      "086",
      "106",
      "127",
      "151",
      "149",
      "172",
      "191",
      "211",
      "209",
      "229",
      "229",
      "246",
      "262",
      "278",
      "279",
      "297",
      "310C",
      "310C",
      "310C",
      "310C",
      "310C",
      "310C",
      "310C",
      "310C",
      "310C",
      "310C",
      "310C",
      "310C",
      "310C",
      "310C",
      "310C",
      "310C",
      "310C",
      "310C",
      "310C",
      "310C",
      "310C",
      "310C",
      "310C",
      "310C",
      "310C",
      "310C",
      "310C",
      "310C",
      "310C",
      "310C",
      "310C",
      "310C",
      "310C",
      "310",
      "310",
      "310",
      "310",
      "310",
      "303",
      "299",
      "278",
      "263",
      "241",
      "239",
      "229",
      "218",
      "208",
      "200",
      "192",
      "190",
      "190",
      "189",
      "180",
      "175",
      "166",
      "159",
      "150",
      "143",
      "135",
      "128",
      "119",
      "113",
      "104",
      "101",
      "093",
      "088",
      "085",
      "059",
      "050",
      "050",
      "040",
      "035",
      "031",
      "025",
      "023",
      "029",
      "042",
      "057",
      "059",
      "074",
      "079",
      "098",
      "106",
      "116",
      "119",
      "128",
      "162",
      "180",
      "196",
      "213",
      "225",
      "236",
      "249",
      "270",
      "280",
      "280",
      "291",
      "291",
      "303",
      "303",
      "314",
      "324",
      "324",
      "334",
      "334",
      "343",
      "343",
      "350C",
      "350C",
      "350C",
      "350C",
      "350C",
      "350C",
      "350C",
      "350C",
      "350C",
      "350C",
      "350C",
      "350C",
      "350C",
      "350C",
      "350C",
      "350C",
      "350C",
      "350C",
      "350C",
      "350C",
      "350C",
      "350C",
      "350C",
      "350C",
      "350C",
      "350C",
      "350C",
      "350C",
      "350C",
      "350C",
      "350C",
      "350C",
      "350C",
      "350C",
      "350C",
      "350C",
      "350C",
      "350C",
      "349",
      "332C",
      "330C",
      "330C",
      "330C",
      "330C",
      "330C",
      "330C",
      "330C",
      "330C",
      "330C",
      "330C",
      "330C",
      "330C",
      "330C",
      "330C",
      "330C",
      "330C",
      "330C",
      "330C",
      "330C",
      "330C",
      "330C",
      "330C",
      "330C",
      "330C",
      "330C",
      "330C",
      "330C",
      "330C",
      "330C",
      "330C",
      "330C",
      "330C",
      "330C",
      "330",
      "330",
      "330",
      "330",
      "330",
      "330",
      "330",
      "330",
      "334",
      "336",
      "344",
      "346",
      "350C",
      "350C",
      "350C",
      "350C",
      "350C",
      "350C",
      "350C",
      "350C",
      "350C",
      "350C",
      "350C",
      "350C",
      "350C",
      "350C",
      "350C",
      "350C",
      "350C",
      "350C",
      "350C",
      "350C",
      "350C",
      "350C",
      "350C",
      "350C",
      "350C",
      "350C",
      "350C",
      "350C",
      "350C",
      "350C",
      "350C",
      "350C",
      "350C",
      "350C",
      "350C",
      "350C",
      "350C",
      "350C",
      "350C",
      "350C",
      "350C",
      "350C",
      "350C",
      "350C",
      "350C",
      "350C",
      "350C",
      "350C",
      "350C",
      "350C",
      "350C",
      "350C",
      "350C",
      "350C",
      "350C",
      "350C",
      "350C",
      "350C",
      "350C",
      "350C",
      "350C",
      "350C",
      "350C",
      "350C",
      "350C",
      "350C",
      "350C",
      "350C",
      "350C",
      "350C",
      "350C",
      "350C",
      "350C",
      "350C",
      "350C",
      "350C",
      "350C",
      "350C",
      "350C",
      "350C",
      "350C",
      "350C",
      "350C",
      "350C",
      "350C",
      "350C",
      "350C",
      "350C",
      "350C",
      "350C",
      "350C",
      "350C",
      "350C",
      "350C",
      "350C",
      "350C",
      "350C",
      "350C",
      "350C",
      "350C",
      "350C",
      "350C",
      "350C",
      "350C",
      "350C",
      "350C",
      "350C",
      "350C",
      "350C",
      "350C",
      "350C",
      "350C",
      "350C",
      "350C",
      "350C",
      "350C",
      "350C",
      "350C",
      "350C",
      "350C",
      "350C",
      "350C",
      "350C",
      "350C",
      "350C",
      "350C",
      "350C",
      "350C",
      "350C",
      "350C",
      "352",
      "365",
      "370C",
      "370C",
      "370C",
      "370C",
      "370C",
      "370C",
      "370C",
      "370C",
      "370C",
      "370C",
      "370C",
      "370C",
      "370C",
      "370C",
      "370C",
      "370C",
      "370C",
      "370C",
      "370C",
      "370C",
      "370C",
      "370C",
      "370C",
      "370C",
      "370C",
      "370C",
      "370C",
      "370C",
      "370C",
      "370C",
      "370C",
      "370C",
      "370C",
      "370C",
      "370C",
      "370C",
      "370C",
      "370C",
      "370C",
      "370C",
      "370",
      "366",
      "360",
      "355",
      "351",
      "345",
      "341",
      "335",
      "331",
      "322",
      "306",
      "296",
      "282",
      "274",
      "260",
      "253",
      "239",
      "233",
      "219",
      "199",
      "180",
      "165",
      "147",
      "136",
      "132",
      "123",
      "114",
      "111",
      "106",
      "101",
      "095",
      "088",
      "075",
      "072",
      "070",
      "070",
      "070",
      "070",
      "064",
      "062",
      "060",
      "060",
      "060",
      "060",
      "060",
      "060",
      "060",
      "060",
      "060",
      "060",
      "059",
      "051",
      "049",
      "040",
      "040",
      "031",
      "030",
      "028",
      "020",
      "011",
      "004",
      "002",
      "008",
      "014",
      "019",
      "030",
      "038",
      "047",
      "053",
      "069",
      "078",
      "095",
      "114",
      "137",
      "160",
      "182",
      "194",
      "213",
      "220C",
      "220C",
      "220C",
      "220C",
      "220C",
      "220C",
      "220C",
      "220",
      "220",
      "220",
      "220",
      "207",
      "186",
      "166",
      "146",
      "126",
      "108",
      "106",
      "101",
      "100",
      "090",
      "087",
      "083",
      "081",
      "074",
      "070",
      "060",
      "060",
      "052",
      "044",
      "040",
      "041",
      "040",
      "040",
      "034",
      "030",
      "025",
      "022",
      "017",
      "014",
      "008",
      "006",
      "004"
    ],
    "swim:geom": "path",
    "swim:speeds": [
      169,
      176,
      187,
      234,
      267,
      280,
      313,
      337,
      373,
      346,
      372,
      386,
      413,
      400,
      420,
      415,
      421,
      439,
      446,
      440,
      444,
      443,
      457,
      445,
      451,
      470,
      480,
      480,
      481,
      481,
      453,
      452,
      452,
      452,
      451,
      451,
      451,
      451,
      451,
      451,
      451,
      452,
      453,
      453,
      454,
      456,
      456,
      458,
      459,
      459,
      460,
      461,
      462,
      463,
      462,
      461,
      458,
      456,
      455,
      449,
      447,
      444,
      435,
      414,
      418,
      406,
      404,
      392,
      392,
      382,
      361,
      343,
      344,
      332,
      334,
      334,
      334,
      329,
      330,
      323,
      324,
      314,
      318,
      311,
      307,
      260,
      227,
      219,
      201,
      197,
      197,
      193,
      190,
      178,
      170,
      172,
      198,
      234,
      240,
      268,
      282,
      299,
      304,
      306,
      327,
      351,
      378,
      412,
      416,
      427,
      434,
      448,
      460,
      468,
      479,
      484,
      482,
      487,
      490,
      487,
      489,
      488,
      487,
      488,
      487,
      487,
      486,
      486,
      485,
      485,
      484,
      484,
      484,
      485,
      484,
      485,
      484,
      484,
      484,
      484,
      485,
      485,
      485,
      485,
      484,
      484,
      483,
      484,
      485,
      487,
      489,
      489,
      490,
      490,
      490,
      490,
      491,
      492,
      492,
      492,
      492,
      493,
      494,
      494,
      494,
      494,
      495,
      495,
      500,
      501,
      502,
      503,
      503,
      503,
      504,
      504,
      504,
      503,
      504,
      507,
      505,
      517,
      517,
      518,
      519,
      518,
      519,
      519,
      520,
      520,
      520,
      520,
      520,
      520,
      520,
      519,
      520,
      518,
      518,
      516,
      517,
      516,
      517,
      516,
      516,
      516,
      516,
      516,
      517,
      517,
      518,
      518,
      518,
      516,
      516,
      516,
      516,
      516,
      517,
      517,
      516,
      515,
      514,
      513,
      513,
      513,
      513,
      513,
      514,
      514,
      514,
      514,
      513,
      512,
      511,
      511,
      512,
      512,
      512,
      512,
      512,
      510,
      511,
      508,
      511,
      503,
      504,
      501,
      502,
      501,
      500,
      500,
      498,
      499,
      497,
      498,
      497,
      497,
      497,
      497,
      497,
      497,
      498,
      507,
      502,
      506,
      504,
      506,
      505,
      506,
      504,
      503,
      501,
      499,
      497,
      495,
      492,
      492,
      490,
      490,
      489,
      490,
      489,
      489,
      494,
      496,
      498,
      498,
      498,
      498,
      497,
      497,
      497,
      496,
      496,
      496,
      496,
      496,
      496,
      496,
      496,
      495,
      495,
      494,
      493,
      493,
      490,
      492,
      492,
      491,
      492,
      491,
      492,
      492,
      493,
      493,
      493,
      493,
      494,
      493,
      494,
      494,
      494,
      495,
      496,
      497,
      497,
      499,
      499,
      501,
      500,
      503,
      502,
      504,
      503,
      502,
      501,
      502,
      502,
      503,
      503,
      504,
      505,
      505,
      492,
      491,
      491,
      492,
      492,
      491,
      489,
      487,
      484,
      482,
      480,
      479,
      478,
      479,
      480,
      481,
      482,
      483,
      485,
      486,
      492,
      489,
      491,
      491,
      492,
      492,
      492,
      492,
      492,
      493,
      493,
      492,
      492,
      490,
      476,
      472,
      471,
      468,
      467,
      465,
      460,
      457,
      457,
      443,
      437,
      435,
      435,
      435,
      437,
      438,
      438,
      439,
      444,
      445,
      440,
      432,
      433,
      427,
      424,
      410,
      394,
      387,
      376,
      361,
      356,
      356,
      349,
      351,
      325,
      308,
      297,
      295,
      289,
      293,
      297,
      296,
      293,
      294,
      292,
      291,
      283,
      281,
      275,
      279,
      276,
      278,
      278,
      279,
      279,
      278,
      236,
      220,
      218,
      210,
      209,
      207,
      205,
      197,
      196,
      195,
      164,
      160,
      160,
      180,
      179,
      197,
      225,
      220,
      261,
      276,
      280,
      289,
      293,
      316,
      334,
      350,
      361,
      386,
      394,
      395,
      405,
      406,
      407,
      407,
      409,
      410,
      410,
      411,
      412,
      413,
      407,
      394,
      386,
      381,
      366,
      355,
      359,
      314,
      310,
      296,
      298,
      269,
      258,
      248,
      247,
      239,
      235,
      231,
      231,
      217,
      203,
      188,
      190,
      191,
      183,
      157,
      157,
      153,
      155,
      152,
      154,
      136
    ],
    "swim:timestamps": [
      1785516092,
      1785516135,
      1785516168,
      1785516195,
      1785516228,
      1785516288,
      1785516348,
      1785516415,
      1785516469,
      1785516475,
      1785516535,
      1785516595,
      1785516649,
      1785516655,
      1785516709,
      1785516716,
      1785516776,
      1785516836,
      1785516889,
      1785516896,
      1785516956,
      1785517009,
      1785517069,
      1785517076,
      1785517136,
      1785517196,
      1785517250,
      1785517256,
      1785517316,
      1785517377,
      1785517430,
      1785517437,
      1785517497,
      1785517557,
      1785517610,
      1785517617,
      1785517670,
      1785517730,
      1785517790,
      1785517797,
      1785517851,
      1785517917,
      1785517977,
      1785518031,
      1785518091,
      1785518151,
      1785518158,
      1785518218,
      1785518271,
      1785518278,
      1785518338,
      1785518391,
      1785518458,
      1785518518,
      1785518578,
      1785518638,
      1785518692,
      1785518759,
      1785518819,
      1785518872,
      1785518879,
      1785518939,
      1785518992,
      1785519049,
      1785519059,
      1785519085,
      1785519119,
      1785519151,
      1785519179,
      1785519205,
      1785519239,
      1785519271,
      1785519299,
      1785519337,
      1785519359,
      1785519392,
      1785519420,
      1785519452,
      1785519480,
      1785519512,
      1785519540,
      1785519572,
      1785519600,
      1785519632,
      1785519660,
      1785519720,
      1785519752,
      1785519780,
      1785519900,
      1785519939,
      1785519960,
      1785520020,
      1785520053,
      1785520080,
      1785520119,
      1785520141,
      1785531323,
      1785531384,
      1785531425,
      1785531438,
      1785531485,
      1785531498,
      1785531545,
      1785531564,
      1785531605,
      1785531624,
      1785531665,
      1785531786,
      1785531846,
      1785531906,
      1785531966,
      1785532026,
      1785532086,
      1785532146,
      1785532266,
      1785532326,
      1785532336,
      1785532387,
      1785532396,
      1785532447,
      1785532456,
      1785532516,
      1785532567,
      1785532576,
      1785532627,
      1785532636,
      1785532687,
      1785532696,
      1785532747,
      1785532756,
      1785532807,
      1785532816,
      1785532867,
      1785532876,
      1785532927,
      1785532937,
      1785532987,
      1785532997,
      1785533057,
      1785533117,
      1785533177,
      1785533237,
      1785533297,
      1785533357,
      1785533417,
      1785533477,
      1785533537,
      1785533597,
      1785533657,
      1785533718,
      1785533778,
      1785533838,
      1785533898,
      1785533958,
      1785534018,
      1785534078,
      1785534138,
      1785534198,
      1785534258,
      1785534318,
      1785534378,
      1785534439,
      1785534499,
      1785534559,
      1785534619,
      1785534679,
      1785534739,
      1785534799,
      1785534859,
      1785534919,
      1785534979,
      1785535039,
      1785535099,
      1785535159,
      1785535220,
      1785535280,
      1785535340,
      1785535400,
      1785535460,
      1785535520,
      1785535535,
      1785535580,
      1785535595,
      1785535640,
      1785535655,
      1785535700,
      1785535715,
      1785535760,
      1785535775,
      1785535820,
      1785535835,
      1785535880,
      1785535895,
      1785535941,
      1785535955,
      1785536001,
      1785536016,
      1785536061,
      1785536076,
      1785536121,
      1785536136,
      1785536181,
      1785536196,
      1785536241,
      1785536256,
      1785536301,
      1785536316,
      1785536361,
      1785536376,
      1785536421,
      1785536436,
      1785536481,
      1785536496,
      1785536541,
      1785536556,
      1785536601,
      1785536617,
      1785536661,
      1785536677,
      1785536737,
      1785536797,
      1785536857,
      1785536917,
      1785536977,
      1785537037,
      1785537097,
      1785537157,
      1785537217,
      1785537278,
      1785537338,
      1785537398,
      1785537458,
      1785537518,
      1785537578,
      1785537638,
      1785537698,
      1785537758,
      1785537818,
      1785537878,
      1785537939,
      1785537999,
      1785538059,
      1785538079,
      1785538119,
      1785538139,
      1785538199,
      1785538239,
      1785538259,
      1785538299,
      1785538319,
      1785538359,
      1785538379,
      1785538419,
      1785538439,
      1785538479,
      1785538500,
      1785538539,
      1785538560,
      1785538600,
      1785538620,
      1785538660,
      1785538680,
      1785538720,
      1785538740,
      1785538780,
      1785538800,
      1785538840,
      1785538860,
      1785538900,
      1785538920,
      1785538960,
      1785538980,
      1785539040,
      1785539080,
      1785539100,
      1785539160,
      1785539201,
      1785539220,
      1785539261,
      1785539281,
      1785539321,
      1785539341,
      1785539381,
      1785539461,
      1785539501,
      1785539521,
      1785539561,
      1785539581,
      1785539621,
      1785539641,
      1785539701,
      1785539741,
      1785539761,
      1785539801,
      1785539862,
      1785539881,
      1785539941,
      1785539982,
      1785540002,
      1785540042,
      1785540062,
      1785540102,
      1785540122,
      1785540162,
      1785540222,
      1785540254,
      1785540282,
      1785540342,
      1785540374,
      1785540402,
      1785540434,
      1785540462,
      1785540494,
      1785540523,
      1785540554,
      1785540583,
      1785540643,
      1785540674,
      1785540703,
      1785540735,
      1785540763,
      1785540795,
      1785540823,
      1785540871,
      1785540903,
      1785540931,
      1785540943,
      1785540991,
      1785541003,
      1785541051,
      1785541063,
      1785541111,
      1785541124,
      1785541171,
      1785541232,
      1785541292,
      1785541352,
      1785541412,
      1785541472,
      1785541532,
      1785541592,
      1785541652,
      1785541712,
      1785541772,
      1785541832,
      1785541892,
      1785541953,
      1785542013,
      1785542073,
      1785542133,
      1785542193,
      1785542253,
      1785542313,
      1785542373,
      1785542433,
      1785542493,
      1785542553,
      1785542613,
      1785542673,
      1785542734,
      1785542794,
      1785542854,
      1785542914,
      1785542974,
      1785543005,
      1785543034,
      1785543065,
      1785543094,
      1785543125,
      1785543154,
      1785543185,
      1785543214,
      1785543245,
      1785543274,
      1785543305,
      1785543334,
      1785543365,
      1785543394,
      1785543426,
      1785543455,
      1785543486,
      1785543515,
      1785543546,
      1785543575,
      1785543635,
      1785543666,
      1785543695,
      1785543726,
      1785543755,
      1785543786,
      1785543815,
      1785543846,
      1785543875,
      1785543906,
      1785543935,
      1785543966,
      1785543995,
      1785544027,
      1785544055,
      1785544087,
      1785544115,
      1785544147,
      1785544176,
      1785544207,
      1785544267,
      1785544327,
      1785544387,
      1785544447,
      1785544482,
      1785544507,
      1785544530,
      1785544567,
      1785544591,
      1785544628,
      1785544651,
      1785544700,
      1785544710,
      1785544760,
      1785544771,
      1785544820,
      1785544831,
      1785544880,
      1785544890,
      1785544940,
      1785544951,
      1785545000,
      1785545011,
      1785545060,
      1785545071,
      1785545120,
      1785545131,
      1785545180,
      1785545240,
      1785545251,
      1785545301,
      1785545311,
      1785545361,
      1785545371,
      1785545421,
      1785545431,
      1785545481,
      1785545541,
      1785545551,
      1785545601,
      1785545661,
      1785545721,
      1785545781,
      1785551615,
      1785551634,
      1785551650,
      1785551694,
      1785551711,
      1785551754,
      1785551771,
      1785551815,
      1785551831,
      1785551875,
      1785551935,
      1785551995,
      1785552055,
      1785552115,
      1785552175,
      1785552235,
      1785552295,
      1785552355,
      1785552415,
      1785552476,
      1785552536,
      1785552596,
      1785552656,
      1785552716,
      1785552773,
      1785552833,
      1785552893,
      1785552953,
      1785553013,
      1785553073,
      1785553134,
      1785553188,
      1785553242,
      1785553254,
      1785553296,
      1785553314,
      1785553356,
      1785553374,
      1785553410,
      1785553434,
      1785553470,
      1785553494,
      1785553542,
      1785553554,
      1785553578,
      1785553614,
      1785553650,
      1785553674,
      1785553711,
      1785553735,
      1785553771,
      1785553795,
      1785553831,
      1785553855,
      1785553891,
      1785553915,
      1785553951,
      1785553975,
      1785554035
    ],
    "wof:geomhash": "cbacf261f9958145c7d5d5fb136199ed",
    "wof:id": 2032054395,
    "wof:repo": "sfomuseum-data-flights-2026-07"
  },
  "bbox": [
    -122.54027777777777,
    35.87111111111111,
    -77.47416666666666,
    38.980000000000004
  ],
  "geometry": {"coordinates":[[-122.4,37.63333333333333],[-122.43333333333334,37.65],[-122.46416666666667,37.657222222222224],[-122.5,37.666666666666664],[-122.54027777777777,37.65472222222222],[-122.52472222222222,37.580555555555556],[-122.4825,37.505],[-122.40222222222222,37.445277777777775],[-122.2775,37.399166666666666],[-122.29444444444444,37.39333333333333],[-122.15722222222223,37.374722222222225],[-122.02666666666667,37.34777777777778],[-121.87055555555555,37.34916666666667],[-121.88333333333334,37.34805555555556],[-121.73805555555556,37.349722222222226],[-121.73472222222222,37.349722222222226],[-121.58444444444444,37.349444444444444],[-121.43777777777778,37.31472222222222],[-121.29166666666667,37.278888888888886],[-121.29083333333332,37.276666666666664],[-121.1413888888889,37.23888888888889],[-121.00138888888888,37.20305555555556],[-120.85333333333332,37.16361111111111],[-120.8475,37.161944444444444],[-120.69416666666667,37.11972222222222],[-120.53388888888888,37.07666666666667],[-120.38,37.035],[-120.37222222222222,37.032777777777774],[-120.21138888888889,36.99],[-120.0286111111111,36.93833333333333],[-119.90027777777779,36.91027777777778],[-119.87333333333332,36.91138888888889],[-119.72416666666666,36.95388888888889],[-119.57888888888888,37.00111111111111],[-119.46083333333334,37.03972222222222],[-119.43388888888889,37.04861111111111],[-119.315,37.08694444444445],[-119.16888888888889,37.13388888888889],[-119.02444444444444,37.18],[-119.00611111111111,37.18583333333333],[-118.87888888888888,37.22638888888889],[-118.71361111111112,37.274166666666666],[-118.55416666666666,37.28944444444444],[-118.42861111111111,37.299166666666665],[-118.27194444444444,37.31083333333333],[-118.1125,37.322500000000005],[-118.08111111111111,37.32472222222223],[-117.92083333333333,37.33638888888889],[-117.79277777777777,37.34527777777778],[-117.76083333333334,37.347500000000004],[-117.60194444444444,37.35861111111111],[-117.4738888888889,37.3675],[-117.28277777777778,37.37388888888889],[-117.15138888888889,37.29888888888889],[-117.03222222222222,37.214444444444446],[-116.91388888888889,37.12861111111111],[-116.8325,37.050555555555555],[-116.72583333333334,36.92638888888889],[-116.63611111111112,36.82166666666667],[-116.56583333333333,36.73916666666667],[-116.54861111111111,36.71888888888889],[-116.45166666666667,36.623333333333335],[-116.36222222222221,36.55972222222222],[-116.2425,36.473333333333336],[-116.23055555555555,36.46666666666667],[-116.17666666666668,36.42777777777778],[-116.11861111111111,36.38666666666666],[-116.06361111111111,36.34722222222222],[-116.01638888888888,36.31361111111111],[-115.97611111111111,36.28333333333333],[-115.92194444444445,36.24666666666667],[-115.87138888888889,36.214444444444446],[-115.8275,36.1875],[-115.77111111111111,36.150277777777774],[-115.73555555555555,36.13444444444444],[-115.67722222222223,36.11472222222223],[-115.62916666666666,36.10166666666667],[-115.57194444444444,36.08388888888889],[-115.52388888888889,36.06861111111112],[-115.46722222222222,36.050555555555555],[-115.42305555555556,36.0375],[-115.36472222222221,36.01972222222222],[-115.3175,36.01416666666667],[-115.25916666666667,36.011944444444445],[-115.2125,36.009166666666665],[-115.12055555555555,36.005],[-115.07583333333334,36.00194444444445],[-115.04333333333334,36.00194444444445],[-114.91416666666667,36.01888888888889],[-114.91361111111112,36.05694444444444],[-114.93,36.07055555555556],[-114.99444444444444,36.07361111111111],[-115.03,36.07333333333334],[-115.05749999999999,36.07361111111111],[-115.09555555555555,36.073055555555555],[-115.11555555555555,36.07361111111111],[-115.10805555555555,36.07527777777778],[-115.035,36.07416666666667],[-114.97777777777777,36.075833333333335],[-114.9588888888889,36.075],[-114.89055555555557,36.07527777777778],[-114.85972222222222,36.073888888888895],[-114.77694444444444,36.08277777777778],[-114.74583333333334,36.08972222222222],[-114.67361111111111,36.10472222222222],[-114.63777777777779,36.112500000000004],[-114.55166666666666,36.13055555555555],[-114.285,36.18527777777778],[-114.14361111111111,36.20583333333334],[-113.99833333333333,36.223055555555554],[-113.85083333333333,36.24055555555556],[-113.69916666666667,36.25833333333333],[-113.54333333333334,36.27611111111111],[-113.38333333333334,36.294444444444444],[-113.0675,36.36805555555556],[-112.91555555555556,36.42111111111111],[-112.90666666666667,36.4225],[-112.75833333333334,36.476111111111116],[-112.755,36.4775],[-112.60444444444444,36.52972222222222],[-112.59916666666666,36.531666666666666],[-112.44555555555556,36.584722222222226],[-112.29555555555555,36.63611111111111],[-112.28999999999999,36.63805555555555],[-112.13972222222223,36.68944444444444],[-112.13722222222223,36.69027777777777],[-111.98583333333333,36.74166666666667],[-111.98583333333333,36.74166666666667],[-111.82972222222222,36.794444444444444],[-111.83111111111111,36.79416666666666],[-111.67777777777778,36.84583333333334],[-111.67777777777778,36.84583333333334],[-111.51472222222222,36.88611111111111],[-111.51444444444445,36.88611111111111],[-111.35416666666666,36.92333333333333],[-111.35527777777777,36.92333333333333],[-111.19277777777778,36.96083333333333],[-111.19527777777778,36.96],[-111.03166666666667,36.9975],[-110.86972222222222,37.03444444444444],[-110.70805555555556,37.07083333333334],[-110.54666666666667,37.106944444444444],[-110.38388888888889,37.14333333333333],[-110.2225,37.17916666666667],[-110.05888888888889,37.215],[-109.89500000000001,37.25055555555556],[-109.73277777777778,37.28583333333333],[-109.56944444444444,37.321111111111115],[-109.40527777777778,37.35611111111111],[-109.23861111111111,37.39111111111111],[-109.07527777777777,37.425555555555555],[-108.90833333333335,37.46027777777778],[-108.74027777777778,37.495],[-108.57638888888889,37.528888888888886],[-108.40805555555556,37.56305555555555],[-108.24166666666667,37.59666666666667],[-108.07666666666667,37.62972222222222],[-107.90694444444445,37.66361111111111],[-107.74,37.69638888888888],[-107.57222222222222,37.72916666666667],[-107.40444444444445,37.76166666666666],[-107.2363888888889,37.79388888888889],[-107.07194444444444,37.82527777777778],[-106.90277777777779,37.8575],[-106.73472222222222,37.88916666666667],[-106.56583333333333,37.92055555555555],[-106.38416666666667,37.95416666666667],[-106.21277777777777,37.984722222222224],[-106.0411111111111,38.00972222222222],[-105.86388888888888,38.03138888888889],[-105.68833333333333,38.0475],[-105.51138888888889,38.06166666666666],[-105.33388888888888,38.07361111111111],[-105.15833333333335,38.084722222222226],[-104.98111111111112,38.08972222222222],[-104.80416666666666,38.081388888888895],[-104.62555555555555,38.06222222222222],[-104.45083333333334,38.04194444444444],[-104.27472222222222,38.02166666666667],[-104.095,38],[-104.05972222222222,37.98777777777778],[-103.91416666666667,37.97944444444445],[-103.88194444444444,37.975833333333334],[-103.73,37.96333333333334],[-103.70166666666667,37.96277777777778],[-103.54833333333333,37.96277777777778],[-103.515,37.962500000000006],[-103.36444444444444,37.96055555555556],[-103.33277777777778,37.96],[-103.17888888888889,37.95722222222223],[-103.15027777777779,37.95666666666667],[-102.99666666666667,37.95444444444445],[-102.96583333333334,37.95388888888889],[-102.81361111111111,37.95138888888889],[-102.78472222222221,37.950833333333335],[-102.63222222222221,37.948055555555555],[-102.60249999999999,37.9475],[-102.45111111111112,37.94444444444444],[-102.42027777777778,37.943888888888885],[-102.27277777777778,37.94083333333333],[-102.23777777777778,37.94],[-102.09055555555555,37.93666666666666],[-102.05916666666667,37.93583333333333],[-101.91000000000001,37.93222222222222],[-101.87944444444443,37.93138888888889],[-101.72805555555556,37.92777777777778],[-101.69555555555556,37.926944444444445],[-101.54805555555555,37.922777777777775],[-101.51277777777777,37.92166666666667],[-101.36444444444444,37.9175],[-101.33138888888888,37.916666666666664],[-101.18361111111112,37.91222222222222],[-101.14750000000001,37.91138888888889],[-101.00083333333333,37.906388888888884],[-100.96555555555555,37.905277777777776],[-100.815,37.9],[-100.78083333333333,37.89888888888889],[-100.63055555555555,37.89361111111111],[-100.59583333333333,37.8925],[-100.41222222222223,37.88583333333333],[-100.23083333333334,37.87888888888889],[-100.05083333333333,37.87166666666667],[-99.87277777777777,37.86416666666667],[-99.69027777777778,37.85638888888889],[-99.51416666666667,37.84861111111111],[-99.33305555555555,37.84027777777778],[-99.15361111111112,37.831944444444446],[-98.97305555555556,37.823055555555555],[-98.7936111111111,37.81388888888888],[-98.61666666666666,37.80472222222222],[-98.43722222222223,37.794999999999995],[-98.25722222222223,37.78527777777778],[-98.07472222222222,37.775],[-97.89055555555557,37.76416666666667],[-97.71166666666667,37.75333333333333],[-97.53222222222222,37.74194444444444],[-97.38305555555554,37.73083333333334],[-97.19722222222222,37.71638888888889],[-97.0213888888889,37.70305555555556],[-96.8425,37.68888888888888],[-96.66416666666667,37.67472222222222],[-96.48583333333333,37.66027777777778],[-96.42722222222223,37.65611111111111],[-96.28583333333333,37.64333333333333],[-96.25083333333333,37.641666666666666],[-96.07833333333333,37.62583333333333],[-95.9363888888889,37.61333333333334],[-95.90305555555557,37.61055555555556],[-95.76055555555556,37.59777777777778],[-95.72694444444444,37.595],[-95.58583333333333,37.581944444444446],[-95.55361111111111,37.58027777777778],[-95.41194444444444,37.566111111111105],[-95.38055555555555,37.56388888888888],[-95.24,37.55],[-95.20722222222223,37.5475],[-95.06555555555555,37.53361111111111],[-95.03444444444445,37.53194444444444],[-94.89333333333335,37.51722222222222],[-94.86166666666666,37.51583333333333],[-94.72027777777778,37.50055555555556],[-94.68805555555556,37.5],[-94.54583333333333,37.483333333333334],[-94.49916666666667,37.478611111111114],[-94.40527777777778,37.469166666666666],[-94.32333333333332,37.461111111111116],[-94.22916666666667,37.45166666666667],[-94.15055555555556,37.44333333333333],[-94.03111111111112,37.430277777777775],[-93.9961111111111,37.42333333333333],[-93.86194444444443,37.38972222222222],[-93.795,37.37277777777778],[-93.63194444444444,37.33111111111111],[-93.53111111111112,37.305277777777775],[-93.46944444444445,37.28916666666667],[-93.30611111111111,37.24666666666667],[-93.20694444444445,37.22083333333334],[-93.14500000000001,37.20472222222222],[-93.04722222222222,37.17916666666667],[-92.98138888888889,37.161944444444444],[-92.88555555555556,37.13638888888889],[-92.82333333333332,37.12],[-92.72333333333333,37.093611111111116],[-92.50222222222222,37.03472222222222],[-92.39916666666667,37.025277777777774],[-92.33333333333333,37.03472222222222],[-92.23027777777779,37.05222222222222],[-92.16333333333334,37.06333333333333],[-92.06083333333333,37.080555555555556],[-91.99194444444444,37.092222222222226],[-91.8261111111111,37.12],[-91.72333333333333,37.13722222222222],[-91.65722222222223,37.14833333333333],[-91.55444444444444,37.165277777777774],[-91.38361111111112,37.19361111111111],[-91.32333333333332,37.20333333333333],[-91.15305555555557,37.23083333333334],[-91.04638888888888,37.24805555555556],[-90.98138888888889,37.25861111111111],[-90.87638888888888,37.275],[-90.81305555555555,37.285],[-90.70138888888889,37.30277777777778],[-90.66861111111112,37.30777777777777],[-90.53,37.32944444444445],[-90.37277777777777,37.35388888888889],[-90.32777777777777,37.36083333333333],[-90.20583333333333,37.37916666666667],[-90.0213888888889,37.4075],[-89.95916666666668,37.41694444444444],[-89.85388888888889,37.43277777777777],[-89.78583333333333,37.44305555555555],[-89.70111111111112,37.45472222222222],[-89.61777777777777,37.467777777777776],[-89.51166666666667,37.483333333333334],[-89.44305555555556,37.49333333333333],[-89.3411111111111,37.50805555555556],[-89.17,37.532777777777774],[-89.10249999999999,37.54277777777778],[-89.0325,37.552499999999995],[-88.93222222222222,37.56666666666667],[-88.86305555555555,37.57638888888889],[-88.75972222222222,37.590833333333336],[-88.6875,37.600833333333334],[-88.54888888888888,37.62],[-88.45027777777779,37.63361111111111],[-88.38194444444444,37.64277777777778],[-88.34416666666667,37.64805555555556],[-88.19361111111111,37.66833333333333],[-88.16916666666667,37.67166666666667],[-88.01833333333333,37.69194444444444],[-87.9961111111111,37.69499999999999],[-87.84333333333333,37.71527777777778],[-87.82416666666666,37.717777777777776],[-87.66805555555555,37.738055555555555],[-87.49444444444444,37.76027777777778],[-87.32194444444444,37.782222222222224],[-87.16388888888889,37.80222222222222],[-86.98972222222223,37.823888888888895],[-86.8175,37.845],[-86.64611111111111,37.865833333333335],[-86.46861111111112,37.886944444444445],[-86.29638888888888,37.9075],[-86.11888888888888,37.92833333333333],[-85.94388888888889,37.948611111111106],[-85.77333333333333,37.96805555555556],[-85.60166666666666,37.98722222222222],[-85.42972222222222,38.00611111111111],[-85.25833333333334,38.02472222222222],[-85.08,38.04416666666666],[-84.90694444444445,38.0625],[-84.73861111111111,38.080000000000005],[-84.56944444444444,38.097500000000004],[-84.39972222222222,38.11472222222223],[-84.23305555555555,38.13138888888889],[-84.06388888888888,38.14833333333333],[-83.89722222222223,38.16416666666667],[-83.72972222222222,38.180277777777775],[-83.56027777777777,38.19611111111111],[-83.39194444444445,38.21194444444445],[-83.22222222222223,38.2275],[-83.05277777777778,38.2425],[-82.88333333333334,38.257777777777775],[-82.71055555555556,38.2725],[-82.54055555555556,38.28722222222222],[-82.45111111111112,38.294444444444444],[-82.37055555555555,38.30138888888889],[-82.27777777777777,38.30888888888889],[-82.19833333333334,38.315555555555555],[-82.10472222222222,38.324444444444445],[-82.02555555555556,38.32944444444445],[-81.93361111111112,38.33694444444445],[-81.85222222222221,38.343333333333334],[-81.75916666666667,38.34916666666667],[-81.68138888888889,38.346944444444446],[-81.58416666666666,38.344166666666666],[-81.50805555555556,38.34166666666667],[-81.41222222222223,38.33833333333334],[-81.33694444444444,38.33583333333333],[-81.2425,38.3325],[-81.17166666666667,38.330000000000005],[-81.07583333333334,38.32638888888889],[-81.00777777777778,38.32416666666667],[-80.91305555555556,38.32055555555556],[-80.84305555555555,38.31805555555556],[-80.68111111111112,38.31166666666666],[-80.58944444444444,38.30833333333333],[-80.52083333333333,38.30555555555555],[-80.4325,38.309999999999995],[-80.34472222222222,38.32666666666667],[-80.28277777777778,38.33888888888889],[-80.19416666666667,38.356944444444444],[-80.13472222222222,38.36944444444445],[-80.04166666666667,38.388333333333335],[-79.98166666666667,38.400277777777774],[-79.91972222222223,38.41277777777778],[-79.83055555555555,38.43055555555555],[-79.77083333333333,38.442499999999995],[-79.67750000000001,38.461666666666666],[-79.61805555555554,38.47361111111111],[-79.51388888888889,38.495],[-79.46833333333333,38.504444444444445],[-79.36916666666666,38.524166666666666],[-79.32472222222222,38.532777777777774],[-79.2275,38.551944444444445],[-79.08416666666666,38.58027777777778],[-78.95138888888889,38.603611111111114],[-78.83027777777778,38.62361111111111],[-78.69805555555556,38.65472222222222],[-78.61666666666666,38.666666666666664],[-78.58638888888889,38.68138888888889],[-78.53333333333333,38.7],[-78.4675,38.70944444444445],[-78.41666666666667,38.71666666666667],[-78.36555555555555,38.7475],[-78.35,38.78333333333333],[-78.3411111111111,38.82972222222222],[-78.33333333333333,38.86666666666667],[-78.30027777777778,38.91972222222222],[-78.28333333333333,38.916666666666664],[-78.19555555555556,38.92916666666667],[-78.16666666666667,38.93333333333333],[-78.0925,38.93861111111111],[-78.06666666666666,38.93333333333333],[-77.98972222222223,38.947222222222216],[-77.96666666666667,38.95],[-77.89166666666668,38.95527777777778],[-77.86666666666666,38.95],[-77.79416666666667,38.963055555555556],[-77.76666666666667,38.96666666666667],[-77.69805555555556,38.95916666666667],[-77.66666666666667,38.95],[-77.61194444444443,38.92916666666667],[-77.57416666666666,38.85611111111111],[-77.56666666666666,38.833333333333336],[-77.5736111111111,38.78472222222222],[-77.56666666666666,38.766666666666666],[-77.57333333333332,38.724444444444444],[-77.56666666666666,38.71666666666667],[-77.5275,38.696666666666665],[-77.51666666666667,38.7],[-77.49666666666667,38.74805555555556],[-77.47694444444444,38.79944444444444],[-77.48333333333333,38.81666666666667],[-77.47611111111111,38.85194444444445],[-77.47555555555556,38.900277777777774],[-77.47500000000001,38.94305555555555],[-77.47416666666666,38.980000000000004],[-77.5,38.95],[-77.51388888888889,38.94833333333333],[-77.53333333333333,38.93333333333333],[-77.56861111111111,38.91277777777778],[-77.56666666666666,38.9],[-77.55722222222222,38.84777777777778],[-77.55,38.81666666666667],[-77.56138888888889,38.770833333333336],[-77.56666666666666,38.75],[-77.57805555555555,38.68861111111111],[-77.59305555555555,38.605555555555554],[-77.61027777777777,38.51305555555555],[-77.62833333333333,38.41638888888889],[-77.65555555555557,38.31916666666667],[-77.72833333333334,38.231388888888894],[-77.80694444444444,38.13861111111111],[-77.88083333333333,38.051111111111105],[-77.96055555555556,37.95611111111111],[-78.03944444444444,37.86222222222222],[-78.11861111111111,37.7675],[-78.19861111111112,37.671388888888885],[-78.2775,37.57611111111112],[-78.35555555555555,37.481944444444444],[-78.43611111111112,37.38472222222222],[-78.49388888888889,37.28111111111111],[-78.54694444444445,37.175555555555555],[-78.60111111111111,37.0675],[-78.6538888888889,36.962500000000006],[-78.70444444444445,36.861111111111114],[-78.75472222222223,36.76083333333333],[-78.80333333333333,36.6625],[-78.84833333333333,36.57138888888889],[-78.88944444444445,36.48833333333334],[-78.89666666666668,36.474444444444444],[-78.92333333333333,36.40972222222222],[-78.91611111111112,36.38777777777778],[-78.86527777777778,36.343333333333334],[-78.8461111111111,36.328611111111115],[-78.80166666666666,36.294444444444444],[-78.77944444444444,36.27611111111111],[-78.74111111111111,36.245],[-78.71888888888888,36.22833333333333],[-78.66888888888889,36.18805555555555],[-78.66083333333334,36.180277777777775],[-78.63944444444445,36.159166666666664],[-78.60888888888888,36.12833333333333],[-78.5925,36.09583333333334],[-78.60027777777778,36.073055555555555],[-78.60916666666667,36.04416666666666],[-78.61861111111111,36.02333333333333],[-78.64500000000001,36.00138888888889],[-78.66361111111112,35.98638888888889],[-78.68694444444445,35.96638888888889],[-78.70166666666667,35.955555555555556],[-78.72472222222223,35.93805555555555],[-78.73833333333333,35.92583333333333],[-78.76194444444444,35.9075],[-78.77527777777777,35.89611111111111],[-78.80611111111111,35.87111111111111]],"type":"LineString"}
}
