{
  "id": 2032035025,
  "type": "Feature",
  "properties": {
    "geom:area": 0,
    "geom:bbox": "-123.110860,37.372300,-122.074210,38.495940",
    "geom:latitude": 37.835700212259184,
    "geom:longitude": -122.52583151824015,
    "src:alt_label": "swim-approach",
    "src:geom": "swim",
    "swim:elevations": [
      7498,
      7189,
      7011,
      6750,
      6217,
      6078,
      5813,
      5602,
      5265,
      4965,
      4754,
      4586,
      4244,
      4002,
      3938,
      3474,
      3225,
      3353,
      3353,
      3353,
      3350,
      3047,
      2710,
      2589,
      2379,
      2223,
      2134,
      2134,
      2134,
      2134,
      2042,
      1980,
      1857,
      1727,
      1556,
      1399,
      1251,
      1129,
      942,
      885,
      771,
      606,
      571,
      341,
      282,
      81,
      50
    ],
    "swim:geom": "approach",
    "swim:timestamps": [
      1785402824,
      1785402858,
      1785402882,
      1785402913,
      1785402977,
      1785402995,
      1785403025,
      1785403052,
      1785403095,
      1785403132,
      1785403161,
      1785403181,
      1785403227,
      1785403252,
      1785403263,
      1785403314,
      1785403326,
      1785403396,
      1785403435,
      1785403467,
      1785403473,
      1785403514,
      1785403541,
      1785403550,
      1785403570,
      1785403592,
      1785403643,
      1785403652,
      1785403684,
      1785403700,
      1785403734,
      1785403741,
      1785403762,
      1785403787,
      1785403823,
      1785403846,
      1785403871,
      1785403900,
      1785403937,
      1785403947,
      1785403968,
      1785404006,
      1785404014,
      1785404064,
      1785404079,
      1785404127,
      1785404134
    ],
    "wof:geomhash": "0aaf47023ae30cb50d4e0d3b17c7c512",
    "wof:id": 2032035025,
    "wof:repo": "sfomuseum-data-flights-2026-07"
  },
  "bbox": [
    -123.11086,
    37.3723,
    -122.07421,
    38.49594
  ],
  "geometry": {"coordinates":[[-123.11086,38.49594],[-123.0508,38.45019],[-123.00894,38.41716],[-122.95557,38.37476],[-122.85074,38.29111],[-122.82055,38.26689],[-122.77692,38.22559],[-122.75506,38.18183],[-122.73418,38.11044],[-122.71628,38.04834],[-122.70245,38.0005],[-122.69339,37.96888],[-122.6653,37.89637],[-122.63457,37.86295],[-122.62074,37.85022],[-122.55259,37.7857],[-122.53611,37.76983],[-122.45291,37.69155],[-122.40744,37.64885],[-122.3705,37.61391],[-122.36453,37.60757],[-122.33313,37.55776],[-122.31375,37.52421],[-122.30741,37.51318],[-122.29385,37.48971],[-122.27885,37.46403],[-122.2446,37.40553],[-122.23856,37.39564],[-122.19809,37.3723],[-122.17363,37.37251],[-122.12772,37.39166],[-122.12019,37.39789],[-122.09832,37.41636],[-122.07421,37.43807],[-122.07557,37.47802],[-122.09384,37.49793],[-122.11736,37.51258],[-122.14567,37.52442],[-122.1814,37.53952],[-122.19043,37.54333],[-122.20989,37.55155],[-122.24407,37.56601],[-122.25195,37.5693],[-122.29526,37.58759],[-122.30719,37.5926],[-122.3449,37.60841],[-122.35055,37.61075]],"type":"LineString"}
}
