{
  "id": 2031969467,
  "type": "Feature",
  "properties": {
    "geom:area": 0,
    "geom:bbox": "-122.539300,36.728130,-121.567130,37.668510",
    "geom:latitude": 37.22372745549167,
    "geom:longitude": -122.12561481831374,
    "src:alt_label": "swim-takeoff",
    "src:geom": "swim",
    "swim:elevations": [
      122,
      377,
      761,
      1138,
      1571,
      1970,
      2600,
      2964,
      3322,
      3615,
      3983,
      4281,
      4417,
      4566,
      4970,
      5360,
      5703,
      6074,
      6409,
      6908,
      7083,
      7436,
      7604,
      7859,
      8220,
      8375,
      8629,
      8870,
      9229,
      9449,
      9449,
      9449
    ],
    "swim:geom": "takeoff",
    "swim:timestamps": [
      1784975962,
      1784975982,
      1784976015,
      1784976057,
      1784976113,
      1784976142,
      1784976176,
      1784976196,
      1784976216,
      1784976233,
      1784976268,
      1784976296,
      1784976306,
      1784976316,
      1784976346,
      1784976377,
      1784976405,
      1784976432,
      1784976464,
      1784976508,
      1784976524,
      1784976562,
      1784976582,
      1784976608,
      1784976643,
      1784976666,
      1784976703,
      1784976730,
      1784976763,
      1784976824,
      1784976837,
      1784976863
    ],
    "wof:geomhash": "556ed6cfef8406cbb8d3d284a7ece394",
    "wof:id": 2031969467,
    "wof:repo": "sfomuseum-data-flights-2026-07"
  },
  "bbox": [
    -122.5393,
    36.72813,
    -121.56713,
    37.66851
  ],
  "geometry": {"coordinates":[[-122.37758,37.61989],[-122.39135,37.62592],[-122.4136,37.63558],[-122.44432,37.64897],[-122.50434,37.66851],[-122.5393,37.64946],[-122.53373,37.60826],[-122.52102,37.58493],[-122.50903,37.55992],[-122.49913,37.53921],[-122.47695,37.49639],[-122.44178,37.46296],[-122.42909,37.45254],[-122.41501,37.44085],[-122.37244,37.40551],[-122.32889,37.36934],[-122.28876,37.33606],[-122.24954,37.30352],[-122.20284,37.26456],[-122.13673,37.20958],[-122.11277,37.18948],[-122.05547,37.14143],[-122.02367,37.11486],[-121.98422,37.07965],[-121.92743,37.03372],[-121.8916,37.00312],[-121.83102,36.95219],[-121.78719,36.91547],[-121.73062,36.86818],[-121.63097,36.78187],[-121.6101,36.76388],[-121.56713,36.72813]],"type":"LineString"}
}
