{
  "id": 2031953943,
  "type": "Feature",
  "properties": {
    "geom:area": 0,
    "geom:bbox": "-123.328333,37.434167,-122.120556,47.381944",
    "geom:latitude": 42.40671714819973,
    "geom:longitude": -123.05696900869746,
    "src:alt_label": "swim-path",
    "src:geom": "swim",
    "swim:altitudes": [
      "025",
      "042",
      "043",
      "067",
      "092",
      "107",
      "127",
      "145",
      "160",
      "179",
      "203",
      "224",
      "238",
      "254",
      "269",
      "285",
      "299",
      "315",
      "330",
      "330",
      "338",
      "349C",
      "350C",
      "350C",
      "350C",
      "350C",
      "350C",
      "350C",
      "350C",
      "350C",
      "350C",
      "350C",
      "350C",
      "350C",
      "350C",
      "350C",
      "350C",
      "350C",
      "350C",
      "350C",
      "350C",
      "350C",
      "350C",
      "350C",
      "350C",
      "350C",
      "350C",
      "350C",
      "350C",
      "350C",
      "350C",
      "350C",
      "350C",
      "350C",
      "350C",
      "350C",
      "350C",
      "350C",
      "350C",
      "350C",
      "350C",
      "350C",
      "350C",
      "350C",
      "350C",
      "350C",
      "350C",
      "350C",
      "350C",
      "350C",
      "350C",
      "350C",
      "350C",
      "350C",
      "350C",
      "350C",
      "350C",
      "350C",
      "350C",
      "350C",
      "350C",
      "350C",
      "350C",
      "350C",
      "350C",
      "350C",
      "350C",
      "350C",
      "350C",
      "350C",
      "350C",
      "350C",
      "350C",
      "350C",
      "350C",
      "350C",
      "350C",
      "350C",
      "350C",
      "350C",
      "350",
      "350",
      "350",
      "350",
      "350",
      "350",
      "341",
      "315",
      "292",
      "280",
      "269",
      "248",
      "227",
      "206",
      "195",
      "187",
      "167",
      "164",
      "145",
      "126",
      "111C",
      "110C",
      "109C",
      "098",
      "087",
      "071",
      "056",
      "041",
      "032",
      "030",
      "026",
      "018",
      "010",
      "001"
    ],
    "swim:geom": "path",
    "swim:speeds": [
      208,
      245,
      240,
      256,
      265,
      310,
      335,
      348,
      348,
      364,
      370,
      370,
      380,
      390,
      398,
      401,
      402,
      400,
      390,
      386,
      382,
      374,
      374,
      375,
      376,
      377,
      378,
      378,
      376,
      374,
      373,
      373,
      373,
      374,
      374,
      376,
      377,
      377,
      376,
      376,
      375,
      375,
      376,
      377,
      377,
      371,
      373,
      373,
      375,
      373,
      373,
      373,
      372,
      373,
      371,
      372,
      372,
      371,
      371,
      370,
      371,
      368,
      367,
      367,
      368,
      368,
      370,
      370,
      371,
      371,
      372,
      373,
      374,
      377,
      377,
      380,
      382,
      383,
      383,
      383,
      383,
      382,
      382,
      381,
      380,
      379,
      379,
      378,
      378,
      379,
      380,
      381,
      383,
      383,
      385,
      386,
      387,
      388,
      388,
      389,
      389,
      388,
      388,
      389,
      392,
      411,
      415,
      409,
      402,
      391,
      380,
      373,
      369,
      366,
      359,
      357,
      352,
      356,
      350,
      349,
      331,
      297,
      277,
      239,
      241,
      235,
      240,
      232,
      204,
      186,
      175,
      174,
      142,
      142
    ],
    "swim:timestamps": [
      1784958704,
      1784958759,
      1784958765,
      1784958825,
      1784958885,
      1784958945,
      1784959005,
      1784959065,
      1784959125,
      1784959185,
      1784959245,
      1784959305,
      1784959365,
      1784959425,
      1784959485,
      1784959545,
      1784959605,
      1784959665,
      1784959725,
      1784959785,
      1784959845,
      1784959905,
      1784959965,
      1784960025,
      1784960085,
      1784960145,
      1784960205,
      1784960265,
      1784960326,
      1784960386,
      1784960446,
      1784960506,
      1784960566,
      1784960626,
      1784960686,
      1784960746,
      1784960806,
      1784960866,
      1784960926,
      1784960986,
      1784961046,
      1784961106,
      1784961166,
      1784961226,
      1784961286,
      1784961294,
      1784961354,
      1784961414,
      1784961466,
      1784961474,
      1784961534,
      1784961594,
      1784961646,
      1784961654,
      1784961706,
      1784961714,
      1784961774,
      1784961826,
      1784961834,
      1784961886,
      1784961894,
      1784961954,
      1784962006,
      1784962014,
      1784962074,
      1784962134,
      1784962187,
      1784962194,
      1784962247,
      1784962254,
      1784962314,
      1784962367,
      1784962374,
      1784962427,
      1784962434,
      1784962494,
      1784962547,
      1784962607,
      1784962614,
      1784962674,
      1784962727,
      1784962787,
      1784962794,
      1784962855,
      1784962915,
      1784962967,
      1784962975,
      1784963027,
      1784963035,
      1784963095,
      1784963147,
      1784963155,
      1784963207,
      1784963215,
      1784963267,
      1784963275,
      1784963327,
      1784963335,
      1784963395,
      1784963455,
      1784963515,
      1784963575,
      1784963635,
      1784963695,
      1784963755,
      1784963815,
      1784963875,
      1784963935,
      1784963995,
      1784964055,
      1784964115,
      1784964175,
      1784964235,
      1784964295,
      1784964326,
      1784964350,
      1784964404,
      1784964415,
      1784964475,
      1784964535,
      1784964595,
      1784964655,
      1784964716,
      1784964776,
      1784964836,
      1784964896,
      1784964956,
      1784965016,
      1784965076,
      1784965083,
      1784965136,
      1784965196,
      1784965256,
      1784965316
    ],
    "wof:geomhash": "625b254eeecf8724c7e412437a196a62",
    "wof:id": 2031953943,
    "wof:repo": "sfomuseum-data-flights-2026-07"
  },
  "bbox": [
    -123.32833333333333,
    37.43416666666666,
    -122.12055555555555,
    47.38194444444444
  ],
  "geometry": {"coordinates":[[-122.31027777777777,47.38194444444444],[-122.32888888888888,47.32416666666667],[-122.33083333333333,47.323888888888895],[-122.43305555555555,47.30722222222222],[-122.54277777777777,47.30972222222222],[-122.66166666666668,47.312777777777775],[-122.79722222222222,47.30833333333333],[-122.92833333333334,47.27361111111111],[-123.03472222222221,47.21611111111111],[-123.04833333333333,47.11666666666667],[-123.05944444444444,47.01361111111111],[-123.07083333333333,46.911944444444444],[-123.08083333333333,46.819722222222225],[-123.09305555555555,46.71],[-123.10527777777777,46.6],[-123.11777777777777,46.48722222222222],[-123.13,46.37416666666667],[-123.14222222222223,46.26416666666667],[-123.1538888888889,46.15694444444444],[-123.16555555555556,46.04972222222222],[-123.17694444444444,45.94472222222222],[-123.18805555555556,45.842222222222226],[-123.19916666666667,45.73694444444445],[-123.21027777777778,45.6325],[-123.2213888888889,45.529444444444444],[-123.23277777777778,45.42361111111111],[-123.24361111111111,45.31916666666667],[-123.255,45.213055555555556],[-123.26583333333333,45.10861111111111],[-123.27666666666667,45.004444444444445],[-123.2875,44.9],[-123.29833333333333,44.795833333333334],[-123.30944444444444,44.691111111111105],[-123.32027777777778,44.58583333333333],[-123.32833333333333,44.48305555555556],[-123.32388888888889,44.37833333333333],[-123.31972222222223,44.27166666666667],[-123.31583333333333,44.1675],[-123.31166666666667,44.0625],[-123.30749999999999,43.96388888888889],[-123.30333333333333,43.858333333333334],[-123.29944444444445,43.75472222222222],[-123.29527777777777,43.649166666666666],[-123.2911111111111,43.54472222222222],[-123.28694444444444,43.439166666666665],[-123.28361111111111,43.42027777777778],[-123.28305555555555,43.316111111111105],[-123.27666666666667,43.212500000000006],[-123.275,43.12722222222222],[-123.27333333333333,43.10861111111111],[-123.27,43.00472222222222],[-123.26638888888888,42.902499999999996],[-123.26305555555555,42.81666666666667],[-123.2625,42.799166666666665],[-123.25916666666667,42.71416666666667],[-123.25916666666667,42.696666666666665],[-123.25416666666666,42.59388888888889],[-123.25138888888888,42.51111111111111],[-123.25055555555555,42.49138888888889],[-123.24777777777778,42.40888888888889],[-123.24722222222222,42.38972222222222],[-123.24333333333334,42.288888888888884],[-123.24,42.20666666666667],[-123.23944444444444,42.18722222222222],[-123.23555555555555,42.085],[-123.23222222222222,41.983333333333334],[-123.22888888888889,41.900277777777774],[-123.22833333333334,41.87888888888889],[-123.22555555555556,41.79722222222222],[-123.22472222222223,41.77583333333333],[-123.22083333333333,41.6725],[-123.21777777777778,41.58888888888889],[-123.21694444444445,41.56861111111112],[-123.21333333333334,41.464444444444446],[-123.21333333333334,41.46333333333334],[-123.20972222222223,41.35611111111111],[-123.20694444444445,41.25888888888889],[-123.20444444444445,41.15138888888889],[-123.2038888888889,41.132777777777775],[-123.20138888888889,41.02472222222222],[-123.19888888888889,40.93944444444444],[-123.19611111111111,40.83166666666667],[-123.19555555555556,40.81194444444444],[-123.19305555555556,40.708333333333336],[-123.19055555555556,40.603611111111114],[-123.18833333333333,40.51555555555556],[-123.18805555555556,40.5],[-123.18555555555555,40.40972222222222],[-123.18527777777778,40.39527777777778],[-123.18277777777779,40.28944444444444],[-123.18055555555556,40.1975],[-123.18027777777779,40.183611111111105],[-123.17777777777778,40.09055555555556],[-123.17750000000001,40.077222222222225],[-123.17527777777778,39.981388888888894],[-123.17500000000001,39.97],[-123.17055555555557,39.871944444444445],[-123.17,39.86194444444445],[-123.165,39.75416666666667],[-123.16027777777778,39.64666666666667],[-123.15527777777778,39.53916666666667],[-123.15,39.42166666666667],[-123.14500000000001,39.31388888888888],[-123.14,39.20638888888889],[-123.12916666666666,39.09666666666667],[-123.05888888888889,38.99777777777778],[-122.98,38.89972222222222],[-122.93472222222222,38.79222222222222],[-122.9025,38.68388888888889],[-122.87138888888889,38.577222222222225],[-122.84083333333332,38.475],[-122.81083333333333,38.37361111111111],[-122.7825,38.275],[-122.7538888888889,38.177499999999995],[-122.73333333333333,38.13333333333333],[-122.73333333333333,38.083333333333336],[-122.7,38],[-122.69833333333334,37.98555555555556],[-122.66611111111112,37.89611111111111],[-122.59305555555555,37.82361111111111],[-122.5175,37.7525],[-122.45,37.68888888888888],[-122.38555555555556,37.62833333333333],[-122.33333333333333,37.56666666666667],[-122.30805555555555,37.50888888888889],[-122.23333333333333,37.46666666666667],[-122.17333333333333,37.43416666666666],[-122.12055555555555,37.473055555555554],[-122.1575,37.52388888888889],[-122.16666666666667,37.53333333333333],[-122.2088888888889,37.551111111111105],[-122.26194444444444,37.57361111111111],[-122.30638888888889,37.592222222222226],[-122.35027777777778,37.61055555555556]],"type":"LineString"}
}
