{
  "id": 2032003847,
  "type": "Feature",
  "properties": {
    "geom:area": 0,
    "geom:bbox": "-122.331111,33.918056,-118.440833,37.600278",
    "geom:latitude": 35.54447083315684,
    "geom:longitude": -120.71508445350013,
    "src:alt_label": "swim-path",
    "src:geom": "swim",
    "swim:altitudes": [
      "007",
      "020",
      "038",
      "058",
      "079",
      "101",
      "112",
      "134",
      "152",
      "172",
      "195",
      "213",
      "230",
      "248",
      "265",
      "301",
      "319",
      "327",
      "338C",
      "340C",
      "340C",
      "340C",
      "340C",
      "340",
      "333",
      "323",
      "313",
      "303",
      "293",
      "269",
      "259",
      "253",
      "241",
      "231",
      "221",
      "205",
      "193",
      "175",
      "159",
      "144",
      "129",
      "114",
      "101",
      "097",
      "095",
      "087",
      "064",
      "061",
      "051",
      "040",
      "040",
      "030",
      "021",
      "013",
      "005"
    ],
    "swim:geom": "path",
    "swim:speeds": [
      177,
      220,
      258,
      272,
      283,
      289,
      334,
      337,
      363,
      381,
      386,
      394,
      412,
      417,
      424,
      458,
      448,
      453,
      459,
      459,
      455,
      434,
      426,
      424,
      397,
      389,
      392,
      392,
      414,
      422,
      409,
      402,
      388,
      381,
      371,
      347,
      344,
      335,
      329,
      324,
      321,
      306,
      298,
      254,
      245,
      239,
      255,
      235,
      236,
      231,
      201,
      178,
      176,
      169,
      153
    ],
    "swim:timestamps": [
      1785296629,
      1785296689,
      1785296749,
      1785296809,
      1785296869,
      1785296929,
      1785296989,
      1785297049,
      1785297109,
      1785297170,
      1785297230,
      1785297295,
      1785297350,
      1785297415,
      1785297475,
      1785297650,
      1785297716,
      1785297776,
      1785297836,
      1785297891,
      1785297951,
      1785298011,
      1785298131,
      1785298196,
      1785298251,
      1785298311,
      1785298371,
      1785298436,
      1785298496,
      1785298616,
      1785298652,
      1785298676,
      1785298737,
      1785298797,
      1785298857,
      1785298928,
      1785298977,
      1785299037,
      1785299097,
      1785299157,
      1785299217,
      1785299277,
      1785299337,
      1785299397,
      1785299408,
      1785299457,
      1785299517,
      1785299577,
      1785299637,
      1785299697,
      1785299757,
      1785299878,
      1785299938,
      1785299998,
      1785300058
    ],
    "wof:geomhash": "6f1f9eb0515203c6b766fb9aa19ad4aa",
    "wof:id": 2032003847,
    "wof:repo": "sfomuseum-data-flights-2026-07"
  },
  "bbox": [
    -122.33111111111111,
    33.918055555555554,
    -118.44083333333333,
    37.60027777777778
  ],
  "geometry": {"coordinates":[[-118.44083333333333,33.94638888888888],[-118.50638888888889,33.942499999999995],[-118.5911111111111,33.93527777777778],[-118.68111111111112,33.92861111111111],[-118.7761111111111,33.921388888888885],[-118.87277777777777,33.918055555555554],[-118.97694444444444,33.92583333333333],[-119.05722222222222,33.994166666666665],[-119.14055555555557,34.06472222222222],[-119.22888888888889,34.14111111111111],[-119.31916666666666,34.21944444444445],[-119.41944444444445,34.30555555555555],[-119.50833333333334,34.38166666666667],[-119.615,34.471944444444446],[-119.71888888888888,34.56166666666666],[-120.03138888888888,34.82666666666667],[-120.14,34.91861111111111],[-120.24861111111112,35.009166666666665],[-120.35749999999999,35.100833333333334],[-120.45666666666666,35.183611111111105],[-120.56361111111111,35.272777777777776],[-120.66722222222222,35.35888888888889],[-120.86333333333333,35.533055555555556],[-120.96416666666667,35.64083333333333],[-121.07833333333333,35.69638888888888],[-121.20916666666668,35.70888888888889],[-121.34305555555555,35.72166666666667],[-121.47805555555556,35.736666666666665],[-121.56694444444445,35.815555555555555],[-121.60916666666667,36.04972222222222],[-121.61666666666666,36.11666666666667],[-121.63166666666666,36.16138888888889],[-121.65333333333334,36.2675],[-121.67444444444445,36.37138888888889],[-121.69527777777778,36.473888888888894],[-121.76666666666667,36.583333333333336],[-121.81472222222222,36.64138888888889],[-121.87972222222221,36.723055555555554],[-121.91388888888889,36.81194444444444],[-121.93777777777778,36.89722222222222],[-121.9825,36.976111111111116],[-122.04666666666667,37.04694444444444],[-122.1061111111111,37.11222222222222],[-122.16083333333334,37.1725],[-122.16666666666667,37.18333333333333],[-122.2088888888889,37.226111111111116],[-122.26027777777777,37.283055555555556],[-122.27222222222223,37.34444444444445],[-122.20055555555555,37.375],[-122.1438888888889,37.4175],[-122.11055555555555,37.46944444444445],[-122.17527777777778,37.53472222222222],[-122.23027777777779,37.55777777777777],[-122.28305555555555,37.580000000000005],[-122.33111111111111,37.60027777777778]],"type":"LineString"}
}
