{
  "id": 2032039697,
  "type": "Feature",
  "properties": {
    "geom:area": 0,
    "geom:bbox": "-122.457222,34.197778,-118.356667,37.637222",
    "geom:latitude": 35.79634338005263,
    "geom:longitude": -120.52887867110701,
    "src:alt_label": "swim-path",
    "src:geom": "swim",
    "swim:altitudes": [
      "005",
      "026",
      "031",
      "038",
      "110",
      "152",
      "174",
      "191",
      "209",
      "224",
      "237",
      "290C",
      "290C",
      "290C",
      "290C",
      "290C",
      "290",
      "290",
      "290",
      "288",
      "281",
      "239",
      "219",
      "205",
      "185",
      "162",
      "143",
      "133",
      "107",
      "068",
      "060",
      "056",
      "050",
      "040",
      "039",
      "031",
      "020",
      "012",
      "007"
    ],
    "swim:geom": "path",
    "swim:speeds": [
      152,
      145,
      140,
      198,
      335,
      383,
      397,
      400,
      419,
      434,
      436,
      452,
      445,
      442,
      440,
      439,
      438,
      438,
      438,
      439,
      439,
      434,
      411,
      401,
      392,
      379,
      366,
      347,
      311,
      295,
      280,
      242,
      224,
      197,
      199,
      199,
      186,
      142,
      138
    ],
    "swim:timestamps": [
      1785426863,
      1785426914,
      1785426923,
      1785426974,
      1785427154,
      1785427275,
      1785427335,
      1785427397,
      1785427455,
      1785427515,
      1785427577,
      1785427818,
      1785427878,
      1785427938,
      1785428058,
      1785428308,
      1785428368,
      1785428419,
      1785428428,
      1785428548,
      1785428599,
      1785428729,
      1785428789,
      1785428839,
      1785428899,
      1785428969,
      1785429029,
      1785429080,
      1785429195,
      1785429380,
      1785429440,
      1785429490,
      1785429560,
      1785429610,
      1785429621,
      1785429676,
      1785429741,
      1785429801,
      1785429861
    ],
    "wof:geomhash": "b48ecf45a044ba4e213c4948f550d67d",
    "wof:id": 2032039697,
    "wof:repo": "sfomuseum-data-flights-2026-07"
  },
  "bbox": [
    -122.45722222222223,
    34.19777777777777,
    -118.35666666666665,
    37.63722222222222
  ],
  "geometry": {"coordinates":[[-122.38333333333334,37.61666666666667],[-122.41833333333334,37.63722222222222],[-122.43333333333334,37.63333333333333],[-122.45722222222223,37.623333333333335],[-122.35944444444443,37.405277777777776],[-122.17916666666667,37.25361111111111],[-122.08416666666666,37.17388888888889],[-121.99805555555555,37.09583333333334],[-121.88777777777779,37.0075],[-121.785,36.919999999999995],[-121.69277777777778,36.835],[-121.24416666666667,36.45444444444445],[-121.14222222222223,36.36388888888889],[-121.04472222222222,36.26861111111111],[-120.85305555555556,36.08083333333334],[-120.48694444444445,35.719166666666666],[-120.37333333333332,35.60611111111111],[-120.29444444444444,35.529444444444444],[-120.27527777777777,35.51111111111111],[-120.0761111111111,35.319722222222225],[-120.0025,35.24861111111111],[-119.7875,35.040277777777774],[-119.69583333333334,34.950833333333335],[-119.62944444444443,34.88611111111111],[-119.52805555555555,34.81444444444444],[-119.40527777777778,34.73305555555556],[-119.3086111111111,34.66972222222222],[-119.23583333333333,34.62722222222222],[-119.03333333333333,34.53333333333333],[-118.84194444444444,34.35305555555556],[-118.76722222222222,34.30416666666667],[-118.71666666666667,34.266666666666666],[-118.64027777777778,34.220555555555556],[-118.58333333333333,34.2],[-118.58138888888888,34.200833333333335],[-118.51666666666667,34.2],[-118.44805555555556,34.19916666666666],[-118.39805555555556,34.19833333333333],[-118.35666666666665,34.19777777777777]],"type":"LineString"}
}
