{
  "id": 2032033753,
  "type": "Feature",
  "properties": {
    "geom:area": 0,
    "geom:bbox": "-122.358440,37.440400,-121.245590,37.614230",
    "geom:latitude": 37.53280246890937,
    "geom:longitude": -121.81000585181376,
    "src:alt_label": "swim-approach",
    "src:geom": "swim",
    "swim:elevations": [
      4772,
      4591,
      4558,
      4262,
      3948,
      3853,
      3506,
      3353,
      3276,
      3109,
      2944,
      2743,
      2650,
      2560,
      2467,
      2381,
      2227,
      2135,
      2128,
      1949,
      1829,
      1769,
      1601,
      1523,
      1330,
      1076,
      997,
      876,
      762,
      605,
      468,
      447,
      331,
      272,
      201,
      89,
      256
    ],
    "swim:geom": "approach",
    "swim:timestamps": [
      1785440183,
      1785440200,
      1785440204,
      1785440231,
      1785440262,
      1785440270,
      1785440304,
      1785440352,
      1785440391,
      1785440418,
      1785440443,
      1785440507,
      1785440537,
      1785440552,
      1785440567,
      1785440608,
      1785440634,
      1785440664,
      1785440688,
      1785440720,
      1785440747,
      1785440783,
      1785440807,
      1785440834,
      1785440872,
      1785440907,
      1785440916,
      1785440936,
      1785440957,
      1785440994,
      1785441026,
      1785441038,
      1785441071,
      1785441088,
      1785441111,
      1785441146,
      1785441167
    ],
    "wof:geomhash": "a2af321c74844f0ea2d9ebea8f9cac10",
    "wof:id": 2032033753,
    "wof:repo": "sfomuseum-data-flights-2026-07"
  },
  "bbox": [
    -122.35844,
    37.4404,
    -121.24559,
    37.61423
  ],
  "geometry": {"coordinates":[[-121.24559,37.59469],[-121.28022,37.58984],[-121.28958,37.58856],[-121.34226,37.58239],[-121.40398,37.57594],[-121.41987,37.57415],[-121.48733,37.56625],[-121.57514,37.55598],[-121.63488,37.54821],[-121.67331,37.54417],[-121.70696,37.55512],[-121.78985,37.55665],[-121.79589,37.52413],[-121.78958,37.50819],[-121.78295,37.49144],[-121.8052,37.45281],[-121.84113,37.44709],[-121.8815,37.44348],[-121.91523,37.4404],[-121.958,37.44532],[-121.99129,37.45896],[-122.03398,37.47718],[-122.06174,37.48899],[-122.09286,37.50221],[-122.13403,37.51957],[-122.16639,37.53319],[-122.17465,37.53666],[-122.19362,37.54463],[-122.21419,37.55345],[-122.24465,37.56623],[-122.26907,37.57655],[-122.27658,37.57971],[-122.29799,37.58867],[-122.30899,37.59333],[-122.32415,37.59958],[-122.34581,37.60876],[-122.35844,37.61423]],"type":"LineString"}
}
