{
  "id": 2032048825,
  "type": "Feature",
  "properties": {
    "geom:area": 0,
    "geom:bbox": "-122.351090,37.491150,-121.255420,37.611010",
    "geom:latitude": 37.541800416042484,
    "geom:longitude": -121.81004991541596,
    "src:alt_label": "swim-approach",
    "src:geom": "swim",
    "swim:elevations": [
      4602,
      4484,
      4318,
      4133,
      3816,
      3627,
      3280,
      3126,
      2875,
      2636,
      2473,
      2438,
      2354,
      2191,
      2059,
      1953,
      1845,
      1827,
      1679,
      1526,
      1194,
      1065,
      960,
      876,
      754,
      718,
      549,
      410,
      304,
      275,
      182,
      107,
      56
    ],
    "swim:geom": "approach",
    "swim:timestamps": [
      1785539230,
      1785539243,
      1785539261,
      1785539283,
      1785539320,
      1785539342,
      1785539387,
      1785539409,
      1785539435,
      1785539454,
      1785539472,
      1785539503,
      1785539543,
      1785539576,
      1785539597,
      1785539618,
      1785539638,
      1785539644,
      1785539674,
      1785539709,
      1785539756,
      1785539774,
      1785539796,
      1785539817,
      1785539841,
      1785539850,
      1785539903,
      1785539937,
      1785539964,
      1785539973,
      1785540000,
      1785540021,
      1785540034
    ],
    "wof:geomhash": "8d3f4d49cdefaa4caf101444a6e06231",
    "wof:id": 2032048825,
    "wof:repo": "sfomuseum-data-flights-2026-07"
  },
  "bbox": [
    -122.35109,
    37.49115,
    -121.25542,
    37.61101
  ],
  "geometry": {"coordinates":[[-121.25542,37.59347],[-121.28217,37.58979],[-121.31896,37.58515],[-121.36468,37.58004],[-121.43801,37.57194],[-121.48304,37.56678],[-121.56815,37.55679],[-121.60686,37.55232],[-121.65035,37.54419],[-121.68077,37.5367],[-121.7096,37.52972],[-121.75652,37.51848],[-121.81471,37.50464],[-121.86239,37.49327],[-121.8937,37.49115],[-121.92518,37.49328],[-121.95468,37.49519],[-121.9637,37.49568],[-122.00838,37.49819],[-122.05801,37.50103],[-122.11704,37.51188],[-122.1375,37.52102],[-122.16093,37.53075],[-122.18124,37.5395],[-122.20361,37.54898],[-122.21176,37.55237],[-122.25852,37.57212],[-122.28322,37.58247],[-122.3022,37.59041],[-122.30856,37.59311],[-122.32793,37.60125],[-122.34226,37.60725],[-122.35109,37.61101]],"type":"LineString"}
}
