{
  "id": 2032009999,
  "type": "Feature",
  "properties": {
    "geom:area": 0,
    "geom:bbox": "-122.340833,37.576667,-95.783056,42.856111",
    "geom:latitude": 39.75168186581455,
    "geom:longitude": -105.92307100872415,
    "src:alt_label": "swim-path",
    "src:geom": "swim",
    "swim:altitudes": [
      "033",
      "052",
      "077",
      "103",
      "115",
      "139",
      "159",
      "200",
      "217",
      "244",
      "260",
      "265",
      "273",
      "277",
      "284",
      "288",
      "297",
      "303",
      "311",
      "315",
      "322",
      "326",
      "333",
      "338",
      "346",
      "350",
      "350",
      "352",
      "360",
      "362",
      "369C",
      "370C",
      "370C",
      "370C",
      "370C",
      "370C",
      "370C",
      "370C",
      "370C",
      "370C",
      "370C",
      "370C",
      "370C",
      "370C",
      "370C",
      "370C",
      "370C",
      "370C",
      "370C",
      "370C",
      "370C",
      "370C",
      "370C",
      "370C",
      "370C",
      "370C",
      "370C",
      "370C",
      "370C",
      "370C",
      "370C",
      "370C",
      "370C",
      "370C",
      "370C",
      "370C",
      "370C",
      "370C",
      "370C",
      "370C",
      "370C",
      "370C",
      "370C",
      "370C",
      "370C",
      "370C",
      "370C",
      "370C",
      "370C",
      "370C",
      "370C",
      "370C",
      "370C",
      "370C",
      "370C",
      "370C",
      "370C",
      "370C",
      "370C",
      "370C",
      "370C",
      "370C",
      "370C",
      "370C",
      "370C",
      "370C",
      "370C",
      "370C",
      "370C",
      "370C",
      "370C",
      "370C",
      "370C",
      "370C",
      "370C",
      "370C",
      "370C",
      "370C",
      "370C",
      "370C",
      "370C",
      "370C",
      "370C",
      "370C",
      "370C",
      "370C",
      "370C",
      "370C",
      "370C",
      "370C",
      "370C",
      "370C",
      "370C",
      "370C",
      "370C",
      "370C",
      "370C",
      "370C",
      "370C",
      "370C",
      "370C",
      "370C",
      "370C",
      "370C",
      "370C",
      "370C",
      "370C",
      "370C",
      "370C",
      "370C",
      "370C",
      "370C",
      "367",
      "357",
      "350C",
      "348",
      "340C",
      "340C",
      "340C",
      "340C",
      "340C",
      "340C",
      "340",
      "333",
      "324",
      "320C",
      "320C",
      "320C",
      "320C",
      "320C",
      "320C",
      "320C",
      "320C",
      "320C",
      "320C",
      "320C",
      "320C",
      "320C",
      "320C",
      "320C",
      "320",
      "317",
      "312C",
      "310C",
      "310C",
      "310C",
      "310C",
      "310C",
      "310C",
      "310C",
      "310C",
      "310C",
      "310C",
      "310C",
      "308",
      "303",
      "297",
      "292",
      "286",
      "282",
      "276",
      "272",
      "261",
      "251",
      "241",
      "231",
      "221",
      "211",
      "201",
      "181",
      "164",
      "160",
      "160C",
      "153",
      "144",
      "132",
      "121",
      "111",
      "104",
      "103",
      "098",
      "089",
      "082",
      "072",
      "065",
      "053",
      "045",
      "036",
      "029",
      "025",
      "023",
      "018",
      "014",
      "010",
      "016",
      "030",
      "054",
      "075",
      "101",
      "112",
      "139",
      "158",
      "178",
      "200",
      "213",
      "228",
      "240",
      "252",
      "264",
      "272",
      "264",
      "260C",
      "260C",
      "260C",
      "260C",
      "260C",
      "260C",
      "260C",
      "260C",
      "260C",
      "260C",
      "260C",
      "260C",
      "260C",
      "260C",
      "260C",
      "260C",
      "260C",
      "260C",
      "260C",
      "260C",
      "260C",
      "260C",
      "260C",
      "260C",
      "260C",
      "260C",
      "260C",
      "260C",
      "260C",
      "260C",
      "260C",
      "260C",
      "260C",
      "260C",
      "260C",
      "260C",
      "260C",
      "260C",
      "260C",
      "260C",
      "260C",
      "260C",
      "260C",
      "260",
      "260",
      "260",
      "260",
      "257",
      "229",
      "212",
      "202",
      "200",
      "188",
      "184",
      "171",
      "163",
      "160C",
      "148",
      "146",
      "140",
      "131",
      "121",
      "119",
      "109",
      "106",
      "100",
      "092",
      "089",
      "080",
      "071",
      "068",
      "061",
      "054",
      "054"
    ],
    "swim:geom": "path",
    "swim:speeds": [
      229,
      267,
      282,
      299,
      360,
      376,
      393,
      417,
      431,
      468,
      471,
      476,
      479,
      476,
      491,
      482,
      496,
      491,
      496,
      497,
      497,
      497,
      499,
      498,
      498,
      498,
      495,
      497,
      493,
      495,
      490,
      491,
      488,
      489,
      488,
      488,
      488,
      489,
      488,
      485,
      484,
      483,
      482,
      481,
      481,
      481,
      480,
      480,
      480,
      477,
      473,
      472,
      471,
      468,
      467,
      468,
      469,
      470,
      472,
      475,
      476,
      476,
      480,
      485,
      484,
      485,
      486,
      488,
      488,
      489,
      490,
      489,
      487,
      487,
      487,
      488,
      489,
      489,
      488,
      485,
      481,
      478,
      477,
      475,
      473,
      471,
      471,
      463,
      453,
      451,
      448,
      446,
      444,
      441,
      438,
      437,
      436,
      445,
      445,
      445,
      445,
      462,
      476,
      484,
      479,
      478,
      479,
      480,
      481,
      484,
      487,
      489,
      490,
      491,
      492,
      493,
      493,
      492,
      491,
      494,
      496,
      497,
      499,
      501,
      504,
      507,
      508,
      509,
      508,
      503,
      500,
      498,
      498,
      498,
      497,
      496,
      496,
      495,
      477,
      475,
      474,
      474,
      476,
      475,
      473,
      473,
      471,
      439,
      426,
      424,
      450,
      479,
      481,
      481,
      482,
      482,
      481,
      479,
      477,
      478,
      485,
      485,
      515,
      515,
      518,
      517,
      520,
      519,
      519,
      519,
      519,
      520,
      519,
      519,
      518,
      516,
      516,
      515,
      514,
      515,
      515,
      516,
      516,
      517,
      518,
      511,
      498,
      487,
      483,
      478,
      475,
      470,
      455,
      449,
      439,
      431,
      424,
      423,
      417,
      396,
      383,
      373,
      373,
      381,
      378,
      385,
      381,
      356,
      348,
      298,
      291,
      276,
      273,
      272,
      272,
      273,
      267,
      228,
      214,
      172,
      155,
      151,
      153,
      152,
      172,
      209,
      245,
      288,
      299,
      365,
      397,
      407,
      418,
      418,
      429,
      436,
      448,
      454,
      460,
      459,
      457,
      452,
      451,
      450,
      449,
      448,
      449,
      449,
      506,
      455,
      454,
      453,
      454,
      456,
      457,
      458,
      458,
      458,
      459,
      460,
      461,
      463,
      464,
      467,
      468,
      469,
      471,
      470,
      466,
      465,
      465,
      465,
      465,
      464,
      469,
      472,
      470,
      457,
      454,
      452,
      449,
      437,
      428,
      413,
      410,
      412,
      415,
      435,
      445,
      450,
      422,
      385,
      388,
      374,
      376,
      362,
      319,
      322,
      313,
      314,
      283,
      259,
      254,
      256,
      250,
      252,
      244,
      243,
      228,
      203,
      185,
      188,
      166,
      163,
      77
    ],
    "swim:timestamps": [
      1785264782,
      1785264842,
      1785264902,
      1785264962,
      1785265022,
      1785265082,
      1785265142,
      1785265262,
      1785265322,
      1785265443,
      1785265503,
      1785265526,
      1785265563,
      1785265586,
      1785265623,
      1785265646,
      1785265683,
      1785265706,
      1785265743,
      1785265766,
      1785265803,
      1785265826,
      1785265863,
      1785265886,
      1785265923,
      1785265946,
      1785265983,
      1785266007,
      1785266043,
      1785266067,
      1785266103,
      1785266127,
      1785266164,
      1785266187,
      1785266224,
      1785266247,
      1785266284,
      1785266307,
      1785266344,
      1785266404,
      1785266427,
      1785266464,
      1785266487,
      1785266547,
      1785266584,
      1785266607,
      1785266667,
      1785266704,
      1785266728,
      1785266764,
      1785266788,
      1785266824,
      1785266848,
      1785266945,
      1785266968,
      1785267028,
      1785267077,
      1785267088,
      1785267148,
      1785267209,
      1785267328,
      1785267388,
      1785267448,
      1785267629,
      1785267941,
      1785268001,
      1785268061,
      1785268242,
      1785268302,
      1785268362,
      1785268422,
      1785268782,
      1785268842,
      1785268902,
      1785268962,
      1785269023,
      1785269085,
      1785269143,
      1785269205,
      1785269263,
      1785269326,
      1785269443,
      1785269506,
      1785269563,
      1785269623,
      1785269686,
      1785269744,
      1785269806,
      1785269878,
      1785269938,
      1785269998,
      1785270059,
      1785270119,
      1785270179,
      1785270239,
      1785270299,
      1785270359,
      1785270419,
      1785270479,
      1785270539,
      1785270599,
      1785270659,
      1785270719,
      1785270779,
      1785270840,
      1785270900,
      1785270960,
      1785271020,
      1785271080,
      1785271140,
      1785271200,
      1785271260,
      1785271320,
      1785271380,
      1785271440,
      1785271500,
      1785271561,
      1785271621,
      1785271681,
      1785271741,
      1785271801,
      1785271861,
      1785271921,
      1785271981,
      1785272041,
      1785272101,
      1785272161,
      1785272221,
      1785272281,
      1785272354,
      1785272414,
      1785272474,
      1785272534,
      1785272594,
      1785272654,
      1785272714,
      1785272774,
      1785272834,
      1785272894,
      1785272954,
      1785273014,
      1785273075,
      1785273135,
      1785273195,
      1785273255,
      1785273315,
      1785273375,
      1785273435,
      1785273495,
      1785273555,
      1785273675,
      1785273735,
      1785273796,
      1785273856,
      1785273916,
      1785273976,
      1785274036,
      1785274096,
      1785274156,
      1785274245,
      1785274276,
      1785274305,
      1785274336,
      1785274365,
      1785274396,
      1785274425,
      1785274456,
      1785274485,
      1785274545,
      1785274577,
      1785274605,
      1785274637,
      1785274665,
      1785274697,
      1785274725,
      1785274757,
      1785274785,
      1785274845,
      1785274877,
      1785274906,
      1785274937,
      1785274966,
      1785274997,
      1785275026,
      1785275057,
      1785275086,
      1785275117,
      1785275146,
      1785275177,
      1785275206,
      1785275237,
      1785275266,
      1785275326,
      1785275386,
      1785275446,
      1785275506,
      1785275566,
      1785275627,
      1785275687,
      1785275759,
      1785275819,
      1785275831,
      1785275879,
      1785275904,
      1785275939,
      1785275958,
      1785275999,
      1785276024,
      1785276059,
      1785276084,
      1785276119,
      1785276144,
      1785276179,
      1785276204,
      1785276239,
      1785276265,
      1785276299,
      1785276325,
      1785276360,
      1785276379,
      1785276420,
      1785276439,
      1785276480,
      1785276540,
      1785280915,
      1785280974,
      1785281034,
      1785281094,
      1785281154,
      1785281214,
      1785281274,
      1785281335,
      1785281395,
      1785281455,
      1785281515,
      1785281575,
      1785281635,
      1785281695,
      1785281755,
      1785281815,
      1785281875,
      1785281935,
      1785281995,
      1785282056,
      1785282116,
      1785282176,
      1785282236,
      1785282296,
      1785282351,
      1785282411,
      1785282471,
      1785282531,
      1785282591,
      1785282651,
      1785282711,
      1785282771,
      1785282777,
      1785282837,
      1785282892,
      1785282952,
      1785283012,
      1785283072,
      1785283132,
      1785283252,
      1785283312,
      1785283372,
      1785283432,
      1785283492,
      1785283552,
      1785283612,
      1785283673,
      1785283733,
      1785283793,
      1785283853,
      1785283913,
      1785283973,
      1785284033,
      1785284093,
      1785284153,
      1785284213,
      1785284273,
      1785284333,
      1785284394,
      1785284454,
      1785284514,
      1785284574,
      1785284634,
      1785284694,
      1785284700,
      1785284754,
      1785284814,
      1785284859,
      1785284874,
      1785284921,
      1785284934,
      1785284994,
      1785285036,
      1785285054,
      1785285096,
      1785285115,
      1785285175,
      1785285235,
      1785285276,
      1785285295,
      1785285336,
      1785285355,
      1785285415,
      1785285475,
      1785285535,
      1785285579,
      1785285637,
      1785285655,
      1785285715,
      1785285775,
      1785285835
    ],
    "wof:geomhash": "7f73affec34426500800379e66e8b4a1",
    "wof:id": 2032009999,
    "wof:repo": "sfomuseum-data-flights-2026-07"
  },
  "bbox": [
    -122.34083333333332,
    37.57666666666667,
    -95.78305555555555,
    42.85611111111111
  ],
  "geometry": {"coordinates":[[-122.34083333333332,37.67361111111111],[-122.2575,37.702222222222225],[-122.17194444444445,37.73972222222222],[-122.08333333333333,37.780833333333334],[-121.96861111111112,37.80555555555555],[-121.84222222222222,37.833333333333336],[-121.70916666666668,37.86194444444445],[-121.42555555555556,37.922777777777775],[-121.2786111111111,37.95416666666667],[-120.96666666666667,38.011944444444445],[-120.80499999999999,38.036944444444444],[-120.74888888888889,38.043055555555554],[-120.6388888888889,38.0625],[-120.58361111111111,38.06944444444445],[-120.4713888888889,38.08777777777778],[-120.41305555555556,38.095],[-120.29722222222222,38.11361111111111],[-120.23972222222223,38.121944444444445],[-120.1275,38.13916666666667],[-120.06527777777778,38.145833333333336],[-119.95527777777778,38.16444444444444],[-119.89222222222223,38.17055555555555],[-119.77972222222222,38.19],[-119.71944444444445,38.19555555555555],[-119.60722222222222,38.21472222222223],[-119.54888888888888,38.221111111111114],[-119.41250000000001,38.242222222222225],[-119.3786111111111,38.245],[-119.24416666666667,38.26555555555556],[-119.20944444444444,38.26916666666666],[-119.07638888888889,38.288888888888884],[-119.04083333333332,38.2925],[-118.90694444444445,38.31194444444444],[-118.83944444444444,38.32083333333334],[-118.73611111111111,38.335],[-118.67055555555557,38.34277777777778],[-118.56777777777778,38.35777777777778],[-118.50277777777778,38.36638888888889],[-118.4,38.37972222222222],[-118.23083333333334,38.401666666666664],[-118.1675,38.41],[-118.06583333333333,38.42305555555555],[-118.00194444444445,38.43138888888889],[-117.83277777777778,38.45277777777778],[-117.75194444444445,38.463055555555556],[-117.66666666666667,38.47361111111111],[-117.49833333333333,38.49444444444445],[-117.415,38.50472222222222],[-117.33277777777778,38.514722222222225],[-117.22972222222222,38.515277777777776],[-117.16472222222222,38.50972222222222],[-117.06444444444445,38.50083333333333],[-117.00222222222222,38.495555555555555],[-116.73611111111111,38.47138888888889],[-116.66194444444444,38.464444444444446],[-116.4975,38.44916666666666],[-116.36333333333333,38.43666666666666],[-116.33027777777778,38.433611111111105],[-116.16333333333334,38.42027777777778],[-115.99333333333334,38.41777777777777],[-115.6575,38.4125],[-115.4888888888889,38.409166666666664],[-115.31777777777778,38.40611111111111],[-114.80888888888889,38.394444444444446],[-113.91722222222222,38.368611111111115],[-113.745,38.363055555555555],[-113.57416666666666,38.35722222222223],[-113.05555555555556,38.337500000000006],[-112.88166666666666,38.330555555555556],[-112.7088888888889,38.323055555555555],[-112.53361111111111,38.315555555555555],[-111.49333333333334,38.264722222222225],[-111.32055555555556,38.25527777777778],[-111.15055555555556,38.24583333333334],[-110.97777777777777,38.23583333333333],[-110.81861111111111,38.22666666666667],[-110.64833333333334,38.21638888888889],[-110.47777777777777,38.20611111111111],[-110.30694444444444,38.195277777777775],[-110.13666666666667,38.18416666666666],[-109.96861111111112,38.17305555555555],[-109.63527777777779,38.150555555555556],[-109.47,38.138888888888886],[-109.30305555555556,38.12694444444445],[-109.13805555555557,38.11472222222223],[-108.97583333333334,38.10277777777778],[-108.81,38.108333333333334],[-108.65,38.117777777777775],[-108.45916666666668,38.11027777777778],[-108.3111111111111,38.07361111111111],[-108.15444444444445,38.01638888888889],[-108.01472222222222,37.96027777777778],[-107.885,37.89527777777778],[-107.74194444444444,37.82333333333334],[-107.61305555555555,37.76],[-107.48916666666666,37.68833333333333],[-107.36833333333333,37.61555555555556],[-107.21888888888888,37.581388888888895],[-107.06666666666666,37.57666666666667],[-106.9113888888889,37.58361111111111],[-106.75555555555556,37.59111111111111],[-106.595,37.60027777777778],[-106.45416666666667,37.61972222222222],[-106.2975,37.67305555555555],[-106.14166666666668,37.72666666666667],[-105.9888888888889,37.77861111111111],[-105.83388888888888,37.83111111111111],[-105.67833333333334,37.88361111111111],[-105.52,37.93666666666666],[-105.36138888888888,37.989444444444445],[-105.20333333333333,38.04194444444444],[-105.0425,38.09444444444445],[-104.8825,38.14694444444444],[-104.72111111111111,38.19972222222222],[-104.55888888888889,38.2525],[-104.40055555555556,38.309999999999995],[-104.26138888888889,38.38361111111111],[-104.11749999999999,38.459722222222226],[-103.96805555555555,38.538888888888884],[-103.82027777777778,38.61611111111111],[-103.67166666666667,38.69333333333333],[-103.52527777777777,38.76972222222222],[-103.35833333333333,38.85666666666667],[-103.20944444444444,38.93277777777777],[-103.05833333333334,39.01027777777778],[-102.90666666666667,39.08694444444445],[-102.75277777777778,39.16555555555556],[-102.61999999999999,39.2325],[-102.46805555555555,39.30916666666666],[-102.30055555555555,39.35055555555556],[-102.0886111111111,39.33694444444445],[-101.91166666666668,39.325],[-101.7325,39.3125],[-101.55722222222222,39.301111111111105],[-101.38055555555555,39.29],[-101.21194444444444,39.32055555555556],[-101.04916666666666,39.37638888888889],[-100.89722222222223,39.44194444444444],[-100.8586111111111,39.571111111111115],[-100.83805555555556,39.7],[-100.81638888888888,39.830000000000005],[-100.79444444444444,39.96194444444445],[-100.77277777777778,40.0925],[-100.75166666666667,40.22361111111111],[-100.73055555555555,40.35333333333333],[-100.7088888888889,40.4825],[-100.69,40.638888888888886],[-100.75666666666666,40.722500000000004],[-100.90916666666668,40.743611111111115],[-101.06055555555555,40.71805555555556],[-101.31805555555555,40.79083333333333],[-101.30027777777778,40.92194444444444],[-101.26277777777777,41.053888888888885],[-101.22611111111111,41.1875],[-101.19111111111111,41.31777777777778],[-101.15472222222223,41.452222222222225],[-101.11999999999999,41.58277777777778],[-101.0825,41.71083333333333],[-101.04416666666667,41.83972222222222],[-100.98333333333333,42.02166666666667],[-100.96138888888889,42.098333333333336],[-100.90444444444445,42.13861111111111],[-100.79916666666666,42.165277777777774],[-100.71777777777778,42.15833333333333],[-100.60638888888889,42.14138888888889],[-100.53138888888888,42.13055555555555],[-100.41638888888889,42.106944444444444],[-100.34722222222221,42.07916666666667],[-100.17750000000001,41.99027777777778],[-100.095,41.947222222222216],[-100.01583333333333,41.905833333333334],[-99.93472222222222,41.863055555555555],[-99.85805555555555,41.82277777777778],[-99.77805555555555,41.780277777777776],[-99.70444444444445,41.74138888888889],[-99.62277777777777,41.69777777777777],[-99.54944444444445,41.65861111111111],[-99.39472222222223,41.57555555555556],[-99.31055555555555,41.53],[-99.23833333333333,41.490833333333335],[-99.1563888888889,41.446666666666665],[-99.085,41.407777777777774],[-98.99888888888889,41.361111111111114],[-98.96138888888889,41.34055555555556],[-98.8461111111111,41.277499999999996],[-98.77638888888889,41.23916666666667],[-98.69444444444444,41.19416666666666],[-98.62888888888888,41.15833333333333],[-98.55055555555555,41.115],[-98.48777777777778,41.08027777777778],[-98.41083333333334,41.0375],[-98.34444444444443,41.01027777777778],[-98.18,41.020833333333336],[-98.02638888888889,41.061388888888885],[-97.87555555555555,41.10166666666667],[-97.72555555555556,41.14111111111111],[-97.57916666666667,41.17972222222222],[-97.43305555555555,41.217777777777776],[-97.28666666666666,41.25555555555555],[-97.11861111111111,41.299166666666665],[-96.98694444444445,41.33305555555556],[-96.94333333333334,41.345],[-96.88305555555554,41.35944444444445],[-96.78138888888888,41.35444444444445],[-96.71666666666667,41.34305555555556],[-96.6588888888889,41.33277777777778],[-96.58,41.31888888888889],[-96.51166666666667,41.30722222222222],[-96.45277777777778,41.296388888888885],[-96.39222222222223,41.28527777777778],[-96.3461111111111,41.277499999999996],[-96.29166666666667,41.26638888888889],[-96.24777777777778,41.26083333333333],[-96.19666666666667,41.272777777777776],[-96.15583333333333,41.28861111111111],[-96.10666666666665,41.30888888888889],[-96.06972222222223,41.324444444444445],[-96.03777777777778,41.35277777777778],[-96.01027777777777,41.374722222222225],[-95.98472222222222,41.38055555555555],[-95.95444444444445,41.36388888888889],[-95.94361111111111,41.350833333333334],[-95.92027777777778,41.328611111111115],[-95.89416666666668,41.301944444444445],[-95.88416666666667,41.288333333333334],[-95.84694444444445,41.253055555555555],[-95.78305555555555,41.27611111111111],[-95.80694444444444,41.350833333333334],[-95.8386111111111,41.42916666666667],[-95.87527777777777,41.5175],[-95.92611111111111,41.64222222222222],[-95.97055555555556,41.74916666666667],[-96.01638888888888,41.86027777777778],[-96.06305555555555,41.97166666666667],[-96.11027777777777,42.08583333333333],[-96.1588888888889,42.20166666666667],[-96.20861111111111,42.32027777777778],[-96.26,42.44166666666666],[-96.31166666666667,42.564166666666665],[-96.36333333333333,42.68555555555555],[-96.415,42.799166666666665],[-96.55527777777777,42.85611111111111],[-96.71694444444445,42.816111111111105],[-96.87194444444444,42.7675],[-97.03,42.71805555555556],[-97.18777777777778,42.668055555555554],[-97.34277777777777,42.618611111111115],[-97.49888888888889,42.56861111111112],[-97.62694444444443,42.52722222222222],[-97.78611111111111,42.476111111111116],[-97.94416666666667,42.42444444444444],[-98.10111111111111,42.37305555555555],[-98.25638888888889,42.32194444444445],[-98.41638888888889,42.26888888888889],[-98.57305555555556,42.21611111111111],[-98.73,42.16361111111111],[-98.74305555555556,42.159166666666664],[-98.89805555555556,42.106944444444444],[-99.04055555555556,42.05888888888889],[-99.19833333333334,42.005],[-99.35305555555556,41.95166666666667],[-99.50638888888889,41.89361111111111],[-99.655,41.82333333333334],[-99.94500000000001,41.68222222222222],[-100.08999999999999,41.61],[-100.23416666666667,41.53861111111111],[-100.37888888888888,41.46611111111111],[-100.52388888888889,41.39388888888889],[-100.66722222222222,41.32277777777778],[-100.80805555555555,41.25222222222222],[-100.9475,41.1825],[-101.06888888888888,41.090833333333336],[-101.17416666666666,40.99277777777778],[-101.28083333333333,40.89555555555555],[-101.39555555555556,40.79833333333333],[-101.51611111111112,40.70305555555556],[-101.63916666666667,40.61],[-101.7961111111111,40.58083333333334],[-101.96083333333334,40.58777777777778],[-102.12444444444444,40.594166666666666],[-102.28722222222223,40.60055555555556],[-102.44583333333334,40.606944444444444],[-102.60222222222221,40.612500000000004],[-102.76916666666666,40.619166666666665],[-102.91805555555555,40.62444444444444],[-103.06833333333333,40.62972222222222],[-103.22,40.63027777777778],[-103.36388888888888,40.58861111111111],[-103.38333333333334,40.583333333333336],[-103.51416666666667,40.5375],[-103.65805555555556,40.487500000000004],[-103.76666666666667,40.45],[-103.795,40.43583333333333],[-103.88333333333334,40.4],[-103.90972222222223,40.38305555555556],[-104.02361111111111,40.33083333333334],[-104.1,40.31666666666667],[-104.13777777777779,40.32222222222222],[-104.21666666666667,40.333333333333336],[-104.25166666666667,40.33222222222223],[-104.35638888888889,40.327222222222225],[-104.44833333333334,40.32138888888889],[-104.51666666666667,40.31666666666667],[-104.5411111111111,40.31805555555556],[-104.58333333333333,40.28333333333333],[-104.60111111111111,40.271388888888886],[-104.64361111111111,40.212500000000006],[-104.685,40.147777777777776],[-104.68472222222222,40.08416666666667],[-104.68333333333334,40.03333333333333],[-104.68333333333334,40],[-104.68583333333333,39.973333333333336],[-104.6863888888889,39.93083333333333],[-104.68694444444445,39.88583333333333],[-104.68444444444445,39.87111111111111]],"type":"LineString"}
}
