{
  "id": 2031945677,
  "type": "Feature",
  "properties": {
    "geom:area": 0,
    "geom:bbox": "-122.552420,36.720160,-122.355560,37.153350",
    "geom:latitude": 36.92647000595234,
    "geom:longitude": -122.48341158206398,
    "src:alt_label": "swim-takeoff",
    "src:geom": "swim",
    "swim:elevations": [
      6567,
      6844,
      7126,
      7739,
      7886,
      8242,
      8553,
      8856,
      8978,
      9069
    ],
    "swim:geom": "takeoff",
    "swim:timestamps": [
      1784831252,
      1784831276,
      1784831303,
      1784831365,
      1784831378,
      1784831414,
      1784831457,
      1784831489,
      1784831507,
      1784831521
    ],
    "wof:geomhash": "591d9068179afedd403e358dbac675e9",
    "wof:id": 2031945677,
    "wof:repo": "sfomuseum-data-flights-2026-07"
  },
  "bbox": [
    -122.55242,
    36.72016,
    -122.35556,
    37.15335
  ],
  "geometry": {"coordinates":[[-122.53692,37.15335],[-122.54407,37.11467],[-122.55242,37.06978],[-122.53623,36.96644],[-122.52139,36.94667],[-122.47957,36.89102],[-122.42985,36.82235],[-122.39375,36.77238],[-122.37259,36.74369],[-122.35556,36.72016]],"type":"LineString"}
}
