{
  "id": 2032035047,
  "type": "Feature",
  "properties": {
    "geom:area": 0,
    "geom:bbox": "-122.361100,37.492720,-121.263140,37.615210",
    "geom:latitude": 37.54254988768753,
    "geom:longitude": -121.81918111585196,
    "src:alt_label": "swim-approach",
    "src:geom": "swim",
    "swim:elevations": [
      4983,
      4728,
      4502,
      4211,
      4054,
      3903,
      3727,
      3464,
      3383,
      3088,
      2999,
      2710,
      2466,
      2339,
      2255,
      2018,
      1828,
      1802,
      1736,
      1591,
      1407,
      1246,
      1152,
      1003,
      901,
      775,
      625,
      512,
      369,
      337,
      151,
      122,
      0
    ],
    "swim:geom": "approach",
    "swim:timestamps": [
      1785455546,
      1785455575,
      1785455597,
      1785455635,
      1785455667,
      1785455696,
      1785455717,
      1785455758,
      1785455769,
      1785455810,
      1785455822,
      1785455858,
      1785455906,
      1785455928,
      1785455942,
      1785455982,
      1785456026,
      1785456056,
      1785456084,
      1785456114,
      1785456137,
      1785456161,
      1785456174,
      1785456206,
      1785456228,
      1785456255,
      1785456291,
      1785456317,
      1785456353,
      1785456362,
      1785456415,
      1785456429,
      1785456459
    ],
    "wof:geomhash": "78094be41ba8459e4e4f7a83a9e5f264",
    "wof:id": 2032035047,
    "wof:repo": "sfomuseum-data-flights-2026-07"
  },
  "bbox": [
    -122.3611,
    37.49272,
    -121.26314,
    37.61521
  ],
  "geometry": {"coordinates":[[-121.26314,37.59272],[-121.31668,37.58638],[-121.35512,37.58216],[-121.4219,37.57437],[-121.47293,37.5684],[-121.517,37.56329],[-121.54691,37.55984],[-121.60446,37.55294],[-121.6201,37.55104],[-121.67511,37.53844],[-121.6911,37.53476],[-121.73947,37.5233],[-121.80386,37.50793],[-121.83277,37.50095],[-121.85147,37.49653],[-121.90562,37.49272],[-121.96465,37.49609],[-122.00457,37.49832],[-122.03953,37.50026],[-122.07439,37.50202],[-122.0998,37.50602],[-122.12386,37.51537],[-122.13576,37.5203],[-122.16701,37.53343],[-122.18759,37.54223],[-122.21155,37.55226],[-122.24337,37.56569],[-122.26545,37.57501],[-122.29169,37.58601],[-122.29805,37.5887],[-122.333,37.6034],[-122.34205,37.60716],[-122.3611,37.61521]],"type":"LineString"}
}
