{
  "id": 2032052107,
  "type": "Feature",
  "properties": {
    "geom:area": 0,
    "geom:bbox": "-122.751944,37.616667,-122.215833,45.601111",
    "geom:latitude": 41.69983998386188,
    "geom:longitude": -122.49077675843857,
    "src:alt_label": "swim-path",
    "src:geom": "swim",
    "swim:altitudes": [
      "005",
      "007",
      "023",
      "039",
      "059",
      "076",
      "095",
      "111",
      "129",
      "149",
      "169",
      "187",
      "207",
      "225",
      "241",
      "257",
      "272",
      "284",
      "295",
      "308",
      "323",
      "335",
      "346",
      "355",
      "369",
      "377",
      "380C",
      "380C",
      "380C",
      "380C",
      "380C",
      "380C",
      "380C",
      "380C",
      "380C",
      "380C",
      "380C",
      "380C",
      "380C",
      "380C",
      "380C",
      "380C",
      "380C",
      "380C",
      "380C",
      "380C",
      "380C",
      "380C",
      "380",
      "380",
      "364",
      "339",
      "315",
      "295",
      "275",
      "255",
      "234",
      "214",
      "195",
      "180",
      "170",
      "165",
      "156",
      "148",
      "139",
      "128",
      "126",
      "119",
      "113",
      "107",
      "100",
      "094",
      "088",
      "080",
      "074",
      "066",
      "062",
      "055",
      "048",
      "046",
      "044",
      "040",
      "034",
      "028",
      "023",
      "018",
      "011",
      "009",
      "005",
      "001",
      "110"
    ],
    "swim:geom": "path",
    "swim:speeds": [
      150,
      153,
      217,
      263,
      264,
      287,
      302,
      330,
      356,
      370,
      383,
      399,
      410,
      409,
      430,
      441,
      444,
      463,
      474,
      482,
      484,
      484,
      487,
      488,
      488,
      481,
      479,
      478,
      478,
      478,
      479,
      479,
      481,
      482,
      483,
      482,
      479,
      478,
      477,
      476,
      476,
      475,
      473,
      472,
      471,
      471,
      471,
      471,
      471,
      472,
      470,
      467,
      467,
      462,
      453,
      439,
      432,
      419,
      405,
      381,
      371,
      374,
      364,
      364,
      355,
      354,
      333,
      328,
      322,
      321,
      313,
      316,
      312,
      314,
      312,
      308,
      291,
      282,
      283,
      259,
      223,
      191,
      181,
      173,
      153,
      157,
      152,
      155,
      151,
      153,
      140
    ],
    "swim:timestamps": [
      1785538886,
      1785538905,
      1785538965,
      1785539025,
      1785539085,
      1785539145,
      1785539205,
      1785539265,
      1785539325,
      1785539385,
      1785539445,
      1785539505,
      1785539565,
      1785539625,
      1785539686,
      1785539746,
      1785539805,
      1785539866,
      1785539926,
      1785539985,
      1785540046,
      1785540106,
      1785540166,
      1785540226,
      1785540286,
      1785540346,
      1785540406,
      1785540467,
      1785540526,
      1785540586,
      1785540646,
      1785540706,
      1785540766,
      1785540827,
      1785540886,
      1785540946,
      1785541007,
      1785541067,
      1785541127,
      1785541188,
      1785541248,
      1785541307,
      1785541367,
      1785541427,
      1785541487,
      1785541547,
      1785541607,
      1785541667,
      1785541727,
      1785541788,
      1785541848,
      1785541908,
      1785541968,
      1785542028,
      1785542088,
      1785542148,
      1785542208,
      1785542268,
      1785542328,
      1785542388,
      1785542419,
      1785542448,
      1785542467,
      1785542508,
      1785542527,
      1785542568,
      1785542587,
      1785542628,
      1785542654,
      1785542689,
      1785542714,
      1785542749,
      1785542768,
      1785542809,
      1785542828,
      1785542869,
      1785542888,
      1785542929,
      1785542954,
      1785542989,
      1785543014,
      1785543049,
      1785543075,
      1785543109,
      1785543141,
      1785543169,
      1785543207,
      1785543229,
      1785543255,
      1785543289,
      1785543349
    ],
    "wof:geomhash": "cd459e98fb5b5214bce5c5bee0d060a2",
    "wof:id": 2032052107,
    "wof:repo": "sfomuseum-data-flights-2026-07"
  },
  "bbox": [
    -122.75194444444445,
    37.61666666666667,
    -122.21583333333334,
    45.60111111111111
  ],
  "geometry": {"coordinates":[[-122.38333333333334,37.61666666666667],[-122.39277777777778,37.626666666666665],[-122.36194444444443,37.66361111111111],[-122.28138888888888,37.69333333333333],[-122.21583333333334,37.74],[-122.21777777777778,37.818333333333335],[-122.22,37.90277777777778],[-122.2225,37.99027777777778],[-122.22472222222223,38.08972222222222],[-122.22805555555556,38.19194444444444],[-122.23083333333334,38.2975],[-122.23972222222223,38.4075],[-122.24944444444445,38.52305555555555],[-122.25194444444445,38.63111111111111],[-122.26888888888888,38.76222222222222],[-122.27916666666667,38.886944444444445],[-122.2863888888889,39.02305555555555],[-122.30027777777778,39.14194444444444],[-122.31138888888889,39.27333333333333],[-122.32194444444444,39.41916666666666],[-122.33527777777778,39.55416666666667],[-122.34666666666666,39.68833333333333],[-122.35722222222222,39.815],[-122.36972222222222,39.961111111111116],[-122.38138888888888,40.1],[-122.39055555555557,40.21083333333333],[-122.40222222222222,40.34444444444445],[-122.41388888888889,40.47888888888889],[-122.42555555555556,40.61055555555556],[-122.43722222222223,40.7425],[-122.44916666666667,40.87694444444445],[-122.46083333333334,41.01],[-122.47277777777778,41.143055555555556],[-122.48472222222222,41.277499999999996],[-122.49777777777778,41.42194444444444],[-122.50972222222222,41.555277777777775],[-122.52166666666666,41.68861111111111],[-122.53388888888888,41.82083333333334],[-122.54583333333333,41.95277777777778],[-122.55805555555555,42.086666666666666],[-122.57027777777778,42.22027777777778],[-122.5825,42.35194444444445],[-122.59444444444443,42.48444444444444],[-122.60638888888889,42.61416666666667],[-122.61888888888888,42.745555555555555],[-122.63083333333333,42.87166666666667],[-122.64277777777778,43.00111111111111],[-122.65527777777778,43.13138888888889],[-122.66777777777779,43.26416666666667],[-122.68,43.394999999999996],[-122.69222222222223,43.525555555555556],[-122.70527777777778,43.65222222222222],[-122.7175,43.78138888888889],[-122.73,43.90972222222222],[-122.74138888888889,44.034166666666664],[-122.75194444444445,44.155],[-122.74111111111111,44.27388888888889],[-122.72944444444444,44.38944444444444],[-122.71805555555555,44.50111111111111],[-122.70805555555556,44.60805555555556],[-122.70222222222222,44.67055555555555],[-122.69833333333334,44.70388888888889],[-122.69333333333334,44.753055555555555],[-122.68833333333333,44.803888888888885],[-122.68361111111112,44.85305555555556],[-122.6763888888889,44.920833333333334],[-122.67472222222223,44.950833333333335],[-122.66722222222222,45.01138888888889],[-122.66305555555556,45.04833333333333],[-122.6588888888889,45.095],[-122.65444444444445,45.1375],[-122.65,45.18138888888889],[-122.64805555555556,45.21416666666667],[-122.62805555555555,45.26555555555556],[-122.60333333333332,45.29388888888889],[-122.55888888888889,45.343611111111116],[-122.54027777777777,45.365833333333335],[-122.48138888888889,45.3975],[-122.44166666666668,45.41083333333333],[-122.38666666666667,45.43083333333333],[-122.36833333333333,45.45444444444445],[-122.365,45.48416666666667],[-122.38611111111112,45.50138888888889],[-122.41611111111112,45.516666666666666],[-122.44111111111111,45.53194444444444],[-122.46388888888889,45.54333333333333],[-122.49888888888889,45.556666666666665],[-122.51611111111112,45.56388888888888],[-122.5411111111111,45.573888888888895],[-122.56805555555555,45.58388888888889],[-122.61138888888888,45.60111111111111]],"type":"LineString"}
}
