{
  "id": 2031965321,
  "type": "Feature",
  "properties": {
    "geom:area": 0,
    "geom:bbox": "-156.400000,20.950000,-122.134444,37.604444",
    "geom:latitude": 29.84902046932058,
    "geom:longitude": -139.4184071453831,
    "src:alt_label": "swim-path",
    "src:geom": "swim",
    "swim:altitudes": [
      "028C",
      "051C",
      "081C",
      "106C",
      "127C",
      "169C",
      "207C",
      "224C",
      "239C",
      "252C",
      "265C",
      "278C",
      "290C",
      "301C",
      "332C",
      "343C",
      "354C",
      "364C",
      "370",
      "370",
      "370",
      "370",
      "370",
      "370",
      "370",
      "370",
      "370",
      "370",
      "370",
      "370",
      "370",
      "370",
      "370",
      "370",
      "370",
      "370C",
      "370C",
      "370C",
      "370C",
      "370C",
      "370C",
      "370",
      "370",
      "370",
      "365C",
      "356C",
      "346",
      "337C",
      "327",
      "317C",
      "307",
      "296C",
      "286",
      "286C",
      "274",
      "253",
      "253C",
      "231",
      "231C",
      "209",
      "196",
      "196C",
      "181",
      "167",
      "145",
      "122",
      "101",
      "100",
      "100",
      "100",
      "094",
      "090",
      "086",
      "085",
      "076",
      "069",
      "059",
      "048",
      "039",
      "029",
      "018",
      "012",
      "004"
    ],
    "swim:geom": "path",
    "swim:speeds": [
      180,
      250,
      280,
      290,
      320,
      350,
      370,
      380,
      400,
      410,
      420,
      430,
      440,
      450,
      470,
      480,
      480,
      470,
      470,
      470,
      470,
      470,
      470,
      470,
      470,
      480,
      470,
      470,
      470,
      470,
      470,
      470,
      470,
      470,
      480,
      482,
      481,
      481,
      484,
      488,
      488,
      487,
      490,
      490,
      490,
      500,
      505,
      510,
      508,
      510,
      502,
      490,
      481,
      480,
      473,
      455,
      460,
      443,
      450,
      422,
      380,
      410,
      358,
      349,
      345,
      358,
      356,
      347,
      348,
      348,
      317,
      298,
      289,
      281,
      282,
      251,
      244,
      226,
      195,
      184,
      172,
      147,
      136
    ],
    "swim:timestamps": [
      1785002193,
      1785002253,
      1785002314,
      1785002374,
      1785002434,
      1785002554,
      1785002674,
      1785002735,
      1785002795,
      1785002855,
      1785002915,
      1785002975,
      1785003036,
      1785003096,
      1785003276,
      1785003336,
      1785003397,
      1785003456,
      1785003517,
      1785003637,
      1785003697,
      1785003757,
      1785003817,
      1785003878,
      1785003937,
      1785003946,
      1785003998,
      1785004066,
      1785004118,
      1785004126,
      1785004146,
      1785004186,
      1785004207,
      1785004246,
      1785004330,
      1785015531,
      1785015591,
      1785015651,
      1785015711,
      1785015771,
      1785015831,
      1785015951,
      1785015958,
      1785016018,
      1785016078,
      1785016138,
      1785016192,
      1785016258,
      1785016312,
      1785016378,
      1785016432,
      1785016498,
      1785016552,
      1785016558,
      1785016612,
      1785016672,
      1785016678,
      1785016732,
      1785016739,
      1785016792,
      1785016853,
      1785016859,
      1785016913,
      1785016973,
      1785017033,
      1785017093,
      1785017153,
      1785017219,
      1785017273,
      1785017279,
      1785017340,
      1785017400,
      1785017453,
      1785017459,
      1785017513,
      1785017574,
      1785017634,
      1785017694,
      1785017754,
      1785017814,
      1785017880,
      1785017934,
      1785017994
    ],
    "wof:geomhash": "c3914d583829976afc4c3bf636c12620",
    "wof:id": 2031965321,
    "wof:repo": "sfomuseum-data-flights-2026-07"
  },
  "bbox": [
    -156.4,
    20.95,
    -122.13444444444445,
    37.60444444444445
  ],
  "geometry": {"coordinates":[[-156.4,20.95],[-156.4,21.016666666666666],[-156.38333333333333,21.083333333333332],[-156.36666666666667,21.166666666666668],[-156.3,21.233333333333334],[-156.15,21.366666666666667],[-156,21.5],[-155.91666666666666,21.566666666666666],[-155.83333333333334,21.65],[-155.73333333333332,21.733333333333334],[-155.65,21.816666666666666],[-155.55,21.883333333333333],[-155.45,21.983333333333334],[-155.35,22.066666666666666],[-155.05,22.333333333333332],[-154.95,22.416666666666668],[-154.83333333333334,22.516666666666666],[-154.73333333333332,22.6],[-154.63333333333333,22.683333333333334],[-154.41666666666666,22.866666666666667],[-154.31666666666666,22.95],[-154.21666666666667,23.05],[-154.11666666666667,23.133333333333333],[-154,23.216666666666665],[-153.9,23.316666666666666],[-153.88333333333333,23.316666666666666],[-153.8,23.4],[-153.68333333333334,23.5],[-153.58333333333334,23.583333333333332],[-153.58333333333334,23.583333333333332],[-153.53333333333333,23.616666666666667],[-153.48333333333332,23.65],[-153.43333333333334,23.716666666666665],[-153.36666666666667,23.766666666666666],[-153.18333333333334,23.866666666666667],[-126.5286111111111,35.58916666666667],[-126.37277777777777,35.634166666666665],[-126.22,35.67805555555555],[-126.06944444444444,35.734722222222224],[-125.93055555555556,35.81166666666666],[-125.79083333333332,35.8825],[-125.50333333333333,36.02166666666667],[-125.5,36.05],[-125.35,36.1],[-125.2,36.166666666666664],[-125.05,36.25],[-124.89111111111112,36.3175],[-124.73333333333333,36.38333333333333],[-124.58638888888889,36.46194444444445],[-124.43333333333334,36.516666666666666],[-124.28805555555556,36.60305555555556],[-124.13333333333334,36.65],[-123.9975,36.73861111111111],[-124,36.733333333333334],[-123.85749999999999,36.80361111111111],[-123.72027777777778,36.867222222222225],[-123.71666666666667,36.85],[-123.58722222222222,36.92833333333333],[-123.58333333333333,36.916666666666664],[-123.45861111111111,36.987500000000004],[-123.34555555555555,37.04555555555555],[-123.33333333333333,37.03333333333333],[-123.33055555555555,37.1425],[-123.33138888888888,37.23861111111111],[-123.23277777777778,37.28194444444444],[-123.10944444444443,37.274166666666666],[-122.98777777777778,37.26611111111111],[-122.85,37.266666666666666],[-122.75111111111111,37.28388888888889],[-122.73333333333333,37.28333333333333],[-122.61666666666666,37.31666666666667],[-122.51666666666667,37.333333333333336],[-122.44027777777778,37.35583333333334],[-122.41666666666667,37.36666666666667],[-122.34777777777778,37.37722222222222],[-122.25,37.38333333333333],[-122.16666666666667,37.416666666666664],[-122.13444444444445,37.464444444444446],[-122.13861111111112,37.513888888888886],[-122.19250000000001,37.54416666666666],[-122.25,37.56666666666667],[-122.29222222222222,37.58638888888889],[-122.33527777777778,37.60444444444445]],"type":"LineString"}
}
