{
  "id": 2031963689,
  "type": "Feature",
  "properties": {
    "geom:area": 0,
    "geom:bbox": "-122.360050,37.434430,-121.259560,37.614250",
    "geom:latitude": 37.53667593681407,
    "geom:longitude": -121.81404675378127,
    "src:alt_label": "swim-approach",
    "src:geom": "swim",
    "swim:elevations": [
      4724,
      4376,
      4325,
      4090,
      3839,
      3788,
      3664,
      3566,
      3484,
      3351,
      3113,
      3078,
      3048,
      3048,
      2827,
      2799,
      2541,
      2436,
      2438,
      2438,
      2438,
      2438,
      2382,
      2212,
      2134,
      2078,
      1958,
      1830,
      1817,
      1655,
      1434,
      1273,
      1158,
      1065,
      1050,
      928,
      748,
      596,
      450,
      381,
      218,
      150,
      38,
      0
    ],
    "swim:geom": "approach",
    "swim:timestamps": [
      1784971397,
      1784971432,
      1784971438,
      1784971460,
      1784971496,
      1784971507,
      1784971537,
      1784971556,
      1784971583,
      1784971605,
      1784971643,
      1784971650,
      1784971686,
      1784971698,
      1784971733,
      1784971736,
      1784971768,
      1784971791,
      1784971824,
      1784971834,
      1784971855,
      1784971864,
      1784971882,
      1784971911,
      1784971945,
      1784971967,
      1784971985,
      1784972016,
      1784972065,
      1784972092,
      1784972123,
      1784972155,
      1784972176,
      1784972197,
      1784972201,
      1784972223,
      1784972265,
      1784972293,
      1784972332,
      1784972349,
      1784972396,
      1784972421,
      1784972451,
      1784972460
    ],
    "wof:geomhash": "dad9255a94ca18d5dfdcfedf383bd9e7",
    "wof:id": 2031963689,
    "wof:repo": "sfomuseum-data-flights-2026-07"
  },
  "bbox": [
    -122.36005,
    37.43443,
    -121.25956,
    37.61425
  ],
  "geometry": {"coordinates":[[-121.25956,37.59303],[-121.3281,37.58476],[-121.3399,37.58349],[-121.38407,37.57865],[-121.45235,37.57075],[-121.47174,37.5685],[-121.52322,37.56232],[-121.55401,37.55886],[-121.59461,37.55421],[-121.62643,37.55058],[-121.67561,37.56814],[-121.68429,37.57349],[-121.72644,37.59937],[-121.74178,37.6071],[-121.78592,37.6008],[-121.78847,37.5984],[-121.79149,37.56495],[-121.78109,37.54173],[-121.77334,37.50627],[-121.77625,37.49467],[-121.78232,37.47226],[-121.78508,37.46316],[-121.7984,37.44733],[-121.83646,37.43934],[-121.88292,37.43646],[-121.91266,37.43443],[-121.93616,37.43721],[-121.9738,37.45162],[-122.02782,37.47459],[-122.05526,37.48629],[-122.08659,37.49945],[-122.11799,37.51267],[-122.13767,37.52106],[-122.15705,37.52932],[-122.16109,37.53098],[-122.18141,37.53952],[-122.21924,37.55552],[-122.2447,37.56625],[-122.27738,37.58008],[-122.28944,37.58509],[-122.31966,37.59778],[-122.33534,37.60439],[-122.35426,37.61234],[-122.36005,37.61425]],"type":"LineString"}
}
