{
  "id": 2031980951,
  "type": "Feature",
  "properties": {
    "geom:area": 0,
    "geom:bbox": "-122.562180,36.732640,-121.456420,37.677570",
    "geom:latitude": 37.228327178188415,
    "geom:longitude": -122.0882586471062,
    "src:alt_label": "swim-takeoff",
    "src:geom": "swim",
    "swim:elevations": [
      244,
      410,
      942,
      1318,
      1391,
      1440,
      1686,
      1961,
      2198,
      2388,
      2493,
      3054,
      3470,
      3520,
      3549,
      3780,
      3849,
      4136,
      4361,
      4726,
      4794,
      5198,
      5266,
      5292,
      5454,
      5715,
      6059,
      6244,
      6424,
      6602,
      6660,
      6926,
      7295,
      7461,
      7590,
      7627,
      7771,
      7946,
      8096,
      8213
    ],
    "swim:geom": "takeoff",
    "swim:timestamps": [
      1785050060,
      1785050071,
      1785050122,
      1785050188,
      1785050202,
      1785050208,
      1785050231,
      1785050251,
      1785050269,
      1785050282,
      1785050291,
      1785050338,
      1785050398,
      1785050410,
      1785050417,
      1785050451,
      1785050460,
      1785050485,
      1785050505,
      1785050536,
      1785050542,
      1785050577,
      1785050583,
      1785050586,
      1785050604,
      1785050632,
      1785050668,
      1785050689,
      1785050710,
      1785050731,
      1785050739,
      1785050769,
      1785050812,
      1785050833,
      1785050851,
      1785050855,
      1785050874,
      1785050904,
      1785050925,
      1785050940
    ],
    "wof:geomhash": "94f0de155dc81ae4b3228076098177e5",
    "wof:id": 2031980951,
    "wof:repo": "sfomuseum-data-flights-2026-07"
  },
  "bbox": [
    -122.56218,
    36.73264,
    -121.45642,
    37.67757
  ],
  "geometry": {"coordinates":[[-122.39552,37.62743],[-122.40437,37.63129],[-122.4475,37.65023],[-122.51919,37.67757],[-122.53983,37.67507],[-122.54766,37.67111],[-122.56218,37.64617],[-122.55836,37.62039],[-122.55404,37.59648],[-122.55133,37.58105],[-122.5492,37.56967],[-122.50776,37.51921],[-122.42582,37.45876],[-122.40765,37.44548],[-122.39667,37.43739],[-122.34276,37.39734],[-122.32789,37.38633],[-122.28551,37.355],[-122.25162,37.33005],[-122.19964,37.29158],[-122.18941,37.28404],[-122.12852,37.23877],[-122.11815,37.23104],[-122.11269,37.227],[-122.08137,37.20366],[-122.03336,37.16782],[-121.96839,37.11919],[-121.93088,37.09115],[-121.89192,37.06195],[-121.85387,37.03347],[-121.83957,37.02276],[-121.78337,36.98042],[-121.70132,36.91859],[-121.66209,36.88908],[-121.6282,36.86351],[-121.61952,36.85697],[-121.58395,36.82966],[-121.52541,36.78526],[-121.48617,36.7553],[-121.45642,36.73264]],"type":"LineString"}
}
