{
  "id": 2032038625,
  "type": "Feature",
  "properties": {
    "geom:area": 0,
    "geom:bbox": "-122.406480,37.628730,-121.442410,38.509840",
    "geom:latitude": 38.117741868968444,
    "geom:longitude": -122.02266936716809,
    "src:alt_label": "swim-takeoff",
    "src:geom": "swim",
    "swim:elevations": [
      297,
      503,
      633,
      847,
      917,
      1019,
      1218,
      1537,
      1828,
      1892,
      2435,
      2638,
      2908,
      3175,
      3290,
      3417,
      3538,
      3806,
      3924,
      4210,
      4297,
      4705,
      4730,
      4910,
      4943,
      5109,
      5243,
      5425,
      5461,
      5583,
      5696,
      5824,
      5915,
      6016
    ],
    "swim:geom": "takeoff",
    "swim:timestamps": [
      1785478097,
      1785478112,
      1785478131,
      1785478166,
      1785478181,
      1785478196,
      1785478224,
      1785478258,
      1785478285,
      1785478296,
      1785478346,
      1785478367,
      1785478401,
      1785478431,
      1785478455,
      1785478484,
      1785478514,
      1785478558,
      1785478576,
      1785478610,
      1785478621,
      1785478677,
      1785478680,
      1785478706,
      1785478711,
      1785478742,
      1785478766,
      1785478797,
      1785478803,
      1785478827,
      1785478843,
      1785478865,
      1785478880,
      1785478892
    ],
    "wof:geomhash": "5d5d2269b7c2e41f6566ca58e80b812a",
    "wof:id": 2032038625,
    "wof:repo": "sfomuseum-data-flights-2026-07"
  },
  "bbox": [
    -122.40648,
    37.62873,
    -121.44241,
    38.50984
  ],
  "geometry": {"coordinates":[[-122.39794,37.62873],[-122.40648,37.63804],[-122.40469,37.65375],[-122.38098,37.68257],[-122.36725,37.695],[-122.35308,37.7082],[-122.33548,37.73825],[-122.35066,37.77798],[-122.36822,37.81031],[-122.37511,37.82315],[-122.38596,37.8899],[-122.38444,37.91777],[-122.35714,37.95842],[-122.31304,37.98417],[-122.27552,38.00653],[-122.22984,38.03436],[-122.17857,38.06549],[-122.09945,38.11356],[-122.06625,38.13368],[-122.0018,38.17275],[-121.98101,38.18532],[-121.87454,38.2496],[-121.8687,38.25312],[-121.81868,38.28327],[-121.80912,38.28899],[-121.74779,38.32592],[-121.69971,38.35472],[-121.63827,38.39145],[-121.62604,38.39875],[-121.57651,38.42846],[-121.54236,38.44884],[-121.4973,38.47601],[-121.46588,38.49535],[-121.44241,38.50984]],"type":"LineString"}
}
