{
  "id": 2031944101,
  "type": "Feature",
  "properties": {
    "geom:area": 0,
    "geom:bbox": "-127.053333,37.633333,-122.400000,40.330556",
    "geom:latitude": 39.09576332935716,
    "geom:longitude": -124.64253588505949,
    "src:alt_label": "swim-path",
    "src:geom": "swim",
    "swim:altitudes": [
      "006",
      "013",
      "034",
      "045",
      "063",
      "084",
      "104",
      "111",
      "123",
      "146",
      "162",
      "172",
      "189",
      "204",
      "219",
      "235",
      "251",
      "265",
      "279",
      "289",
      "307",
      "310C",
      "310C",
      "310C",
      "310C",
      "310C",
      "310C",
      "310C",
      "310",
      "310C",
      "310C",
      "310C",
      "310C",
      "310C",
      "310C",
      "310C",
      "310C",
      "310C"
    ],
    "swim:geom": "path",
    "swim:speeds": [
      184,
      182,
      186,
      249,
      286,
      299,
      311,
      367,
      404,
      406,
      414,
      429,
      441,
      453,
      453,
      456,
      471,
      479,
      488,
      498,
      506,
      492,
      492,
      491,
      491,
      491,
      493,
      494,
      500,
      492,
      493,
      493,
      492,
      492,
      491,
      492,
      492,
      496
    ],
    "swim:timestamps": [
      1784797040,
      1784797058,
      1784797118,
      1784797178,
      1784797238,
      1784797298,
      1784797359,
      1784797419,
      1784797479,
      1784797539,
      1784797599,
      1784797659,
      1784797719,
      1784797779,
      1784797839,
      1784797899,
      1784797959,
      1784798019,
      1784798079,
      1784798139,
      1784798199,
      1784798319,
      1784798379,
      1784798439,
      1784798499,
      1784798559,
      1784798619,
      1784798679,
      1784798725,
      1784798799,
      1784798859,
      1784798919,
      1784798979,
      1784799039,
      1784799099,
      1784799159,
      1784799219,
      1784799279
    ],
    "wof:geomhash": "251b955969e56ac5d9e30cd6a1ab3175",
    "wof:id": 2031944101,
    "wof:repo": "sfomuseum-data-flights-2026-07"
  },
  "bbox": [
    -127.05333333333333,
    37.63333333333333,
    -122.4,
    40.330555555555556
  ],
  "geometry": {"coordinates":[[-122.4,37.63333333333333],[-122.40972222222223,37.635555555555555],[-122.46805555555555,37.66],[-122.53694444444444,37.69444444444444],[-122.61749999999999,37.74194444444444],[-122.70305555555557,37.79222222222222],[-122.78083333333333,37.85305555555556],[-122.85,37.93611111111111],[-122.92750000000001,38.02916666666667],[-123.00638888888889,38.12388888888889],[-123.08638888888889,38.21944444444445],[-123.15361111111112,38.29888888888889],[-123.24111111111111,38.403055555555554],[-123.33666666666666,38.5025],[-123.46722222222222,38.57527777777778],[-123.60333333333332,38.64527777777778],[-123.76972222222223,38.730555555555554],[-123.91333333333334,38.80361111111111],[-124.06083333333333,38.87833333333333],[-124.18861111111111,38.94277777777778],[-124.36194444444443,39.03],[-124.65666666666667,39.17722222222222],[-124.80527777777777,39.25083333333333],[-124.95166666666667,39.323055555555555],[-125.09972222222221,39.39555555555555],[-125.23444444444445,39.46138888888889],[-125.38527777777779,39.535],[-125.53777777777778,39.60861111111111],[-125.63333333333334,39.65],[-125.83833333333332,39.75333333333333],[-125.98861111111111,39.825],[-126.14222222222223,39.89805555555556],[-126.29222222222222,39.96888888888889],[-126.44416666666667,40.040277777777774],[-126.59666666666666,40.111666666666665],[-126.75055555555555,40.18333333333333],[-126.90166666666667,40.25333333333333],[-127.05333333333333,40.330555555555556]],"type":"LineString"}
}
