{
  "id": 2031940761,
  "type": "Feature",
  "properties": {
    "geom:area": 0,
    "geom:bbox": "-122.357990,37.487780,-121.247510,37.614130",
    "geom:latitude": 37.54164766231807,
    "geom:longitude": -121.80834487457741,
    "src:alt_label": "swim-approach",
    "src:geom": "swim",
    "swim:elevations": [
      4774,
      4385,
      4066,
      3905,
      3683,
      3564,
      3492,
      3273,
      3109,
      2933,
      2745,
      2643,
      2514,
      2325,
      2220,
      2134,
      2134,
      2134,
      2129,
      1982,
      1908,
      1829,
      1760,
      1521,
      1443,
      1193,
      1048,
      920,
      638,
      250,
      242,
      181,
      49,
      0
    ],
    "swim:geom": "approach",
    "swim:timestamps": [
      1784794721,
      1784794767,
      1784794788,
      1784794803,
      1784794855,
      1784794877,
      1784794886,
      1784794910,
      1784794930,
      1784794975,
      1784794994,
      1784795005,
      1784795022,
      1784795054,
      1784795076,
      1784795127,
      1784795134,
      1784795153,
      1784795163,
      1784795185,
      1784795195,
      1784795241,
      1784795268,
      1784795306,
      1784795325,
      1784795365,
      1784795388,
      1784795415,
      1784795471,
      1784795565,
      1784795575,
      1784795591,
      1784795633,
      1784795643
    ],
    "wof:geomhash": "f56a88ebdcefb4ea7fa31842e7b7b54e",
    "wof:id": 2031940761,
    "wof:repo": "sfomuseum-data-flights-2026-07"
  },
  "bbox": [
    -122.35799,
    37.48778,
    -121.24751,
    37.61413
  ],
  "geometry": {"coordinates":[[-121.24751,37.59455],[-121.32884,37.58471],[-121.36566,37.58045],[-121.39428,37.5772],[-121.48034,37.56742],[-121.51306,37.56364],[-121.52603,37.56217],[-121.55914,37.55818],[-121.58792,37.55476],[-121.64838,37.54483],[-121.67294,37.53897],[-121.6878,37.53555],[-121.71089,37.52845],[-121.73767,37.50126],[-121.7614,37.48778],[-121.83209,37.49121],[-121.84138,37.49193],[-121.8675,37.49402],[-121.8806,37.49506],[-121.91192,37.49757],[-121.92582,37.49862],[-121.98708,37.50333],[-122.0241,37.50618],[-122.07276,37.5099],[-122.09523,37.51148],[-122.13835,37.52173],[-122.16098,37.53092],[-122.18718,37.54197],[-122.23997,37.56427],[-122.31092,37.5941],[-122.31676,37.59659],[-122.32674,37.60079],[-122.35237,37.61154],[-122.35799,37.61413]],"type":"LineString"}
}
