{
  "id": 2032021437,
  "type": "Feature",
  "properties": {
    "geom:area": 0,
    "geom:bbox": "-122.403740,37.626640,-121.274220,37.960450",
    "geom:latitude": 37.83023555127283,
    "geom:longitude": -121.85727941543318,
    "src:alt_label": "swim-takeoff",
    "src:geom": "swim",
    "swim:elevations": [
      213,
      293,
      419,
      759,
      910,
      1264,
      1850,
      2469,
      2687,
      2998,
      3191,
      3294,
      3410,
      3505,
      3902,
      4014,
      4145,
      4265,
      4419,
      4886,
      5003
    ],
    "swim:geom": "takeoff",
    "swim:timestamps": [
      1785308496,
      1785308501,
      1785308510,
      1785308576,
      1785308601,
      1785308633,
      1785308693,
      1785308758,
      1785308781,
      1785308816,
      1785308847,
      1785308873,
      1785308905,
      1785308932,
      1785308996,
      1785309016,
      1785309031,
      1785309048,
      1785309065,
      1785309146,
      1785309164
    ],
    "wof:geomhash": "e2bf53fbd3269133b37ec1db23b8eb84",
    "wof:id": 2032021437,
    "wof:repo": "sfomuseum-data-flights-2026-07"
  },
  "bbox": [
    -122.40374,
    37.62664,
    -121.27422,
    37.96045
  ],
  "geometry": {"coordinates":[[-122.39383,37.62664],[-122.39779,37.62839],[-122.40374,37.63323],[-122.35555,37.67202],[-122.31969,37.68278],[-122.27273,37.69833],[-122.18637,37.73237],[-122.09648,37.77902],[-122.06437,37.79563],[-122.01492,37.82096],[-121.96211,37.83423],[-121.91394,37.8432],[-121.85343,37.85443],[-121.79653,37.86497],[-121.65887,37.89034],[-121.61531,37.89834],[-121.58024,37.90477],[-121.54251,37.91174],[-121.50348,37.9189],[-121.31602,37.95289],[-121.27422,37.96045]],"type":"LineString"}
}
