{
  "id": 2032009987,
  "type": "Feature",
  "properties": {
    "geom:area": 0,
    "geom:bbox": "-122.533333,35.999722,-114.918889,37.666667",
    "geom:latitude": 36.98595499374696,
    "geom:longitude": -118.6425553078019,
    "src:alt_label": "swim-path",
    "src:geom": "swim",
    "swim:altitudes": [
      "009",
      "021",
      "025",
      "045",
      "052",
      "082",
      "087",
      "109",
      "111",
      "164",
      "190",
      "217",
      "248",
      "270",
      "279",
      "294",
      "310C",
      "310C",
      "310C",
      "310C",
      "310C",
      "310C",
      "310C",
      "310C",
      "310C",
      "310C",
      "310C",
      "310C",
      "310C",
      "310C",
      "310C",
      "310C",
      "310C",
      "310C",
      "310C",
      "310C",
      "310C",
      "310C",
      "310C",
      "310C",
      "310C",
      "310",
      "310",
      "310",
      "310",
      "310",
      "301",
      "278",
      "257",
      "236",
      "216",
      "196",
      "193",
      "190",
      "190",
      "187",
      "184",
      "172",
      "168",
      "158",
      "155",
      "144",
      "139",
      "130",
      "114",
      "099",
      "080",
      "080",
      "077",
      "065",
      "052",
      "031",
      "027",
      "021"
    ],
    "swim:geom": "path",
    "swim:speeds": [
      141,
      210,
      219,
      262,
      270,
      290,
      290,
      338,
      348,
      407,
      424,
      445,
      437,
      438,
      459,
      480,
      485,
      485,
      486,
      486,
      487,
      490,
      493,
      495,
      512,
      517,
      518,
      518,
      517,
      515,
      514,
      510,
      506,
      504,
      503,
      502,
      502,
      502,
      501,
      488,
      469,
      468,
      469,
      467,
      457,
      455,
      451,
      437,
      421,
      402,
      385,
      381,
      375,
      354,
      343,
      336,
      327,
      322,
      316,
      319,
      316,
      317,
      310,
      308,
      292,
      300,
      271,
      258,
      219,
      219,
      184,
      183,
      147,
      152
    ],
    "swim:timestamps": [
      1785275464,
      1785275501,
      1785275524,
      1785275561,
      1785275584,
      1785275621,
      1785275644,
      1785275681,
      1785275704,
      1785275826,
      1785275886,
      1785275945,
      1785276006,
      1785276067,
      1785276127,
      1785276187,
      1785276247,
      1785276307,
      1785276367,
      1785276427,
      1785276487,
      1785276546,
      1785276607,
      1785276667,
      1785276726,
      1785276788,
      1785276846,
      1785276906,
      1785276968,
      1785277026,
      1785277086,
      1785277148,
      1785277206,
      1785277267,
      1785277328,
      1785277387,
      1785277447,
      1785277509,
      1785277569,
      1785277627,
      1785277689,
      1785277747,
      1785277809,
      1785277869,
      1785277927,
      1785277989,
      1785278049,
      1785278108,
      1785278170,
      1785278230,
      1785278290,
      1785278350,
      1785278360,
      1785278410,
      1785278420,
      1785278470,
      1785278481,
      1785278530,
      1785278541,
      1785278590,
      1785278601,
      1785278650,
      1785278667,
      1785278710,
      1785278769,
      1785278831,
      1785278951,
      1785278962,
      1785279010,
      1785279070,
      1785279130,
      1785279190,
      1785279250,
      1785279311
    ],
    "wof:geomhash": "8e378a2e69e17e3bf13ab5678fccadbb",
    "wof:id": 2032009987,
    "wof:repo": "sfomuseum-data-flights-2026-07"
  },
  "bbox": [
    -122.53333333333333,
    35.999722222222225,
    -114.91888888888889,
    37.666666666666664
  ],
  "geometry": {"coordinates":[[-122.38944444444445,37.625],[-122.43333333333334,37.65],[-122.44833333333334,37.65083333333333],[-122.51666666666667,37.666666666666664],[-122.52916666666667,37.66],[-122.53333333333333,37.6],[-122.52222222222223,37.586666666666666],[-122.48333333333333,37.516666666666666],[-122.47444444444444,37.505],[-122.20944444444444,37.41972222222222],[-122.06361111111111,37.388888888888886],[-121.92444444444445,37.38111111111111],[-121.75666666666666,37.37444444444444],[-121.60055555555554,37.37416666666667],[-121.43916666666667,37.36027777777778],[-121.28083333333333,37.31194444444444],[-121.11944444444444,37.26694444444444],[-120.96138888888889,37.22],[-120.8,37.174166666666665],[-120.63972222222223,37.126111111111115],[-120.47916666666667,37.078611111111115],[-120.325,37.03194444444444],[-120.15583333333333,36.981944444444444],[-119.99638888888889,36.93222222222222],[-119.82194444444444,36.92194444444444],[-119.65694444444445,36.975833333333334],[-119.48722222222223,37.030833333333334],[-119.32111111111111,37.08444444444444],[-119.15444444444445,37.138333333333335],[-118.9888888888889,37.19138888888889],[-118.82166666666666,37.24472222222222],[-118.6525,37.281666666666666],[-118.4786111111111,37.29527777777778],[-118.30277777777778,37.308611111111105],[-118.14166666666668,37.32055555555556],[-117.97166666666666,37.33305555555556],[-117.79888888888888,37.345],[-117.61916666666666,37.3575],[-117.43222222222222,37.37],[-117.26833333333333,37.36833333333333],[-117.13305555555554,37.28611111111111],[-117.01805555555555,37.20416666666667],[-116.89222222222223,37.11194444444445],[-116.79416666666667,37.00611111111111],[-116.70694444444445,36.905],[-116.61666666666666,36.79888888888889],[-116.52777777777777,36.69444444444444],[-116.42777777777778,36.60666666666667],[-116.32777777777777,36.535555555555554],[-116.2125,36.453611111111115],[-116.11277777777777,36.382777777777775],[-116.01555555555555,36.31305555555555],[-115.9961111111111,36.29888888888889],[-115.92166666666667,36.24666666666667],[-115.90611111111112,36.23444444444444],[-115.83027777777778,36.18888888888888],[-115.81166666666667,36.17777777777778],[-115.74194444444444,36.13722222222222],[-115.72083333333333,36.13],[-115.64111111111112,36.105000000000004],[-115.6211111111111,36.09777777777778],[-115.54083333333332,36.07416666666667],[-115.5111111111111,36.06388888888888],[-115.44166666666668,36.043055555555554],[-115.34444444444443,36.016666666666666],[-115.24583333333334,36.01083333333333],[-115.03805555555556,36.00055555555556],[-115.02166666666666,35.999722222222225],[-114.95805555555556,36.0025],[-114.91888888888889,36.044999999999995],[-114.96944444444445,36.074444444444445],[-115.0325,36.073888888888895],[-115.085,36.07361111111111],[-115.13527777777779,36.07361111111111]],"type":"LineString"}
}
