{
  "id": 2031938741,
  "type": "Feature",
  "properties": {
    "geom:area": 0,
    "geom:bbox": "-122.372500,32.486667,-97.050000,38.038889",
    "geom:latitude": 35.55271064134706,
    "geom:longitude": -109.64790722415563,
    "src:alt_label": "swim-path",
    "src:geom": "swim",
    "swim:altitudes": [
      "027",
      "036",
      "038",
      "062",
      "078",
      "080",
      "106",
      "112",
      "119",
      "142",
      "150",
      "163",
      "172",
      "178",
      "186",
      "194",
      "200",
      "205",
      "210",
      "217",
      "223",
      "228",
      "233",
      "238",
      "243",
      "246",
      "251",
      "254",
      "257",
      "265",
      "271",
      "280",
      "287",
      "291",
      "297",
      "300",
      "303",
      "306",
      "308",
      "312",
      "315",
      "320C",
      "320C",
      "320C",
      "320C",
      "320C",
      "320C",
      "320C",
      "320C",
      "321C",
      "321C",
      "320C",
      "320C",
      "320C",
      "320C",
      "320C",
      "320C",
      "320C",
      "320C",
      "320C",
      "320C",
      "320C",
      "320C",
      "320C",
      "320C",
      "320C",
      "320C",
      "320C",
      "320C",
      "320C",
      "320C",
      "320C",
      "320C",
      "320C",
      "320C",
      "320C",
      "321C",
      "320C",
      "320C",
      "320C",
      "320C",
      "320C",
      "320C",
      "321C",
      "320C",
      "320C",
      "320C",
      "321C",
      "320C",
      "320C",
      "320C",
      "321C",
      "320C",
      "320C",
      "320C",
      "320C",
      "320C",
      "320C",
      "320C",
      "320C",
      "320C",
      "320C",
      "320C",
      "320C",
      "320C",
      "320C",
      "320C",
      "320C",
      "320C",
      "320C",
      "320C",
      "320C",
      "320C",
      "320C",
      "320C",
      "320C",
      "320C",
      "320C",
      "320C",
      "320C",
      "320C",
      "320C",
      "320C",
      "320C",
      "320C",
      "320C",
      "320C",
      "320C",
      "320C",
      "320C",
      "320C",
      "320C",
      "320C",
      "320C",
      "320C",
      "320C",
      "320C",
      "320C",
      "320C",
      "320C",
      "320C",
      "320C",
      "320C",
      "320C",
      "320C",
      "320C",
      "320C",
      "320C",
      "320C",
      "320C",
      "320C",
      "320C",
      "320C",
      "320C",
      "320C",
      "320C",
      "320C",
      "320C",
      "320C",
      "320C",
      "320C",
      "320C",
      "320C",
      "320C",
      "320C",
      "320C",
      "320C",
      "320C",
      "320C",
      "320C",
      "320C",
      "320C",
      "320C",
      "320C",
      "320C",
      "320C",
      "320C",
      "320C",
      "320C",
      "320C",
      "320C",
      "320C",
      "320",
      "311",
      "301",
      "283",
      "259",
      "241",
      "236",
      "223",
      "219",
      "204",
      "199",
      "180",
      "162",
      "147",
      "136",
      "136",
      "122",
      "112",
      "088",
      "074",
      "074",
      "060",
      "053",
      "053",
      "041",
      "030",
      "020",
      "012",
      "005",
      "80"
    ],
    "swim:geom": "path",
    "swim:speeds": [
      187,
      233,
      233,
      300,
      305,
      302,
      331,
      368,
      396,
      412,
      419,
      425,
      431,
      436,
      442,
      446,
      450,
      457,
      463,
      467,
      469,
      473,
      478,
      481,
      483,
      485,
      486,
      489,
      492,
      492,
      490,
      485,
      480,
      479,
      479,
      478,
      477,
      478,
      476,
      477,
      475,
      471,
      466,
      466,
      465,
      464,
      464,
      465,
      465,
      467,
      468,
      469,
      468,
      467,
      466,
      465,
      465,
      464,
      464,
      464,
      463,
      463,
      463,
      463,
      463,
      462,
      462,
      461,
      461,
      461,
      461,
      461,
      462,
      462,
      463,
      463,
      465,
      466,
      467,
      468,
      468,
      470,
      470,
      469,
      466,
      466,
      466,
      466,
      472,
      465,
      466,
      469,
      467,
      466,
      466,
      466,
      467,
      468,
      469,
      470,
      473,
      471,
      459,
      459,
      460,
      459,
      458,
      458,
      459,
      459,
      459,
      459,
      458,
      455,
      452,
      450,
      450,
      449,
      450,
      451,
      455,
      457,
      459,
      460,
      461,
      461,
      461,
      462,
      462,
      463,
      464,
      463,
      463,
      462,
      461,
      461,
      465,
      467,
      467,
      467,
      466,
      462,
      458,
      457,
      456,
      456,
      456,
      457,
      456,
      456,
      457,
      456,
      457,
      456,
      456,
      456,
      457,
      457,
      458,
      458,
      461,
      462,
      462,
      463,
      463,
      462,
      461,
      461,
      461,
      460,
      459,
      459,
      459,
      459,
      459,
      458,
      458,
      449,
      446,
      444,
      442,
      440,
      440,
      440,
      440,
      439,
      428,
      413,
      415,
      387,
      388,
      376,
      380,
      373,
      362,
      358,
      328,
      328,
      301,
      275,
      243,
      240,
      243,
      232,
      235,
      235,
      224,
      212,
      182,
      135,
      132,
      126
    ],
    "swim:timestamps": [
      1784845744,
      1784845804,
      1784845815,
      1784845936,
      1784845984,
      1784845996,
      1784846116,
      1784846176,
      1784846236,
      1784846356,
      1784846416,
      1784846476,
      1784846536,
      1784846597,
      1784846657,
      1784846717,
      1784846777,
      1784846837,
      1784846909,
      1784846969,
      1784847029,
      1784847089,
      1784847149,
      1784847209,
      1784847269,
      1784847329,
      1784847390,
      1784847450,
      1784847510,
      1784847570,
      1784847630,
      1784847690,
      1784847750,
      1784847810,
      1784847870,
      1784847910,
      1784847930,
      1784847971,
      1784847990,
      1784848031,
      1784848051,
      1784848111,
      1784848171,
      1784848231,
      1784848291,
      1784848351,
      1784848411,
      1784848451,
      1784848471,
      1784848531,
      1784848571,
      1784848651,
      1784848711,
      1784848752,
      1784848772,
      1784848812,
      1784848832,
      1784848872,
      1784848892,
      1784848932,
      1784848952,
      1784849012,
      1784849052,
      1784849072,
      1784849112,
      1784849132,
      1784849172,
      1784849192,
      1784849232,
      1784849252,
      1784849312,
      1784849372,
      1784849413,
      1784849432,
      1784849473,
      1784849493,
      1784849553,
      1784849613,
      1784849673,
      1784849773,
      1784849833,
      1784849951,
      1784850011,
      1784850071,
      1784850191,
      1784850253,
      1784850311,
      1784850374,
      1784850434,
      1784850612,
      1784850672,
      1784850734,
      1784850792,
      1784850852,
      1784850914,
      1784851032,
      1784851092,
      1784851215,
      1784851275,
      1784851335,
      1784851389,
      1784851450,
      1784851570,
      1784851630,
      1784851690,
      1784851756,
      1784851810,
      1784851876,
      1784851996,
      1784852050,
      1784852056,
      1784852116,
      1784852171,
      1784852291,
      1784852351,
      1784852471,
      1784852501,
      1784852561,
      1784852621,
      1784852651,
      1784852681,
      1784852741,
      1784852801,
      1784852831,
      1784852861,
      1784852892,
      1784852921,
      1784852952,
      1784853042,
      1784853102,
      1784853162,
      1784853222,
      1784853252,
      1784853342,
      1784853372,
      1784853402,
      1784853462,
      1784853522,
      1784853553,
      1784853613,
      1784853642,
      1784853673,
      1784853702,
      1784853733,
      1784853762,
      1784853793,
      1784853823,
      1784853832,
      1784853853,
      1784853883,
      1784853892,
      1784853943,
      1784853952,
      1784853973,
      1784854012,
      1784854033,
      1784854072,
      1784854093,
      1784854123,
      1784854153,
      1784854213,
      1784854243,
      1784854252,
      1784854312,
      1784854363,
      1784854433,
      1784854483,
      1784854543,
      1784854553,
      1784854604,
      1784854673,
      1784854733,
      1784854793,
      1784854844,
      1784854853,
      1784854904,
      1784854973,
      1784855093,
      1784855154,
      1784855214,
      1784855274,
      1784855334,
      1784855454,
      1784855514,
      1784855574,
      1784855634,
      1784855694,
      1784855740,
      1784855754,
      1784855800,
      1784855814,
      1784855860,
      1784855874,
      1784855935,
      1784855995,
      1784856055,
      1784856100,
      1784856115,
      1784856175,
      1784856235,
      1784856340,
      1784856400,
      1784856415,
      1784856520,
      1784856580,
      1784856595,
      1784856640,
      1784856716,
      1784856760,
      1784856836,
      1784856896,
      1784856956
    ],
    "wof:geomhash": "341f85d0fb1a7cb30963538038b3872a",
    "wof:id": 2031938741,
    "wof:repo": "sfomuseum-data-flights-2026-07"
  },
  "bbox": [
    -122.37249999999999,
    32.486666666666665,
    -97.05,
    38.038888888888884
  ],
  "geometry": {"coordinates":[[-97.05,32.85],[-97.05,32.78333333333333],[-97.05333333333333,32.77833333333333],[-97.15333333333334,32.690555555555555],[-97.23333333333333,32.68333333333333],[-97.255,32.68861111111111],[-97.46416666666667,32.68444444444444],[-97.58305555555555,32.681666666666665],[-97.70305555555557,32.678888888888885],[-97.9738888888889,32.659166666666664],[-98.09166666666667,32.64972222222222],[-98.25527777777778,32.63666666666666],[-98.39805555555556,32.625277777777775],[-98.53305555555555,32.61388888888889],[-98.68055555555556,32.60166666666667],[-98.82722222222222,32.58916666666667],[-98.97694444444444,32.57638888888889],[-99.12694444444443,32.56333333333333],[-99.2775,32.55],[-99.46472222222222,32.53722222222222],[-99.62166666666666,32.52777777777778],[-99.77916666666667,32.51777777777777],[-99.94111111111111,32.507777777777775],[-100.10194444444444,32.49722222222222],[-100.26361111111112,32.486666666666665],[-100.39027777777778,32.49944444444444],[-100.5775,32.53972222222222],[-100.73555555555555,32.57361111111111],[-100.89333333333335,32.60722222222223],[-101.01833333333333,32.63361111111111],[-101.20444444444445,32.67611111111111],[-101.34888888888888,32.73305555555556],[-101.49277777777777,32.791666666666664],[-101.63388888888889,32.84861111111111],[-101.75444444444445,32.89722222222222],[-101.83777777777777,32.93055555555555],[-101.89750000000001,32.95444444444445],[-101.97972222222222,32.988055555555555],[-102.03861111111111,33.01111111111111],[-102.11999999999999,33.04361111111111],[-102.17972222222222,33.066944444444445],[-102.32138888888889,33.123333333333335],[-102.45916666666668,33.177499999999995],[-102.62166666666666,33.24138888888889],[-102.75972222222222,33.29527777777778],[-102.89833333333334,33.34916666666667],[-103.03777777777778,33.40333333333333],[-103.12416666666665,33.43666666666666],[-103.17888888888889,33.45777777777778],[-103.31861111111111,33.51166666666666],[-103.40833333333335,33.54222222222222],[-103.61305555555555,33.598333333333336],[-103.76222222222222,33.63916666666667],[-103.85444444444444,33.66416666666667],[-103.90805555555556,33.67861111111111],[-104,33.703611111111115],[-104.05388888888889,33.71805555555556],[-104.14916666666667,33.743611111111115],[-104.20055555555555,33.7575],[-104.29333333333334,33.782222222222224],[-104.34666666666666,33.796388888888885],[-104.49555555555555,33.836111111111116],[-104.58833333333332,33.86055555555556],[-104.64194444444445,33.874722222222225],[-104.735,33.899166666666666],[-104.78833333333333,33.91305555555555],[-104.88166666666666,33.9375],[-104.93611111111112,33.95166666666667],[-105.02694444444444,33.97555555555556],[-105.05361111111111,33.98222222222223],[-105.22916666666667,34.02777777777778],[-105.3475,34.05833333333333],[-105.47194444444445,34.09],[-105.52555555555556,34.103611111111114],[-105.62194444444444,34.12833333333333],[-105.67444444444445,34.141666666666666],[-105.82416666666666,34.17944444444444],[-105.97277777777778,34.216944444444444],[-106.09444444444443,34.24722222222222],[-106.37416666666665,34.31666666666667],[-106.5261111111111,34.35416666666667],[-106.82527777777777,34.42722222222222],[-106.97638888888889,34.46361111111111],[-107.13055555555555,34.50055555555556],[-107.41388888888889,34.60888888888889],[-107.55972222222222,34.67222222222222],[-107.67166666666667,34.721111111111114],[-107.81194444444444,34.780833333333334],[-107.95277777777778,34.8425],[-108.38361111111112,35.02722222222222],[-108.52638888888889,35.08777777777778],[-108.66777777777779,35.1475],[-108.79722222222222,35.21944444444445],[-108.915,35.30638888888888],[-109.01444444444445,35.40833333333333],[-109.22722222222222,35.60305555555556],[-109.33611111111111,35.6975],[-109.55555555555556,35.89138888888889],[-109.6388888888889,36.00194444444445],[-109.68138888888889,36.13027777777778],[-109.71166666666667,36.23166666666667],[-109.7538888888889,36.35666666666667],[-110.00333333333333,36.49527777777778],[-110.1588888888889,36.51916666666666],[-110.31388888888888,36.54527777777778],[-110.5,36.575833333333335],[-110.62555555555555,36.596111111111114],[-110.80972222222222,36.62555555555556],[-111.12083333333332,36.67472222222222],[-111.24583333333334,36.69416666666666],[-111.27805555555555,36.69916666666666],[-111.43194444444445,36.723055555555554],[-111.55694444444444,36.74194444444444],[-111.86749999999999,36.788888888888884],[-112.01944444444445,36.811388888888885],[-112.3275,36.856944444444444],[-112.41777777777779,36.87],[-112.57166666666666,36.89222222222222],[-112.72361111111111,36.91611111111111],[-112.78333333333333,36.936388888888885],[-112.86444444444444,36.97666666666667],[-113.00194444444445,37.04527777777778],[-113.13777777777779,37.113055555555555],[-113.19444444444444,37.14138888888889],[-113.275,37.18138888888889],[-113.33194444444445,37.209722222222226],[-113.41361111111112,37.250277777777775],[-113.47027777777778,37.27833333333333],[-113.68861111111111,37.38611111111111],[-113.82777777777777,37.45416666666667],[-113.96611111111112,37.52166666666667],[-114.10527777777777,37.58916666666667],[-114.16194444444444,37.61666666666667],[-114.38194444444444,37.72277777777778],[-114.43666666666667,37.74888888888889],[-114.52,37.788888888888884],[-114.6588888888889,37.855000000000004],[-114.80027777777778,37.92222222222222],[-114.85805555555555,37.94944444444444],[-114.99416666666667,38.00888888888889],[-115.08388888888888,38.03111111111111],[-115.15111111111112,38.038888888888884],[-115.24472222222222,38.038888888888884],[-115.30944444444444,38.03722222222222],[-115.4038888888889,38.03472222222222],[-115.47083333333333,38.033055555555556],[-115.56388888888888,38.030277777777776],[-115.59833333333333,38.030833333333334],[-115.63083333333333,38.02861111111111],[-115.72666666666667,38.025555555555556],[-115.76055555555556,38.025555555555556],[-115.88583333333334,38.020833333333336],[-115.92027777777778,38.01972222222222],[-115.95222222222222,38.01888888888889],[-116.0825,38.01444444444444],[-116.11166666666666,38.01361111111111],[-116.24194444444444,38.009166666666665],[-116.27416666666666,38.00805555555556],[-116.36888888888888,38.00472222222222],[-116.43527777777778,38.0025],[-116.60055555555554,37.99638888888889],[-116.69833333333334,37.9925],[-116.73111111111112,37.99138888888889],[-116.89500000000001,37.985],[-117.02472222222222,37.97972222222222],[-117.19388888888889,37.972500000000004],[-117.35444444444444,37.96555555555556],[-117.52083333333333,37.958333333333336],[-117.52083333333333,37.958333333333336],[-117.68083333333334,37.950833333333335],[-117.8436111111111,37.94333333333333],[-118.00611111111111,37.93527777777778],[-118.16611111111112,37.927499999999995],[-118.32666666666667,37.91916666666666],[-118.32944444444443,37.91888888888889],[-118.4888888888889,37.910555555555554],[-118.65111111111112,37.901666666666664],[-118.96416666666667,37.87277777777778],[-119.13305555555554,37.85333333333333],[-119.28777777777778,37.83527777777778],[-119.44027777777778,37.8175],[-119.59194444444444,37.79944444444444],[-119.89888888888889,37.76222222222222],[-120.05027777777778,37.743611111111115],[-120.20194444444445,37.724722222222226],[-120.35749999999999,37.70527777777778],[-120.505,37.6875],[-120.61666666666666,37.666666666666664],[-120.65,37.67055555555555],[-120.75,37.65],[-120.7863888888889,37.654444444444444],[-120.88333333333334,37.65],[-120.91833333333334,37.63861111111111],[-121.0461111111111,37.621944444444445],[-121.1713888888889,37.605000000000004],[-121.27583333333334,37.59111111111111],[-121.38333333333334,37.583333333333336],[-121.3938888888889,37.5775],[-121.49888888888889,37.565555555555555],[-121.59722222222221,37.55416666666667],[-121.75,37.516666666666666],[-121.83333333333333,37.5],[-121.83833333333332,37.49305555555556],[-121.96666666666667,37.45],[-122.05,37.483333333333334],[-122.05138888888888,37.484722222222224],[-122.11666666666666,37.516666666666666],[-122.18833333333333,37.5425],[-122.25,37.56666666666667],[-122.29222222222222,37.586111111111116],[-122.33222222222221,37.60333333333333],[-122.37249999999999,37.62]],"type":"LineString"}
}
