{
  "id": 2031942263,
  "type": "Feature",
  "properties": {
    "geom:area": 0,
    "geom:bbox": "-122.355440,37.491520,-121.333550,37.612860",
    "geom:latitude": 37.53887630800869,
    "geom:longitude": -121.85111707551462,
    "src:alt_label": "swim-approach",
    "src:geom": "swim",
    "swim:elevations": [
      4283,
      3852,
      3620,
      3526,
      3481,
      3254,
      3141,
      3092,
      3038,
      2983,
      2774,
      2458,
      2293,
      2210,
      2134,
      2134,
      2134,
      1882,
      1788,
      1616,
      1521,
      1317,
      1300,
      1214,
      944,
      904,
      727,
      610,
      557,
      525,
      470,
      377,
      285,
      200,
      186,
      153,
      75,
      25
    ],
    "swim:geom": "approach",
    "swim:timestamps": [
      1784795475,
      1784795525,
      1784795554,
      1784795575,
      1784795591,
      1784795627,
      1784795655,
      1784795662,
      1784795677,
      1784795684,
      1784795701,
      1784795735,
      1784795777,
      1784795788,
      1784795812,
      1784795843,
      1784795860,
      1784795907,
      1784795930,
      1784795963,
      1784795980,
      1784796012,
      1784796019,
      1784796039,
      1784796083,
      1784796095,
      1784796135,
      1784796165,
      1784796178,
      1784796182,
      1784796196,
      1784796218,
      1784796252,
      1784796278,
      1784796284,
      1784796290,
      1784796315,
      1784796326
    ],
    "wof:geomhash": "8c94b19950497a5393ccc80082f60519",
    "wof:id": 2031942263,
    "wof:repo": "sfomuseum-data-flights-2026-07"
  },
  "bbox": [
    -122.35544,
    37.49152,
    -121.33355,
    37.61286
  ],
  "geometry": {"coordinates":[[-121.33355,37.58421],[-121.43182,37.57317],[-121.48885,37.56639],[-121.52846,37.56189],[-121.55755,37.55852],[-121.6189,37.55138],[-121.66022,37.54202],[-121.67097,37.5395],[-121.69093,37.53478],[-121.70025,37.53261],[-121.72412,37.527],[-121.77219,37.5153],[-121.82793,37.50173],[-121.8419,37.49842],[-121.87374,37.49152],[-121.91623,37.49333],[-121.93879,37.49447],[-121.99426,37.49764],[-122.02172,37.4992],[-122.06047,37.50138],[-122.07999,37.50245],[-122.11383,37.511],[-122.12081,37.51402],[-122.14035,37.5222],[-122.18091,37.53926],[-122.19113,37.54362],[-122.22436,37.55765],[-122.24834,37.56774],[-122.2589,37.57228],[-122.2622,37.57365],[-122.27251,37.57791],[-122.28798,37.58449],[-122.30939,37.59349],[-122.32557,37.60025],[-122.32932,37.60182],[-122.33311,37.60338],[-122.34878,37.61004],[-122.35544,37.61286]],"type":"LineString"}
}
