{
  "id": 2032054509,
  "type": "Feature",
  "properties": {
    "geom:area": 0,
    "geom:bbox": "-122.552230,37.197420,-121.279940,37.667310",
    "geom:latitude": 37.387428842791124,
    "geom:longitude": -122.02066147274694,
    "src:alt_label": "swim-takeoff",
    "src:geom": "swim",
    "swim:elevations": [
      152,
      285,
      408,
      708,
      913,
      933,
      1359,
      1488,
      1829,
      2202,
      2465,
      3014,
      3291,
      3344,
      3619,
      3765,
      3980,
      4059,
      4452,
      4741,
      5215,
      5434,
      5475,
      5501,
      5654,
      5870,
      6144,
      6360,
      6611,
      6683,
      6764,
      6798,
      6865,
      7033,
      7324
    ],
    "swim:geom": "takeoff",
    "swim:timestamps": [
      1785535374,
      1785535384,
      1785535394,
      1785535418,
      1785535457,
      1785535485,
      1785535529,
      1785535541,
      1785535564,
      1785535588,
      1785535607,
      1785535646,
      1785535675,
      1785535683,
      1785535727,
      1785535750,
      1785535768,
      1785535779,
      1785535819,
      1785535849,
      1785535914,
      1785535941,
      1785535947,
      1785535950,
      1785535968,
      1785535999,
      1785536037,
      1785536062,
      1785536098,
      1785536113,
      1785536125,
      1785536131,
      1785536143,
      1785536163,
      1785536203
    ],
    "wof:geomhash": "ba21cebe369e528db1d18fcfa13f46fc",
    "wof:id": 2032054509,
    "wof:repo": "sfomuseum-data-flights-2026-07"
  },
  "bbox": [
    -122.55223,
    37.19742,
    -121.27994,
    37.66731
  ],
  "geometry": {"coordinates":[[-122.38356,37.62472],[-122.39206,37.62851],[-122.39949,37.6318],[-122.41906,37.63945],[-122.45588,37.65433],[-122.48827,37.66731],[-122.54429,37.65264],[-122.55223,37.63876],[-122.54771,37.60914],[-122.52828,37.58029],[-122.51396,37.55824],[-122.48697,37.51059],[-122.45821,37.47746],[-122.44718,37.47065],[-122.37425,37.43236],[-122.33187,37.41288],[-122.29402,37.40183],[-122.27099,37.39672],[-122.1834,37.38014],[-122.11842,37.36749],[-121.96921,37.33786],[-121.90794,37.32566],[-121.89338,37.32276],[-121.88642,37.32133],[-121.84465,37.31292],[-121.77207,37.29826],[-121.68351,37.28018],[-121.62392,37.26807],[-121.53801,37.25062],[-121.50184,37.24318],[-121.47262,37.23719],[-121.45795,37.23416],[-121.42856,37.22809],[-121.37813,37.2177],[-121.27994,37.19742]],"type":"LineString"}
}
