{
  "id": 2031996763,
  "type": "Feature",
  "properties": {
    "geom:area": 0,
    "geom:bbox": "-123.479560,37.041750,-122.393920,37.668490",
    "geom:latitude": 37.38502586117611,
    "geom:longitude": -122.94315076193986,
    "src:alt_label": "swim-takeoff",
    "src:geom": "swim",
    "swim:elevations": [
      183,
      611,
      622,
      973,
      1173,
      1529,
      1545,
      2180,
      2433,
      2752,
      3018,
      3066,
      3293,
      3352,
      3435,
      3581,
      3690,
      3844,
      3937,
      4208,
      4323,
      4678,
      4874,
      5087,
      5297,
      5486,
      5578
    ],
    "swim:geom": "takeoff",
    "swim:timestamps": [
      1785198537,
      1785198568,
      1785198571,
      1785198613,
      1785198640,
      1785198688,
      1785198691,
      1785198748,
      1785198772,
      1785198805,
      1785198835,
      1785198841,
      1785198889,
      1785198901,
      1785198922,
      1785198957,
      1785198985,
      1785199012,
      1785199024,
      1785199063,
      1785199084,
      1785199130,
      1785199160,
      1785199196,
      1785199226,
      1785199258,
      1785199270
    ],
    "wof:geomhash": "5b33e9f15bc6863efa7c9a66eb9eca6a",
    "wof:id": 2031996763,
    "wof:repo": "sfomuseum-data-flights-2026-07"
  },
  "bbox": [
    -123.47956,
    37.04175,
    -122.39392,
    37.66849
  ],
  "geometry": {"coordinates":[[-122.39392,37.62683],[-122.42078,37.63837],[-122.42346,37.63949],[-122.46332,37.65651],[-122.49045,37.66849],[-122.54931,37.64847],[-122.55295,37.64602],[-122.62419,37.59735],[-122.65531,37.57738],[-122.69864,37.54949],[-122.73784,37.5242],[-122.74588,37.51903],[-122.81265,37.47507],[-122.83039,37.46398],[-122.863,37.44314],[-122.91959,37.40696],[-122.96603,37.37627],[-123.01289,37.34621],[-123.03377,37.33271],[-123.10212,37.288],[-123.13935,37.26364],[-123.22123,37.21057],[-123.27689,37.17466],[-123.34268,37.13176],[-123.39797,37.09537],[-123.45731,37.05636],[-123.47956,37.04175]],"type":"LineString"}
}
