{
  "id": 2032021433,
  "type": "Feature",
  "properties": {
    "geom:area": 0,
    "geom:bbox": "-122.406389,37.649722,-74.982222,43.978889",
    "geom:latitude": 41.80567618991773,
    "geom:longitude": -98.9648390453324,
    "src:alt_label": "swim-path",
    "src:geom": "swim",
    "swim:altitudes": [
      "018",
      "029",
      "048",
      "069",
      "089",
      "093",
      "105",
      "108",
      "114",
      "129",
      "154",
      "168",
      "194",
      "205",
      "215",
      "225",
      "235",
      "245",
      "254",
      "261",
      "269",
      "277",
      "283",
      "284",
      "290",
      "291",
      "297",
      "298",
      "305",
      "307",
      "313",
      "313",
      "319",
      "320",
      "330C",
      "330C",
      "330C",
      "330C",
      "330C",
      "330C",
      "330C",
      "330C",
      "330C",
      "331C",
      "330C",
      "330C",
      "330C",
      "330C",
      "330C",
      "330C",
      "330C",
      "330C",
      "330C",
      "330C",
      "330C",
      "330C",
      "330C",
      "330C",
      "330C",
      "330C",
      "330C",
      "331C",
      "330C",
      "330C",
      "330C",
      "330C",
      "330C",
      "330C",
      "330C",
      "330C",
      "330C",
      "331C",
      "330C",
      "330C",
      "330C",
      "330C",
      "330C",
      "330C",
      "330C",
      "330C",
      "330C",
      "330C",
      "331C",
      "330C",
      "330C",
      "330C",
      "330C",
      "330C",
      "330C",
      "331C",
      "330C",
      "330C",
      "330C",
      "330C",
      "330C",
      "330C",
      "330C",
      "330C",
      "330C",
      "330C",
      "330C",
      "330C",
      "330C",
      "330C",
      "330C",
      "330C",
      "330C",
      "330C",
      "330C",
      "330C",
      "330C",
      "330C",
      "330C",
      "330C",
      "330C",
      "331C",
      "330C",
      "330C",
      "330C",
      "330C",
      "330C",
      "330C",
      "330C",
      "330C",
      "330C",
      "330C",
      "330C",
      "330C",
      "330C",
      "330C",
      "330C",
      "330C",
      "330C",
      "330C",
      "330C",
      "330C",
      "330C",
      "330C",
      "330C",
      "330C",
      "330C",
      "330C",
      "330C",
      "330C",
      "331C",
      "330C",
      "330C",
      "330C",
      "330C",
      "330C",
      "330C",
      "330C",
      "330C",
      "330C",
      "330C",
      "330C",
      "330C",
      "330C",
      "330C",
      "330C",
      "330C",
      "330C",
      "330C",
      "330C",
      "330C",
      "330C",
      "330C",
      "330C",
      "330C",
      "330C",
      "330C",
      "330C",
      "330C",
      "330C",
      "330C",
      "330C",
      "330C",
      "330C",
      "330C",
      "330C",
      "330C",
      "330C",
      "330C",
      "330C",
      "330C",
      "330C",
      "330C",
      "330C",
      "330C",
      "330C",
      "330C",
      "330C",
      "330C",
      "330C",
      "330C",
      "330C",
      "330C",
      "331",
      "333",
      "336",
      "339",
      "341",
      "345",
      "350C",
      "350C",
      "350C",
      "350C",
      "350C",
      "350C",
      "350C",
      "350C",
      "350C",
      "350C",
      "350C",
      "350C",
      "350C",
      "350C",
      "350C",
      "350C",
      "350C",
      "350C",
      "350C",
      "350C",
      "350C",
      "350C",
      "350C",
      "350C",
      "350C",
      "350C",
      "350C",
      "350C",
      "350C",
      "350C",
      "350C",
      "350C",
      "350C",
      "350C",
      "350C",
      "350C",
      "350C",
      "350C",
      "350C",
      "350C",
      "350C",
      "350C",
      "350C",
      "350C",
      "350C",
      "350C",
      "350C",
      "350C",
      "351C",
      "351C",
      "350C",
      "350C",
      "350C",
      "350C",
      "350C",
      "350C",
      "350C",
      "350C",
      "350C",
      "350C",
      "350C",
      "351C",
      "350C",
      "350C",
      "350C",
      "350C",
      "350C",
      "350C",
      "350C",
      "350C",
      "350C",
      "350C",
      "351C",
      "350C",
      "350C",
      "350C",
      "350C",
      "350C",
      "350C",
      "350C",
      "350C",
      "350",
      "350",
      "344",
      "342",
      "334",
      "330",
      "330",
      "330",
      "330",
      "330",
      "330",
      "330",
      "315",
      "314",
      "288",
      "287",
      "267",
      "266",
      "250C",
      "249",
      "230",
      "209",
      "199",
      "199",
      "190",
      "178",
      "168",
      "169",
      "159",
      "159",
      "140",
      "124",
      "108",
      "102",
      "101",
      "091",
      "088",
      "079",
      "063",
      "060",
      "060",
      "060",
      "060",
      "060",
      "060",
      "060",
      "060",
      "060",
      "060",
      "050",
      "048",
      "033",
      "028",
      "022",
      "021",
      "016",
      "012",
      "006",
      "004",
      "80"
    ],
    "swim:geom": "path",
    "swim:speeds": [
      186,
      259,
      263,
      273,
      278,
      288,
      292,
      311,
      352,
      371,
      387,
      398,
      417,
      425,
      434,
      442,
      449,
      454,
      461,
      470,
      478,
      482,
      483,
      486,
      488,
      491,
      490,
      492,
      492,
      494,
      492,
      493,
      492,
      493,
      493,
      495,
      498,
      496,
      497,
      496,
      497,
      496,
      496,
      495,
      495,
      495,
      494,
      493,
      493,
      492,
      491,
      491,
      491,
      492,
      492,
      493,
      495,
      496,
      498,
      499,
      503,
      508,
      509,
      509,
      510,
      509,
      509,
      508,
      508,
      508,
      510,
      511,
      512,
      512,
      511,
      510,
      508,
      506,
      504,
      503,
      502,
      504,
      506,
      506,
      505,
      506,
      509,
      511,
      512,
      515,
      514,
      512,
      513,
      502,
      500,
      498,
      499,
      502,
      502,
      501,
      500,
      498,
      498,
      496,
      496,
      495,
      494,
      494,
      495,
      495,
      497,
      497,
      499,
      500,
      502,
      504,
      504,
      504,
      503,
      502,
      501,
      500,
      500,
      499,
      500,
      500,
      502,
      503,
      505,
      505,
      505,
      503,
      502,
      502,
      502,
      501,
      501,
      501,
      501,
      502,
      504,
      503,
      506,
      508,
      507,
      509,
      508,
      510,
      508,
      509,
      508,
      508,
      507,
      508,
      507,
      507,
      507,
      508,
      507,
      508,
      508,
      507,
      506,
      506,
      505,
      505,
      504,
      504,
      505,
      505,
      504,
      503,
      503,
      502,
      503,
      503,
      509,
      512,
      513,
      514,
      516,
      516,
      515,
      514,
      513,
      511,
      512,
      512,
      513,
      513,
      512,
      512,
      512,
      512,
      511,
      513,
      510,
      511,
      509,
      510,
      511,
      512,
      512,
      513,
      513,
      513,
      512,
      512,
      512,
      511,
      511,
      511,
      510,
      510,
      510,
      509,
      509,
      508,
      507,
      508,
      508,
      508,
      507,
      507,
      507,
      507,
      507,
      507,
      508,
      509,
      509,
      510,
      510,
      511,
      512,
      513,
      513,
      513,
      513,
      512,
      512,
      512,
      511,
      510,
      509,
      508,
      505,
      500,
      497,
      494,
      491,
      490,
      490,
      487,
      488,
      493,
      494,
      494,
      495,
      489,
      486,
      486,
      486,
      487,
      488,
      487,
      486,
      484,
      482,
      481,
      480,
      479,
      481,
      479,
      483,
      481,
      482,
      482,
      482,
      477,
      476,
      477,
      475,
      476,
      475,
      476,
      476,
      476,
      476,
      467,
      466,
      466,
      469,
      471,
      471,
      472,
      475,
      476,
      483,
      484,
      470,
      470,
      458,
      457,
      453,
      443,
      439,
      439,
      429,
      424,
      412,
      412,
      404,
      406,
      393,
      381,
      365,
      328,
      325,
      305,
      307,
      298,
      294,
      291,
      291,
      293,
      291,
      288,
      290,
      264,
      257,
      221,
      224,
      217,
      219,
      198,
      201,
      181,
      182,
      178,
      180,
      149,
      153,
      132
    ],
    "swim:timestamps": [
      1785331008,
      1785331068,
      1785331128,
      1785331188,
      1785331248,
      1785331259,
      1785331308,
      1785331319,
      1785331374,
      1785331434,
      1785331549,
      1785331609,
      1785331729,
      1785331789,
      1785331849,
      1785331909,
      1785331969,
      1785332029,
      1785332089,
      1785332149,
      1785332209,
      1785332269,
      1785332313,
      1785332329,
      1785332373,
      1785332389,
      1785332433,
      1785332449,
      1785332493,
      1785332509,
      1785332553,
      1785332569,
      1785332613,
      1785332630,
      1785332734,
      1785332750,
      1785332794,
      1785332810,
      1785332854,
      1785332870,
      1785332914,
      1785332930,
      1785332974,
      1785332990,
      1785333034,
      1785333050,
      1785333094,
      1785333110,
      1785333170,
      1785333230,
      1785333290,
      1785333334,
      1785333350,
      1785333395,
      1785333410,
      1785333470,
      1785333530,
      1785333575,
      1785333651,
      1785333711,
      1785333771,
      1785333815,
      1785333875,
      1785333935,
      1785333995,
      1785334055,
      1785334116,
      1785334176,
      1785334236,
      1785334296,
      1785334356,
      1785334416,
      1785334476,
      1785334536,
      1785334596,
      1785334656,
      1785334716,
      1785334776,
      1785334837,
      1785334897,
      1785334957,
      1785335077,
      1785335137,
      1785335197,
      1785335257,
      1785335317,
      1785335437,
      1785335497,
      1785335558,
      1785335618,
      1785335678,
      1785335738,
      1785335798,
      1785335858,
      1785335918,
      1785335978,
      1785336038,
      1785336098,
      1785336158,
      1785336218,
      1785336278,
      1785336327,
      1785336339,
      1785336387,
      1785336399,
      1785336447,
      1785336459,
      1785336519,
      1785336567,
      1785336579,
      1785336627,
      1785336639,
      1785336687,
      1785336699,
      1785336759,
      1785336819,
      1785336879,
      1785336927,
      1785336939,
      1785336999,
      1785337060,
      1785337108,
      1785337120,
      1785337180,
      1785337228,
      1785337240,
      1785337300,
      1785337348,
      1785337408,
      1785337468,
      1785337528,
      1785337648,
      1785337769,
      1785337829,
      1785337889,
      1785337949,
      1785338009,
      1785338069,
      1785338129,
      1785338189,
      1785338309,
      1785338345,
      1785338369,
      1785338429,
      1785338465,
      1785338490,
      1785338525,
      1785338550,
      1785338586,
      1785338610,
      1785338646,
      1785338670,
      1785338730,
      1785338766,
      1785338790,
      1785338826,
      1785338850,
      1785338886,
      1785338910,
      1785338946,
      1785338970,
      1785339030,
      1785339066,
      1785339090,
      1785339126,
      1785339150,
      1785339271,
      1785339307,
      1785339367,
      1785339427,
      1785339487,
      1785339547,
      1785339607,
      1785339667,
      1785339727,
      1785339787,
      1785339847,
      1785339907,
      1785339967,
      1785340028,
      1785340148,
      1785340208,
      1785340268,
      1785340328,
      1785340388,
      1785340508,
      1785340568,
      1785340628,
      1785340749,
      1785340809,
      1785340869,
      1785340929,
      1785340989,
      1785341049,
      1785341109,
      1785341136,
      1785341169,
      1785341196,
      1785341229,
      1785341256,
      1785341289,
      1785341317,
      1785341349,
      1785341409,
      1785341437,
      1785341470,
      1785341497,
      1785341530,
      1785341557,
      1785341617,
      1785341650,
      1785341710,
      1785341737,
      1785341770,
      1785341797,
      1785341830,
      1785341857,
      1785341890,
      1785341978,
      1785342038,
      1785342070,
      1785342098,
      1785342130,
      1785342158,
      1785342218,
      1785342251,
      1785342311,
      1785342338,
      1785342398,
      1785342459,
      1785342519,
      1785342579,
      1785342639,
      1785342759,
      1785342819,
      1785342879,
      1785342939,
      1785343000,
      1785343060,
      1785343120,
      1785343180,
      1785343237,
      1785343297,
      1785343357,
      1785343417,
      1785343477,
      1785343533,
      1785343593,
      1785343653,
      1785343713,
      1785343778,
      1785343838,
      1785343893,
      1785343958,
      1785344018,
      1785344073,
      1785344134,
      1785344194,
      1785344254,
      1785344319,
      1785344374,
      1785344439,
      1785344494,
      1785344554,
      1785344614,
      1785344674,
      1785344734,
      1785344795,
      1785344855,
      1785344915,
      1785344975,
      1785345029,
      1785345035,
      1785345089,
      1785345095,
      1785345150,
      1785345270,
      1785345330,
      1785345390,
      1785345516,
      1785345570,
      1785345576,
      1785345630,
      1785345636,
      1785345690,
      1785345696,
      1785345750,
      1785345756,
      1785345811,
      1785345871,
      1785345931,
      1785346051,
      1785346117,
      1785346177,
      1785346231,
      1785346237,
      1785346291,
      1785346297,
      1785346351,
      1785346357,
      1785346411,
      1785346417,
      1785346472,
      1785346532,
      1785346652,
      1785346778,
      1785346832,
      1785346838,
      1785346892,
      1785346958,
      1785347012,
      1785347018,
      1785347072,
      1785347078,
      1785347133,
      1785347193,
      1785347253,
      1785347298,
      1785347313,
      1785347357,
      1785347373,
      1785347417,
      1785347493,
      1785347553,
      1785347613,
      1785347658,
      1785347673,
      1785347718,
      1785347733,
      1785347778,
      1785347794,
      1785347838,
      1785347854,
      1785347898,
      1785347914,
      1785347953,
      1785347974,
      1785348012,
      1785348034,
      1785348072,
      1785348094,
      1785348132,
      1785348154,
      1785348214
    ],
    "wof:geomhash": "d8a7a11619df0220f463647a572ea376",
    "wof:id": 2032021433,
    "wof:repo": "sfomuseum-data-flights-2026-07"
  },
  "bbox": [
    -122.4063888888889,
    37.64972222222222,
    -74.98222222222222,
    43.97888888888889
  ],
  "geometry": {"coordinates":[[-122.4063888888889,37.64972222222222],[-122.35666666666665,37.702222222222225],[-122.34916666666666,37.76833333333333],[-122.38388888888889,37.84027777777778],[-122.38361111111112,37.91777777777777],[-122.36666666666666,37.93333333333333],[-122.31138888888889,37.969166666666666],[-122.28333333333333,37.983333333333334],[-122.18333333333334,38.016666666666666],[-122.06666666666666,38.06666666666667],[-121.85555555555555,38.152499999999996],[-121.73055555555555,38.20194444444445],[-121.46888888888888,38.305277777777775],[-121.34138888888889,38.36666666666667],[-121.22305555555556,38.439722222222215],[-121.10388888888889,38.51305555555555],[-120.97833333333334,38.59027777777778],[-120.85166666666666,38.668055555555554],[-120.7225,38.746944444444445],[-120.5911111111111,38.82666666666667],[-120.45611111111111,38.90833333333333],[-120.31944444444444,38.990833333333335],[-120.20527777777778,39.056666666666665],[-120.18,39.074444444444445],[-120.06583333333333,39.13972222222222],[-120.03666666666666,39.16],[-119.92583333333334,39.224722222222226],[-119.89722222222223,39.24333333333333],[-119.78527777777778,39.30888888888889],[-119.75472222222223,39.3275],[-119.64416666666668,39.39277777777778],[-119.61527777777778,39.40972222222222],[-119.50305555555556,39.475833333333334],[-119.47222222222223,39.493611111111115],[-119.2175,39.64333333333333],[-119.18694444444445,39.66],[-119.07305555555556,39.726111111111116],[-119.04222222222222,39.74388888888889],[-118.92833333333334,39.80972222222222],[-118.89722222222223,39.8275],[-118.78027777777778,39.89055555555556],[-118.7475,39.905],[-118.62305555555555,39.95583333333334],[-118.58722222222222,39.970555555555556],[-118.46222222222222,40.02111111111111],[-118.42972222222222,40.034166666666664],[-118.30916666666667,40.0825],[-118.27,40.09805555555556],[-118.11361111111111,40.16111111111111],[-117.95027777777779,40.21555555555556],[-117.78333333333333,40.25472222222222],[-117.64916666666667,40.28583333333333],[-117.61416666666666,40.29388888888889],[-117.47833333333334,40.32527777777778],[-117.4413888888889,40.33361111111111],[-117.26972222222223,40.37277777777778],[-117.09472222222222,40.4125],[-116.9563888888889,40.44361111111111],[-116.73361111111112,40.49333333333333],[-116.55638888888889,40.5325],[-116.38166666666666,40.57361111111111],[-116.24555555555555,40.61833333333333],[-116.075,40.67361111111111],[-115.90444444444445,40.72916666666667],[-115.73055555555555,40.785555555555554],[-115.56222222222222,40.839444444444446],[-115.38944444444445,40.89527777777778],[-115.21972222222223,40.94916666666666],[-115.04583333333333,41.00416666666667],[-114.8736111111111,41.058055555555555],[-114.69888888888889,41.11277777777778],[-114.52416666666666,41.166666666666664],[-114.35138888888888,41.22027777777778],[-114.17361111111111,41.27388888888889],[-114.00027777777778,41.32694444444445],[-113.82694444444444,41.379444444444445],[-113.65472222222223,41.43111111111111],[-113.48083333333334,41.48305555555556],[-113.30805555555555,41.534166666666664],[-113.13583333333334,41.584722222222226],[-112.9625,41.63527777777778],[-112.61611111111111,41.73555555555556],[-112.43805555555556,41.78638888888889],[-112.2625,41.83416666666667],[-112.0825,41.87777777777778],[-111.90611111111112,41.93277777777777],[-111.55972222222222,42.051111111111105],[-111.38777777777779,42.112500000000004],[-111.2175,42.176944444444445],[-111.06361111111111,42.26611111111111],[-110.91583333333334,42.35666666666667],[-110.76638888888888,42.448611111111106],[-110.61333333333333,42.534166666666664],[-110.43333333333334,42.57666666666667],[-110.25027777777778,42.60305555555556],[-110.06666666666666,42.62888888888889],[-109.88027777777778,42.655],[-109.69166666666668,42.68055555555555],[-109.50638888888889,42.705555555555556],[-109.32222222222222,42.73027777777778],[-109.135,42.755],[-109.00361111111111,42.774166666666666],[-108.94888888888889,42.778888888888886],[-108.83972222222222,42.79388888888889],[-108.76722222222222,42.80222222222222],[-108.65694444444445,42.8175],[-108.58166666666666,42.82611111111112],[-108.39833333333334,42.848333333333336],[-108.25,42.86666666666667],[-108.21388888888889,42.87111111111111],[-108.06305555555555,42.88972222222222],[-108.02527777777777,42.894444444444446],[-107.87583333333333,42.911944444444444],[-107.8386111111111,42.91611111111111],[-107.64750000000001,42.93888888888888],[-107.48416666666667,42.95777777777778],[-107.29305555555555,42.97972222222222],[-107.13833333333334,42.99722222222222],[-107.10638888888889,43.00083333333333],[-106.92027777777778,43.02166666666667],[-106.72833333333334,43.04277777777778],[-106.5761111111111,43.05888888888889],[-106.53888888888889,43.062777777777775],[-106.34972222222221,43.08305555555556],[-106.2,43.09916666666667],[-106.16305555555556,43.103611111111114],[-105.97222222222223,43.125277777777775],[-105.82166666666666,43.14222222222222],[-105.63138888888888,43.163333333333334],[-105.44194444444445,43.18388888888889],[-105.25222222222222,43.20388888888889],[-104.87083333333332,43.243611111111115],[-104.48944444444444,43.28194444444444],[-104.30166666666666,43.30027777777777],[-104.11,43.31861111111112],[-103.91888888888889,43.336666666666666],[-103.73055555555555,43.35416666666667],[-103.53972222222222,43.37166666666667],[-103.35027777777778,43.38861111111111],[-103.16166666666668,43.405277777777776],[-102.77722222222222,43.43805555555555],[-102.66888888888889,43.44694444444444],[-102.585,43.45388888888889],[-102.39055555555557,43.46944444444445],[-102.28416666666666,43.47805555555556],[-102.19694444444445,43.484722222222224],[-102.08805555555556,43.49333333333333],[-102.01277777777777,43.49861111111111],[-101.89722222222223,43.50055555555556],[-101.81722222222221,43.50138888888889],[-101.70722222222223,43.50222222222222],[-101.62555555555555,43.50277777777778],[-101.4725,43.50333333333333],[-101.31638888888888,43.50388888888889],[-101.24083333333333,43.50416666666667],[-101.12166666666666,43.50416666666667],[-101.04805555555555,43.50416666666667],[-100.92972222222222,43.50416666666667],[-100.85249999999999,43.504444444444445],[-100.73666666666666,43.50388888888889],[-100.65916666666668,43.50361111111111],[-100.46888888888888,43.52055555555555],[-100.35694444444444,43.54388888888889],[-100.285,43.55833333333333],[-100.17333333333333,43.581388888888895],[-100.09722222222221,43.59666666666667],[-99.73111111111112,43.67027777777778],[-99.61611111111111,43.69305555555555],[-99.43027777777779,43.72916666666667],[-99.24472222222222,43.76583333333333],[-99.05944444444444,43.801944444444445],[-98.8736111111111,43.837500000000006],[-98.68555555555555,43.87305555555555],[-98.47416666666666,43.9125],[-98.28527777777778,43.9475],[-98.09666666666666,43.97833333333333],[-97.90083333333334,43.97888888888889],[-97.7075,43.94916666666666],[-97.51777777777778,43.91638888888889],[-97.32527777777777,43.8825],[-96.94166666666668,43.81388888888888],[-96.75166666666667,43.77916666666667],[-96.56194444444444,43.744166666666665],[-96.37222222222222,43.70916666666667],[-96.18361111111112,43.67361111111111],[-95.80749999999999,43.60194444444445],[-95.61944444444444,43.565555555555555],[-95.42861111111111,43.52833333333333],[-95.05138888888888,43.453611111111115],[-94.86361111111111,43.41583333333333],[-94.67472222222223,43.3775],[-94.48666666666666,43.33916666666667],[-94.29916666666666,43.300555555555555],[-94.10249999999999,43.25944444444445],[-93.915,43.22],[-93.85333333333332,43.206944444444446],[-93.73027777777779,43.18083333333333],[-93.67166666666667,43.16833333333333],[-93.54638888888888,43.14138888888889],[-93.4825,43.1275],[-93.36083333333333,43.10138888888889],[-93.29722222222222,43.09],[-93.17083333333333,43.07222222222222],[-92.98027777777779,43.044444444444444],[-92.91305555555556,43.03472222222222],[-92.79027777777777,43.01694444444444],[-92.72361111111111,43.00694444444444],[-92.60166666666666,42.98888888888889],[-92.5325,42.978611111111114],[-92.3436111111111,42.95027777777778],[-92.22083333333333,42.93222222222222],[-92.03305555555555,42.90333333333333],[-91.96472222222222,42.893055555555556],[-91.84638888888888,42.874722222222225],[-91.7775,42.86388888888889],[-91.67111111111112,42.84722222222222],[-91.56305555555555,42.83027777777778],[-91.48444444444445,42.81777777777778],[-91.19083333333333,42.770833333333336],[-91.00222222222222,42.74],[-90.92444444444445,42.72805555555556],[-90.81583333333333,42.711111111111116],[-90.73805555555556,42.69888888888889],[-90.62944444444443,42.681666666666665],[-90.44444444444444,42.647777777777776],[-90.3286111111111,42.62555555555556],[-90.15777777777778,42.592222222222226],[-90.0775,42.57638888888889],[-89.89305555555556,42.540277777777774],[-89.70694444444445,42.503055555555555],[-89.52305555555556,42.46638888888889],[-89.33972222222222,42.42916666666667],[-89.15527777777778,42.39138888888889],[-88.79722222222222,42.3175],[-88.61333333333333,42.278888888888886],[-88.42944444444444,42.24],[-88.24277777777777,42.2],[-88.05944444444444,42.160555555555554],[-87.87333333333332,42.12],[-87.69083333333333,42.080000000000005],[-87.5075,42.03972222222222],[-87.32416666666666,41.99861111111111],[-87.13972222222223,41.95722222222223],[-86.95944444444444,41.91638888888889],[-86.77694444444444,41.874722222222225],[-86.61055555555555,41.83638888888889],[-86.42666666666668,41.79388888888889],[-86.25833333333334,41.75833333333333],[-86.08138888888888,41.72916666666667],[-85.9025,41.69916666666666],[-85.68666666666667,41.66277777777778],[-85.51083333333334,41.632777777777775],[-85.36277777777777,41.606944444444444],[-85.17666666666668,41.57416666666667],[-85.00333333333333,41.53861111111111],[-84.83916666666666,41.475833333333334],[-84.6763888888889,41.41361111111111],[-84.51305555555555,41.35138888888889],[-84.35111111111111,41.290277777777774],[-84.18138888888889,41.242222222222225],[-84.00777777777778,41.21638888888889],[-83.83055555555555,41.189722222222215],[-83.67111111111112,41.16555555555556],[-83.49527777777777,41.138333333333335],[-83.32,41.111111111111114],[-83.14888888888889,41.08416666666667],[-82.97305555555556,41.05638888888888],[-82.80083333333333,41.028888888888886],[-82.62972222222221,41.00138888888889],[-82.45833333333334,40.973333333333336],[-82.2863888888889,40.94499999999999],[-82.12472222222222,40.91583333333333],[-82.11416666666666,40.91638888888889],[-81.95166666666667,40.888333333333335],[-81.94250000000001,40.88777777777778],[-81.77805555555555,40.85666666666667],[-81.43444444444445,40.79833333333333],[-81.2625,40.769444444444446],[-81.09166666666667,40.73916666666667],[-80.74833333333333,40.67916666666667],[-80.58583333333333,40.64944444444444],[-80.54916666666666,40.643055555555556],[-80.41777777777779,40.61833333333333],[-80.38111111111111,40.61222222222222],[-80.24972222222222,40.587500000000006],[-80.21638888888889,40.581944444444446],[-80.08083333333333,40.55611111111111],[-80.04805555555555,40.55083333333333],[-79.91222222222223,40.52444444444444],[-79.7475,40.49916666666667],[-79.5786111111111,40.48888888888889],[-79.21166666666667,40.471111111111114],[-79.0363888888889,40.45888888888889],[-78.86555555555555,40.44694444444444],[-78.69638888888889,40.43444444444444],[-78.69472222222223,40.43416666666666],[-78.52722222222222,40.42222222222222],[-78.52305555555556,40.42166666666667],[-78.35277777777777,40.40888888888889],[-78.34833333333333,40.40861111111111],[-78.18138888888889,40.39555555555555],[-78.18,40.39527777777778],[-78.01666666666667,40.3825],[-77.85249999999999,40.36888888888889],[-77.53,40.319722222222225],[-77.20222222222222,40.268055555555556],[-77.04638888888888,40.24333333333333],[-77.045,40.24305555555556],[-76.89944444444446,40.219722222222224],[-76.7425,40.19444444444444],[-76.60083333333333,40.17111111111111],[-76.59833333333333,40.170833333333334],[-76.46388888888889,40.14861111111111],[-76.4538888888889,40.14694444444444],[-76.31833333333333,40.12444444444444],[-76.18722222222223,40.113055555555555],[-76.04833333333333,40.10333333333333],[-75.95,40.1],[-75.93305555555555,40.09527777777778],[-75.85,40.083333333333336],[-75.81916666666666,40.08722222222222],[-75.73333333333333,40.083333333333336],[-75.60499999999999,40.07527777777778],[-75.49972222222222,40.07027777777778],[-75.39444444444445,40.06083333333333],[-75.31666666666666,40.05],[-75.29333333333334,40.038333333333334],[-75.21666666666667,40.016666666666666],[-75.19333333333334,40.01611111111111],[-75.11666666666666,40],[-75.10555555555555,39.99611111111111],[-75.03333333333333,40],[-75.02555555555556,40.00333333333333],[-74.98333333333333,39.96666666666667],[-74.98222222222222,39.95777777777778],[-75,39.93333333333333],[-75.01805555555555,39.91722222222222],[-75.06666666666666,39.9],[-75.0825,39.90333333333333],[-75.13333333333334,39.9],[-75.14444444444445,39.89083333333333],[-75.18333333333334,39.88333333333333],[-75.20083333333334,39.879444444444445],[-75.24305555555556,39.87111111111111]],"type":"LineString"}
}
