{
  "id": 2031946997,
  "type": "Feature",
  "properties": {
    "geom:area": 0,
    "geom:bbox": "-122.560000,32.691667,-116.966667,37.649722",
    "geom:latitude": 34.95640207141062,
    "geom:longitude": -119.95270090908345,
    "src:alt_label": "swim-path",
    "src:geom": "swim",
    "swim:altitudes": [
      "027",
      "075",
      "111",
      "130",
      "173",
      "190",
      "206",
      "223",
      "224",
      "241",
      "253",
      "254",
      "265",
      "289",
      "300",
      "310",
      "313",
      "330C",
      "330C",
      "330C",
      "330C",
      "330C",
      "330C",
      "330C",
      "330C",
      "330C",
      "330C",
      "330C",
      "330C",
      "330C",
      "330C",
      "330C",
      "330C",
      "330C",
      "330C",
      "330C",
      "330C",
      "330C",
      "330",
      "330",
      "330",
      "330",
      "330",
      "320",
      "251",
      "193",
      "180",
      "165",
      "158",
      "141",
      "135",
      "121",
      "114",
      "109",
      "103",
      "102",
      "091",
      "088",
      "076",
      "074",
      "063",
      "058",
      "051",
      "043",
      "039",
      "029",
      "022",
      "018",
      "011",
      "002"
    ],
    "swim:geom": "path",
    "swim:speeds": [
      178,
      255,
      326,
      363,
      384,
      397,
      428,
      436,
      435,
      437,
      442,
      443,
      458,
      471,
      471,
      473,
      473,
      454,
      454,
      454,
      455,
      459,
      469,
      471,
      473,
      474,
      475,
      475,
      475,
      474,
      472,
      470,
      469,
      468,
      468,
      467,
      467,
      466,
      467,
      467,
      466,
      467,
      467,
      467,
      449,
      410,
      407,
      395,
      393,
      380,
      381,
      368,
      369,
      334,
      290,
      284,
      269,
      270,
      266,
      267,
      242,
      220,
      215,
      213,
      212,
      197,
      184,
      182,
      152,
      143
    ],
    "swim:timestamps": [
      1784828344,
      1784828464,
      1784828584,
      1784828644,
      1784828764,
      1784828824,
      1784828893,
      1784828945,
      1784828953,
      1784829013,
      1784829065,
      1784829073,
      1784829133,
      1784829253,
      1784829313,
      1784829365,
      1784829373,
      1784829433,
      1784829494,
      1784829545,
      1784829614,
      1784829726,
      1784829786,
      1784829846,
      1784829906,
      1784829914,
      1784829966,
      1784830026,
      1784830094,
      1784830154,
      1784830215,
      1784830275,
      1784830327,
      1784830395,
      1784830455,
      1784830515,
      1784830575,
      1784830635,
      1784830755,
      1784830815,
      1784830876,
      1784830936,
      1784830996,
      1784831056,
      1784831236,
      1784831379,
      1784831416,
      1784831454,
      1784831476,
      1784831517,
      1784831536,
      1784831571,
      1784831597,
      1784831632,
      1784831692,
      1784831717,
      1784831755,
      1784831777,
      1784831815,
      1784831837,
      1784831878,
      1784831932,
      1784832017,
      1784832053,
      1784832077,
      1784832137,
      1784832173,
      1784832197,
      1784832233,
      1784832293
    ],
    "wof:geomhash": "8fe150bb00537c4f778cde312c46427e",
    "wof:id": 2031946997,
    "wof:repo": "sfomuseum-data-flights-2026-07"
  },
  "bbox": [
    -122.56,
    32.69166666666666,
    -116.96666666666667,
    37.64972222222222
  ],
  "geometry": {"coordinates":[[-122.44333333333334,37.64972222222222],[-122.54166666666667,37.60444444444445],[-122.54694444444445,37.443888888888885],[-122.55083333333333,37.34277777777778],[-122.55944444444444,37.12972222222222],[-122.56,37.02027777777778],[-122.4738888888889,36.91555555555556],[-122.38555555555556,36.82944444444445],[-122.3775,36.82138888888889],[-122.28055555555555,36.72638888888889],[-122.19277777777778,36.64055555555556],[-122.18277777777779,36.630833333333335],[-122.0825,36.53194444444444],[-121.87722222222222,36.32944444444445],[-121.775,36.22777777777778],[-121.69083333333333,36.14388888888889],[-121.67222222222223,36.12555555555556],[-121.57416666666666,36.026944444444446],[-121.4775,35.93],[-121.3775,35.82916666666667],[-121.28138888888888,35.73222222222223],[-121.08138888888888,35.53138888888889],[-120.95694444444445,35.45166666666667],[-120.82638888888889,35.37555555555556],[-120.69638888888889,35.29972222222222],[-120.68805555555556,35.29472222222222],[-120.56583333333333,35.223055555555554],[-120.43611111111112,35.14694444444444],[-120.29138888888889,35.06166666666666],[-120.16111111111111,34.98444444444444],[-120.02833333333334,34.90555555555555],[-119.90138888888889,34.82972222222222],[-119.79527777777777,34.76611111111111],[-119.64583333333334,34.67638888888889],[-119.51916666666666,34.60027777777778],[-119.40194444444445,34.52916666666667],[-119.27416666666666,34.45138888888889],[-119.14861111111112,34.375],[-118.89583333333334,34.22],[-118.77,34.1425],[-118.64583333333334,34.06583333333333],[-118.52083333333333,33.98833333333334],[-118.39750000000001,33.906388888888884],[-118.27805555555555,33.814166666666665],[-117.935,33.55166666666666],[-117.7,33.35],[-117.65027777777779,33.29472222222222],[-117.58333333333333,33.233333333333334],[-117.56305555555555,33.21277777777778],[-117.5,33.15],[-117.47916666666667,33.13194444444444],[-117.43333333333334,33.083333333333336],[-117.40944444444445,33.047777777777775],[-117.36666666666666,33],[-117.3,32.93333333333333],[-117.2961111111111,32.91277777777778],[-117.25,32.86666666666667],[-117.24472222222222,32.85111111111111],[-117.2,32.81666666666667],[-117.18138888888889,32.805277777777775],[-117.11666666666666,32.78333333333333],[-117.05,32.766666666666666],[-116.9675,32.75083333333333],[-116.96666666666667,32.71666666666667],[-116.97916666666667,32.69166666666666],[-117.03138888888888,32.69499999999999],[-117.08333333333333,32.7],[-117.10083333333333,32.71194444444445],[-117.13333333333334,32.71666666666667],[-117.18333333333334,32.733333333333334]],"type":"LineString"}
}
