{
  "id": 2031938681,
  "type": "Feature",
  "properties": {
    "geom:area": 0,
    "geom:bbox": "-122.340833,37.491944,-73.475833,43.196944",
    "geom:latitude": 41.37922908471244,
    "geom:longitude": -97.81012824697028,
    "src:alt_label": "swim-path",
    "src:geom": "swim",
    "swim:altitudes": [
      "018",
      "029",
      "051",
      "062",
      "085",
      "098",
      "105",
      "116",
      "126",
      "155",
      "170",
      "170",
      "193",
      "207",
      "213",
      "236",
      "243",
      "254",
      "266",
      "277",
      "284",
      "293",
      "295",
      "301",
      "303",
      "310",
      "313",
      "320",
      "324",
      "326",
      "331",
      "332",
      "337",
      "340C",
      "340C",
      "340C",
      "340C",
      "340C",
      "340C",
      "340C",
      "340C",
      "340C",
      "340C",
      "340C",
      "341C",
      "340C",
      "340C",
      "340C",
      "340C",
      "340C",
      "340C",
      "340C",
      "340C",
      "340C",
      "340C",
      "340C",
      "340C",
      "340C",
      "340C",
      "340C",
      "340C",
      "340C",
      "340C",
      "340C",
      "340C",
      "340C",
      "340C",
      "340C",
      "340C",
      "340C",
      "340C",
      "340C",
      "340C",
      "341C",
      "340C",
      "340C",
      "340C",
      "340C",
      "340C",
      "340C",
      "340C",
      "340C",
      "340C",
      "340C",
      "340C",
      "340C",
      "340C",
      "340C",
      "340C",
      "340C",
      "340C",
      "340C",
      "340C",
      "340C",
      "340C",
      "340C",
      "340C",
      "340C",
      "340C",
      "340C",
      "340C",
      "340C",
      "340C",
      "340C",
      "340C",
      "340C",
      "340C",
      "340C",
      "340C",
      "340C",
      "340C",
      "340C",
      "340C",
      "340C",
      "340C",
      "340C",
      "340C",
      "340C",
      "340C",
      "340C",
      "340C",
      "340C",
      "340C",
      "340C",
      "340C",
      "340C",
      "340C",
      "340C",
      "340C",
      "340C",
      "340C",
      "340C",
      "340C",
      "340C",
      "340C",
      "340C",
      "340C",
      "340C",
      "340C",
      "340C",
      "340C",
      "340C",
      "340C",
      "340C",
      "340C",
      "340C",
      "340C",
      "340C",
      "340C",
      "340C",
      "340C",
      "340C",
      "340C",
      "340C",
      "340C",
      "340C",
      "340C",
      "340C",
      "340C",
      "340C",
      "340C",
      "340C",
      "340C",
      "340C",
      "340C",
      "340C",
      "340C",
      "340C",
      "340C",
      "340C",
      "340C",
      "340C",
      "340C",
      "340C",
      "340C",
      "340C",
      "340C",
      "340C",
      "340C",
      "340C",
      "340C",
      "340C",
      "340C",
      "340C",
      "340C",
      "345",
      "352",
      "355",
      "360C",
      "360C",
      "360C",
      "360C",
      "360C",
      "360C",
      "360C",
      "360C",
      "360C",
      "360C",
      "360C",
      "360C",
      "360C",
      "360C",
      "360C",
      "360C",
      "360C",
      "360C",
      "360C",
      "360C",
      "360C",
      "360C",
      "360C",
      "361C",
      "361C",
      "360C",
      "360C",
      "360C",
      "360C",
      "360C",
      "360C",
      "360C",
      "360C",
      "360C",
      "360C",
      "360C",
      "360C",
      "360C",
      "360C",
      "360C",
      "361C",
      "360C",
      "360C",
      "360C",
      "360C",
      "360C",
      "360C",
      "360C",
      "360C",
      "360C",
      "360C",
      "360C",
      "360C",
      "360C",
      "360C",
      "360C",
      "360C",
      "360C",
      "360C",
      "360C",
      "360C",
      "360C",
      "360C",
      "360C",
      "360C",
      "360C",
      "360C",
      "360C",
      "360C",
      "360C",
      "360C",
      "360C",
      "360C",
      "360C",
      "360C",
      "360C",
      "360C",
      "361C",
      "361C",
      "360C",
      "360C",
      "360C",
      "360C",
      "360C",
      "360C",
      "360C",
      "360C",
      "360C",
      "360C",
      "360C",
      "360C",
      "360C",
      "360C",
      "360C",
      "360C",
      "360C",
      "360C",
      "361C",
      "361C",
      "361C",
      "360C",
      "360C",
      "360C",
      "360C",
      "360C",
      "360C",
      "360C",
      "360C",
      "360C",
      "360C",
      "360C",
      "360C",
      "360C",
      "360C",
      "360C",
      "360C",
      "360C",
      "360C",
      "360C",
      "360C",
      "360C",
      "360C",
      "360C",
      "360C",
      "360C",
      "360C",
      "360C",
      "360C",
      "360C",
      "360C",
      "360C",
      "360C",
      "360C",
      "360C",
      "360C",
      "360C",
      "360C",
      "360C",
      "360C",
      "360C",
      "360C",
      "360C",
      "360C",
      "360C",
      "360C",
      "360C",
      "360C",
      "360C",
      "360C",
      "360C",
      "360C",
      "360C",
      "360C",
      "360C",
      "360C",
      "360C",
      "360C",
      "360C",
      "360C",
      "360C",
      "360C",
      "360C",
      "360C",
      "360C",
      "360C",
      "360C",
      "360C",
      "360C",
      "360C",
      "360C",
      "360C",
      "360C",
      "360C",
      "360C",
      "360C",
      "360C",
      "360C",
      "360C",
      "360C",
      "360C",
      "360C",
      "360C",
      "360C",
      "360C",
      "360C",
      "360C",
      "360C",
      "360C",
      "360C",
      "360C",
      "360C",
      "360C",
      "360C",
      "360C",
      "360C",
      "360C",
      "360C",
      "360C",
      "360C",
      "360C",
      "360C",
      "360C",
      "360C",
      "360C",
      "360C",
      "360C",
      "360C",
      "360C",
      "360C",
      "360C",
      "360C",
      "360C",
      "360C",
      "360C",
      "360C",
      "360C",
      "360C",
      "360C",
      "360C",
      "360C",
      "360C",
      "360C",
      "360C",
      "360C",
      "360C",
      "360C",
      "360",
      "360",
      "356",
      "333",
      "303",
      "280",
      "258",
      "254",
      "235",
      "219",
      "203",
      "199",
      "185",
      "166",
      "162",
      "144",
      "129",
      "125",
      "110",
      "108",
      "081C",
      "078",
      "076",
      "067",
      "059",
      "051",
      "048",
      "038",
      "035",
      "025",
      "018",
      "016",
      "011",
      "009",
      "005",
      "003"
    ],
    "swim:geom": "path",
    "swim:speeds": [
      195,
      257,
      276,
      277,
      279,
      291,
      296,
      339,
      346,
      352,
      360,
      360,
      362,
      368,
      393,
      435,
      441,
      445,
      442,
      439,
      436,
      433,
      432,
      430,
      431,
      428,
      427,
      419,
      416,
      417,
      415,
      416,
      415,
      415,
      414,
      413,
      414,
      411,
      412,
      410,
      410,
      409,
      410,
      410,
      412,
      413,
      413,
      413,
      414,
      415,
      415,
      415,
      415,
      416,
      419,
      420,
      421,
      418,
      416,
      414,
      414,
      412,
      410,
      408,
      407,
      405,
      405,
      405,
      405,
      403,
      405,
      405,
      405,
      407,
      410,
      409,
      408,
      410,
      409,
      408,
      408,
      408,
      409,
      407,
      405,
      405,
      403,
      403,
      400,
      401,
      399,
      399,
      397,
      397,
      395,
      396,
      394,
      395,
      395,
      396,
      395,
      397,
      397,
      396,
      398,
      398,
      397,
      397,
      398,
      398,
      397,
      398,
      397,
      398,
      398,
      399,
      402,
      402,
      403,
      404,
      403,
      403,
      402,
      402,
      402,
      402,
      403,
      403,
      403,
      404,
      404,
      405,
      404,
      406,
      403,
      406,
      402,
      398,
      401,
      399,
      401,
      402,
      401,
      401,
      403,
      403,
      403,
      403,
      417,
      418,
      419,
      418,
      417,
      415,
      415,
      415,
      415,
      415,
      415,
      416,
      416,
      412,
      410,
      409,
      407,
      407,
      407,
      408,
      409,
      410,
      411,
      412,
      412,
      413,
      414,
      414,
      416,
      416,
      419,
      418,
      420,
      420,
      421,
      421,
      422,
      423,
      417,
      417,
      419,
      419,
      422,
      425,
      428,
      429,
      430,
      429,
      426,
      425,
      425,
      425,
      426,
      426,
      427,
      427,
      427,
      426,
      426,
      427,
      432,
      435,
      446,
      437,
      446,
      437,
      446,
      436,
      446,
      440,
      434,
      438,
      433,
      434,
      433,
      432,
      433,
      432,
      433,
      432,
      432,
      429,
      429,
      429,
      425,
      426,
      424,
      422,
      423,
      422,
      425,
      430,
      427,
      430,
      431,
      434,
      434,
      433,
      434,
      434,
      431,
      425,
      423,
      421,
      424,
      424,
      424,
      424,
      424,
      424,
      424,
      424,
      423,
      424,
      423,
      427,
      428,
      431,
      429,
      433,
      431,
      429,
      423,
      425,
      420,
      424,
      424,
      425,
      425,
      427,
      425,
      427,
      427,
      428,
      427,
      430,
      429,
      432,
      431,
      432,
      431,
      431,
      431,
      429,
      429,
      428,
      428,
      427,
      427,
      427,
      427,
      427,
      427,
      426,
      427,
      426,
      424,
      425,
      424,
      425,
      424,
      425,
      424,
      424,
      425,
      425,
      425,
      426,
      426,
      428,
      428,
      429,
      430,
      430,
      430,
      430,
      430,
      430,
      430,
      429,
      429,
      428,
      428,
      428,
      428,
      428,
      428,
      428,
      428,
      428,
      428,
      429,
      430,
      428,
      427,
      427,
      426,
      426,
      425,
      425,
      427,
      429,
      431,
      432,
      433,
      433,
      431,
      430,
      430,
      431,
      432,
      433,
      434,
      434,
      433,
      431,
      429,
      429,
      429,
      428,
      428,
      427,
      426,
      426,
      426,
      426,
      428,
      426,
      427,
      426,
      425,
      426,
      426,
      427,
      427,
      427,
      427,
      427,
      427,
      428,
      427,
      427,
      427,
      426,
      427,
      426,
      426,
      426,
      426,
      425,
      426,
      426,
      426,
      426,
      426,
      426,
      425,
      425,
      425,
      425,
      426,
      429,
      432,
      434,
      435,
      436,
      435,
      434,
      433,
      430,
      435,
      432,
      423,
      417,
      411,
      387,
      375,
      377,
      366,
      357,
      359,
      350,
      341,
      344,
      334,
      335,
      290,
      269,
      271,
      265,
      247,
      232,
      234,
      224,
      223,
      181,
      167,
      166,
      130,
      134,
      131,
      133
    ],
    "swim:timestamps": [
      1784842117,
      1784842172,
      1784842232,
      1784842262,
      1784842323,
      1784842352,
      1784842383,
      1784842443,
      1784842473,
      1784842563,
      1784842683,
      1784842743,
      1784842863,
      1784842923,
      1784842984,
      1784843164,
      1784843224,
      1784843284,
      1784843344,
      1784843416,
      1784843464,
      1784843524,
      1784843536,
      1784843584,
      1784843596,
      1784843644,
      1784843656,
      1784843716,
      1784843765,
      1784843776,
      1784843825,
      1784843836,
      1784843897,
      1784843957,
      1784844017,
      1784844065,
      1784844077,
      1784844125,
      1784844137,
      1784844185,
      1784844245,
      1784844317,
      1784844366,
      1784844377,
      1784844486,
      1784844557,
      1784844618,
      1784844678,
      1784844738,
      1784844798,
      1784844858,
      1784844918,
      1784845038,
      1784845098,
      1784845218,
      1784845278,
      1784845339,
      1784845459,
      1784845519,
      1784845579,
      1784845639,
      1784845819,
      1784845939,
      1784845999,
      1784846059,
      1784846120,
      1784846180,
      1784846240,
      1784846300,
      1784846420,
      1784846480,
      1784846500,
      1784846519,
      1784846540,
      1784846579,
      1784846600,
      1784846621,
      1784846639,
      1784846660,
      1784846681,
      1784846720,
      1784846741,
      1784846760,
      1784846780,
      1784846841,
      1784846880,
      1784846901,
      1784846921,
      1784846961,
      1784846981,
      1784847021,
      1784847060,
      1784847081,
      1784847120,
      1784847141,
      1784847162,
      1784847201,
      1784847222,
      1784847240,
      1784847300,
      1784847321,
      1784847342,
      1784847360,
      1784847381,
      1784847402,
      1784847420,
      1784847441,
      1784847501,
      1784847522,
      1784847541,
      1784847562,
      1784847601,
      1784847622,
      1784847642,
      1784847661,
      1784847721,
      1784847763,
      1784847781,
      1784847835,
      1784847901,
      1784847955,
      1784847961,
      1784848015,
      1784848141,
      1784848256,
      1784848262,
      1784848316,
      1784848322,
      1784848376,
      1784848436,
      1784848442,
      1784848496,
      1784848556,
      1784848562,
      1784848616,
      1784848622,
      1784848676,
      1784848802,
      1784848857,
      1784848874,
      1784848917,
      1784848977,
      1784848995,
      1784849037,
      1784849157,
      1784849175,
      1784849217,
      1784849235,
      1784849277,
      1784849337,
      1784849355,
      1784849415,
      1784849458,
      1784849518,
      1784849535,
      1784849578,
      1784849595,
      1784849638,
      1784849656,
      1784849698,
      1784849716,
      1784849758,
      1784849776,
      1784849818,
      1784849878,
      1784849938,
      1784849999,
      1784850016,
      1784850083,
      1784850143,
      1784850196,
      1784850263,
      1784850323,
      1784850376,
      1784850437,
      1784850443,
      1784850497,
      1784850503,
      1784850557,
      1784850564,
      1784850617,
      1784850624,
      1784850677,
      1784850684,
      1784850737,
      1784850857,
      1784850929,
      1784850989,
      1784851109,
      1784851290,
      1784851350,
      1784851410,
      1784851470,
      1784851530,
      1784851590,
      1784851650,
      1784851770,
      1784851830,
      1784851891,
      1784851951,
      1784852011,
      1784852071,
      1784852131,
      1784852251,
      1784852311,
      1784852371,
      1784852431,
      1784852491,
      1784852551,
      1784852612,
      1784852633,
      1784852672,
      1784852693,
      1784852732,
      1784852753,
      1784852792,
      1784852813,
      1784852873,
      1784852912,
      1784852933,
      1784852969,
      1784852993,
      1784853032,
      1784853114,
      1784853149,
      1784853174,
      1784853224,
      1784853234,
      1784853294,
      1784853330,
      1784853345,
      1784853354,
      1784853390,
      1784853414,
      1784853450,
      1784853474,
      1784853570,
      1784853594,
      1784853630,
      1784853654,
      1784853690,
      1784853714,
      1784853810,
      1784853835,
      1784853895,
      1784853931,
      1784853955,
      1784854015,
      1784854075,
      1784854111,
      1784854171,
      1784854231,
      1784854255,
      1784854291,
      1784854411,
      1784854435,
      1784854495,
      1784854531,
      1784854555,
      1784854616,
      1784854651,
      1784854676,
      1784854712,
      1784854736,
      1784854796,
      1784854832,
      1784854856,
      1784854892,
      1784854916,
      1784854952,
      1784854976,
      1784855012,
      1784855036,
      1784855072,
      1784855096,
      1784855132,
      1784855156,
      1784855192,
      1784855216,
      1784855252,
      1784855276,
      1784855312,
      1784855337,
      1784855372,
      1784855397,
      1784855433,
      1784855457,
      1784855493,
      1784855517,
      1784855553,
      1784855577,
      1784855613,
      1784855637,
      1784855673,
      1784855697,
      1784855733,
      1784855757,
      1784855793,
      1784855817,
      1784855853,
      1784855877,
      1784855913,
      1784855937,
      1784855997,
      1784856033,
      1784856057,
      1784856093,
      1784856118,
      1784856154,
      1784856178,
      1784856214,
      1784856238,
      1784856298,
      1784856334,
      1784856358,
      1784856394,
      1784856418,
      1784856454,
      1784856478,
      1784856514,
      1784856538,
      1784856574,
      1784856634,
      1784856658,
      1784856694,
      1784856718,
      1784856754,
      1784856814,
      1784856838,
      1784856875,
      1784856899,
      1784856935,
      1784856959,
      1784856995,
      1784857019,
      1784857055,
      1784857079,
      1784857115,
      1784857139,
      1784857259,
      1784857379,
      1784857439,
      1784857499,
      1784857559,
      1784857680,
      1784857740,
      1784857800,
      1784857860,
      1784857980,
      1784858040,
      1784858100,
      1784858160,
      1784858220,
      1784858280,
      1784858461,
      1784858521,
      1784858581,
      1784858701,
      1784858761,
      1784858821,
      1784858881,
      1784858941,
      1784859061,
      1784859122,
      1784859182,
      1784859215,
      1784859242,
      1784859302,
      1784859335,
      1784859362,
      1784859395,
      1784859422,
      1784859455,
      1784859482,
      1784859515,
      1784859542,
      1784859575,
      1784859635,
      1784859662,
      1784859695,
      1784859722,
      1784859755,
      1784859782,
      1784859816,
      1784859842,
      1784859876,
      1784859963,
      1784859996,
      1784860023,
      1784860083,
      1784860116,
      1784860143,
      1784860176,
      1784860236,
      1784860263,
      1784860323,
      1784860356,
      1784860383,
      1784860416,
      1784860443,
      1784860476,
      1784860536,
      1784860563,
      1784860597,
      1784860624,
      1784860657,
      1784860684,
      1784860717,
      1784860777,
      1784860837,
      1784860897,
      1784860957,
      1784861017,
      1784861077,
      1784861137,
      1784861197,
      1784861257,
      1784861317,
      1784861377,
      1784861438,
      1784861498,
      1784861510,
      1784861558,
      1784861618,
      1784861666,
      1784861678,
      1784861721,
      1784861780,
      1784861798,
      1784861858,
      1784861900,
      1784861918,
      1784861960,
      1784861978,
      1784862098,
      1784862140,
      1784862158,
      1784862218,
      1784862279,
      1784862320,
      1784862339,
      1784862375,
      1784862399,
      1784862459,
      1784862506,
      1784862519,
      1784862561,
      1784862579,
      1784862621,
      1784862639
    ],
    "wof:geomhash": "5e56e719f789dc6b978200a81902b01c",
    "wof:id": 2031938681,
    "wof:repo": "sfomuseum-data-flights-2026-07"
  },
  "bbox": [
    -122.34083333333332,
    37.49194444444444,
    -73.47583333333334,
    43.19694444444444
  ],
  "geometry": {"coordinates":[[-73.75,40.61666666666667],[-73.68333333333334,40.583333333333336],[-73.58333333333333,40.56666666666667],[-73.54166666666667,40.57666666666667],[-73.50527777777778,40.6475],[-73.48333333333333,40.68333333333333],[-73.47583333333334,40.725],[-73.49722222222222,40.815],[-73.53333333333333,40.86666666666667],[-73.67055555555557,40.95],[-73.91333333333334,41.01916666666666],[-74.04277777777777,41.03916666666667],[-74.31055555555555,41.07944444444445],[-74.44472222222223,41.099722222222226],[-74.58027777777778,41.11972222222222],[-74.99888888888889,41.26861111111111],[-75.14027777777778,41.32944444444445],[-75.28277777777778,41.39055555555556],[-75.42555555555556,41.45166666666667],[-75.60388888888889,41.510555555555555],[-75.72,41.54388888888889],[-75.86805555555554,41.58638888888889],[-75.90027777777779,41.595555555555556],[-76.01277777777777,41.6275],[-76.04722222222222,41.63722222222222],[-76.16000000000001,41.66888888888889],[-76.20083333333334,41.680277777777775],[-76.34722222222221,41.72138888888889],[-76.44583333333334,41.74888888888889],[-76.49222222222222,41.76166666666666],[-76.60444444444444,41.79277777777778],[-76.63583333333334,41.80138888888889],[-76.77583333333334,41.83972222222222],[-76.92027777777778,41.879444444444445],[-77.06861111111111,41.91972222222222],[-77.18138888888889,41.95],[-77.21388888888889,41.95888888888889],[-77.32472222222222,41.98861111111111],[-77.35583333333332,41.996944444444445],[-77.46555555555555,42.02638888888889],[-77.61305555555555,42.06638888888889],[-77.78833333333333,42.11388888888889],[-77.90361111111112,42.14472222222222],[-77.93305555555555,42.152499999999996],[-78.19722222222222,42.223055555555554],[-78.37277777777777,42.268055555555556],[-78.52111111111111,42.30444444444444],[-78.66722222222222,42.34055555555556],[-78.81694444444445,42.37694444444445],[-78.95666666666666,42.41111111111111],[-79.10416666666666,42.447222222222216],[-79.26027777777777,42.48527777777778],[-79.55638888888889,42.556666666666665],[-79.70722222222223,42.5925],[-79.9975,42.62083333333334],[-80.15694444444445,42.628055555555555],[-80.31527777777778,42.63472222222222],[-80.62972222222221,42.64666666666667],[-80.78444444444445,42.651944444444446],[-80.94083333333333,42.65694444444444],[-81.09555555555555,42.661944444444444],[-81.55777777777777,42.70055555555556],[-81.87166666666666,42.73583333333333],[-82.02277777777778,42.75277777777778],[-82.17444444444445,42.76916666666666],[-82.32472222222222,42.78527777777778],[-82.47611111111111,42.80138888888889],[-82.62555555555555,42.819722222222225],[-82.77583333333334,42.84],[-83.0761111111111,42.88027777777778],[-83.22694444444444,42.9],[-83.26722222222222,42.905833333333334],[-83.29833333333333,42.90888888888889],[-83.38166666666666,42.916666666666664],[-83.48555555555555,42.92611111111111],[-83.5275,42.92972222222222],[-83.575,42.93388888888889],[-83.60749999999999,42.93666666666666],[-83.68027777777779,42.94305555555555],[-83.72611111111111,42.94694444444444],[-83.83222222222221,42.95611111111111],[-83.87944444444443,42.96],[-83.94527777777778,42.96555555555556],[-83.98583333333333,42.969166666666666],[-84.1375,42.98166666666667],[-84.24888888888889,42.99055555555556],[-84.28527777777778,42.993611111111115],[-84.33416666666666,42.9975],[-84.45333333333333,43.007222222222225],[-84.48388888888888,43.00972222222222],[-84.60249999999999,43.019444444444446],[-84.69277777777778,43.03],[-84.75027777777778,43.03638888888889],[-84.84027777777777,43.04666666666667],[-84.89805555555556,43.05305555555555],[-84.92888888888889,43.056666666666665],[-85.04555555555555,43.069722222222225],[-85.07527777777777,43.07277777777778],[-85.13694444444445,43.07972222222222],[-85.28527777777778,43.09583333333334],[-85.3436111111111,43.102222222222224],[-85.37305555555555,43.10527777777778],[-85.43361111111112,43.11194444444445],[-85.49222222222222,43.11805555555556],[-85.52166666666666,43.12111111111111],[-85.58305555555555,43.1275],[-85.63805555555557,43.13333333333333],[-85.78972222222222,43.149166666666666],[-85.84944444444444,43.15555555555555],[-85.87888888888888,43.15861111111111],[-85.935,43.16444444444444],[-86.02638888888889,43.17361111111111],[-86.07888888888888,43.178888888888885],[-86.14111111111112,43.18527777777778],[-86.17194444444445,43.18833333333333],[-86.32138888888889,43.19694444444444],[-86.44388888888889,43.19305555555555],[-86.47444444444444,43.19194444444444],[-86.6275,43.18666666666666],[-86.81,43.18],[-86.93111111111112,43.17583333333333],[-86.96388888888889,43.17444444444444],[-87.08416666666666,43.169999999999995],[-87.4075,43.15694444444444],[-87.67861111111111,43.14527777777778],[-87.71083333333334,43.14388888888889],[-87.83111111111111,43.138333333333335],[-87.86583333333333,43.13666666666666],[-87.98444444444445,43.13138888888889],[-88.14055555555557,43.12388888888889],[-88.17333333333333,43.12222222222222],[-88.29416666666667,43.117222222222225],[-88.44833333333334,43.11972222222222],[-88.47888888888889,43.11805555555556],[-88.60222222222221,43.12222222222222],[-88.63388888888889,43.12027777777778],[-88.75611111111111,43.12416666666667],[-89.09027777777777,43.12722222222222],[-89.21388888888889,43.129444444444445],[-89.24305555555556,43.129444444444445],[-89.36805555555554,43.13111111111111],[-89.51972222222223,43.132222222222225],[-89.57916666666667,43.132222222222225],[-89.67166666666667,43.13305555555556],[-89.9786111111111,43.134166666666665],[-90.04444444444444,43.134166666666665],[-90.13361111111112,43.13444444444444],[-90.19777777777779,43.13361111111111],[-90.30388888888889,43.10722222222223],[-90.44944444444445,43.06111111111111],[-90.4786111111111,43.05166666666666],[-90.62527777777777,43.00611111111111],[-90.74166666666667,42.971111111111114],[-90.88666666666667,42.92805555555555],[-90.91472222222222,42.91972222222222],[-91.03111111111112,42.88583333333333],[-91.06,42.8775],[-91.17861111111111,42.843333333333334],[-91.20694444444445,42.835],[-91.32416666666666,42.80138888888889],[-91.3536111111111,42.793055555555554],[-91.47611111111111,42.77361111111111],[-91.5075,42.77333333333333],[-91.61333333333333,42.77222222222222],[-91.76555555555555,42.77027777777778],[-91.92055555555557,42.768055555555556],[-92.07388888888889,42.76555555555556],[-92.13527777777779,42.76444444444444],[-92.28861111111111,42.761944444444445],[-92.44555555555556,42.75888888888889],[-92.6,42.75611111111111],[-92.75472222222223,42.75277777777778],[-92.91222222222223,42.74916666666667],[-93.06777777777778,42.745555555555555],[-93.22333333333333,42.74166666666667],[-93.22333333333333,42.74166666666667],[-93.38305555555554,42.737500000000004],[-93.38305555555554,42.737500000000004],[-93.54166666666667,42.73305555555556],[-93.54138888888889,42.733333333333334],[-93.70027777777779,42.728611111111114],[-93.70027777777779,42.728611111111114],[-93.86,42.72361111111111],[-93.86,42.72361111111111],[-94.01916666666666,42.718611111111116],[-94.33638888888889,42.70777777777778],[-94.52444444444444,42.700833333333335],[-94.6725,42.695277777777775],[-94.98861111111111,42.6825],[-95.45583333333333,42.64083333333333],[-95.60333333333332,42.596944444444446],[-95.75055555555555,42.54944444444444],[-95.89805555555556,42.50222222222222],[-96.05027777777778,42.462500000000006],[-96.20583333333333,42.43194444444444],[-96.36416666666666,42.41638888888889],[-96.64888888888889,42.424166666666665],[-96.83944444444444,42.42972222222222],[-96.99861111111112,42.43416666666666],[-97.15972222222223,42.43861111111111],[-97.31833333333333,42.44305555555555],[-97.47777777777777,42.44694444444444],[-97.6375,42.450833333333335],[-97.95916666666668,42.45777777777778],[-98.11833333333333,42.46083333333333],[-98.27666666666667,42.46388888888889],[-98.4363888888889,42.46666666666667],[-98.59972222222221,42.469166666666666],[-98.79166666666667,42.45166666666667],[-98.95111111111112,42.42361111111111],[-98.99527777777777,42.41555555555556],[-99.11055555555555,42.394999999999996],[-99.15777777777778,42.385555555555555],[-99.2713888888889,42.365833333333335],[-99.31833333333333,42.35722222222223],[-99.42916666666667,42.365],[-99.47888888888889,42.37138888888889],[-99.63861111111112,42.394999999999996],[-99.73333333333333,42.41027777777778],[-99.79694444444445,42.41861111111111],[-99.8913888888889,42.43388888888889],[-99.95305555555557,42.44305555555555],[-100.05055555555555,42.45805555555556],[-100.25611111111111,42.48638888888889],[-100.37083333333332,42.49611111111111],[-100.41777777777779,42.499722222222225],[-100.56555555555555,42.515],[-100.57833333333333,42.51555555555556],[-100.73777777777778,42.5325],[-100.84944444444444,42.54472222222222],[-100.85333333333332,42.544999999999995],[-100.89527777777778,42.54944444444444],[-101.005,42.56194444444444],[-101.05222222222221,42.56722222222223],[-101.16277777777778,42.58083333333334],[-101.2088888888889,42.58583333333333],[-101.47611111111111,42.618611111111115],[-101.52333333333333,42.61972222222222],[-101.63055555555555,42.59666666666667],[-101.67722222222223,42.58166666666667],[-101.78472222222221,42.55916666666666],[-101.83083333333333,42.545833333333334],[-102.07027777777778,42.47166666666667],[-102.13083333333333,42.448055555555555],[-102.27916666666667,42.39861111111111],[-102.36749999999999,42.37166666666667],[-102.4263888888889,42.348888888888894],[-102.57583333333334,42.29944444444444],[-102.72,42.25194444444445],[-102.80638888888889,42.226111111111116],[-102.95138888888889,42.17805555555555],[-103.0936111111111,42.12972222222222],[-103.15111111111112,42.108333333333334],[-103.23777777777778,42.080000000000005],[-103.52777777777777,41.980000000000004],[-103.58416666666666,41.95861111111111],[-103.72833333333334,41.90972222222222],[-103.81388888888888,41.88166666666667],[-103.87277777777777,41.86027777777778],[-104.01694444444445,41.81166666666666],[-104.10305555555556,41.78472222222222],[-104.16083333333334,41.76444444444444],[-104.24416666666667,41.73583333333333],[-104.30055555555555,41.70916666666667],[-104.43555555555555,41.64416666666666],[-104.5075,41.6],[-104.55555555555556,41.56472222222222],[-104.62277777777777,41.515277777777776],[-104.67166666666667,41.47972222222222],[-104.75861111111111,41.458333333333336],[-104.8175,41.45666666666667],[-104.91638888888889,41.45472222222222],[-104.97333333333333,41.45055555555556],[-105.06416666666667,41.41861111111111],[-105.11861111111111,41.4],[-105.21138888888889,41.371944444444445],[-105.26444444444445,41.35472222222222],[-105.35583333333332,41.32638888888889],[-105.40972222222223,41.309999999999995],[-105.50583333333333,41.285],[-105.55944444444444,41.269444444444446],[-105.65416666666667,41.245],[-105.70861111111111,41.23027777777778],[-105.80388888888889,41.20472222222222],[-105.8586111111111,41.189166666666665],[-105.955,41.163888888888884],[-106.00916666666667,41.14833333333333],[-106.10499999999999,41.123333333333335],[-106.15861111111111,41.10944444444445],[-106.2775,41.07944444444445],[-106.30722222222222,41.069722222222225],[-106.42694444444444,41.041666666666664],[-106.45722222222223,41.03361111111111],[-106.57472222222222,41.00416666666667],[-106.60527777777777,40.99611111111111],[-106.7238888888889,40.96611111111111],[-106.75361111111111,40.95805555555556],[-106.86972222222222,40.92944444444444],[-106.90277777777779,40.92111111111111],[-107.0075,40.90138888888889],[-107.08388888888888,40.88527777777778],[-107.15944444444445,40.86944444444445],[-107.20583333333333,40.859722222222224],[-107.37222222222222,40.82416666666667],[-107.4738888888889,40.80277777777778],[-107.52944444444444,40.79138888888889],[-107.62333333333332,40.77194444444444],[-107.65805555555556,40.765],[-107.77194444444444,40.74194444444444],[-107.80333333333333,40.73555555555556],[-107.9175,40.71194444444445],[-107.9525,40.70472222222222],[-108.10305555555556,40.67333333333333],[-108.18916666666667,40.655277777777776],[-108.27333333333333,40.63805555555555],[-108.37194444444444,40.617777777777775],[-108.405,40.609722222222224],[-108.52166666666666,40.5825],[-108.55527777777777,40.57472222222223],[-108.67194444444445,40.54805555555556],[-108.7075,40.53972222222222],[-108.82083333333333,40.513333333333335],[-108.97027777777778,40.47833333333333],[-109.02916666666667,40.464444444444446],[-109.11861111111111,40.44333333333333],[-109.17833333333334,40.42944444444444],[-109.26555555555555,40.40861111111111],[-109.41472222222222,40.37305555555555],[-109.44472222222223,40.36611111111111],[-109.56222222222222,40.33777777777778],[-109.62138888888889,40.32361111111111],[-109.70944444444444,40.30222222222222],[-109.76944444444445,40.28777777777778],[-109.85694444444444,40.26638888888889],[-109.91888888888889,40.25138888888889],[-110.00472222222223,40.23027777777778],[-110.06583333333333,40.21527777777778],[-110.15361111111112,40.19361111111111],[-110.2125,40.17916666666667],[-110.50888888888889,40.10527777777778],[-110.80333333333333,40.03111111111111],[-110.95138888888889,39.993611111111115],[-111.09638888888888,39.95638888888889],[-111.24194444444444,39.91888888888889],[-111.53222222222222,39.843611111111116],[-111.68694444444445,39.82472222222223],[-111.83833333333332,39.809999999999995],[-111.99305555555556,39.79555555555555],[-112.29972222222221,39.76694444444444],[-112.4538888888889,39.754444444444445],[-112.60833333333333,39.745555555555555],[-112.76333333333334,39.73694444444445],[-112.91861111111112,39.728611111111114],[-113.07527777777777,39.719722222222224],[-113.53861111111111,39.703611111111115],[-113.69277777777778,39.70138888888889],[-113.84694444444445,39.69916666666666],[-114.15833333333335,39.69694444444444],[-114.31416666666667,39.695277777777775],[-114.46388888888889,39.69361111111111],[-114.62194444444444,39.69194444444444],[-114.77722222222222,39.690555555555555],[-115.08972222222222,39.68583333333333],[-115.23083333333334,39.64555555555555],[-115.32666666666667,39.55138888888889],[-115.37916666666666,39.4925],[-115.41333333333334,39.45333333333333],[-115.5025,39.355555555555554],[-115.56305555555555,39.30166666666666],[-115.6036111111111,39.26777777777777],[-115.66694444444445,39.21416666666667],[-115.70833333333334,39.18],[-115.77027777777778,39.128055555555555],[-115.8175,39.08833333333334],[-115.88222222222221,39.04666666666667],[-115.9363888888889,39.01444444444444],[-116.0038888888889,38.974444444444444],[-116.13611111111112,38.91722222222222],[-116.19527777777778,38.89388888888889],[-116.27333333333333,38.86388888888889],[-116.3325,38.840833333333336],[-116.41555555555556,38.80888888888889],[-116.46805555555555,38.788333333333334],[-116.55083333333333,38.756388888888885],[-116.60305555555556,38.73583333333333],[-116.6863888888889,38.70388888888889],[-116.8761111111111,38.63111111111111],[-116.95972222222223,38.59916666666667],[-117.01194444444444,38.57916666666667],[-117.14666666666668,38.527499999999996],[-117.22833333333334,38.49638888888889],[-117.28166666666667,38.475833333333334],[-117.36222222222221,38.44555555555555],[-117.49722222222222,38.3925],[-117.54777777777778,38.37138888888889],[-117.67944444444444,38.31638888888889],[-117.76083333333334,38.282222222222224],[-117.81166666666667,38.26111111111111],[-117.89333333333335,38.227222222222224],[-117.94388888888889,38.20638888888889],[-118.02527777777777,38.172777777777775],[-118.15666666666667,38.12416666666667],[-118.21361111111112,38.10277777777778],[-118.29777777777778,38.07138888888889],[-118.34972222222221,38.051944444444445],[-118.43138888888889,38.021388888888886],[-118.48333333333333,38.00194444444445],[-118.56638888888888,37.970555555555556],[-118.70361111111112,37.919444444444444],[-118.84777777777778,37.88666666666666],[-119.00083333333333,37.86888888888889],[-119.16222222222223,37.85],[-119.31277777777777,37.8325],[-119.46527777777779,37.81444444444444],[-119.61583333333333,37.796388888888885],[-119.76583333333333,37.77833333333333],[-119.91694444444445,37.76],[-120.06666666666666,37.74138888888889],[-120.21722222222222,37.72277777777778],[-120.36833333333333,37.703611111111115],[-120.51277777777777,37.686388888888885],[-120.53333333333333,37.68333333333333],[-120.65722222222223,37.669444444444444],[-120.79222222222222,37.65361111111111],[-120.9,37.63333333333333],[-120.92361111111111,37.6375],[-121.01666666666667,37.63333333333333],[-121.13333333333334,37.61666666666667],[-121.16444444444446,37.60583333333334],[-121.2863888888889,37.589444444444446],[-121.38333333333334,37.583333333333336],[-121.4038888888889,37.57611111111112],[-121.5,37.56666666666667],[-121.52055555555556,37.5625],[-121.72361111111111,37.526944444444446],[-121.8,37.516666666666666],[-121.81388888888888,37.50527777777778],[-121.90416666666667,37.49194444444444],[-121.99305555555556,37.500277777777775],[-122.05,37.5],[-122.07305555555556,37.50694444444444],[-122.13333333333334,37.516666666666666],[-122.14777777777779,37.52305555555555],[-122.20611111111111,37.547777777777775],[-122.25,37.56666666666667],[-122.25777777777778,37.56944444444445],[-122.28333333333333,37.583333333333336],[-122.3,37.58722222222222],[-122.33333333333333,37.6],[-122.34083333333332,37.60444444444445]],"type":"LineString"}
}
