{
  "id": 2031964961,
  "type": "Feature",
  "properties": {
    "geom:area": 0,
    "geom:bbox": "-122.363300,37.459360,-121.542070,37.617570",
    "geom:latitude": 37.520346988664414,
    "geom:longitude": -121.95699020299583,
    "src:alt_label": "swim-approach",
    "src:geom": "swim",
    "swim:elevations": [
      3422,
      3383,
      3383,
      3206,
      3060,
      2972,
      2645,
      2435,
      2438,
      2377,
      2263,
      1931,
      1829,
      1829,
      1755,
      1576,
      1517,
      1388,
      1302,
      993,
      870,
      774,
      577,
      516,
      393,
      306,
      222,
      191,
      89,
      1100
    ],
    "swim:geom": "approach",
    "swim:timestamps": [
      1785007002,
      1785007014,
      1785007020,
      1785007047,
      1785007077,
      1785007086,
      1785007131,
      1785007164,
      1785007194,
      1785007219,
      1785007240,
      1785007285,
      1785007318,
      1785007328,
      1785007374,
      1785007407,
      1785007419,
      1785007437,
      1785007449,
      1785007498,
      1785007528,
      1785007552,
      1785007585,
      1785007601,
      1785007637,
      1785007666,
      1785007685,
      1785007698,
      1785007728,
      1785007759
    ],
    "wof:geomhash": "fb58618686135507aba9ac0e698b887f",
    "wof:id": 2031964961,
    "wof:repo": "sfomuseum-data-flights-2026-07"
  },
  "bbox": [
    -122.3633,
    37.45936,
    -121.54207,
    37.61757
  ],
  "geometry": {"coordinates":[[-121.54207,37.56037],[-121.56308,37.5579],[-121.57294,37.55676],[-121.61684,37.5515],[-121.66111,37.54182],[-121.67463,37.53851],[-121.73334,37.52001],[-121.76986,37.49893],[-121.80252,37.47996],[-121.83281,37.47048],[-121.86232,37.46852],[-121.92189,37.46372],[-121.96597,37.45963],[-121.97965,37.45936],[-122.03576,37.47799],[-122.07396,37.4941],[-122.08691,37.49962],[-122.10577,37.50756],[-122.11774,37.51264],[-122.16481,37.53249],[-122.19296,37.54445],[-122.21528,37.5538],[-122.2468,37.56713],[-122.26126,37.57326],[-122.28796,37.5845],[-122.30639,37.5922],[-122.31794,37.5971],[-122.32586,37.60032],[-122.34467,37.6083],[-122.3633,37.61757]],"type":"LineString"}
}
