{
  "id": 2032049945,
  "type": "Feature",
  "properties": {
    "geom:area": 0,
    "geom:bbox": "-122.350000,37.420556,-122.092778,37.601389",
    "geom:latitude": 37.53390227348572,
    "geom:longitude": -122.19567325096344,
    "src:alt_label": "swim-path",
    "src:geom": "swim",
    "swim:altitudes": [
      "040",
      "040",
      "032",
      "030",
      "028",
      "025",
      "012",
      "010",
      "005",
      "003"
    ],
    "swim:geom": "path",
    "swim:speeds": [
      216,
      195,
      184,
      170,
      169,
      165,
      154,
      155,
      155,
      141
    ],
    "swim:timestamps": [
      1785560915,
      1785560975,
      1785561035,
      1785561058,
      1785561095,
      1785561119,
      1785561215,
      1785561233,
      1785561275,
      1785561292
    ],
    "wof:geomhash": "b6bfd9c817ada102d571ae86a6ca3fbd",
    "wof:id": 2032049945,
    "wof:repo": "sfomuseum-data-flights-2026-07"
  },
  "bbox": [
    -122.35,
    37.42055555555555,
    -122.09277777777777,
    37.60138888888889
  ],
  "geometry": {"coordinates":[[-122.10055555555554,37.42055555555555],[-122.09277777777777,37.47916666666667],[-122.13527777777779,37.5175],[-122.15,37.53333333333333],[-122.18694444444445,37.53972222222222],[-122.2,37.55],[-122.28583333333333,37.58111111111111],[-122.3,37.583333333333336],[-122.33388888888888,37.60138888888889],[-122.35,37.6]],"type":"LineString"}
}
