{
  "id": 2031982775,
  "type": "Feature",
  "properties": {
    "geom:area": 0,
    "geom:bbox": "-122.542778,35.993889,-114.888611,37.668333",
    "geom:latitude": 36.795101158850215,
    "geom:longitude": -118.70230444228258,
    "src:alt_label": "swim-path",
    "src:geom": "swim",
    "swim:altitudes": [
      "007",
      "013",
      "035",
      "061",
      "092",
      "116",
      "135",
      "160",
      "183",
      "203",
      "220",
      "238",
      "256",
      "271",
      "288",
      "301",
      "310C",
      "310C",
      "310C",
      "310C",
      "310C",
      "310C",
      "310C",
      "310C",
      "310C",
      "310C",
      "310C",
      "310C",
      "310C",
      "310C",
      "310C",
      "310C",
      "310",
      "310",
      "310C",
      "310",
      "310C",
      "310",
      "310C",
      "310C",
      "310",
      "301",
      "290",
      "279",
      "269",
      "259",
      "249",
      "240",
      "231",
      "230",
      "216",
      "206",
      "194",
      "192",
      "191",
      "190",
      "190",
      "190",
      "186",
      "176",
      "169",
      "160",
      "151",
      "144",
      "135",
      "128",
      "119",
      "112",
      "102",
      "097",
      "087",
      "084",
      "069",
      "068",
      "060",
      "061",
      "055",
      "047",
      "048",
      "043",
      "039",
      "034",
      "031",
      "025",
      "024"
    ],
    "swim:geom": "path",
    "swim:speeds": [
      151,
      147,
      188,
      260,
      283,
      325,
      341,
      358,
      401,
      414,
      417,
      445,
      456,
      456,
      468,
      474,
      476,
      482,
      483,
      486,
      485,
      486,
      490,
      495,
      497,
      499,
      500,
      500,
      499,
      498,
      496,
      494,
      489,
      488,
      490,
      487,
      489,
      487,
      488,
      488,
      489,
      490,
      483,
      473,
      461,
      451,
      447,
      437,
      431,
      434,
      421,
      418,
      386,
      373,
      335,
      336,
      329,
      331,
      320,
      324,
      329,
      325,
      322,
      321,
      313,
      315,
      306,
      310,
      302,
      304,
      291,
      295,
      290,
      293,
      255,
      257,
      221,
      192,
      193,
      194,
      188,
      173,
      163,
      145,
      148
    ],
    "swim:timestamps": [
      1785128943,
      1785128960,
      1785129020,
      1785129080,
      1785129140,
      1785129200,
      1785129257,
      1785129317,
      1785129381,
      1785129441,
      1785129497,
      1785129561,
      1785129621,
      1785129678,
      1785129741,
      1785129801,
      1785129858,
      1785129921,
      1785129981,
      1785130038,
      1785130101,
      1785130161,
      1785130218,
      1785130282,
      1785130342,
      1785130399,
      1785130462,
      1785130522,
      1785130579,
      1785130639,
      1785130702,
      1785130762,
      1785130800,
      1785130860,
      1785130882,
      1785130920,
      1785130942,
      1785130980,
      1785130999,
      1785131062,
      1785131122,
      1785131180,
      1785131242,
      1785131303,
      1785131360,
      1785131423,
      1785131483,
      1785131540,
      1785131581,
      1785131600,
      1785131635,
      1785131660,
      1785131701,
      1785131720,
      1785131756,
      1785131780,
      1785131810,
      1785131840,
      1785131864,
      1785131900,
      1785131924,
      1785131960,
      1785131990,
      1785132021,
      1785132050,
      1785132081,
      1785132110,
      1785132141,
      1785132176,
      1785132201,
      1785132243,
      1785132261,
      1785132309,
      1785132321,
      1785132369,
      1785132381,
      1785132441,
      1785132477,
      1785132501,
      1785132532,
      1785132561,
      1785132591,
      1785132621,
      1785132664,
      1785132681
    ],
    "wof:geomhash": "216dd5833963d301f54c4c587d6acce2",
    "wof:id": 2031982775,
    "wof:repo": "sfomuseum-data-flights-2026-07"
  },
  "bbox": [
    -122.54277777777777,
    35.99388888888889,
    -114.88861111111112,
    37.66833333333333
  ],
  "geometry": {"coordinates":[[-122.38333333333334,37.61666666666667],[-122.39166666666668,37.62583333333333],[-122.44361111111111,37.64805555555556],[-122.52277777777778,37.66833333333333],[-122.54277777777777,37.60194444444445],[-122.495,37.524166666666666],[-122.42555555555556,37.45805555555556],[-122.31805555555555,37.400277777777774],[-122.16277777777778,37.376111111111115],[-122.02305555555556,37.348333333333336],[-121.89472222222223,37.32055555555556],[-121.7213888888889,37.28805555555555],[-121.56694444444445,37.256388888888885],[-121.43611111111112,37.227222222222224],[-121.2525,37.19166666666666],[-121.0911111111111,37.158055555555556],[-120.955,37.1275],[-120.76694444444445,37.089444444444446],[-120.60416666666666,37.055],[-120.46388888888889,37.02444444444444],[-120.27944444444444,36.985],[-120.11861111111111,36.94972222222222],[-119.96944444444445,36.91722222222222],[-119.7975,36.89416666666666],[-119.62305555555555,36.88361111111111],[-119.4538888888889,36.873333333333335],[-119.27805555555555,36.86222222222222],[-119.10333333333332,36.850833333333334],[-118.93527777777778,36.83972222222222],[-118.75333333333333,36.8275],[-118.59027777777777,36.816111111111105],[-118.41333333333334,36.80361111111111],[-118.2925,36.79361111111111],[-118.12638888888888,36.7825],[-118.07638888888889,36.77916666666667],[-117.95777777777778,36.76888888888889],[-117.91055555555556,36.766666666666666],[-117.78916666666666,36.757222222222225],[-117.76861111111111,36.755833333333335],[-117.57388888888889,36.740833333333335],[-117.40805555555556,36.7275],[-117.26138888888889,36.715833333333336],[-117.07277777777777,36.70027777777778],[-116.91111111111111,36.68694444444444],[-116.7538888888889,36.663888888888884],[-116.62055555555555,36.60194444444445],[-116.49,36.538333333333334],[-116.37694444444443,36.48027777777778],[-116.27166666666666,36.42472222222222],[-116.25333333333333,36.41722222222222],[-116.15833333333335,36.36972222222222],[-116.10833333333333,36.343333333333334],[-116.02694444444444,36.30138888888889],[-115.99472222222222,36.28527777777778],[-115.93583333333333,36.25388888888889],[-115.89833333333334,36.23166666666667],[-115.85555555555555,36.203611111111115],[-115.81027777777777,36.17638888888889],[-115.77555555555556,36.153055555555554],[-115.71666666666667,36.128055555555555],[-115.67722222222223,36.11472222222223],[-115.61138888888888,36.09583333333334],[-115.55972222222222,36.07972222222222],[-115.50944444444444,36.06444444444444],[-115.46000000000001,36.0475],[-115.41027777777778,36.03361111111111],[-115.35972222222222,36.01888888888889],[-115.30777777777777,36.01416666666667],[-115.24666666666667,36.00972222222222],[-115.20666666666666,36.00888888888889],[-115.13527777777779,36.005],[-115.10749999999999,36.00388888888889],[-115.02416666666666,36.000277777777775],[-115.00916666666667,35.99888888888889],[-114.93138888888889,35.99388888888889],[-114.91666666666667,35.995555555555555],[-114.88861111111112,36.050555555555555],[-114.9175,36.072500000000005],[-114.93805555555556,36.07361111111111],[-114.97500000000001,36.073055555555555],[-115.0038888888889,36.07361111111111],[-115.03805555555556,36.072500000000005],[-115.06166666666667,36.07361111111111],[-115.10055555555554,36.073888888888895],[-115.1111111111111,36.07361111111111]],"type":"LineString"}
}
