{
  "id": 2031964437,
  "type": "Feature",
  "properties": {
    "geom:area": 0,
    "geom:bbox": "-122.344722,37.499722,-122.000000,37.605833",
    "geom:latitude": 37.54053932880144,
    "geom:longitude": -122.17529027825864,
    "src:alt_label": "swim-path",
    "src:geom": "swim",
    "swim:altitudes": [
      "060",
      "057",
      "051",
      "044",
      "036",
      "034",
      "029",
      "019",
      "012",
      "009",
      "006",
      "004"
    ],
    "swim:geom": "path",
    "swim:speeds": [
      236,
      230,
      197,
      197,
      192,
      191,
      179,
      179,
      121,
      118,
      113,
      116
    ],
    "swim:timestamps": [
      1785029654,
      1785029683,
      1785029714,
      1785029744,
      1785029774,
      1785029804,
      1785029834,
      1785029894,
      1785029954,
      1785029984,
      1785030014,
      1785030044
    ],
    "wof:geomhash": "cddc85ca3d8eca268e0933ca5ce098d0",
    "wof:id": 2031964437,
    "wof:repo": "sfomuseum-data-flights-2026-07"
  },
  "bbox": [
    -122.34472222222222,
    37.499722222222225,
    -122,
    37.60583333333334
  ],
  "geometry": {"coordinates":[[-122,37.5],[-122.03,37.499722222222225],[-122.06666666666666,37.5],[-122.1,37.50611111111111],[-122.13333333333334,37.516666666666666],[-122.15916666666668,37.53],[-122.2,37.55],[-122.25,37.56666666666667],[-122.3,37.583333333333336],[-122.30888888888889,37.590833333333336],[-122.33333333333333,37.6],[-122.34472222222222,37.60583333333334]],"type":"LineString"}
}
