{
  "id": 2031962951,
  "type": "Feature",
  "properties": {
    "geom:area": 0,
    "geom:bbox": "-122.352560,37.491610,-121.268310,37.611670",
    "geom:latitude": 37.54169819371937,
    "geom:longitude": -121.81733547558382,
    "src:alt_label": "swim-approach",
    "src:geom": "swim",
    "swim:elevations": [
      4469,
      4098,
      3904,
      3653,
      3497,
      3275,
      3117,
      3048,
      3024,
      2782,
      2640,
      2448,
      2206,
      2123,
      2080,
      1858,
      1878,
      1830,
      1689,
      1508,
      1282,
      1087,
      1004,
      832,
      641,
      580,
      518,
      393,
      273,
      212,
      41
    ],
    "swim:geom": "approach",
    "swim:timestamps": [
      1784982521,
      1784982563,
      1784982583,
      1784982611,
      1784982630,
      1784982654,
      1784982688,
      1784982716,
      1784982727,
      1784982762,
      1784982786,
      1784982821,
      1784982855,
      1784982878,
      1784982889,
      1784982928,
      1784982932,
      1784982947,
      1784982978,
      1784983003,
      1784983037,
      1784983077,
      1784983089,
      1784983122,
      1784983157,
      1784983173,
      1784983189,
      1784983218,
      1784983253,
      1784983266,
      1784983315
    ],
    "wof:geomhash": "bbf78b1260a1605956877e9a8b2e05ab",
    "wof:id": 2031962951,
    "wof:repo": "sfomuseum-data-flights-2026-07"
  },
  "bbox": [
    -122.35256,
    37.49161,
    -121.26831,
    37.61167
  ],
  "geometry": {"coordinates":[[-121.26831,37.59194],[-121.34988,37.58274],[-121.38878,37.5785],[-121.4415,37.57227],[-121.47586,37.56815],[-121.52056,37.56307],[-121.58393,37.55564],[-121.63061,37.54925],[-121.64741,37.54526],[-121.70072,37.53261],[-121.73814,37.52364],[-121.79104,37.51118],[-121.84242,37.49873],[-121.87589,37.49196],[-121.89229,37.49161],[-121.95318,37.4952],[-121.95896,37.49543],[-121.9816,37.49678],[-122.02465,37.49931],[-122.05972,37.50111],[-122.10692,37.50789],[-122.15298,37.52757],[-122.16738,37.53363],[-122.2031,37.54873],[-122.23577,37.56242],[-122.24926,37.56811],[-122.26171,37.57353],[-122.28395,37.58281],[-122.30944,37.5935],[-122.31858,37.59734],[-122.35256,37.61167]],"type":"LineString"}
}
