{
  "id": 2032018283,
  "type": "Feature",
  "properties": {
    "geom:area": 0,
    "geom:bbox": "-123.326111,37.459167,-122.100000,47.615556",
    "geom:latitude": 42.488415532250926,
    "geom:longitude": -123.02304841888436,
    "src:alt_label": "swim-path",
    "src:geom": "swim",
    "swim:altitudes": [
      "010",
      "037",
      "052",
      "076",
      "083",
      "118",
      "143",
      "175",
      "198",
      "237",
      "271",
      "301",
      "337",
      "354",
      "363",
      "370C",
      "370C",
      "370C",
      "370C",
      "370C",
      "370C",
      "370C",
      "370C",
      "370C",
      "370C",
      "370C",
      "370C",
      "370C",
      "370C",
      "370C",
      "370C",
      "370C",
      "370C",
      "370C",
      "370C",
      "370C",
      "370C",
      "370C",
      "370C",
      "370C",
      "370C",
      "370C",
      "370C",
      "370C",
      "370C",
      "370C",
      "370C",
      "370C",
      "370C",
      "370C",
      "370C",
      "370C",
      "370C",
      "370C",
      "370C",
      "370C",
      "370C",
      "370C",
      "370C",
      "370C",
      "370C",
      "370C",
      "370C",
      "370C",
      "370C",
      "370C",
      "370C",
      "370C",
      "370C",
      "370C",
      "370C",
      "370C",
      "370C",
      "370C",
      "370C",
      "370C",
      "370C",
      "370C",
      "370C",
      "370C",
      "370C",
      "370C",
      "370C",
      "370C",
      "370C",
      "370C",
      "370C",
      "370C",
      "370",
      "370",
      "370",
      "370",
      "370",
      "370",
      "370",
      "370",
      "342",
      "311",
      "288",
      "266",
      "218",
      "196",
      "175",
      "155",
      "151",
      "139",
      "110C",
      "110C",
      "106",
      "094",
      "079",
      "070",
      "052",
      "037",
      "026",
      "018",
      "003"
    ],
    "swim:geom": "path",
    "swim:speeds": [
      166,
      240,
      253,
      273,
      277,
      329,
      352,
      355,
      371,
      401,
      430,
      444,
      449,
      438,
      434,
      433,
      434,
      434,
      433,
      433,
      433,
      433,
      433,
      432,
      432,
      433,
      433,
      434,
      435,
      437,
      437,
      437,
      438,
      438,
      439,
      439,
      439,
      439,
      437,
      438,
      437,
      434,
      436,
      434,
      435,
      433,
      434,
      433,
      434,
      431,
      434,
      443,
      437,
      442,
      442,
      440,
      442,
      441,
      443,
      444,
      446,
      447,
      448,
      448,
      448,
      449,
      449,
      449,
      450,
      449,
      449,
      449,
      448,
      448,
      448,
      450,
      450,
      452,
      453,
      454,
      455,
      455,
      456,
      456,
      455,
      455,
      455,
      455,
      455,
      455,
      456,
      456,
      458,
      460,
      462,
      463,
      470,
      472,
      462,
      440,
      419,
      404,
      389,
      377,
      370,
      357,
      325,
      266,
      250,
      255,
      254,
      253,
      210,
      209,
      188,
      169,
      143
    ],
    "swim:timestamps": [
      1785375219,
      1785375322,
      1785375365,
      1785375425,
      1785375442,
      1785375546,
      1785375606,
      1785375666,
      1785375726,
      1785375846,
      1785375966,
      1785376086,
      1785376206,
      1785376266,
      1785376327,
      1785376387,
      1785376447,
      1785376507,
      1785376567,
      1785376627,
      1785376687,
      1785376747,
      1785376807,
      1785376867,
      1785376927,
      1785376987,
      1785377047,
      1785377107,
      1785377167,
      1785377228,
      1785377288,
      1785377348,
      1785377468,
      1785377528,
      1785377588,
      1785377648,
      1785377708,
      1785377768,
      1785377798,
      1785377828,
      1785377858,
      1785377918,
      1785377948,
      1785377978,
      1785378008,
      1785378038,
      1785378068,
      1785378098,
      1785378129,
      1785378158,
      1785378189,
      1785378218,
      1785378249,
      1785378278,
      1785378338,
      1785378369,
      1785378398,
      1785378429,
      1785378458,
      1785378489,
      1785378549,
      1785378579,
      1785378609,
      1785378639,
      1785378669,
      1785378699,
      1785378729,
      1785378759,
      1785378789,
      1785378849,
      1785378879,
      1785378939,
      1785378969,
      1785378999,
      1785379029,
      1785379059,
      1785379090,
      1785379119,
      1785379150,
      1785379179,
      1785379210,
      1785379239,
      1785379270,
      1785379300,
      1785379330,
      1785379360,
      1785379420,
      1785379450,
      1785379480,
      1785379510,
      1785379540,
      1785379570,
      1785379600,
      1785379660,
      1785379720,
      1785379780,
      1785379840,
      1785379900,
      1785379960,
      1785380020,
      1785380141,
      1785380201,
      1785380261,
      1785380321,
      1785380327,
      1785380381,
      1785380501,
      1785380561,
      1785380627,
      1785380681,
      1785380741,
      1785380801,
      1785380921,
      1785380981,
      1785381040,
      1785381101,
      1785381222
    ],
    "wof:geomhash": "102e96bde7826eba6a2105e331d8c43c",
    "wof:id": 2032018283,
    "wof:repo": "sfomuseum-data-flights-2026-07"
  },
  "bbox": [
    -123.3261111111111,
    37.45916666666667,
    -122.1,
    47.61555555555556
  ],
  "geometry": {"coordinates":[[-122.30777777777777,47.46361111111111],[-122.31444444444445,47.558611111111105],[-122.35555555555555,47.599444444444444],[-122.46138888888889,47.61555555555556],[-122.48944444444444,47.60472222222222],[-122.64083333333333,47.507222222222225],[-122.74194444444444,47.441111111111105],[-122.84694444444445,47.371944444444445],[-122.92888888888889,47.288888888888884],[-122.95833333333334,47.08833333333334],[-122.99333333333334,46.85444444444445],[-123.02916666666667,46.61027777777778],[-123.06916666666666,46.33777777777778],[-123.08638888888889,46.217777777777776],[-123.10083333333333,46.12138888888889],[-123.11833333333333,46.00083333333333],[-123.13527777777779,45.88111111111111],[-123.1525,45.761944444444445],[-123.16944444444445,45.6425],[-123.18694444444445,45.52111111111111],[-123.20361111111112,45.401666666666664],[-123.22055555555556,45.280833333333334],[-123.23722222222223,45.16138888888889],[-123.25638888888889,45.04],[-123.27222222222223,44.91972222222222],[-123.28805555555556,44.79833333333333],[-123.30499999999999,44.67527777777777],[-123.32138888888889,44.55583333333333],[-123.3261111111111,44.43333333333333],[-123.32138888888889,44.31194444444444],[-123.31638888888888,44.18888888888888],[-123.31166666666667,44.068333333333335],[-123.3025,43.83166666666667],[-123.2975,43.70861111111111],[-123.2925,43.587500000000006],[-123.28777777777778,43.46527777777778],[-123.28333333333333,43.34166666666667],[-123.27833333333334,43.219722222222224],[-123.27361111111111,43.14666666666667],[-123.27361111111111,43.09777777777778],[-123.26805555555555,43.02611111111111],[-123.26611111111112,42.905277777777776],[-123.265,42.8575],[-123.26083333333334,42.78527777777778],[-123.26,42.73555555555556],[-123.25583333333333,42.665277777777774],[-123.25555555555556,42.61611111111111],[-123.25138888888888,42.544999999999995],[-123.25055555555555,42.49611111111111],[-123.24694444444445,42.42611111111111],[-123.24638888888889,42.37638888888889],[-123.24361111111111,42.303888888888885],[-123.24194444444444,42.25472222222222],[-123.23944444444444,42.18055555555555],[-123.23472222222222,42.05833333333333],[-123.23194444444445,41.986111111111114],[-123.23027777777779,41.9375],[-123.2275,41.86388888888889],[-123.22555555555556,41.812777777777775],[-123.22305555555556,41.74],[-123.21861111111112,41.61611111111111],[-123.21666666666667,41.565],[-123.21416666666667,41.49166666666667],[-123.21277777777777,41.44083333333333],[-123.21000000000001,41.36694444444444],[-123.20777777777778,41.30444444444444],[-123.20666666666666,41.255],[-123.20472222222223,41.17916666666667],[-123.20361111111112,41.12972222222222],[-123.20055555555555,41.00333333333333],[-123.19888888888889,40.92861111111111],[-123.19555555555556,40.80277777777778],[-123.19444444444444,40.75416666666667],[-123.19250000000001,40.68083333333333],[-123.1863888888889,40.628055555555555],[-123.17722222222223,40.55638888888888],[-123.16972222222223,40.501666666666665],[-123.16027777777778,40.43138888888889],[-123.15361111111112,40.382222222222225],[-123.14361111111111,40.30555555555555],[-123.13611111111112,40.24805555555556],[-123.12694444444443,40.17944444444444],[-123.11944444444444,40.12222222222222],[-123.11083333333333,40.055277777777775],[-123.10277777777777,39.99472222222222],[-123.09444444444443,39.930277777777775],[-123.07805555555555,39.80361111111111],[-123.07,39.742222222222225],[-123.06194444444444,39.68],[-123.05361111111111,39.61694444444444],[-123.04527777777777,39.552499999999995],[-123.0375,39.49],[-123.02916666666667,39.42361111111111],[-123.01027777777777,39.28972222222222],[-122.9825,39.16305555555555],[-122.95083333333334,39.035],[-122.92166666666667,38.906666666666666],[-122.89250000000001,38.77722222222222],[-122.86333333333333,38.64833333333333],[-122.83555555555554,38.52777777777778],[-122.78361111111111,38.29555555555555],[-122.75666666666666,38.18694444444444],[-122.72555555555556,38.080555555555556],[-122.69666666666667,37.980555555555554],[-122.68333333333334,37.96666666666667],[-122.65916666666668,37.88777777777778],[-122.51,37.74527777777778],[-122.44611111111111,37.68527777777778],[-122.38333333333334,37.61666666666667],[-122.34138888888889,37.57194444444445],[-122.30694444444444,37.507777777777775],[-122.24972222222222,37.45916666666667],[-122.1,37.483333333333334],[-122.15,37.516666666666666],[-122.2,37.55],[-122.25,37.56666666666667],[-122.345,37.608333333333334]],"type":"LineString"}
}
