{
  "id": 2031969829,
  "type": "Feature",
  "properties": {
    "geom:area": 0,
    "geom:bbox": "-122.406300,37.623610,-121.437670,38.514210",
    "geom:latitude": 38.052421656299195,
    "geom:longitude": -121.92355868092422,
    "src:alt_label": "swim-takeoff",
    "src:geom": "swim",
    "swim:elevations": [
      122,
      639,
      928,
      1371,
      1625,
      1823,
      2047,
      2209,
      2536,
      3126,
      3331,
      3410,
      3854,
      4017,
      4351,
      4585,
      5047,
      5388,
      5509,
      5705,
      5932,
      6441,
      6896,
      6990,
      7207,
      7430
    ],
    "swim:geom": "takeoff",
    "swim:timestamps": [
      1785015091,
      1785015123,
      1785015152,
      1785015205,
      1785015232,
      1785015248,
      1785015264,
      1785015278,
      1785015303,
      1785015352,
      1785015370,
      1785015391,
      1785015448,
      1785015464,
      1785015493,
      1785015516,
      1785015559,
      1785015593,
      1785015607,
      1785015628,
      1785015653,
      1785015715,
      1785015767,
      1785015777,
      1785015802,
      1785015832
    ],
    "wof:geomhash": "d9188c0410a1566e78397ee2ab228a80",
    "wof:id": 2031969829,
    "wof:repo": "sfomuseum-data-flights-2026-07"
  },
  "bbox": [
    -122.4063,
    37.62361,
    -121.43767,
    38.51421
  ],
  "geometry": {"coordinates":[[-122.38711,37.62361],[-122.4063,37.64133],[-122.39235,37.66173],[-122.32898,37.6813],[-122.29015,37.69387],[-122.26535,37.70192],[-122.24207,37.70999],[-122.22263,37.72118],[-122.19679,37.74738],[-122.14545,37.80317],[-122.12631,37.82437],[-122.10288,37.8503],[-122.0319,37.92676],[-122.01091,37.94944],[-121.97172,37.99178],[-121.94063,38.02533],[-121.88107,38.08966],[-121.83268,38.14179],[-121.81209,38.16401],[-121.78188,38.19661],[-121.74577,38.23544],[-121.65114,38.337],[-121.56817,38.42424],[-121.55136,38.43891],[-121.50139,38.47473],[-121.43767,38.51421]],"type":"LineString"}
}
