{
  "id": 2031955689,
  "type": "Feature",
  "properties": {
    "geom:area": 0,
    "geom:bbox": "-122.350000,33.390278,-112.066667,37.616667",
    "geom:latitude": 34.880490130679696,
    "geom:longitude": -117.62082268074379,
    "src:alt_label": "swim-path",
    "src:geom": "swim",
    "swim:altitudes": [
      "029",
      "030",
      "051",
      "062",
      "102",
      "111",
      "119",
      "136",
      "143",
      "165",
      "165",
      "186",
      "190",
      "213",
      "230",
      "247",
      "250",
      "262",
      "281",
      "296",
      "308",
      "326",
      "328",
      "338",
      "349",
      "360",
      "361",
      "373",
      "380C",
      "380C",
      "380C",
      "380C",
      "380C",
      "380C",
      "380C",
      "380C",
      "380C",
      "380C",
      "380C",
      "380C",
      "380C",
      "380C",
      "380C",
      "380C",
      "380C",
      "380C",
      "380C",
      "380C",
      "380C",
      "380C",
      "379C",
      "380C",
      "380C",
      "380C",
      "380C",
      "380C",
      "380C",
      "380C",
      "380C",
      "380C",
      "380C",
      "378",
      "367",
      "358",
      "348",
      "338",
      "315",
      "295",
      "275",
      "251",
      "240",
      "225",
      "213",
      "206",
      "195",
      "188",
      "176",
      "167",
      "156",
      "150",
      "133",
      "121",
      "119",
      "110",
      "097",
      "092",
      "085",
      "081",
      "066",
      "058",
      "054",
      "048",
      "045",
      "041",
      "035",
      "028",
      "024",
      "019",
      "011",
      "009",
      "004",
      "002"
    ],
    "swim:geom": "path",
    "swim:speeds": [
      183,
      189,
      228,
      244,
      290,
      297,
      349,
      342,
      376,
      401,
      392,
      405,
      407,
      416,
      424,
      440,
      444,
      458,
      471,
      476,
      478,
      475,
      474,
      474,
      476,
      478,
      478,
      478,
      478,
      478,
      476,
      474,
      473,
      472,
      471,
      471,
      470,
      470,
      469,
      469,
      470,
      470,
      470,
      470,
      469,
      465,
      463,
      462,
      464,
      465,
      468,
      468,
      465,
      465,
      466,
      466,
      467,
      469,
      470,
      470,
      470,
      464,
      449,
      449,
      450,
      452,
      445,
      438,
      433,
      420,
      409,
      399,
      397,
      388,
      385,
      375,
      371,
      374,
      371,
      364,
      353,
      350,
      336,
      331,
      315,
      305,
      292,
      283,
      278,
      271,
      262,
      243,
      229,
      229,
      234,
      225,
      198,
      169,
      141,
      135,
      134,
      129
    ],
    "swim:timestamps": [
      1784922340,
      1784922351,
      1784922411,
      1784922463,
      1784922532,
      1784922583,
      1784922592,
      1784922643,
      1784922652,
      1784922703,
      1784922712,
      1784922764,
      1784922772,
      1784922832,
      1784922884,
      1784922944,
      1784922952,
      1784923004,
      1784923072,
      1784923132,
      1784923184,
      1784923244,
      1784923253,
      1784923304,
      1784923364,
      1784923424,
      1784923433,
      1784923493,
      1784923545,
      1784923665,
      1784923785,
      1784923845,
      1784923905,
      1784923965,
      1784924025,
      1784924085,
      1784924146,
      1784924206,
      1784924266,
      1784924326,
      1784924386,
      1784924446,
      1784924506,
      1784924566,
      1784924626,
      1784924746,
      1784924806,
      1784924867,
      1784924927,
      1784924987,
      1784925047,
      1784925107,
      1784925167,
      1784925227,
      1784925287,
      1784925347,
      1784925407,
      1784925587,
      1784925648,
      1784925708,
      1784925828,
      1784925948,
      1784926008,
      1784926068,
      1784926128,
      1784926188,
      1784926248,
      1784926309,
      1784926369,
      1784926441,
      1784926471,
      1784926519,
      1784926561,
      1784926579,
      1784926621,
      1784926639,
      1784926681,
      1784926700,
      1784926741,
      1784926760,
      1784926820,
      1784926861,
      1784926880,
      1784926921,
      1784926981,
      1784927000,
      1784927042,
      1784927059,
      1784927120,
      1784927162,
      1784927174,
      1784927222,
      1784927234,
      1784927282,
      1784927300,
      1784927342,
      1784927360,
      1784927402,
      1784927462,
      1784927474,
      1784927522,
      1784927535
    ],
    "wof:geomhash": "211034a044caff0deec5f59e32f9c251",
    "wof:id": 2031955689,
    "wof:repo": "sfomuseum-data-flights-2026-07"
  },
  "bbox": [
    -122.35,
    33.390277777777776,
    -112.06666666666666,
    37.61666666666667
  ],
  "geometry": {"coordinates":[[-112.06666666666666,33.43333333333333],[-112.07333333333332,33.42361111111111],[-112.1438888888889,33.405277777777776],[-112.20444444444445,33.390277777777776],[-112.3286111111111,33.41],[-112.4025,33.419999999999995],[-112.43805555555556,33.42611111111111],[-112.52194444444444,33.437777777777775],[-112.56,33.44416666666666],[-112.66944444444445,33.450833333333335],[-112.67666666666668,33.45111111111111],[-112.78666666666666,33.45305555555556],[-112.81166666666667,33.455555555555556],[-112.94472222222223,33.480555555555554],[-113.05388888888889,33.510555555555555],[-113.19333333333334,33.54888888888889],[-113.22083333333333,33.55638888888888],[-113.33555555555554,33.58833333333334],[-113.53805555555556,33.62555555555556],[-113.69527777777778,33.64888888888889],[-113.815,33.66694444444444],[-113.97083333333333,33.68944444444444],[-114.00555555555556,33.69472222222222],[-114.12305555555555,33.716944444444444],[-114.27583333333334,33.75472222222222],[-114.42888888888889,33.79277777777778],[-114.44194444444445,33.79611111111111],[-114.59861111111111,33.835],[-114.73361111111112,33.86833333333333],[-115.03888888888889,33.94277777777778],[-115.3436111111111,34.01555555555556],[-115.49527777777777,34.051944444444445],[-115.64583333333334,34.08777777777778],[-115.79694444444445,34.123333333333335],[-115.9538888888889,34.16],[-116.1061111111111,34.195277777777775],[-116.25611111111111,34.230000000000004],[-116.40833333333335,34.265],[-116.55972222222222,34.29944444444444],[-116.71222222222222,34.33416666666667],[-116.86638888888888,34.36888888888889],[-117.01777777777778,34.40277777777778],[-117.17222222222223,34.43666666666666],[-117.32472222222222,34.470555555555556],[-117.47805555555556,34.50416666666667],[-117.78277777777778,34.57055555555556],[-117.93138888888889,34.60305555555556],[-118.07888888888888,34.64722222222222],[-118.21527777777779,34.71194444444445],[-118.35416666666666,34.776944444444446],[-118.47472222222223,34.8325],[-118.62138888888889,34.901666666666664],[-118.74944444444445,34.961111111111116],[-118.89083333333333,35.026666666666664],[-119.02694444444444,35.08916666666667],[-119.15972222222223,35.150277777777774],[-119.30277777777778,35.21555555555556],[-119.7213888888889,35.405],[-119.86083333333333,35.4675],[-120.02777777777777,35.54222222222222],[-120.30583333333333,35.66583333333333],[-120.58916666666666,35.77638888888889],[-120.72666666666667,35.82888888888889],[-120.86,35.87916666666667],[-121.00194444444445,35.93277777777777],[-121.14416666666668,35.986111111111114],[-121.2825,36.03777777777778],[-121.39861111111112,36.113055555555555],[-121.47777777777777,36.21388888888889],[-121.57111111111111,36.33277777777778],[-121.61666666666666,36.38333333333333],[-121.68333333333334,36.46666666666667],[-121.72,36.52111111111111],[-121.75,36.55],[-121.79138888888889,36.61194444444445],[-121.81666666666666,36.65],[-121.865,36.70472222222222],[-121.88333333333334,36.733333333333334],[-121.91027777777778,36.8],[-121.91666666666667,36.833333333333336],[-121.95,36.93333333333333],[-121.96888888888888,36.992222222222225],[-121.98333333333333,37.016666666666666],[-122.00333333333333,37.08027777777778],[-122.03583333333333,37.163888888888884],[-122.05,37.18333333333333],[-122.06638888888888,37.2425],[-122.08333333333333,37.266666666666666],[-122.1,37.333333333333336],[-122.1236111111111,37.38916666666667],[-122.11666666666666,37.4],[-122.10166666666666,37.456944444444446],[-122.1,37.46666666666667],[-122.12944444444443,37.51277777777778],[-122.15,37.53333333333333],[-122.19777777777779,37.54611111111111],[-122.21666666666667,37.55],[-122.25472222222223,37.57055555555556],[-122.29916666666666,37.58916666666667],[-122.31666666666666,37.6],[-122.33972222222222,37.60611111111111],[-122.35,37.61666666666667]],"type":"LineString"}
}
