{
  "id": 2032054393,
  "type": "Feature",
  "properties": {
    "geom:area": 0,
    "geom:bbox": "-158.183333,21.250000,-122.400000,37.673056",
    "geom:latitude": 30.133072535521055,
    "geom:longitude": -140.89905144587112,
    "src:alt_label": "swim-path",
    "src:geom": "swim",
    "swim:altitudes": [
      "007",
      "030",
      "037",
      "055",
      "092",
      "108",
      "118",
      "135",
      "149",
      "164",
      "175",
      "187",
      "198",
      "209",
      "220",
      "229",
      "240",
      "249",
      "257",
      "265",
      "274",
      "281",
      "289",
      "294",
      "300C",
      "300C",
      "300C",
      "300C",
      "300C",
      "300C",
      "300C",
      "300C",
      "300C",
      "300C",
      "300C",
      "300",
      "300",
      "300",
      "300",
      "300",
      "300",
      "300",
      "300",
      "300",
      "300",
      "300",
      "300",
      "300",
      "300",
      "300",
      "300",
      "300",
      "300",
      "300",
      "300",
      "300",
      "300",
      "300T",
      "300T",
      "300T",
      "300T",
      "300T",
      "300T",
      "294T",
      "282T",
      "272T",
      "260T",
      "242T",
      "224T",
      "206T",
      "188T",
      "169T",
      "151T",
      "131T",
      "112T",
      "100T",
      "100T",
      "100T",
      "100T",
      "089T",
      "073T",
      "054T",
      "038T",
      "030T",
      "030T",
      "019T",
      "010T",
      "003"
    ],
    "swim:geom": "path",
    "swim:speeds": [
      170,
      185,
      227,
      270,
      280,
      300,
      335,
      341,
      357,
      357,
      368,
      375,
      381,
      389,
      393,
      398,
      403,
      411,
      418,
      424,
      429,
      434,
      439,
      445,
      451,
      453,
      454,
      454,
      454,
      453,
      453,
      453,
      453,
      452,
      453,
      450,
      450,
      450,
      450,
      440,
      440,
      440,
      440,
      440,
      440,
      440,
      440,
      440,
      440,
      440,
      440,
      440,
      440,
      430,
      430,
      430,
      430,
      450,
      450,
      450,
      450,
      450,
      450,
      440,
      420,
      410,
      400,
      390,
      380,
      380,
      370,
      370,
      360,
      350,
      350,
      310,
      310,
      310,
      310,
      300,
      300,
      290,
      280,
      190,
      170,
      180,
      160,
      150
    ],
    "swim:timestamps": [
      1785523580,
      1785523647,
      1785523691,
      1785523751,
      1785523871,
      1785523931,
      1785523991,
      1785524052,
      1785524112,
      1785524172,
      1785524232,
      1785524292,
      1785524352,
      1785524412,
      1785524472,
      1785524532,
      1785524592,
      1785524652,
      1785524712,
      1785524773,
      1785524833,
      1785524893,
      1785524953,
      1785525013,
      1785525073,
      1785525133,
      1785525193,
      1785525253,
      1785525373,
      1785525434,
      1785525494,
      1785525554,
      1785525614,
      1785525674,
      1785525734,
      1785538163,
      1785538224,
      1785538285,
      1785538309,
      1785538369,
      1785538429,
      1785538489,
      1785538550,
      1785538610,
      1785538670,
      1785538730,
      1785538791,
      1785538850,
      1785538911,
      1785538971,
      1785539031,
      1785539091,
      1785539151,
      1785539211,
      1785539272,
      1785539332,
      1785539392,
      1785539452,
      1785539512,
      1785539572,
      1785539632,
      1785539692,
      1785539752,
      1785539872,
      1785539933,
      1785539993,
      1785540053,
      1785540113,
      1785540173,
      1785540234,
      1785540293,
      1785540354,
      1785540414,
      1785540474,
      1785540534,
      1785540654,
      1785540714,
      1785540775,
      1785540835,
      1785540895,
      1785540955,
      1785541015,
      1785541075,
      1785541136,
      1785541195,
      1785541316,
      1785541376,
      1785541436
    ],
    "wof:geomhash": "fd9cfe00e82d88a2ca30894de3b12dfe",
    "wof:id": 2032054393,
    "wof:repo": "sfomuseum-data-flights-2026-07"
  },
  "bbox": [
    -158.18333333333334,
    21.25,
    -122.4,
    37.67305555555555
  ],
  "geometry": {"coordinates":[[-122.4,37.63333333333333],[-122.45,37.65],[-122.5075,37.67305555555555],[-122.5961111111111,37.651666666666664],[-122.76444444444445,37.60944444444445],[-122.86222222222221,37.58416666666667],[-122.97083333333333,37.55722222222222],[-123.08527777777778,37.526666666666664],[-123.20444444444445,37.49611111111111],[-123.32277777777777,37.465833333333336],[-123.44666666666667,37.43388888888889],[-123.57027777777778,37.401111111111106],[-123.69722222222222,37.36805555555556],[-123.82777777777777,37.33361111111111],[-123.95861111111111,37.29888888888889],[-124.08944444444444,37.263888888888886],[-124.22444444444444,37.22777777777778],[-124.36083333333333,37.191111111111105],[-124.5,37.15333333333333],[-124.64083333333333,37.115],[-124.78083333333333,37.07666666666667],[-124.92416666666666,37.03722222222222],[-125.06972222222223,36.996944444444445],[-125.21555555555555,36.95638888888889],[-125.36638888888888,36.91416666666667],[-125.5125,36.87305555555555],[-125.69111111111111,36.822500000000005],[-125.84166666666667,36.77972222222222],[-126.13472222222222,36.69555555555555],[-126.28416666666666,36.652499999999996],[-126.42972222222222,36.61027777777778],[-126.57666666666667,36.56722222222223],[-126.72333333333333,36.52388888888889],[-126.87027777777777,36.480555555555554],[-127.01444444444445,36.43833333333333],[-153.81666666666666,24.55],[-153.93333333333334,24.466666666666665],[-154.05,24.4],[-154.1,24.383333333333333],[-154.21666666666667,24.3],[-154.31666666666666,24.233333333333334],[-154.43333333333334,24.166666666666668],[-154.55,24.1],[-154.65,24.033333333333335],[-154.76666666666668,23.966666666666665],[-154.88333333333333,23.9],[-154.98333333333332,23.816666666666666],[-155.1,23.75],[-155.18333333333334,23.666666666666668],[-155.28333333333333,23.566666666666666],[-155.38333333333333,23.483333333333334],[-155.46666666666667,23.4],[-155.56666666666666,23.3],[-155.66666666666666,23.233333333333334],[-155.78333333333333,23.25],[-155.91666666666666,23.266666666666666],[-156.05,23.283333333333335],[-156.13333333333333,23.183333333333334],[-156.21666666666667,23.083333333333332],[-156.3,22.983333333333334],[-156.38333333333333,22.883333333333333],[-156.45,22.783333333333335],[-156.53333333333333,22.666666666666668],[-156.7,22.466666666666665],[-156.76666666666668,22.366666666666667],[-156.83333333333334,22.283333333333335],[-156.91666666666666,22.183333333333334],[-156.98333333333332,22.1],[-157.05,22.016666666666666],[-157.11666666666667,21.933333333333334],[-157.16666666666666,21.833333333333332],[-157.23333333333332,21.75],[-157.3,21.666666666666668],[-157.36666666666667,21.6],[-157.41666666666666,21.516666666666666],[-157.55,21.383333333333333],[-157.63333333333333,21.366666666666667],[-157.73333333333332,21.333333333333332],[-157.81666666666666,21.316666666666666],[-157.9,21.283333333333335],[-157.98333333333332,21.25],[-158.06666666666666,21.25],[-158.15,21.25],[-158.18333333333334,21.3],[-158.13333333333333,21.316666666666666],[-158.03333333333333,21.316666666666666],[-157.98333333333332,21.316666666666666],[-157.95,21.316666666666666]],"type":"LineString"}
}
