{
  "id": 2031969449,
  "type": "Feature",
  "properties": {
    "geom:area": 0,
    "geom:bbox": "-122.399060,37.622890,-121.264740,38.412900",
    "geom:latitude": 38.01841733251386,
    "geom:longitude": -121.84650336991649,
    "src:alt_label": "swim-takeoff",
    "src:geom": "swim",
    "swim:elevations": [
      152,
      461,
      722,
      1095,
      2519,
      2989,
      3398,
      4550,
      4844,
      5216,
      5480,
      5784,
      6115,
      6503,
      6603,
      6921,
      6953,
      7206,
      7363,
      7496,
      7839,
      8097,
      8379,
      8625,
      9154
    ],
    "swim:geom": "takeoff",
    "swim:timestamps": [
      1785009861,
      1785009880,
      1785009905,
      1785009932,
      1785010022,
      1785010050,
      1785010087,
      1785010162,
      1785010183,
      1785010212,
      1785010232,
      1785010254,
      1785010279,
      1785010314,
      1785010323,
      1785010350,
      1785010353,
      1785010375,
      1785010390,
      1785010402,
      1785010430,
      1785010455,
      1785010482,
      1785010510,
      1785010580
    ],
    "wof:geomhash": "cd828262bf26a4ee9701a4c3754980ae",
    "wof:id": 2031969449,
    "wof:repo": "sfomuseum-data-flights-2026-07"
  },
  "bbox": [
    -122.39906,
    37.62289,
    -121.26474,
    38.4129
  ],
  "geometry": {"coordinates":[[-122.38472,37.62289],[-122.39906,37.63358],[-122.39244,37.65475],[-122.35837,37.66344],[-122.22735,37.71306],[-122.19324,37.74014],[-122.15365,37.78417],[-122.0597,37.88392],[-122.0267,37.90739],[-121.97925,37.9397],[-121.94482,37.96337],[-121.90747,37.98866],[-121.8635,38.01867],[-121.79984,38.06163],[-121.78314,38.07291],[-121.73246,38.10712],[-121.72677,38.11096],[-121.68378,38.1398],[-121.65573,38.15868],[-121.63277,38.17412],[-121.57698,38.2121],[-121.52825,38.24479],[-121.47498,38.27991],[-121.41773,38.31874],[-121.26474,38.4129]],"type":"LineString"}
}
