{
  "id": 2032032669,
  "type": "Feature",
  "properties": {
    "geom:area": 0,
    "geom:bbox": "-122.348889,33.916667,-118.432778,37.607778",
    "geom:latitude": 35.637093591623234,
    "geom:longitude": -120.78091858948362,
    "src:alt_label": "swim-path",
    "src:geom": "swim",
    "swim:altitudes": [
      "013",
      "022",
      "025",
      "037",
      "066",
      "090",
      "110",
      "128",
      "153",
      "175",
      "196",
      "214",
      "235",
      "253",
      "269",
      "283",
      "295",
      "315",
      "330",
      "340C",
      "340C",
      "340C",
      "340C",
      "340C",
      "340",
      "332",
      "321",
      "311",
      "301",
      "291",
      "281",
      "271",
      "261",
      "251",
      "241",
      "230",
      "219",
      "211",
      "201",
      "200",
      "200",
      "200",
      "196",
      "186",
      "178",
      "166",
      "161",
      "151",
      "137",
      "123",
      "109",
      "096",
      "090",
      "080",
      "065",
      "060",
      "058",
      "047",
      "040",
      "033",
      "030",
      "024",
      "016",
      "009",
      "002"
    ],
    "swim:geom": "path",
    "swim:speeds": [
      164,
      214,
      224,
      265,
      276,
      284,
      304,
      356,
      365,
      377,
      389,
      397,
      406,
      415,
      427,
      437,
      448,
      448,
      444,
      443,
      441,
      436,
      434,
      432,
      420,
      418,
      422,
      419,
      409,
      407,
      402,
      393,
      381,
      380,
      365,
      343,
      331,
      330,
      346,
      361,
      361,
      362,
      347,
      339,
      339,
      326,
      321,
      322,
      314,
      306,
      294,
      291,
      286,
      285,
      283,
      279,
      242,
      226,
      205,
      194,
      185,
      184,
      177,
      151,
      138
    ],
    "swim:timestamps": [
      1785445136,
      1785445177,
      1785445196,
      1785445237,
      1785445316,
      1785445376,
      1785445436,
      1785445496,
      1785445556,
      1785445616,
      1785445676,
      1785445733,
      1785445793,
      1785445853,
      1785445913,
      1785445973,
      1785446034,
      1785446094,
      1785446154,
      1785446214,
      1785446277,
      1785446334,
      1785446394,
      1785446458,
      1785446514,
      1785446574,
      1785446638,
      1785446698,
      1785446755,
      1785446818,
      1785446875,
      1785446935,
      1785446995,
      1785447055,
      1785447115,
      1785447175,
      1785447235,
      1785447295,
      1785447355,
      1785447375,
      1785447416,
      1785447476,
      1785447537,
      1785447598,
      1785447656,
      1785447716,
      1785447723,
      1785447776,
      1785447836,
      1785447896,
      1785447956,
      1785448016,
      1785448078,
      1785448138,
      1785448198,
      1785448257,
      1785448313,
      1785448378,
      1785448437,
      1785448497,
      1785448557,
      1785448617,
      1785448677,
      1785448738,
      1785448798
    ],
    "wof:geomhash": "e7e54642afc7f926b1a5aa07af11fd04",
    "wof:id": 2032032669,
    "wof:repo": "sfomuseum-data-flights-2026-07"
  },
  "bbox": [
    -122.34888888888888,
    33.916666666666664,
    -118.43277777777779,
    37.60777777777778
  ],
  "geometry": {"coordinates":[[-118.43277777777779,33.93472222222222],[-118.48333333333333,33.93333333333333],[-118.50083333333333,33.92833333333333],[-118.56666666666666,33.916666666666664],[-118.67750000000001,33.9175],[-118.77277777777778,33.91722222222222],[-118.86972222222222,33.91777777777777],[-118.97611111111111,33.946666666666665],[-119.06027777777777,34.019999999999996],[-119.14750000000001,34.094722222222224],[-119.23944444444444,34.17333333333333],[-119.32972222222222,34.24861111111111],[-119.42666666666668,34.32972222222222],[-119.5225,34.415277777777774],[-119.6286111111111,34.50194444444445],[-119.73333333333333,34.58972222222222],[-119.8386111111111,34.67777777777778],[-119.94611111111111,34.76722222222222],[-120.05194444444444,34.85527777777778],[-120.155,34.94027777777777],[-120.25361111111111,35.02194444444444],[-120.36555555555555,35.11416666666667],[-120.46972222222223,35.19944444444444],[-120.58305555555555,35.29222222222222],[-120.67666666666668,35.36833333333333],[-120.77805555555555,35.45111111111111],[-120.87472222222222,35.54472222222222],[-120.96083333333334,35.636944444444445],[-121.04194444444444,35.724444444444444],[-121.12444444444444,35.8125],[-121.2088888888889,35.902499999999996],[-121.29055555555556,35.989444444444445],[-121.36999999999999,36.075],[-121.44361111111111,36.16],[-121.5625,36.17472222222222],[-121.68222222222222,36.16416666666667],[-121.79472222222222,36.155277777777776],[-121.8825,36.175555555555555],[-121.89861111111112,36.263888888888886],[-121.86666666666666,36.3],[-121.82777777777777,36.34777777777778],[-121.74527777777777,36.442499999999995],[-121.73333333333333,36.53333333333333],[-121.8,36.61666666666667],[-121.8475,36.6825],[-121.9,36.761944444444445],[-121.9,36.78333333333333],[-121.92416666666666,36.848333333333336],[-121.9475,36.93277777777777],[-121.97694444444444,37.013333333333335],[-122.01444444444445,37.08972222222222],[-122.10527777777777,37.124722222222225],[-122.21666666666667,37.166666666666664],[-122.28333333333333,37.21666666666667],[-122.3,37.3],[-122.32444444444444,37.35277777777778],[-122.28333333333333,37.416666666666664],[-122.2,37.416666666666664],[-122.14444444444445,37.439166666666665],[-122.10944444444443,37.484722222222224],[-122.14861111111112,37.52305555555555],[-122.20555555555556,37.5475],[-122.25916666666667,37.57],[-122.30694444444444,37.59],[-122.34888888888888,37.60777777777778]],"type":"LineString"}
}
