{
  "id": 2031976409,
  "type": "Feature",
  "properties": {
    "geom:area": 0,
    "geom:bbox": "-123.316280,37.426560,-122.161100,38.325280",
    "geom:latitude": 37.83241671940531,
    "geom:longitude": -122.6391239235153,
    "src:alt_label": "swim-approach",
    "src:geom": "swim",
    "swim:elevations": [
      7620,
      7344,
      7171,
      6929,
      6849,
      6811,
      6613,
      6495,
      6037,
      5986,
      5783,
      5711,
      5317,
      5040,
      4838,
      4661,
      4444,
      4344,
      4026,
      3704,
      3492,
      3404,
      3387,
      3353,
      3353,
      3353,
      3322,
      3204,
      3191,
      3118,
      3016,
      2835,
      2490,
      2271,
      1904,
      1786,
      1540,
      1430,
      1279,
      1162,
      841,
      727,
      609,
      548,
      521,
      471,
      368,
      254,
      211,
      121,
      50
    ],
    "swim:geom": "approach",
    "swim:timestamps": [
      1785104501,
      1785104530,
      1785104548,
      1785104573,
      1785104582,
      1785104585,
      1785104607,
      1785104619,
      1785104668,
      1785104674,
      1785104696,
      1785104703,
      1785104746,
      1785104777,
      1785104799,
      1785104817,
      1785104843,
      1785104852,
      1785104888,
      1785104925,
      1785104952,
      1785104983,
      1785104986,
      1785105022,
      1785105049,
      1785105070,
      1785105107,
      1785105146,
      1785105150,
      1785105166,
      1785105191,
      1785105222,
      1785105261,
      1785105283,
      1785105318,
      1785105330,
      1785105355,
      1785105370,
      1785105391,
      1785105437,
      1785105475,
      1785105498,
      1785105526,
      1785105538,
      1785105546,
      1785105562,
      1785105593,
      1785105621,
      1785105634,
      1785105660,
      1785105676
    ],
    "wof:geomhash": "89eeaa74c3aac741f816cdcff055dae6",
    "wof:id": 2031976409,
    "wof:repo": "sfomuseum-data-flights-2026-07"
  },
  "bbox": [
    -123.31628,
    37.42656,
    -122.1611,
    38.32528
  ],
  "geometry": {"coordinates":[[-123.31628,38.32528],[-123.26124,38.28929],[-123.22712,38.26678],[-123.1811,38.23642],[-123.16447,38.22546],[-123.15888,38.22179],[-123.11757,38.19448],[-123.09573,38.18004],[-123.00795,38.1221],[-122.99723,38.11504],[-122.95824,38.08922],[-122.94643,38.08139],[-122.87052,38.03105],[-122.81695,37.99528],[-122.77931,37.97022],[-122.74905,37.95007],[-122.70612,37.9215],[-122.69097,37.91101],[-122.64084,37.86878],[-122.59341,37.82425],[-122.55866,37.7914],[-122.51989,37.75479],[-122.51629,37.75135],[-122.47449,37.71194],[-122.44457,37.68384],[-122.4212,37.66186],[-122.38026,37.62334],[-122.34901,37.58123],[-122.34709,37.57699],[-122.3382,37.55878],[-122.32352,37.53225],[-122.30354,37.49944],[-122.27826,37.45988],[-122.25647,37.44299],[-122.21107,37.42757],[-122.19418,37.42656],[-122.1668,37.44025],[-122.1611,37.45546],[-122.16214,37.47873],[-122.16895,37.52466],[-122.19937,37.54681],[-122.22094,37.55618],[-122.24445,37.56614],[-122.25412,37.57019],[-122.2601,37.57275],[-122.27076,37.57726],[-122.29222,37.58625],[-122.31104,37.59409],[-122.32041,37.59813],[-122.33965,37.6062],[-122.35074,37.61088]],"type":"LineString"}
}
