{
  "id": 2032039553,
  "type": "Feature",
  "properties": {
    "geom:area": 0,
    "geom:bbox": "-156.033333,19.750000,-122.383333,37.666111",
    "geom:latitude": 30.155206100463566,
    "geom:longitude": -140.57093241827533,
    "src:alt_label": "swim-path",
    "src:geom": "swim",
    "swim:altitudes": [
      "007",
      "015",
      "034",
      "046",
      "069",
      "092",
      "105",
      "118",
      "137",
      "162C",
      "162",
      "177C",
      "178",
      "189C",
      "190",
      "201C",
      "202",
      "212C",
      "213",
      "225",
      "234",
      "242",
      "250",
      "260",
      "269",
      "276",
      "285",
      "294",
      "303",
      "316",
      "326",
      "334",
      "339",
      "346",
      "350C",
      "350C",
      "350C",
      "350",
      "350C",
      "350C",
      "350C",
      "350",
      "350",
      "350",
      "350",
      "350",
      "350",
      "350",
      "350",
      "350T",
      "342T",
      "340T",
      "340T",
      "340T",
      "340T",
      "340T",
      "340T",
      "340T",
      "340T",
      "340T",
      "340T",
      "340T",
      "340T",
      "340T",
      "340T",
      "340T",
      "340T",
      "340T",
      "340T",
      "330T",
      "317T",
      "296T",
      "275T",
      "254T",
      "233T",
      "211T",
      "190T",
      "170T",
      "151T",
      "137T",
      "123T",
      "109T",
      "098T",
      "084T",
      "070T",
      "061T",
      "051T",
      "040T",
      "027T",
      "016T",
      "008T",
      "001T"
    ],
    "swim:geom": "path",
    "swim:speeds": [
      170,
      166,
      184,
      254,
      266,
      277,
      312,
      336,
      340,
      370,
      372,
      390,
      379,
      390,
      385,
      390,
      393,
      400,
      399,
      403,
      410,
      418,
      424,
      428,
      431,
      433,
      437,
      440,
      441,
      436,
      430,
      428,
      428,
      429,
      429,
      429,
      430,
      430,
      430,
      430,
      430,
      450,
      450,
      450,
      450,
      450,
      450,
      450,
      450,
      450,
      450,
      460,
      460,
      460,
      460,
      460,
      450,
      450,
      450,
      460,
      460,
      460,
      460,
      460,
      460,
      460,
      460,
      460,
      460,
      460,
      450,
      440,
      440,
      430,
      420,
      410,
      390,
      390,
      360,
      330,
      300,
      290,
      280,
      280,
      280,
      250,
      240,
      230,
      220,
      190,
      150,
      150
    ],
    "swim:timestamps": [
      1785457577,
      1785457594,
      1785457654,
      1785457714,
      1785457774,
      1785457835,
      1785457895,
      1785457955,
      1785458015,
      1785458127,
      1785458135,
      1785458187,
      1785458195,
      1785458247,
      1785458255,
      1785458307,
      1785458315,
      1785458367,
      1785458375,
      1785458435,
      1785458495,
      1785458556,
      1785458616,
      1785458676,
      1785458736,
      1785458796,
      1785458856,
      1785458916,
      1785458976,
      1785459036,
      1785459096,
      1785459156,
      1785459216,
      1785459277,
      1785459337,
      1785459397,
      1785459457,
      1785459508,
      1785459577,
      1785459637,
      1785459697,
      1785472242,
      1785472265,
      1785472325,
      1785472385,
      1785472445,
      1785472505,
      1785472566,
      1785472626,
      1785472686,
      1785472746,
      1785472806,
      1785472866,
      1785472926,
      1785472986,
      1785473047,
      1785473107,
      1785473167,
      1785473227,
      1785473287,
      1785473348,
      1785473407,
      1785473468,
      1785473528,
      1785473588,
      1785473648,
      1785473708,
      1785473769,
      1785473829,
      1785473889,
      1785473949,
      1785474009,
      1785474069,
      1785474129,
      1785474189,
      1785474250,
      1785474310,
      1785474370,
      1785474430,
      1785474491,
      1785474550,
      1785474611,
      1785474671,
      1785474731,
      1785474791,
      1785474851,
      1785474912,
      1785474972,
      1785475032,
      1785475092,
      1785475152,
      1785475213
    ],
    "wof:geomhash": "2048c972ce210a0c481f2c7205cd39a1",
    "wof:id": 2032039553,
    "wof:repo": "sfomuseum-data-flights-2026-07"
  },
  "bbox": [
    -156.03333333333333,
    19.75,
    -122.38333333333334,
    37.66611111111111
  ],
  "geometry": {"coordinates":[[-122.38333333333334,37.61666666666667],[-122.39833333333334,37.62833333333333],[-122.45944444444444,37.65472222222222],[-122.53555555555555,37.66611111111111],[-122.62472222222222,37.643055555555556],[-122.71805555555555,37.61888888888889],[-122.81722222222221,37.59277777777778],[-122.90666666666667,37.56944444444445],[-123.02,37.540277777777774],[-123.25,37.46666666666667],[-123.26194444444444,37.47666666666667],[-123.38333333333334,37.43333333333333],[-123.38944444444445,37.44277777777778],[-123.5,37.4],[-123.5175,37.40861111111111],[-123.63333333333334,37.36666666666667],[-123.64972222222222,37.37305555555555],[-123.76666666666667,37.333333333333336],[-123.78111111111112,37.337500000000006],[-123.91555555555556,37.301111111111105],[-124.05055555555555,37.26444444444444],[-124.18972222222223,37.226111111111116],[-124.3286111111111,37.18805555555555],[-124.47166666666666,37.149166666666666],[-124.61333333333333,37.10916666666667],[-124.75555555555556,37.06888888888889],[-124.92916666666667,37.019999999999996],[-125.07416666666666,36.97972222222222],[-125.22,36.941111111111105],[-125.36305555555555,36.90222222222222],[-125.50277777777778,36.86388888888889],[-125.64194444444445,36.825833333333335],[-125.78166666666667,36.78722222222222],[-125.92194444444445,36.748333333333335],[-126.06222222222222,36.70916666666667],[-126.20277777777778,36.670833333333334],[-126.34222222222222,36.63111111111111],[-126.43333333333334,36.583333333333336],[-126.62444444444444,36.550555555555555],[-126.76305555555555,36.51083333333333],[-126.9025,36.47083333333334],[-153.83333333333334,24.55],[-153.86666666666667,24.533333333333335],[-153.98333333333332,24.466666666666665],[-154.1,24.383333333333333],[-154.21666666666667,24.316666666666666],[-154.33333333333334,24.25],[-154.45,24.183333333333334],[-154.56666666666666,24.1],[-154.61666666666667,24],[-154.68333333333334,23.883333333333333],[-154.73333333333332,23.766666666666666],[-154.78333333333333,23.633333333333333],[-154.83333333333334,23.516666666666666],[-154.88333333333333,23.4],[-154.93333333333334,23.283333333333335],[-154.98333333333332,23.166666666666668],[-155.05,23.05],[-155.1,22.933333333333334],[-155.15,22.816666666666666],[-155.2,22.7],[-155.25,22.583333333333332],[-155.3,22.466666666666665],[-155.35,22.35],[-155.41666666666666,22.216666666666665],[-155.46666666666667,22.1],[-155.51666666666668,21.983333333333334],[-155.56666666666666,21.866666666666667],[-155.61666666666667,21.75],[-155.66666666666666,21.633333333333333],[-155.71666666666667,21.516666666666666],[-155.76666666666668,21.4],[-155.81666666666666,21.283333333333335],[-155.86666666666667,21.166666666666668],[-155.91666666666666,21.066666666666666],[-155.95,20.966666666666665],[-156,20.85],[-156,20.75],[-156.01666666666668,20.65],[-156.01666666666668,20.55],[-156.01666666666668,20.466666666666665],[-156.01666666666668,20.383333333333333],[-156.01666666666668,20.3],[-156.01666666666668,20.233333333333334],[-156.01666666666668,20.15],[-156.03333333333333,20.083333333333332],[-156.01666666666668,20.016666666666666],[-156.01666666666668,19.95],[-156.01666666666668,19.883333333333333],[-156.03333333333333,19.833333333333332],[-156.03333333333333,19.783333333333335],[-156.03333333333333,19.75]],"type":"LineString"}
}
