{
  "id": 2032046139,
  "type": "Feature",
  "properties": {
    "geom:area": 0,
    "geom:bbox": "-122.359167,36.498611,-75.279722,39.919722",
    "geom:latitude": 37.59887339028928,
    "geom:longitude": -98.79342231662673,
    "src:alt_label": "swim-path",
    "src:geom": "swim",
    "swim:altitudes": [
      "008",
      "013",
      "025",
      "044",
      "076",
      "101",
      "113",
      "133",
      "155",
      "174",
      "190",
      "206",
      "218",
      "234",
      "246",
      "262",
      "279",
      "286",
      "295",
      "308",
      "310",
      "319C",
      "320C",
      "320C",
      "320C",
      "320C",
      "320C",
      "320C",
      "320C",
      "320C",
      "320C",
      "320C",
      "320C",
      "320C",
      "320C",
      "320C",
      "320C",
      "320C",
      "320C",
      "320C",
      "320C",
      "320C",
      "320C",
      "320C",
      "320C",
      "320C",
      "320C",
      "320C",
      "320C",
      "320C",
      "320C",
      "320C",
      "320C",
      "320C",
      "320C",
      "320C",
      "320C",
      "320C",
      "320C",
      "320C",
      "320C",
      "320C",
      "320C",
      "320C",
      "320C",
      "320C",
      "320C",
      "320C",
      "320C",
      "320C",
      "320C",
      "320C",
      "320C",
      "320C",
      "320C",
      "320C",
      "320C",
      "320C",
      "320C",
      "320C",
      "320C",
      "320C",
      "320C",
      "320C",
      "320C",
      "320C",
      "320C",
      "320C",
      "320C",
      "320C",
      "320C",
      "320C",
      "320C",
      "320C",
      "320C",
      "320C",
      "320C",
      "320C",
      "320C",
      "320C",
      "320C",
      "320C",
      "320C",
      "320C",
      "320C",
      "320C",
      "320C",
      "320C",
      "320C",
      "320C",
      "320C",
      "320C",
      "320C",
      "320C",
      "320C",
      "320C",
      "320C",
      "320C",
      "320C",
      "320C",
      "320C",
      "320C",
      "320C",
      "320C",
      "320C",
      "320C",
      "320C",
      "320C",
      "320C",
      "320C",
      "320C",
      "320C",
      "320C",
      "320C",
      "320C",
      "320C",
      "320C",
      "320C",
      "320C",
      "320C",
      "320C",
      "320C",
      "320C",
      "320C",
      "320C",
      "320C",
      "320C",
      "320C",
      "320C",
      "320C",
      "320C",
      "320C",
      "320C",
      "320C",
      "320C",
      "320C",
      "320C",
      "320",
      "320",
      "320",
      "320",
      "321",
      "322",
      "325",
      "325",
      "328",
      "330",
      "334",
      "334",
      "338C",
      "339C",
      "340C",
      "340C",
      "340C",
      "340C",
      "340C",
      "340C",
      "340C",
      "340C",
      "340C",
      "340C",
      "340C",
      "340C",
      "340C",
      "340C",
      "340C",
      "340C",
      "340C",
      "340C",
      "340C",
      "340C",
      "340C",
      "340C",
      "340C",
      "340C",
      "340C",
      "340C",
      "340C",
      "340C",
      "340C",
      "340C",
      "340C",
      "340C",
      "340C",
      "340C",
      "340C",
      "340C",
      "340C",
      "340C",
      "340C",
      "340C",
      "341C",
      "341C",
      "340C",
      "340C",
      "340C",
      "340C",
      "340C",
      "340C",
      "340C",
      "340C",
      "340C",
      "340C",
      "340C",
      "340C",
      "340C",
      "340C",
      "340C",
      "340C",
      "340C",
      "340C",
      "340C",
      "340C",
      "340C",
      "340C",
      "340C",
      "340C",
      "340C",
      "340C",
      "340C",
      "340C",
      "340C",
      "340C",
      "340C",
      "340C",
      "340C",
      "340C",
      "340C",
      "340C",
      "340C",
      "340C",
      "340C",
      "340C",
      "340C",
      "340C",
      "341C",
      "341C",
      "340C",
      "340C",
      "340C",
      "340C",
      "340C",
      "340C",
      "340C",
      "340C",
      "340C",
      "341C",
      "341C",
      "341C",
      "341C",
      "340C",
      "340C",
      "340C",
      "340C",
      "340C",
      "340C",
      "340C",
      "340C",
      "340C",
      "340C",
      "340C",
      "340C",
      "340C",
      "340C",
      "340C",
      "340C",
      "340C",
      "340C",
      "340C",
      "340C",
      "340C",
      "340C",
      "340C",
      "340C",
      "340C",
      "340C",
      "340C",
      "340C",
      "340C",
      "340C",
      "340C",
      "340C",
      "340C",
      "340C",
      "340C",
      "340C",
      "340C",
      "341C",
      "340C",
      "340C",
      "340C",
      "340C",
      "340C",
      "340C",
      "339C",
      "340C",
      "340C",
      "340C",
      "340C",
      "340C",
      "340C",
      "340C",
      "340C",
      "341C",
      "341C",
      "340C",
      "340C",
      "340C",
      "340C",
      "340C",
      "340C",
      "340C",
      "340C",
      "340C",
      "341C",
      "341C",
      "340C",
      "340C",
      "340C",
      "340C",
      "340C",
      "340C",
      "340C",
      "341C",
      "340C",
      "340C",
      "340C",
      "340C",
      "340C",
      "340C",
      "341C",
      "341C",
      "341C",
      "340C",
      "340C",
      "340C",
      "340C",
      "340C",
      "340",
      "335",
      "325",
      "320C",
      "320C",
      "320C",
      "320C",
      "320C",
      "320C",
      "320C",
      "320C",
      "320C",
      "320C",
      "320C",
      "320C",
      "320C",
      "320C",
      "320C",
      "320C",
      "320C",
      "320C",
      "320C",
      "320C",
      "320C",
      "320C",
      "320C",
      "320C",
      "320C",
      "320C",
      "320C",
      "320C",
      "320C",
      "320C",
      "320C",
      "320C",
      "320C",
      "320C",
      "320C",
      "320C",
      "320C",
      "320C",
      "320C",
      "320C",
      "320C",
      "320C",
      "320C",
      "320C",
      "320C",
      "320C",
      "319C",
      "320C",
      "319C",
      "320C",
      "320C",
      "320C",
      "320C",
      "320C",
      "320C",
      "320C",
      "320C",
      "320C",
      "320C",
      "320C",
      "320C",
      "320C",
      "320C",
      "320C",
      "320C",
      "320C",
      "320C",
      "320C",
      "320C",
      "320C",
      "320C",
      "320C",
      "320C",
      "320C",
      "320C",
      "320C",
      "320C",
      "320C",
      "320C",
      "320C",
      "320C",
      "320C",
      "320C",
      "320C",
      "320C",
      "320C",
      "320C",
      "320C",
      "320C",
      "320C",
      "320C",
      "320C",
      "320C",
      "320",
      "320",
      "320",
      "309",
      "283",
      "266",
      "259",
      "239",
      "237",
      "222",
      "221",
      "201",
      "183",
      "165",
      "148",
      "130",
      "115",
      "106",
      "106",
      "095",
      "094",
      "084",
      "082",
      "073",
      "073",
      "067",
      "065",
      "057",
      "055",
      "050",
      "049",
      "036",
      "034",
      "024",
      "022",
      "016",
      "015",
      "009",
      "007",
      "001"
    ],
    "swim:geom": "path",
    "swim:speeds": [
      188,
      183,
      218,
      267,
      274,
      283,
      331,
      352,
      355,
      366,
      375,
      388,
      396,
      402,
      415,
      419,
      452,
      460,
      465,
      474,
      488,
      493,
      491,
      491,
      492,
      492,
      492,
      464,
      471,
      462,
      460,
      461,
      460,
      461,
      460,
      459,
      460,
      459,
      459,
      458,
      459,
      458,
      459,
      458,
      458,
      459,
      459,
      460,
      459,
      459,
      460,
      461,
      460,
      461,
      460,
      461,
      461,
      460,
      460,
      460,
      460,
      460,
      459,
      459,
      458,
      458,
      457,
      458,
      457,
      457,
      456,
      457,
      458,
      460,
      459,
      458,
      457,
      457,
      456,
      456,
      458,
      459,
      460,
      459,
      459,
      460,
      460,
      460,
      460,
      460,
      460,
      461,
      460,
      460,
      461,
      461,
      461,
      461,
      463,
      462,
      463,
      463,
      464,
      465,
      465,
      466,
      465,
      467,
      466,
      467,
      466,
      468,
      467,
      469,
      468,
      470,
      469,
      469,
      469,
      469,
      469,
      470,
      469,
      470,
      470,
      470,
      469,
      469,
      468,
      467,
      468,
      467,
      467,
      466,
      466,
      466,
      466,
      466,
      465,
      465,
      464,
      464,
      462,
      461,
      462,
      461,
      462,
      462,
      462,
      460,
      458,
      456,
      454,
      457,
      456,
      459,
      464,
      465,
      465,
      466,
      467,
      474,
      476,
      482,
      482,
      487,
      486,
      487,
      486,
      486,
      486,
      476,
      477,
      475,
      475,
      476,
      475,
      476,
      475,
      475,
      475,
      475,
      473,
      473,
      471,
      471,
      469,
      469,
      466,
      467,
      464,
      465,
      463,
      464,
      458,
      458,
      454,
      452,
      449,
      448,
      445,
      446,
      444,
      445,
      444,
      445,
      444,
      444,
      444,
      444,
      444,
      444,
      445,
      445,
      445,
      446,
      447,
      447,
      446,
      445,
      445,
      445,
      445,
      446,
      447,
      447,
      446,
      445,
      443,
      442,
      441,
      441,
      441,
      440,
      440,
      439,
      438,
      439,
      436,
      439,
      435,
      436,
      433,
      431,
      433,
      430,
      430,
      430,
      429,
      431,
      432,
      434,
      435,
      437,
      439,
      440,
      440,
      441,
      440,
      440,
      439,
      435,
      436,
      434,
      434,
      436,
      436,
      438,
      440,
      439,
      439,
      440,
      440,
      440,
      441,
      446,
      440,
      442,
      439,
      440,
      438,
      439,
      438,
      439,
      439,
      440,
      440,
      440,
      440,
      440,
      440,
      440,
      439,
      439,
      437,
      438,
      437,
      437,
      436,
      437,
      436,
      437,
      437,
      437,
      437,
      438,
      439,
      439,
      439,
      438,
      437,
      436,
      435,
      433,
      433,
      432,
      433,
      432,
      433,
      434,
      434,
      437,
      437,
      439,
      439,
      440,
      439,
      439,
      438,
      438,
      438,
      437,
      438,
      439,
      440,
      425,
      441,
      440,
      439,
      437,
      438,
      437,
      439,
      438,
      439,
      437,
      438,
      438,
      438,
      439,
      441,
      438,
      442,
      441,
      441,
      439,
      438,
      439,
      437,
      435,
      431,
      429,
      428,
      428,
      427,
      427,
      427,
      427,
      427,
      427,
      427,
      427,
      427,
      427,
      427,
      427,
      427,
      426,
      426,
      425,
      425,
      425,
      426,
      426,
      426,
      425,
      424,
      424,
      423,
      423,
      423,
      424,
      424,
      425,
      427,
      427,
      427,
      427,
      427,
      414,
      427,
      423,
      427,
      424,
      426,
      424,
      425,
      424,
      425,
      424,
      425,
      424,
      425,
      427,
      426,
      427,
      427,
      427,
      427,
      427,
      427,
      427,
      427,
      428,
      428,
      428,
      429,
      429,
      429,
      430,
      430,
      430,
      431,
      431,
      431,
      430,
      430,
      430,
      429,
      429,
      429,
      440,
      443,
      442,
      442,
      440,
      436,
      435,
      434,
      434,
      434,
      435,
      436,
      437,
      438,
      439,
      439,
      439,
      439,
      431,
      433,
      412,
      417,
      386,
      390,
      379,
      367,
      357,
      343,
      338,
      324,
      271,
      276,
      244,
      249,
      237,
      241,
      232,
      237,
      235,
      232,
      227,
      231,
      231,
      229,
      229,
      232,
      184,
      182,
      135,
      139,
      142,
      139,
      133
    ],
    "swim:timestamps": [
      1785502617,
      1785502627,
      1785502677,
      1785502737,
      1785502797,
      1785502857,
      1785502917,
      1785502977,
      1785503037,
      1785503097,
      1785503157,
      1785503218,
      1785503278,
      1785503338,
      1785503398,
      1785503458,
      1785503578,
      1785503638,
      1785503698,
      1785503758,
      1785503819,
      1785503879,
      1785503939,
      1785503999,
      1785504016,
      1785504059,
      1785504076,
      1785504119,
      1785504136,
      1785504179,
      1785504196,
      1785504239,
      1785504256,
      1785504299,
      1785504316,
      1785504359,
      1785504376,
      1785504420,
      1785504436,
      1785504480,
      1785504497,
      1785504540,
      1785504557,
      1785504600,
      1785504617,
      1785504660,
      1785504677,
      1785504720,
      1785504737,
      1785504777,
      1785504797,
      1785504837,
      1785504857,
      1785504897,
      1785504917,
      1785504957,
      1785504977,
      1785505018,
      1785505037,
      1785505078,
      1785505097,
      1785505138,
      1785505157,
      1785505198,
      1785505278,
      1785505318,
      1785505338,
      1785505378,
      1785505398,
      1785505458,
      1785505518,
      1785505578,
      1785505638,
      1785505698,
      1785505758,
      1785505818,
      1785505878,
      1785505938,
      1785505999,
      1785506059,
      1785506119,
      1785506179,
      1785506213,
      1785506239,
      1785506273,
      1785506299,
      1785506333,
      1785506359,
      1785506393,
      1785506419,
      1785506453,
      1785506479,
      1785506513,
      1785506539,
      1785506573,
      1785506599,
      1785506633,
      1785506660,
      1785506693,
      1785506720,
      1785506753,
      1785506780,
      1785506813,
      1785506840,
      1785506874,
      1785506900,
      1785506934,
      1785506960,
      1785506994,
      1785507020,
      1785507054,
      1785507080,
      1785507114,
      1785507140,
      1785507174,
      1785507200,
      1785507234,
      1785507260,
      1785507294,
      1785507320,
      1785507354,
      1785507381,
      1785507414,
      1785507441,
      1785507474,
      1785507501,
      1785507534,
      1785507561,
      1785507595,
      1785507621,
      1785507655,
      1785507681,
      1785507715,
      1785507741,
      1785507775,
      1785507801,
      1785507835,
      1785507861,
      1785507895,
      1785507921,
      1785507955,
      1785507981,
      1785508015,
      1785508075,
      1785508114,
      1785508135,
      1785508174,
      1785508195,
      1785508234,
      1785508255,
      1785508315,
      1785508376,
      1785508435,
      1785508496,
      1785508556,
      1785508616,
      1785508676,
      1785508712,
      1785508724,
      1785508772,
      1785508784,
      1785508832,
      1785508844,
      1785508892,
      1785508904,
      1785508952,
      1785508964,
      1785509012,
      1785509024,
      1785509072,
      1785509084,
      1785509133,
      1785509145,
      1785509193,
      1785509253,
      1785509265,
      1785509313,
      1785509325,
      1785509373,
      1785509385,
      1785509433,
      1785509445,
      1785509493,
      1785509505,
      1785509553,
      1785509565,
      1785509613,
      1785509625,
      1785509673,
      1785509685,
      1785509733,
      1785509745,
      1785509793,
      1785509806,
      1785509854,
      1785509866,
      1785509914,
      1785509926,
      1785509974,
      1785509986,
      1785510046,
      1785510094,
      1785510106,
      1785510154,
      1785510166,
      1785510214,
      1785510226,
      1785510274,
      1785510286,
      1785510334,
      1785510346,
      1785510394,
      1785510406,
      1785510454,
      1785510467,
      1785510527,
      1785510587,
      1785510647,
      1785510707,
      1785510767,
      1785510827,
      1785510887,
      1785510947,
      1785511007,
      1785511067,
      1785511128,
      1785511188,
      1785511248,
      1785511308,
      1785511368,
      1785511428,
      1785511488,
      1785511548,
      1785511608,
      1785511668,
      1785511716,
      1785511729,
      1785511776,
      1785511789,
      1785511837,
      1785511849,
      1785511897,
      1785511909,
      1785511969,
      1785512017,
      1785512029,
      1785512077,
      1785512137,
      1785512209,
      1785512269,
      1785512317,
      1785512329,
      1785512377,
      1785512390,
      1785512438,
      1785512450,
      1785512498,
      1785512510,
      1785512558,
      1785512570,
      1785512618,
      1785512690,
      1785512738,
      1785512750,
      1785512810,
      1785512858,
      1785512870,
      1785512918,
      1785512930,
      1785512978,
      1785513001,
      1785513039,
      1785513062,
      1785513099,
      1785513111,
      1785513122,
      1785513159,
      1785513182,
      1785513219,
      1785513242,
      1785513279,
      1785513302,
      1785513339,
      1785513362,
      1785513399,
      1785513422,
      1785513459,
      1785513482,
      1785513519,
      1785513542,
      1785513579,
      1785513602,
      1785513640,
      1785513662,
      1785513700,
      1785513722,
      1785513760,
      1785513783,
      1785513820,
      1785513843,
      1785513880,
      1785513903,
      1785513940,
      1785513963,
      1785514000,
      1785514023,
      1785514060,
      1785514083,
      1785514143,
      1785514203,
      1785514241,
      1785514263,
      1785514323,
      1785514361,
      1785514383,
      1785514421,
      1785514443,
      1785514481,
      1785514504,
      1785514541,
      1785514564,
      1785514601,
      1785514624,
      1785514661,
      1785514684,
      1785514721,
      1785514744,
      1785514781,
      1785514804,
      1785514842,
      1785514864,
      1785514902,
      1785514962,
      1785514984,
      1785515082,
      1785515096,
      1785515164,
      1785515225,
      1785515262,
      1785515337,
      1785515345,
      1785515397,
      1785515465,
      1785515517,
      1785515525,
      1785515577,
      1785515585,
      1785515645,
      1785515705,
      1785515765,
      1785515825,
      1785515877,
      1785515885,
      1785515945,
      1785515998,
      1785516058,
      1785516126,
      1785516178,
      1785516246,
      1785516306,
      1785516366,
      1785516418,
      1785516478,
      1785516486,
      1785516546,
      1785516606,
      1785516666,
      1785516727,
      1785516779,
      1785516787,
      1785516847,
      1785516907,
      1785516967,
      1785517019,
      1785517027,
      1785517079,
      1785517087,
      1785517139,
      1785517199,
      1785517259,
      1785517267,
      1785517319,
      1785517379,
      1785517439,
      1785517500,
      1785517560,
      1785517620,
      1785517680,
      1785517740,
      1785517800,
      1785517860,
      1785517920,
      1785517980,
      1785518040,
      1785518100,
      1785518160,
      1785518221,
      1785518281,
      1785518341,
      1785518379,
      1785518401,
      1785518439,
      1785518461,
      1785518499,
      1785518521,
      1785518560,
      1785518581,
      1785518620,
      1785518641,
      1785518680,
      1785518701,
      1785518740,
      1785518761,
      1785518800,
      1785518821,
      1785518860,
      1785518881,
      1785518920,
      1785518941,
      1785518980,
      1785519002,
      1785519040,
      1785519062,
      1785519100,
      1785519122,
      1785519160,
      1785519194,
      1785519233,
      1785519254,
      1785519293,
      1785519314,
      1785519374,
      1785519413,
      1785519434,
      1785519473,
      1785519494,
      1785519533,
      1785519554,
      1785519614,
      1785519653,
      1785519674,
      1785519735,
      1785519795,
      1785519833,
      1785519855,
      1785519894,
      1785519954,
      1785520014,
      1785520074,
      1785520134,
      1785520194,
      1785520254,
      1785520314,
      1785520374,
      1785520434,
      1785520494,
      1785520554,
      1785520615,
      1785520675,
      1785520710,
      1785520735,
      1785520782,
      1785520795,
      1785520843,
      1785520855,
      1785520915,
      1785520975,
      1785521035,
      1785521083,
      1785521155,
      1785521215,
      1785521262,
      1785521276,
      1785521323,
      1785521336,
      1785521377,
      1785521396,
      1785521443,
      1785521456,
      1785521497,
      1785521516,
      1785521557,
      1785521576,
      1785521618,
      1785521636,
      1785521677,
      1785521696,
      1785521737,
      1785521756,
      1785521797,
      1785521816,
      1785521857,
      1785521876,
      1785521936
    ],
    "wof:geomhash": "6bb6b72000cc0f7fd13ebd7f154e8c1b",
    "wof:id": 2032046139,
    "wof:repo": "sfomuseum-data-flights-2026-07"
  },
  "bbox": [
    -122.35916666666667,
    36.49861111111111,
    -75.27972222222222,
    39.91972222222222
  ],
  "geometry": {"coordinates":[[-75.27972222222222,39.86],[-75.3,39.85],[-75.34944444444444,39.843333333333334],[-75.43805555555556,39.85611111111111],[-75.53888888888889,39.88333333333333],[-75.63444444444445,39.90833333333333],[-75.74527777777777,39.91638888888889],[-75.87222222222222,39.913888888888884],[-76.00138888888888,39.91138888888889],[-76.135,39.90833333333333],[-76.26861111111111,39.91027777777778],[-76.4113888888889,39.913333333333334],[-76.53277777777778,39.91583333333333],[-76.68166666666667,39.91833333333333],[-76.83083333333333,39.91888888888889],[-77.00638888888889,39.91972222222222],[-77.3111111111111,39.845555555555556],[-77.46361111111112,39.79833333333333],[-77.62083333333332,39.74916666666667],[-77.76583333333333,39.68527777777778],[-77.89333333333335,39.593611111111116],[-78.01944444444445,39.50361111111111],[-78.14777777777779,39.41083333333333],[-78.28083333333333,39.31527777777777],[-78.31777777777778,39.288333333333334],[-78.40805555555556,39.224444444444444],[-78.44833333333334,39.19833333333333],[-78.55777777777777,39.16638888888889],[-78.60583333333332,39.15611111111111],[-78.71416666666667,39.12861111111111],[-78.76166666666667,39.11694444444444],[-78.86138888888888,39.093333333333334],[-78.91805555555555,39.07944444444445],[-79.02722222222222,39.05305555555555],[-79.06638888888888,39.04388888888889],[-79.18361111111112,39.015277777777776],[-79.22944444444444,39.00388888888889],[-79.33833333333332,38.977222222222224],[-79.38388888888889,38.96611111111111],[-79.49416666666667,38.93888888888888],[-79.53972222222222,38.927499999999995],[-79.6325,38.904444444444444],[-79.69250000000001,38.88972222222222],[-79.81722222222221,38.85861111111111],[-79.85,38.85027777777778],[-79.97472222222223,38.81888888888889],[-80.00527777777778,38.81111111111111],[-80.1286111111111,38.78],[-80.15944444444445,38.77222222222222],[-80.28277777777778,38.740833333333335],[-80.31555555555555,38.7325],[-80.43972222222223,38.70055555555556],[-80.47027777777778,38.69277777777778],[-80.59472222222222,38.660555555555554],[-80.62666666666667,38.65222222222222],[-80.74694444444445,38.62111111111111],[-80.78333333333333,38.611666666666665],[-80.90166666666667,38.58083333333334],[-80.9363888888889,38.57166666666667],[-81.05777777777777,38.54222222222222],[-81.09305555555555,38.53666666666666],[-81.21666666666667,38.52166666666667],[-81.25555555555556,38.51722222222222],[-81.37777777777777,38.50277777777778],[-81.5775,38.478611111111114],[-81.69694444444445,38.46416666666667],[-81.74222222222222,38.45861111111111],[-81.85444444444444,38.44499999999999],[-81.90111111111112,38.439166666666665],[-82.06333333333333,38.41916666666666],[-82.22305555555556,38.399166666666666],[-82.38416666666667,38.37861111111111],[-82.54333333333334,38.35805555555556],[-82.70527777777778,38.33722222222222],[-82.86472222222221,38.316111111111105],[-83.01777777777778,38.295833333333334],[-83.1763888888889,38.27472222222222],[-83.33388888888888,38.25333333333333],[-83.49333333333334,38.231388888888894],[-83.65083333333334,38.20944444444445],[-83.80777777777777,38.1875],[-83.9675,38.165],[-84.06611111111111,38.151111111111106],[-84.12638888888888,38.14222222222222],[-84.22333333333333,38.12722222222222],[-84.28555555555555,38.119166666666665],[-84.38333333333334,38.10472222222222],[-84.44722222222222,38.09583333333334],[-84.55138888888888,38.07972222222222],[-84.60444444444444,38.07277777777778],[-84.70138888888889,38.0575],[-84.76305555555555,38.049166666666665],[-84.8425,38.0375],[-84.92305555555556,38.025277777777774],[-85.00194444444445,38.01416666666667],[-85.08166666666666,38.00111111111111],[-85.15944444444445,37.98861111111111],[-85.2461111111111,37.976111111111116],[-85.34083333333332,37.96138888888889],[-85.41027777777778,37.950833333333335],[-85.51222222222222,37.934999999999995],[-85.57083333333333,37.92583333333333],[-85.67194444444445,37.91],[-85.73277777777778,37.900277777777774],[-85.8325,37.88444444444444],[-85.8938888888889,37.87444444444444],[-85.99277777777777,37.85861111111111],[-86.05638888888889,37.84861111111111],[-86.15305555555557,37.83277777777778],[-86.21805555555555,37.822500000000005],[-86.31361111111111,37.806666666666665],[-86.37777777777777,37.79611111111111],[-86.47333333333333,37.78055555555555],[-86.53722222222223,37.769999999999996],[-86.63472222222222,37.75388888888889],[-86.70583333333333,37.74194444444444],[-86.79694444444445,37.72666666666667],[-86.86666666666666,37.715],[-86.95611111111111,37.7],[-87.02916666666667,37.6875],[-87.11749999999999,37.6725],[-87.19277777777778,37.65972222222222],[-87.27361111111111,37.645833333333336],[-87.34027777777777,37.634166666666665],[-87.43916666666667,37.617222222222225],[-87.50194444444445,37.60611111111111],[-87.59416666666667,37.59],[-87.65916666666668,37.578611111111115],[-87.75694444444444,37.561388888888885],[-87.81777777777778,37.55083333333333],[-87.91472222222222,37.53333333333333],[-87.97638888888889,37.5225],[-88.07166666666666,37.50527777777778],[-88.13305555555554,37.494166666666665],[-88.23027777777779,37.47666666666667],[-88.29388888888889,37.46527777777778],[-88.38777777777779,37.448055555555555],[-88.44916666666667,37.43694444444444],[-88.545,37.41916666666666],[-88.5975,37.409444444444446],[-88.70194444444445,37.390277777777776],[-88.75472222222223,37.38166666666667],[-88.86166666666666,37.376666666666665],[-89.02194444444444,37.36944444444445],[-89.10638888888889,37.365833333333335],[-89.18111111111112,37.362500000000004],[-89.26916666666666,37.358333333333334],[-89.34333333333333,37.355000000000004],[-89.43194444444445,37.35111111111111],[-89.5038888888889,37.34777777777778],[-89.66083333333334,37.34166666666667],[-89.81944444444444,37.33583333333333],[-89.9786111111111,37.32888888888889],[-90.13055555555555,37.301944444444445],[-90.2863888888889,37.26583333333333],[-90.43388888888889,37.223333333333336],[-90.58666666666666,37.17166666666667],[-90.67222222222223,37.13944444444444],[-90.70305555555557,37.12833333333333],[-90.82833333333333,37.08222222222223],[-90.85111111111111,37.073888888888895],[-90.97944444444444,37.026944444444446],[-91.00083333333333,37.0175],[-91.11388888888888,36.95638888888889],[-91.1438888888889,36.94],[-91.26166666666667,36.87638888888889],[-91.28999999999999,36.861111111111114],[-91.40305555555557,36.8],[-91.42888888888889,36.78611111111111],[-91.54222222222222,36.7275],[-91.57305555555556,36.716944444444444],[-91.70166666666667,36.69194444444444],[-91.73111111111112,36.68666666666666],[-91.86444444444444,36.67305555555555],[-92.02972222222222,36.66111111111111],[-92.06222222222222,36.659166666666664],[-92.18555555555555,36.65138888888889],[-92.22583333333334,36.64888888888889],[-92.35027777777778,36.63777777777778],[-92.38777777777779,36.63388888888889],[-92.51305555555555,36.621944444444445],[-92.55111111111111,36.61833333333333],[-92.6713888888889,36.606944444444444],[-92.71666666666667,36.60444444444445],[-92.83472222222221,36.600833333333334],[-92.8786111111111,36.59916666666667],[-92.99277777777777,36.59666666666667],[-93.02722222222222,36.59722222222222],[-93.15222222222222,36.59916666666667],[-93.18694444444445,36.60138888888889],[-93.31222222222222,36.609722222222224],[-93.34527777777777,36.612500000000004],[-93.46888888888888,36.62416666666667],[-93.4975,36.62694444444445],[-93.62388888888889,36.644999999999996],[-93.65611111111112,36.64972222222222],[-93.77388888888889,36.66611111111111],[-93.80833333333334,36.670833333333334],[-93.92583333333334,36.68805555555555],[-93.9575,36.69305555555555],[-94.10944444444443,36.71611111111111],[-94.2238888888889,36.73722222222222],[-94.25527777777778,36.74527777777778],[-94.36972222222222,36.774166666666666],[-94.40361111111112,36.782777777777774],[-94.515,36.81111111111111],[-94.55,36.82027777777778],[-94.66611111111112,36.84638888888889],[-94.6975,36.849722222222226],[-94.81972222222223,36.85305555555556],[-94.84972222222221,36.85333333333333],[-94.97194444444445,36.85416666666667],[-95.00527777777778,36.85444444444445],[-95.12638888888888,36.855000000000004],[-95.16055555555556,36.855000000000004],[-95.31472222222222,36.855555555555554],[-95.46972222222223,36.855555555555554],[-95.62416666666665,36.85583333333334],[-95.7775,36.855555555555554],[-95.93138888888889,36.85527777777778],[-96.08444444444444,36.85472222222222],[-96.23916666666666,36.85388888888889],[-96.39277777777778,36.85277777777778],[-96.54777777777778,36.85166666666667],[-96.70416666666667,36.85027777777778],[-96.85944444444443,36.84861111111111],[-97.01305555555555,36.846944444444446],[-97.17166666666667,36.844722222222224],[-97.32583333333334,36.8425],[-97.47916666666667,36.84027777777778],[-97.63055555555555,36.83777777777778],[-97.78361111111111,36.835],[-97.93805555555556,36.831944444444446],[-98.09027777777777,36.82888888888889],[-98.24138888888889,36.82555555555556],[-98.34555555555555,36.822500000000005],[-98.39444444444445,36.82194444444445],[-98.4961111111111,36.819722222222225],[-98.55694444444444,36.81805555555556],[-98.64666666666668,36.816111111111105],[-98.70611111111111,36.814166666666665],[-98.82444444444444,36.81027777777778],[-98.85555555555555,36.809999999999995],[-99.00305555555556,36.80611111111111],[-99.12083333333332,36.80305555555555],[-99.15111111111112,36.80166666666666],[-99.2675,36.79833333333333],[-99.41611111111112,36.79416666666666],[-99.59638888888888,36.7875],[-99.74444444444444,36.782222222222224],[-99.86444444444444,36.778055555555554],[-99.89666666666668,36.776944444444446],[-100.02027777777778,36.77222222222222],[-100.04694444444445,36.771388888888886],[-100.16861111111112,36.766666666666666],[-100.20138888888889,36.765277777777776],[-100.32277777777777,36.760555555555555],[-100.35499999999999,36.75944444444445],[-100.47916666666667,36.75416666666667],[-100.505,36.75333333333333],[-100.59666666666666,36.74944444444444],[-100.80805555555555,36.74027777777778],[-100.89888888888889,36.736111111111114],[-100.95583333333333,36.73361111111111],[-101.10666666666665,36.72666666666667],[-101.20055555555555,36.72222222222222],[-101.25888888888889,36.71944444444445],[-101.34833333333333,36.71527777777778],[-101.41166666666668,36.71222222222222],[-101.50472222222223,36.7075],[-101.565,36.70388888888889],[-101.65666666666667,36.69972222222222],[-101.7175,36.69638888888888],[-101.80833333333334,36.69194444444444],[-101.86916666666666,36.68888888888888],[-101.87055555555555,36.68888888888888],[-101.96277777777777,36.683611111111105],[-102.0213888888889,36.68055555555555],[-102.11472222222221,36.675555555555555],[-102.17472222222223,36.67222222222222],[-102.26583333333333,36.66694444444444],[-102.3261111111111,36.66361111111111],[-102.41555555555556,36.65861111111111],[-102.47472222222223,36.655],[-102.58027777777778,36.64888888888889],[-102.64,36.64527777777778],[-102.73194444444445,36.64],[-102.79194444444444,36.63611111111111],[-102.88555555555556,36.63055555555555],[-102.94444444444444,36.62694444444445],[-103.03694444444444,36.62111111111111],[-103.09444444444443,36.617777777777775],[-103.18666666666667,36.611666666666665],[-103.2475,36.6075],[-103.33722222222222,36.60194444444445],[-103.39666666666668,36.59777777777778],[-103.48583333333333,36.591944444444444],[-103.5475,36.58777777777778],[-103.6363888888889,36.581944444444446],[-103.69666666666667,36.57777777777778],[-103.78555555555555,36.57166666666667],[-103.84666666666666,36.5675],[-103.93583333333333,36.56111111111111],[-104.00055555555555,36.556666666666665],[-104.08555555555554,36.550555555555555],[-104.15166666666667,36.545833333333334],[-104.23472222222222,36.54],[-104.30277777777778,36.535],[-104.4525,36.52361111111111],[-104.60277777777777,36.51222222222222],[-104.68083333333334,36.506388888888885],[-104.75083333333333,36.50083333333333],[-104.90916666666668,36.49861111111111],[-104.97666666666667,36.50694444444444],[-105.05416666666666,36.51777777777777],[-105.12277777777777,36.527499999999996],[-105.20166666666667,36.538888888888884],[-105.26944444444445,36.54833333333333],[-105.34416666666667,36.55888888888889],[-105.41777777777779,36.56916666666667],[-105.49,36.57916666666667],[-105.58416666666666,36.592222222222226],[-105.64277777777778,36.60027777777778],[-105.73722222222223,36.61333333333334],[-105.79388888888889,36.62111111111111],[-105.88944444444445,36.634166666666665],[-105.94944444444445,36.64222222222222],[-106.04222222222222,36.654444444444444],[-106.09861111111111,36.66222222222222],[-106.18194444444445,36.67444444444444],[-106.25111111111111,36.68555555555555],[-106.33027777777778,36.698055555555555],[-106.47416666666666,36.72027777777778],[-106.53611111111111,36.730000000000004],[-106.77416666666666,36.76611111111111],[-106.79527777777777,36.771388888888886],[-106.98555555555555,36.79805555555556],[-107.13277777777778,36.82],[-107.2225,36.833333333333336],[-107.39583333333334,36.85916666666667],[-107.43,36.86361111111111],[-107.5461111111111,36.88055555555555],[-107.7286111111111,36.90694444444444],[-107.84472222222222,36.92305555555555],[-107.87944444444443,36.92833333333333],[-107.99583333333334,36.945277777777775],[-108.02722222222222,36.94916666666666],[-108.17527777777778,36.969722222222224],[-108.32555555555555,36.99055555555556],[-108.47555555555556,37.01111111111111],[-108.62722222222222,37.031666666666666],[-108.74694444444445,37.0475],[-108.77805555555555,37.052499999999995],[-108.92416666666666,37.087500000000006],[-109.04194444444444,37.1175],[-109.18694444444445,37.153055555555554],[-109.35722222222222,37.1975],[-109.47777777777777,37.22666666666667],[-109.64555555555556,37.26972222222222],[-109.78861111111111,37.305277777777775],[-109.93138888888889,37.34055555555556],[-110.0675,37.37388888888889],[-110.21083333333334,37.40861111111111],[-110.21555555555555,37.41],[-110.35694444444444,37.44416666666666],[-110.50027777777778,37.47888888888889],[-110.67055555555557,37.51972222222222],[-110.81416666666667,37.553888888888885],[-110.92361111111111,37.57777777777778],[-110.9575,37.58416666666667],[-111.10305555555556,37.611666666666665],[-111.2475,37.638888888888886],[-111.39277777777778,37.66583333333333],[-111.50527777777778,37.68666666666666],[-111.54055555555556,37.69305555555555],[-111.65027777777779,37.713055555555556],[-111.68611111111112,37.719722222222224],[-111.79777777777778,37.74027777777778],[-111.94194444444445,37.76611111111111],[-112.08527777777778,37.79194444444444],[-112.12249999999999,37.79861111111111],[-112.23222222222222,37.81805555555556],[-112.37666666666667,37.843611111111116],[-112.52083333333333,37.86888888888889],[-112.66583333333334,37.89388888888889],[-112.81027777777777,37.91916666666666],[-112.95361111111112,37.94333333333333],[-113.09833333333333,37.96805555555556],[-113.24333333333334,37.9925],[-113.3863888888889,38.01611111111111],[-113.56055555555555,38.04527777777778],[-113.7063888888889,38.06916666666667],[-113.85333333333332,38.093333333333334],[-114.00111111111111,38.11416666666667],[-114.15083333333334,38.114444444444445],[-114.3025,38.11222222222222],[-114.45194444444445,38.10944444444445],[-114.60222222222221,38.10666666666667],[-114.75166666666667,38.10388888888889],[-114.84944444444444,38.10055555555556],[-114.90222222222222,38.10055555555556],[-114.99972222222222,38.098333333333336],[-115.05111111111111,38.097500000000004],[-115.14916666666667,38.095],[-115.20194444444445,38.09388888888889],[-115.29944444444445,38.09138888888889],[-115.32027777777778,38.090833333333336],[-115.44805555555556,38.087500000000006],[-115.47694444444444,38.08694444444445],[-115.56861111111111,38.084722222222226],[-115.62638888888888,38.08277777777778],[-115.71833333333333,38.08083333333334],[-115.77833333333334,38.07833333333333],[-115.89805555555556,38.07472222222223],[-115.92861111111111,38.073888888888895],[-116.04888888888888,38.07],[-116.07833333333333,38.06916666666667],[-116.20027777777779,38.06527777777777],[-116.22944444444444,38.06444444444444],[-116.35,38.06027777777778],[-116.38111111111111,38.05916666666666],[-116.50277777777778,38.055],[-116.53166666666667,38.05416666666667],[-116.65472222222223,38.04944444444444],[-116.68111111111112,38.04861111111111],[-116.80388888888889,38.04388888888889],[-116.83527777777778,38.04277777777778],[-116.92666666666668,38.03916666666667],[-117.01611111111112,38.03583333333333],[-117.11,38.032222222222224],[-117.1725,38.029444444444444],[-117.32972222222222,38.022777777777776],[-117.42305555555556,38.01888888888889],[-117.48111111111112,38.01638888888889],[-117.57638888888889,38.01222222222222],[-117.635,38.00944444444445],[-117.72722222222222,38.00527777777778],[-117.78583333333333,38.00194444444445],[-117.93388888888889,37.986111111111114],[-118.02777777777777,37.97638888888889],[-118.0825,37.96333333333334],[-118.1913888888889,37.88111111111111],[-118.26805555555555,37.77305555555555],[-118.31611111111111,37.70638888888889],[-118.34416666666667,37.66722222222222],[-118.39777777777779,37.60472222222222],[-118.53333333333333,37.55638888888888],[-118.68333333333334,37.56666666666667],[-118.83416666666666,37.57916666666667],[-118.98416666666667,37.59166666666667],[-119.13555555555556,37.60388888888889],[-119.28138888888888,37.61555555555556],[-119.43416666666667,37.6275],[-119.58805555555556,37.63944444444444],[-119.74166666666667,37.651111111111106],[-119.8938888888889,37.6625],[-120.04944444444445,37.67388888888889],[-120.20222222222222,37.684999999999995],[-120.35555555555555,37.69555555555555],[-120.45,37.7],[-120.50583333333333,37.68722222222222],[-120.65,37.666666666666664],[-120.65194444444445,37.67027777777778],[-120.78333333333333,37.65],[-120.78999999999999,37.653888888888886],[-120.92222222222223,37.63805555555555],[-121.04722222222222,37.62166666666667],[-121.17111111111112,37.605000000000004],[-121.28333333333333,37.583333333333336],[-121.40083333333334,37.57694444444445],[-121.51416666666667,37.56361111111111],[-121.61666666666666,37.55],[-121.6125,37.55222222222222],[-121.7,37.53333333333333],[-121.69722222222222,37.53333333333333],[-121.76666666666667,37.516666666666666],[-121.79138888888889,37.51111111111111],[-121.85,37.5],[-121.85722222222222,37.49527777777778],[-121.93333333333334,37.5],[-121.93694444444445,37.49472222222222],[-122,37.5],[-122.01777777777778,37.49916666666667],[-122.08333333333333,37.5],[-122.09305555555555,37.50388888888889],[-122.15,37.53333333333333],[-122.16861111111112,37.534166666666664],[-122.21666666666667,37.55],[-122.23055555555555,37.56027777777778],[-122.26666666666667,37.583333333333336],[-122.275,37.57888888888889],[-122.31666666666666,37.6],[-122.32027777777778,37.59805555555556],[-122.35916666666667,37.614444444444445]],"type":"LineString"}
}
