{
  "id": 2031982809,
  "type": "Feature",
  "properties": {
    "geom:area": 0,
    "geom:bbox": "-122.500000,35.121389,-120.334167,37.647222",
    "geom:latitude": 36.36629696756645,
    "geom:longitude": -121.27916809700108,
    "src:alt_label": "swim-path",
    "src:geom": "swim",
    "swim:altitudes": [
      "009",
      "034",
      "045",
      "075",
      "108",
      "123",
      "143",
      "166",
      "187",
      "212",
      "230C",
      "230C",
      "230",
      "230",
      "230",
      "230",
      "221",
      "211",
      "202C",
      "199",
      "189",
      "172",
      "153",
      "124",
      "110",
      "094",
      "077",
      "070C",
      "061",
      "060",
      "061",
      "061",
      "060",
      "055",
      "051",
      "051",
      "050",
      "050",
      "050",
      "045",
      "039",
      "031",
      "030",
      "023",
      "018",
      "015",
      "010",
      "007",
      "002"
    ],
    "swim:geom": "path",
    "swim:speeds": [
      143,
      150,
      235,
      277,
      290,
      346,
      374,
      381,
      391,
      389,
      380,
      377,
      379,
      378,
      373,
      376,
      379,
      385,
      385,
      343,
      334,
      326,
      323,
      310,
      306,
      300,
      295,
      293,
      288,
      285,
      283,
      244,
      232,
      212,
      209,
      197,
      194,
      196,
      197,
      197,
      202,
      192,
      174,
      145,
      142,
      136,
      135,
      129,
      127
    ],
    "swim:timestamps": [
      1785087867,
      1785087927,
      1785087987,
      1785088043,
      1785088107,
      1785088167,
      1785088227,
      1785088287,
      1785088347,
      1785088408,
      1785088468,
      1785088528,
      1785088648,
      1785088708,
      1785088770,
      1785088828,
      1785088888,
      1785088948,
      1785089008,
      1785089130,
      1785089189,
      1785089249,
      1785089311,
      1785089429,
      1785089491,
      1785089549,
      1785089609,
      1785089669,
      1785089731,
      1785089750,
      1785089789,
      1785089850,
      1785089858,
      1785089910,
      1785089924,
      1785089970,
      1785089984,
      1785090030,
      1785090039,
      1785090099,
      1785090150,
      1785090210,
      1785090225,
      1785090285,
      1785090332,
      1785090339,
      1785090390,
      1785090399,
      1785090452
    ],
    "wof:geomhash": "da45c0d417b84fe6f909a4af6109f6aa",
    "wof:id": 2031982809,
    "wof:repo": "sfomuseum-data-flights-2026-07"
  },
  "bbox": [
    -122.5,
    35.12138888888889,
    -120.33416666666666,
    37.64722222222222
  ],
  "geometry": {"coordinates":[[-122.39,37.6275],[-122.4375,37.64722222222222],[-122.47333333333333,37.60861111111111],[-122.5,37.53333333333333],[-122.465,37.463055555555556],[-122.38472222222222,37.39833333333333],[-122.29444444444444,37.324444444444445],[-122.20111111111112,37.24805555555556],[-122.1061111111111,37.17027777777778],[-122.0125,37.09305555555556],[-121.92027777777778,37.01694444444444],[-121.82944444444443,36.94194444444444],[-121.65111111111112,36.79361111111111],[-121.56,36.717777777777776],[-121.47833333333334,36.64472222222222],[-121.38,36.566944444444445],[-121.28972222222222,36.490833333333335],[-121.19833333333334,36.413888888888884],[-121.11055555555555,36.33305555555556],[-120.95944444444444,36.18555555555555],[-120.88388888888889,36.11138888888889],[-120.81305555555555,36.04194444444444],[-120.745,35.975],[-120.60833333333333,35.84],[-120.54472222222222,35.776944444444446],[-120.4775,35.71027777777778],[-120.46305555555556,35.63111111111111],[-120.46000000000001,35.55138888888889],[-120.44027777777778,35.47166666666667],[-120.42972222222222,35.43944444444444],[-120.41305555555556,35.394444444444446],[-120.39027777777778,35.32916666666667],[-120.3875,35.316111111111105],[-120.37055555555555,35.270833333333336],[-120.36555555555555,35.253055555555555],[-120.35277777777777,35.21666666666667],[-120.34777777777778,35.20166666666667],[-120.33833333333332,35.17166666666667],[-120.33416666666666,35.15361111111111],[-120.37277777777777,35.12305555555555],[-120.41972222222223,35.12138888888889],[-120.47638888888889,35.14361111111111],[-120.49861111111112,35.156666666666666],[-120.54333333333334,35.18111111111111],[-120.5675,35.195277777777775],[-120.57694444444444,35.19916666666666],[-120.60111111111111,35.21472222222223],[-120.6125,35.219722222222224],[-120.63944444444445,35.23638888888889]],"type":"LineString"}
}
