{
  "id": 2032039479,
  "type": "Feature",
  "properties": {
    "geom:area": 0,
    "geom:bbox": "-122.400556,37.633333,-70.966667,42.746944",
    "geom:latitude": 40.577816334220046,
    "geom:longitude": -96.45537111699987,
    "src:alt_label": "swim-path",
    "src:geom": "swim",
    "swim:altitudes": [
      "006",
      "020",
      "032",
      "037",
      "042",
      "049",
      "071",
      "092",
      "109",
      "119",
      "133",
      "148",
      "162",
      "175",
      "199",
      "233",
      "243",
      "254",
      "263",
      "271",
      "279",
      "294",
      "300",
      "307",
      "310C",
      "311",
      "319",
      "330C",
      "330C",
      "330C",
      "330C",
      "330C",
      "330C",
      "330C",
      "330C",
      "330C",
      "330C",
      "330C",
      "330C",
      "330C",
      "330C",
      "330C",
      "330C",
      "330C",
      "330C",
      "330C",
      "330C",
      "330C",
      "330C",
      "330C",
      "330C",
      "330C",
      "330C",
      "330C",
      "330C",
      "330C",
      "330C",
      "330C",
      "330C",
      "330C",
      "330C",
      "330C",
      "330C",
      "330C",
      "330C",
      "330C",
      "330C",
      "330C",
      "330C",
      "330C",
      "330C",
      "330C",
      "330C",
      "330C",
      "330C",
      "330C",
      "330C",
      "330C",
      "330C",
      "330C",
      "330C",
      "330C",
      "330C",
      "330C",
      "330C",
      "330C",
      "330C",
      "330C",
      "330C",
      "330C",
      "330C",
      "330C",
      "330C",
      "330C",
      "330C",
      "330C",
      "330C",
      "330C",
      "330C",
      "330C",
      "330C",
      "330C",
      "330C",
      "330C",
      "330C",
      "330C",
      "330C",
      "330C",
      "330C",
      "330C",
      "330C",
      "330C",
      "330C",
      "330C",
      "330C",
      "330C",
      "330C",
      "330C",
      "330C",
      "330C",
      "330C",
      "330C",
      "330C",
      "330C",
      "330C",
      "330C",
      "330C",
      "330C",
      "330C",
      "330C",
      "330C",
      "330C",
      "330C",
      "330C",
      "330C",
      "330C",
      "330C",
      "330C",
      "330C",
      "330C",
      "330C",
      "330C",
      "330C",
      "330C",
      "330C",
      "330C",
      "330C",
      "330C",
      "330C",
      "330C",
      "330C",
      "330C",
      "330C",
      "330C",
      "330C",
      "330C",
      "330C",
      "330C",
      "330C",
      "330C",
      "330C",
      "330C",
      "330C",
      "330C",
      "330C",
      "330C",
      "330C",
      "330C",
      "330C",
      "330C",
      "330C",
      "330C",
      "330C",
      "330C",
      "330C",
      "330C",
      "330C",
      "330C",
      "330C",
      "330C",
      "330C",
      "330C",
      "330C",
      "330C",
      "330C",
      "330C",
      "330C",
      "330C",
      "330C",
      "330C",
      "330C",
      "330C",
      "330C",
      "330C",
      "330C",
      "330C",
      "330C",
      "330C",
      "330C",
      "330C",
      "330C",
      "330C",
      "330C",
      "330C",
      "330C",
      "330C",
      "330C",
      "330C",
      "330C",
      "330C",
      "330C",
      "330C",
      "330C",
      "330C",
      "330C",
      "330C",
      "330C",
      "330C",
      "330C",
      "330C",
      "330C",
      "330C",
      "330C",
      "330C",
      "330C",
      "330C",
      "330C",
      "330C",
      "330C",
      "330C",
      "330C",
      "330C",
      "330C",
      "330C",
      "330C",
      "330C",
      "330C",
      "330C",
      "330C",
      "330C",
      "330C",
      "330C",
      "330C",
      "330C",
      "330C",
      "330C",
      "330C",
      "330C",
      "330C",
      "330C",
      "330C",
      "330C",
      "330C",
      "330C",
      "330C",
      "330C",
      "330C",
      "330C",
      "330C",
      "330C",
      "330C",
      "330C",
      "330C",
      "330C",
      "330C",
      "330",
      "331",
      "334",
      "341",
      "348C",
      "350C",
      "350C",
      "350C",
      "350C",
      "350C",
      "350C",
      "350C",
      "350C",
      "350C",
      "350C",
      "350C",
      "350C",
      "350C",
      "350C",
      "350C",
      "350C",
      "350C",
      "350C",
      "350C",
      "350C",
      "350C",
      "350C",
      "350C",
      "350C",
      "350C",
      "350C",
      "350C",
      "350C",
      "350C",
      "350C",
      "350C",
      "350C",
      "350C",
      "350C",
      "350C",
      "350C",
      "350C",
      "350C",
      "350C",
      "350C",
      "350C",
      "350C",
      "350C",
      "350C",
      "350C",
      "350C",
      "350C",
      "350C",
      "350C",
      "350C",
      "350C",
      "350C",
      "350C",
      "350C",
      "350C",
      "350C",
      "350C",
      "350C",
      "350C",
      "350C",
      "350C",
      "350C",
      "350C",
      "350C",
      "350C",
      "350C",
      "350C",
      "350C",
      "350C",
      "350C",
      "350C",
      "350C",
      "350C",
      "350C",
      "350C",
      "350C",
      "350C",
      "350C",
      "350C",
      "350C",
      "350C",
      "350C",
      "350C",
      "350C",
      "350C",
      "350C",
      "350C",
      "350C",
      "350C",
      "350C",
      "350C",
      "350C",
      "350C",
      "350C",
      "350C",
      "350C",
      "349",
      "339",
      "328",
      "318",
      "307",
      "297",
      "287",
      "277",
      "268",
      "258",
      "241",
      "225",
      "201",
      "188",
      "182",
      "163",
      "145",
      "127",
      "117",
      "102",
      "092",
      "079",
      "071",
      "063",
      "059",
      "050",
      "041",
      "030",
      "030",
      "027",
      "019",
      "011",
      "003",
      "002"
    ],
    "swim:geom": "path",
    "swim:speeds": [
      172,
      194,
      202,
      220,
      256,
      276,
      285,
      297,
      312,
      350,
      358,
      369,
      379,
      391,
      412,
      437,
      445,
      456,
      456,
      471,
      482,
      487,
      496,
      496,
      507,
      509,
      514,
      506,
      510,
      512,
      514,
      515,
      515,
      515,
      514,
      512,
      511,
      511,
      511,
      511,
      510,
      510,
      510,
      510,
      510,
      509,
      509,
      509,
      508,
      507,
      505,
      503,
      501,
      499,
      498,
      498,
      499,
      500,
      501,
      502,
      502,
      502,
      502,
      502,
      502,
      502,
      502,
      504,
      503,
      504,
      502,
      502,
      502,
      502,
      502,
      501,
      501,
      501,
      502,
      502,
      502,
      503,
      504,
      505,
      506,
      506,
      507,
      506,
      506,
      507,
      507,
      507,
      507,
      507,
      506,
      506,
      505,
      505,
      505,
      505,
      505,
      505,
      504,
      504,
      505,
      505,
      505,
      506,
      507,
      508,
      510,
      512,
      515,
      517,
      518,
      520,
      520,
      521,
      520,
      520,
      519,
      517,
      517,
      518,
      519,
      519,
      518,
      517,
      516,
      515,
      514,
      514,
      513,
      512,
      511,
      511,
      510,
      509,
      509,
      508,
      508,
      507,
      506,
      506,
      505,
      505,
      503,
      502,
      500,
      501,
      500,
      500,
      500,
      500,
      500,
      500,
      500,
      501,
      501,
      501,
      501,
      502,
      502,
      503,
      503,
      503,
      502,
      501,
      500,
      500,
      499,
      499,
      498,
      497,
      496,
      495,
      495,
      495,
      495,
      495,
      495,
      496,
      497,
      498,
      499,
      501,
      502,
      504,
      505,
      506,
      510,
      507,
      509,
      508,
      509,
      508,
      508,
      507,
      507,
      507,
      507,
      507,
      507,
      506,
      506,
      505,
      505,
      505,
      505,
      504,
      504,
      504,
      503,
      503,
      502,
      502,
      501,
      500,
      499,
      498,
      497,
      497,
      497,
      496,
      495,
      494,
      493,
      492,
      490,
      489,
      489,
      488,
      487,
      487,
      487,
      487,
      487,
      487,
      484,
      483,
      483,
      482,
      482,
      482,
      481,
      481,
      481,
      480,
      480,
      479,
      479,
      479,
      479,
      479,
      479,
      479,
      480,
      481,
      482,
      483,
      484,
      484,
      484,
      483,
      482,
      481,
      481,
      481,
      482,
      480,
      479,
      478,
      479,
      480,
      480,
      479,
      478,
      478,
      475,
      475,
      474,
      472,
      472,
      470,
      470,
      469,
      469,
      468,
      469,
      467,
      468,
      467,
      468,
      467,
      468,
      467,
      468,
      467,
      468,
      468,
      469,
      468,
      469,
      468,
      468,
      468,
      466,
      465,
      463,
      463,
      461,
      459,
      457,
      457,
      458,
      458,
      461,
      463,
      465,
      465,
      461,
      459,
      459,
      458,
      457,
      457,
      457,
      456,
      454,
      454,
      453,
      445,
      408,
      410,
      414,
      415,
      415,
      424,
      455,
      457,
      456,
      454,
      453,
      453,
      453,
      455,
      455,
      457,
      457,
      457,
      457,
      455,
      452,
      452,
      453,
      453,
      455,
      459,
      462,
      465,
      466,
      470,
      471,
      472,
      474,
      474,
      475,
      478,
      480,
      480,
      472,
      464,
      458,
      457,
      455,
      451,
      437,
      428,
      412,
      398,
      394,
      382,
      372,
      366,
      340,
      331,
      303,
      296,
      295,
      294,
      257,
      246,
      225,
      201,
      186,
      171,
      163,
      150,
      150,
      150
    ],
    "swim:timestamps": [
      1785441748,
      1785441791,
      1785441821,
      1785441852,
      1785441881,
      1785441912,
      1785441972,
      1785442032,
      1785442092,
      1785442152,
      1785442212,
      1785442272,
      1785442332,
      1785442392,
      1785442513,
      1785442693,
      1785442753,
      1785442813,
      1785442877,
      1785442937,
      1785442993,
      1785443117,
      1785443173,
      1785443237,
      1785443294,
      1785443354,
      1785443418,
      1785443478,
      1785443534,
      1785443598,
      1785443658,
      1785443718,
      1785443778,
      1785443838,
      1785443895,
      1785443955,
      1785444019,
      1785444079,
      1785444135,
      1785444199,
      1785444255,
      1785444319,
      1785444379,
      1785444439,
      1785444499,
      1785444559,
      1785444619,
      1785444679,
      1785444740,
      1785444800,
      1785444860,
      1785444920,
      1785444980,
      1785445040,
      1785445100,
      1785445160,
      1785445220,
      1785445280,
      1785445340,
      1785445400,
      1785445460,
      1785445521,
      1785445581,
      1785445641,
      1785445701,
      1785445761,
      1785445821,
      1785445843,
      1785445881,
      1785445903,
      1785445941,
      1785445963,
      1785446001,
      1785446023,
      1785446061,
      1785446083,
      1785446121,
      1785446143,
      1785446181,
      1785446203,
      1785446242,
      1785446264,
      1785446302,
      1785446324,
      1785446362,
      1785446384,
      1785446422,
      1785446444,
      1785446482,
      1785446504,
      1785446542,
      1785446564,
      1785446602,
      1785446624,
      1785446662,
      1785446684,
      1785446722,
      1785446744,
      1785446782,
      1785446804,
      1785446842,
      1785446864,
      1785446902,
      1785446924,
      1785446962,
      1785446985,
      1785447023,
      1785447045,
      1785447105,
      1785447165,
      1785447225,
      1785447285,
      1785447345,
      1785447405,
      1785447465,
      1785447525,
      1785447585,
      1785447645,
      1785447705,
      1785447766,
      1785447826,
      1785447886,
      1785447946,
      1785448006,
      1785448066,
      1785448126,
      1785448186,
      1785448246,
      1785448306,
      1785448366,
      1785448426,
      1785448487,
      1785448547,
      1785448619,
      1785448679,
      1785448739,
      1785448799,
      1785448859,
      1785448919,
      1785448979,
      1785449039,
      1785449099,
      1785449159,
      1785449219,
      1785449280,
      1785449340,
      1785449400,
      1785449460,
      1785449502,
      1785449520,
      1785449562,
      1785449580,
      1785449622,
      1785449640,
      1785449682,
      1785449700,
      1785449741,
      1785449760,
      1785449801,
      1785449820,
      1785449862,
      1785449880,
      1785449922,
      1785449940,
      1785449981,
      1785450001,
      1785450041,
      1785450061,
      1785450101,
      1785450121,
      1785450161,
      1785450222,
      1785450282,
      1785450342,
      1785450402,
      1785450462,
      1785450523,
      1785450583,
      1785450642,
      1785450702,
      1785450762,
      1785450822,
      1785450883,
      1785450943,
      1785451004,
      1785451064,
      1785451124,
      1785451184,
      1785451244,
      1785451304,
      1785451329,
      1785451364,
      1785451401,
      1785451425,
      1785451462,
      1785451485,
      1785451522,
      1785451545,
      1785451582,
      1785451605,
      1785451642,
      1785451665,
      1785451702,
      1785451725,
      1785451762,
      1785451784,
      1785451822,
      1785451844,
      1785451857,
      1785451882,
      1785451904,
      1785451917,
      1785451942,
      1785451964,
      1785451977,
      1785452003,
      1785452024,
      1785452063,
      1785452097,
      1785452123,
      1785452158,
      1785452183,
      1785452205,
      1785452243,
      1785452265,
      1785452303,
      1785452325,
      1785452363,
      1785452423,
      1785452445,
      1785452483,
      1785452505,
      1785452543,
      1785452565,
      1785452604,
      1785452625,
      1785452664,
      1785452685,
      1785452724,
      1785452745,
      1785452784,
      1785452805,
      1785452844,
      1785452866,
      1785452904,
      1785452926,
      1785452964,
      1785452986,
      1785453024,
      1785453046,
      1785453084,
      1785453106,
      1785453144,
      1785453166,
      1785453204,
      1785453226,
      1785453265,
      1785453286,
      1785453325,
      1785453346,
      1785453385,
      1785453406,
      1785453445,
      1785453466,
      1785453505,
      1785453527,
      1785453565,
      1785453587,
      1785453625,
      1785453685,
      1785453745,
      1785453805,
      1785453866,
      1785453926,
      1785453986,
      1785454046,
      1785454106,
      1785454166,
      1785454212,
      1785454226,
      1785454272,
      1785454286,
      1785454332,
      1785454346,
      1785454392,
      1785454406,
      1785454452,
      1785454467,
      1785454512,
      1785454527,
      1785454572,
      1785454587,
      1785454633,
      1785454647,
      1785454693,
      1785454707,
      1785454753,
      1785454767,
      1785454813,
      1785454827,
      1785454873,
      1785454887,
      1785454933,
      1785454947,
      1785454993,
      1785455007,
      1785455053,
      1785455068,
      1785455113,
      1785455128,
      1785455173,
      1785455233,
      1785455294,
      1785455354,
      1785455414,
      1785455474,
      1785455534,
      1785455594,
      1785455654,
      1785455714,
      1785455774,
      1785455834,
      1785455894,
      1785455955,
      1785456015,
      1785456075,
      1785456135,
      1785456195,
      1785456255,
      1785456315,
      1785456375,
      1785456435,
      1785456495,
      1785456555,
      1785456616,
      1785456676,
      1785456736,
      1785456796,
      1785456856,
      1785456916,
      1785456976,
      1785457036,
      1785457096,
      1785457156,
      1785457216,
      1785457272,
      1785457337,
      1785457392,
      1785457452,
      1785457517,
      1785457573,
      1785457633,
      1785457694,
      1785457754,
      1785457813,
      1785457874,
      1785457935,
      1785458055,
      1785458115,
      1785458173,
      1785458235,
      1785458294,
      1785458354,
      1785458414,
      1785458474,
      1785458534,
      1785458594,
      1785458654,
      1785458714,
      1785458774,
      1785458834,
      1785458894,
      1785458954,
      1785459015,
      1785459075,
      1785459135,
      1785459195,
      1785459255,
      1785459315,
      1785459355,
      1785459373,
      1785459433,
      1785459493,
      1785459555,
      1785459615,
      1785459675,
      1785459735,
      1785459796,
      1785459856,
      1785459913,
      1785459979,
      1785460036,
      1785460094,
      1785460156,
      1785460216,
      1785460276,
      1785460336,
      1785460396,
      1785460456,
      1785460516
    ],
    "wof:geomhash": "9a4e2cbfe984a9f2119ac21cf3a87dff",
    "wof:id": 2032039479,
    "wof:repo": "sfomuseum-data-flights-2026-07"
  },
  "bbox": [
    -122.40055555555556,
    37.63333333333333,
    -70.96666666666667,
    42.746944444444445
  ],
  "geometry": {"coordinates":[[-122.38333333333334,37.63333333333333],[-122.40055555555556,37.655833333333334],[-122.36666666666666,37.666666666666664],[-122.33472222222221,37.68111111111111],[-122.28333333333333,37.7],[-122.25138888888888,37.70666666666667],[-122.16250000000001,37.74388888888889],[-122.07444444444444,37.79],[-121.98444444444445,37.83388888888889],[-121.87694444444443,37.87638888888889],[-121.77222222222223,37.91777777777777],[-121.65777777777778,37.96333333333334],[-121.53666666666666,38.01083333333333],[-121.41472222222222,38.058611111111105],[-121.1588888888889,38.15833333333333],[-120.72666666666667,38.249722222222225],[-120.57388888888889,38.27111111111111],[-120.38416666666667,38.2975],[-120.22111111111111,38.31916666666667],[-120.05444444444444,38.34111111111111],[-119.885,38.365],[-119.54277777777777,38.4075],[-119.36999999999999,38.43222222222222],[-119.19583333333334,38.45388888888889],[-119.01833333333333,38.47666666666667],[-118.84083333333332,38.49888888888889],[-118.66083333333334,38.52055555555555],[-118.48611111111111,38.54222222222222],[-118.30555555555556,38.56388888888888],[-118.13083333333333,38.58444444444444],[-117.94861111111112,38.605555555555554],[-117.76916666666666,38.626111111111115],[-117.58777777777777,38.64666666666667],[-117.40916666666668,38.66694444444444],[-117.24861111111112,38.687777777777775],[-117.03583333333333,38.723888888888894],[-116.87555555555555,38.75111111111111],[-116.70083333333334,38.780277777777776],[-116.50333333333333,38.81305555555555],[-116.34305555555555,38.83916666666667],[-116.15027777777779,38.870555555555555],[-115.97472222222223,38.89888888888889],[-115.79722222222222,38.926944444444445],[-115.61916666666666,38.955000000000005],[-115.44222222222223,38.9825],[-115.26666666666667,39.00972222222222],[-115.08666666666666,39.036944444444444],[-114.90861111111111,39.06388888888888],[-114.73027777777779,39.09027777777778],[-114.55222222222221,39.11666666666667],[-114.37722222222222,39.1425],[-114.20055555555555,39.16777777777777],[-114.02583333333334,39.192499999999995],[-113.85083333333333,39.217222222222226],[-113.67333333333333,39.24194444444444],[-113.49722222222222,39.26638888888889],[-113.32111111111111,39.290277777777774],[-113.1438888888889,39.31777777777778],[-112.96972222222223,39.34666666666667],[-112.7925,39.376111111111115],[-112.61583333333333,39.405277777777776],[-112.44055555555556,39.433611111111105],[-112.26666666666667,39.46138888888889],[-112.09277777777777,39.488055555555555],[-111.91416666666667,39.51305555555555],[-111.73527777777778,39.538333333333334],[-111.55972222222222,39.562777777777775],[-111.4875,39.57277777777778],[-111.38083333333333,39.587500000000006],[-111.30944444444444,39.59722222222222],[-111.20194444444445,39.61194444444445],[-111.13388888888889,39.62138888888889],[-111.02416666666666,39.63611111111111],[-110.95527777777778,39.64527777777778],[-110.84583333333333,39.65972222222222],[-110.77694444444444,39.66888888888889],[-110.67027777777778,39.683055555555555],[-110.60083333333333,39.69194444444444],[-110.49027777777778,39.70611111111111],[-110.42111111111112,39.715],[-110.31333333333333,39.72888888888889],[-110.24305555555556,39.738055555555555],[-110.13222222222221,39.75194444444445],[-110.06027777777777,39.76083333333333],[-109.95,39.77472222222222],[-109.88083333333333,39.78333333333333],[-109.77222222222223,39.79666666666667],[-109.70083333333334,39.80555555555555],[-109.59166666666667,39.81888888888889],[-109.51666666666667,39.82777777777778],[-109.40861111111111,39.840833333333336],[-109.33722222222222,39.84916666666667],[-109.22611111111111,39.86222222222222],[-109.15583333333333,39.870555555555555],[-109.04583333333333,39.88333333333333],[-108.97416666666666,39.891666666666666],[-108.86305555555555,39.904444444444444],[-108.79027777777777,39.91305555555555],[-108.67916666666667,39.925555555555555],[-108.6061111111111,39.933611111111105],[-108.49638888888889,39.94583333333333],[-108.42722222222223,39.95333333333333],[-108.315,39.96555555555556],[-108.24472222222222,39.97361111111111],[-108.13416666666667,39.98527777777778],[-108.06138888888889,39.99333333333333],[-107.94166666666668,40.00333333333333],[-107.88027777777778,40.00666666666667],[-107.70138888888889,40.01611111111111],[-107.51527777777778,40.03055555555555],[-107.33,40.0575],[-107.14888888888889,40.08555555555556],[-106.96694444444445,40.114444444444445],[-106.78138888888888,40.14472222222222],[-106.60027777777778,40.17527777777777],[-106.43388888888889,40.19833333333333],[-106.22194444444445,40.22805555555556],[-106.05972222222222,40.25083333333333],[-105.87527777777777,40.269999999999996],[-105.68444444444445,40.28861111111111],[-105.49805555555555,40.30027777777777],[-105.31166666666667,40.31027777777778],[-105.12083333333332,40.321111111111115],[-104.93277777777779,40.331388888888895],[-104.74416666666667,40.34138888888889],[-104.5525,40.350833333333334],[-104.36416666666666,40.36027777777778],[-104.17666666666668,40.36888888888889],[-103.98944444444444,40.3775],[-103.79972222222221,40.38583333333333],[-103.61333333333333,40.39361111111111],[-103.42888888888889,40.40138888888889],[-103.24111111111111,40.40861111111111],[-103.05444444444444,40.415277777777774],[-102.83416666666666,40.42333333333333],[-102.64722222222223,40.42944444444444],[-102.45583333333333,40.43555555555555],[-102.27027777777778,40.44138888888889],[-102.08694444444444,40.446666666666665],[-101.93833333333333,40.45055555555556],[-101.71916666666667,40.45638888888889],[-101.53666666666666,40.46055555555556],[-101.35222222222221,40.46472222222223],[-101.16805555555555,40.468611111111116],[-100.98666666666666,40.47222222222222],[-100.80638888888889,40.47555555555556],[-100.62722222222222,40.47833333333333],[-100.44500000000001,40.48111111111111],[-100.3111111111111,40.48277777777778],[-100.26611111111112,40.483333333333334],[-100.12888888888888,40.485],[-100.08472222222221,40.48555555555556],[-99.93416666666667,40.48694444444445],[-99.86749999999999,40.487500000000004],[-99.7525,40.48861111111111],[-99.685,40.48888888888889],[-99.57722222222222,40.48916666666667],[-99.50194444444445,40.49027777777778],[-99.39333333333335,40.49111111111111],[-99.31805555555555,40.49111111111111],[-99.20444444444445,40.49166666666667],[-99.13527777777779,40.49166666666667],[-99.02083333333333,40.49194444444444],[-98.95222222222222,40.49194444444444],[-98.84277777777777,40.492222222222225],[-98.77,40.492222222222225],[-98.66000000000001,40.492222222222225],[-98.59055555555555,40.49194444444444],[-98.47888888888889,40.49166666666667],[-98.40611111111112,40.49111111111111],[-98.29027777777777,40.490833333333335],[-98.10111111111111,40.48972222222222],[-97.92722222222223,40.48861111111111],[-97.74833333333333,40.48694444444445],[-97.56472222222222,40.485],[-97.38777777777779,40.48277777777778],[-97.21388888888889,40.480555555555554],[-97.03333333333333,40.47805555555556],[-96.85388888888889,40.475],[-96.68666666666667,40.471944444444446],[-96.50638888888889,40.468611111111116],[-96.32583333333334,40.46472222222223],[-96.14333333333335,40.46055555555556],[-95.95916666666668,40.45611111111111],[-95.77277777777778,40.45138888888889],[-95.58916666666666,40.44611111111111],[-95.40611111111112,40.44083333333333],[-95.22638888888889,40.43555555555555],[-95.04027777777777,40.42944444444444],[-94.85749999999999,40.42333333333333],[-94.78222222222222,40.42055555555555],[-94.67194444444445,40.416666666666664],[-94.56194444444444,40.41277777777778],[-94.48555555555555,40.41],[-94.37638888888888,40.405833333333334],[-94.33888888888889,40.404444444444444],[-94.19333333333334,40.39861111111111],[-94.11805555555554,40.39555555555555],[-94.01027777777777,40.39083333333333],[-93.93388888888889,40.38777777777778],[-93.82277777777777,40.38305555555556],[-93.75027777777778,40.37972222222222],[-93.64222222222223,40.375],[-93.60499999999999,40.373333333333335],[-93.45861111111111,40.36638888888889],[-93.385,40.363055555555555],[-93.27638888888889,40.35777777777778],[-93.2,40.35416666666667],[-93.16583333333334,40.3525],[-93.0925,40.348888888888894],[-93.01833333333333,40.34527777777778],[-92.98388888888888,40.343333333333334],[-92.91111111111111,40.33972222222222],[-92.83222222222221,40.33555555555556],[-92.79944444444445,40.33388888888889],[-92.72972222222222,40.33027777777778],[-92.65166666666667,40.32611111111112],[-92.53972222222222,40.32],[-92.42333333333333,40.31361111111111],[-92.35166666666666,40.309444444444445],[-92.24472222222222,40.30361111111111],[-92.1725,40.29944444444444],[-92.10055555555554,40.29527777777778],[-91.99277777777777,40.28861111111111],[-91.92166666666667,40.28444444444444],[-91.81361111111111,40.27777777777778],[-91.74305555555556,40.27333333333333],[-91.63944444444445,40.26694444444444],[-91.46138888888889,40.255833333333335],[-91.38916666666667,40.25111111111111],[-91.2863888888889,40.24472222222222],[-91.21444444444445,40.24],[-91.10499999999999,40.2325],[-91.03888888888889,40.22805555555556],[-90.92944444444444,40.220555555555556],[-90.85638888888889,40.21527777777778],[-90.75472222222223,40.20916666666667],[-90.68138888888889,40.21472222222223],[-90.58333333333333,40.23555555555556],[-90.51555555555555,40.25083333333333],[-90.4175,40.272777777777776],[-90.35,40.28805555555555],[-90.24777777777778,40.31055555555555],[-90.18055555555556,40.32555555555556],[-90.08333333333333,40.34722222222222],[-90.01527777777778,40.36222222222222],[-89.91777777777779,40.38361111111111],[-89.84777777777778,40.39888888888889],[-89.75083333333333,40.42027777777778],[-89.68583333333333,40.43444444444444],[-89.58638888888889,40.45611111111111],[-89.51861111111111,40.470555555555556],[-89.42027777777778,40.49194444444444],[-89.35388888888889,40.50611111111111],[-89.2525,40.527499999999996],[-89.1863888888889,40.54138888888889],[-89.08361111111111,40.56333333333333],[-89.01583333333333,40.57777777777778],[-88.91583333333334,40.598888888888894],[-88.84722222222221,40.613055555555555],[-88.74638888888889,40.634166666666665],[-88.67527777777778,40.64888888888889],[-88.5761111111111,40.669444444444444],[-88.50583333333333,40.68388888888889],[-88.40722222222223,40.70416666666667],[-88.33694444444444,40.718611111111116],[-88.2075,40.745],[-88.16611111111112,40.75333333333333],[-88.03527777777778,40.779444444444444],[-87.8711111111111,40.8125],[-87.70305555555557,40.84583333333334],[-87.53305555555555,40.87916666666667],[-87.36416666666666,40.91222222222222],[-87.19444444444444,40.94499999999999],[-87.02555555555556,40.9775],[-86.85527777777777,41.00972222222222],[-86.67583333333334,41.04333333333333],[-86.50416666666666,41.07555555555556],[-86.40527777777778,41.09388888888889],[-86.33583333333333,41.106944444444444],[-86.23833333333333,41.124722222222225],[-86.17055555555557,41.13722222222222],[-86.07388888888889,41.15472222222222],[-86.0025,41.16777777777777],[-85.90361111111112,41.18555555555555],[-85.83777777777777,41.197222222222216],[-85.70611111111111,41.22083333333334],[-85.67055555555557,41.227222222222224],[-85.54166666666667,41.25],[-85.50305555555556,41.25694444444444],[-85.37222222222222,41.27972222222222],[-85.33944444444444,41.285555555555554],[-85.20861111111111,41.30833333333333],[-85.1725,41.31444444444444],[-85.03916666666666,41.337500000000006],[-85.00611111111111,41.34305555555556],[-84.87277777777777,41.365833333333335],[-84.83916666666666,41.37166666666667],[-84.70138888888889,41.394999999999996],[-84.67333333333333,41.39972222222222],[-84.53166666666667,41.42333333333333],[-84.50416666666666,41.42805555555555],[-84.36222222222221,41.45138888888889],[-84.33444444444444,41.45611111111111],[-84.21138888888889,41.47638888888889],[-84.16916666666667,41.483333333333334],[-84.045,41.50333333333333],[-83.99888888888889,41.51083333333333],[-83.87888888888888,41.530277777777776],[-83.83194444444445,41.53777777777778],[-83.71305555555556,41.556666666666665],[-83.55083333333333,41.58277777777778],[-83.38722222222223,41.608333333333334],[-83.22194444444445,41.63388888888889],[-83.05527777777777,41.659444444444446],[-82.88833333333334,41.684999999999995],[-82.71916666666667,41.71],[-82.54888888888888,41.73555555555556],[-82.38083333333333,41.76027777777778],[-82.20972222222223,41.78527777777778],[-82.03694444444444,41.81027777777778],[-81.86833333333333,41.83444444444444],[-81.69833333333334,41.85805555555556],[-81.53083333333333,41.88138888888889],[-81.36444444444444,41.904444444444444],[-81.19666666666667,41.92722222222222],[-81.02888888888889,41.95],[-80.86166666666666,41.972500000000004],[-80.69333333333334,41.994166666666665],[-80.52833333333334,42.01583333333333],[-80.36194444444443,42.036944444444444],[-80.19666666666667,42.059999999999995],[-80.06861111111111,42.12222222222222],[-79.94777777777779,42.19583333333333],[-79.82333333333332,42.27388888888889],[-79.705,42.34916666666667],[-79.58722222222222,42.424166666666665],[-79.46638888888889,42.49472222222222],[-79.3,42.515],[-79.1275,42.526666666666664],[-78.95833333333334,42.5375],[-78.79055555555556,42.54833333333333],[-78.61972222222222,42.558611111111105],[-78.45027777777779,42.568333333333335],[-78.28138888888888,42.57833333333333],[-78.11027777777777,42.588055555555556],[-77.94027777777778,42.597500000000004],[-77.77111111111111,42.60666666666667],[-77.60944444444443,42.61527777777778],[-77.42805555555556,42.62444444444444],[-77.26722222222222,42.63194444444444],[-77.0961111111111,42.64],[-76.93083333333334,42.64805555555556],[-76.76305555555555,42.65555555555555],[-76.58694444444444,42.66305555555555],[-76.40861111111111,42.67027777777778],[-76.23777777777778,42.67722222222222],[-75.89083333333333,42.690555555555555],[-75.71805555555555,42.696666666666665],[-75.54194444444444,42.7025],[-75.36472222222221,42.708333333333336],[-75.19083333333333,42.71388888888889],[-75.01277777777777,42.718611111111116],[-74.83583333333333,42.723888888888894],[-74.6575,42.72833333333333],[-74.47805555555556,42.7325],[-74.30055555555555,42.736666666666665],[-74.12027777777777,42.74138888888889],[-73.9113888888889,42.74472222222222],[-73.72972222222222,42.746944444444445],[-73.55416666666666,42.74472222222222],[-73.37972222222221,42.74305555555556],[-73.20694444444445,42.74166666666667],[-73.03138888888888,42.73111111111111],[-72.88333333333334,42.71416666666667],[-72.715,42.69416666666666],[-72.53861111111111,42.67305555555555],[-72.40722222222223,42.657222222222224],[-72.21972222222223,42.63472222222222],[-72.11666666666666,42.61666666666667],[-72.06666666666666,42.61666666666667],[-71.93333333333334,42.6],[-71.8,42.583333333333336],[-71.65555555555557,42.56027777777778],[-71.52944444444444,42.53722222222222],[-71.41055555555556,42.5125],[-71.30055555555555,42.49027777777778],[-71.19527777777778,42.469166666666666],[-71.11444444444444,42.41444444444444],[-71.03333333333333,42.35],[-70.96666666666667,42.28333333333333],[-70.9713888888889,42.22777777777778],[-71,42.166666666666664],[-71.0475,42.13194444444444],[-71.08305555555555,42.1725],[-71.07472222222222,42.22083333333334],[-71.05472222222222,42.26222222222222],[-71.03527777777778,42.30222222222222],[-71.01694444444445,42.340833333333336],[-70.99944444444445,42.37638888888889]],"type":"LineString"}
}
