{
  "id": 2032024931,
  "type": "Feature",
  "properties": {
    "geom:area": 0,
    "geom:bbox": "-122.399770,37.645130,-122.078960,38.487420",
    "geom:latitude": 38.02009447776365,
    "geom:longitude": -122.18116872260408,
    "src:alt_label": "swim-takeoff",
    "src:geom": "swim",
    "swim:elevations": [
      544,
      947,
      1231,
      1576,
      2229,
      2736,
      2864,
      3102,
      3270,
      3324,
      3617,
      4063,
      4251,
      4813,
      5360,
      5724,
      5822,
      6101,
      6287
    ],
    "swim:geom": "takeoff",
    "swim:timestamps": [
      1785334485,
      1785334511,
      1785334544,
      1785334588,
      1785334636,
      1785334672,
      1785334680,
      1785334697,
      1785334722,
      1785334731,
      1785334782,
      1785334829,
      1785334847,
      1785334909,
      1785334967,
      1785335007,
      1785335019,
      1785335050,
      1785335073
    ],
    "wof:geomhash": "d016588dac2981eb1ebfb290a19257ee",
    "wof:id": 2032024931,
    "wof:repo": "sfomuseum-data-flights-2026-07"
  },
  "bbox": [
    -122.39977,
    37.64513,
    -122.07896,
    38.48742
  ],
  "geometry": {"coordinates":[[-122.39977,37.64513],[-122.37762,37.65857],[-122.34247,37.67057],[-122.28369,37.69224],[-122.21864,37.72501],[-122.20607,37.77181],[-122.20398,37.78331],[-122.20004,37.80577],[-122.19417,37.84121],[-122.19215,37.85378],[-122.17852,37.9376],[-122.16512,38.01966],[-122.15923,38.05381],[-122.13895,38.16688],[-122.1181,38.27706],[-122.10317,38.35608],[-122.09906,38.3785],[-122.08761,38.44065],[-122.07896,38.48742]],"type":"LineString"}
}
