{
  "id": 2032010751,
  "type": "Feature",
  "properties": {
    "geom:area": 0,
    "geom:bbox": "-122.562080,36.726270,-122.181100,37.670880",
    "geom:latitude": 37.2227088825478,
    "geom:longitude": -122.46307992257621,
    "src:alt_label": "swim-takeoff",
    "src:geom": "swim",
    "swim:elevations": [
      152,
      598,
      850,
      1131,
      1188,
      1219,
      1219,
      1370,
      1685,
      1856,
      2506,
      2651,
      2852,
      3055,
      3530,
      3595,
      4021,
      4683,
      4913,
      5272,
      5719,
      6034,
      6298,
      6509,
      6587,
      6835,
      7135,
      7536,
      7615,
      7868,
      7910
    ],
    "swim:geom": "takeoff",
    "swim:timestamps": [
      1785271399,
      1785271430,
      1785271446,
      1785271482,
      1785271497,
      1785271526,
      1785271537,
      1785271574,
      1785271594,
      1785271605,
      1785271648,
      1785271658,
      1785271670,
      1785271680,
      1785271712,
      1785271726,
      1785271776,
      1785271826,
      1785271846,
      1785271877,
      1785271912,
      1785271943,
      1785271969,
      1785271988,
      1785271996,
      1785272021,
      1785272052,
      1785272094,
      1785272104,
      1785272128,
      1785272131
    ],
    "wof:geomhash": "2ae7b31db4786819e4a4c30acf9aee73",
    "wof:id": 2032010751,
    "wof:repo": "sfomuseum-data-flights-2026-07"
  },
  "bbox": [
    -122.56208,
    36.72627,
    -122.1811,
    37.67088
  ],
  "geometry": {"coordinates":[[-122.38953,37.62522],[-122.41544,37.63594],[-122.42879,37.64142],[-122.4618,37.65631],[-122.48007,37.66429],[-122.52021,37.67088],[-122.53526,37.66453],[-122.55855,37.62389],[-122.55747,37.59768],[-122.55762,37.58369],[-122.55864,37.52419],[-122.55873,37.51127],[-122.55886,37.494],[-122.55897,37.47883],[-122.55924,37.43337],[-122.5595,37.4129],[-122.56077,37.3282],[-122.56177,37.23706],[-122.56208,37.20089],[-122.55956,37.14361],[-122.51953,37.0832],[-122.4729,37.0348],[-122.43333,36.99317],[-122.40429,36.96278],[-122.39167,36.94952],[-122.35363,36.90958],[-122.30516,36.85868],[-122.23908,36.7892],[-122.22199,36.77118],[-122.18581,36.73136],[-122.1811,36.72627]],"type":"LineString"}
}
