{
  "id": 2032048969,
  "type": "Feature",
  "properties": {
    "geom:area": 0,
    "geom:bbox": "-122.417778,37.291111,-122.135556,37.611111",
    "geom:latitude": 37.43303748585824,
    "geom:longitude": -122.26490246853342,
    "src:alt_label": "swim-path",
    "src:geom": "swim",
    "swim:altitudes": [
      "061",
      "060",
      "060",
      "060",
      "060",
      "060",
      "040",
      "034",
      "034",
      "026",
      "017",
      "010",
      "009",
      "002"
    ],
    "swim:geom": "path",
    "swim:speeds": [
      251,
      253,
      254,
      252,
      252,
      251,
      205,
      189,
      194,
      174,
      165,
      149,
      152,
      138
    ],
    "swim:timestamps": [
      1785556868,
      1785556879,
      1785556928,
      1785556939,
      1785556999,
      1785557059,
      1785557239,
      1785557288,
      1785557299,
      1785557348,
      1785557419,
      1785557469,
      1785557479,
      1785557539
    ],
    "wof:geomhash": "1f26b02dd3d1415c9f0e1c45ef9a3fb1",
    "wof:id": 2032048969,
    "wof:repo": "sfomuseum-data-flights-2026-07"
  },
  "bbox": [
    -122.41777777777779,
    37.29111111111111,
    -122.13555555555556,
    37.611111111111114
  ],
  "geometry": {"coordinates":[[-122.41666666666667,37.36666666666667],[-122.41777777777779,37.359722222222224],[-122.41666666666667,37.3],[-122.41777777777779,37.29277777777778],[-122.335,37.29111111111111],[-122.2625,37.32555555555556],[-122.13555555555556,37.480000000000004],[-122.15,37.53333333333333],[-122.1575,37.526944444444446],[-122.2,37.55],[-122.26527777777778,37.575],[-122.3,37.6],[-122.30888888888889,37.593333333333334],[-122.35138888888888,37.611111111111114]],"type":"LineString"}
}
