{
  "id": 2031941869,
  "type": "Feature",
  "properties": {
    "geom:area": 0,
    "geom:bbox": "-122.200000,35.885833,-114.891667,37.696111",
    "geom:latitude": 37.09153847382833,
    "geom:longitude": -118.35553136532609,
    "src:alt_label": "swim-path",
    "src:geom": "swim",
    "swim:altitudes": [
      "047",
      "070",
      "090",
      "159",
      "178",
      "194",
      "226",
      "240",
      "255",
      "266",
      "277",
      "285",
      "295",
      "306",
      "320",
      "320",
      "320",
      "320",
      "320",
      "320",
      "320",
      "320",
      "320",
      "320C",
      "320C",
      "320C",
      "320C",
      "320C",
      "320C",
      "320C",
      "320C",
      "320C",
      "320C",
      "320C",
      "320C",
      "320C",
      "320C",
      "320",
      "320",
      "284",
      "243",
      "223",
      "184",
      "143",
      "127",
      "101",
      "076",
      "059",
      "035",
      "025"
    ],
    "swim:geom": "path",
    "swim:speeds": [
      222,
      248,
      268,
      372,
      381,
      393,
      411,
      414,
      422,
      431,
      439,
      441,
      459,
      467,
      476,
      479,
      480,
      479,
      479,
      479,
      478,
      462,
      460,
      460,
      459,
      458,
      458,
      458,
      457,
      455,
      454,
      454,
      453,
      453,
      453,
      452,
      453,
      453,
      451,
      423,
      398,
      382,
      363,
      358,
      354,
      307,
      263,
      220,
      197,
      189
    ],
    "swim:timestamps": [
      1784837113,
      1784837173,
      1784837233,
      1784837473,
      1784837533,
      1784837593,
      1784837714,
      1784837774,
      1784837834,
      1784837894,
      1784837954,
      1784838006,
      1784838066,
      1784838134,
      1784838246,
      1784838314,
      1784838366,
      1784838375,
      1784838435,
      1784838495,
      1784838546,
      1784838606,
      1784838666,
      1784838675,
      1784838795,
      1784838847,
      1784838855,
      1784838915,
      1784838975,
      1784839036,
      1784839087,
      1784839096,
      1784839156,
      1784839216,
      1784839267,
      1784839327,
      1784839508,
      1784839568,
      1784839628,
      1784839748,
      1784839868,
      1784839925,
      1784840045,
      1784840169,
      1784840229,
      1784840349,
      1784840465,
      1784840589,
      1784840706,
      1784840765
    ],
    "wof:geomhash": "782529fa91c74f1caaf40ed77649b51e",
    "wof:id": 2031941869,
    "wof:repo": "sfomuseum-data-flights-2026-07"
  },
  "bbox": [
    -122.2,
    35.88583333333333,
    -114.89166666666668,
    37.69611111111111
  ],
  "geometry": {"coordinates":[[-115.03,36.06777777777778],[-114.94722222222222,36.05472222222222],[-114.89166666666668,36.006388888888885],[-115.26055555555556,35.88583333333333],[-115.39305555555556,35.88805555555555],[-115.52805555555555,35.89],[-115.76888888888888,35.99583333333334],[-115.8775,36.05972222222222],[-116.00611111111111,36.13527777777778],[-116.1261111111111,36.20527777777778],[-116.24861111111112,36.277499999999996],[-116.33305555555555,36.35194444444445],[-116.44083333333333,36.4575],[-116.55888888888889,36.573055555555555],[-116.74805555555555,36.7575],[-116.87666666666667,36.88166666666667],[-116.96194444444444,36.96416666666667],[-116.98305555555555,36.984722222222224],[-117.08944444444444,37.08694444444445],[-117.19694444444445,37.189722222222215],[-117.28222222222222,37.271388888888886],[-117.4238888888889,37.325833333333335],[-117.58416666666666,37.348333333333336],[-117.61472222222221,37.3525],[-117.9,37.39111111111111],[-118.05805555555555,37.411944444444444],[-118.05805555555555,37.41222222222222],[-118.21694444444445,37.433055555555555],[-118.37527777777777,37.45388888888889],[-118.53055555555555,37.473888888888894],[-118.68694444444445,37.49388888888889],[-118.68694444444445,37.49388888888889],[-118.84333333333333,37.51361111111111],[-119.00055555555555,37.533055555555556],[-119.13388888888889,37.55],[-119.29055555555556,37.56916666666667],[-119.78194444444445,37.6275],[-119.93833333333333,37.64611111111111],[-120.09416666666667,37.66416666666667],[-120.39416666666668,37.69611111111111],[-120.67500000000001,37.66777777777777],[-120.8,37.65],[-121.06666666666666,37.61666666666667],[-121.31694444444445,37.58638888888889],[-121.41472222222222,37.57527777777778],[-121.64472222222223,37.54611111111111],[-121.85,37.5],[-122.00222222222222,37.50111111111111],[-122.15,37.516666666666666],[-122.2,37.55]],"type":"LineString"}
}
