{
  "id": 2031942247,
  "type": "Feature",
  "properties": {
    "geom:area": 0,
    "geom:bbox": "-122.351560,37.440850,-121.257510,37.611190",
    "geom:latitude": 37.53543213996167,
    "geom:longitude": -121.8120749214891,
    "src:alt_label": "swim-approach",
    "src:geom": "swim",
    "swim:elevations": [
      4683,
      4332,
      4259,
      4213,
      4034,
      3932,
      3747,
      3702,
      3645,
      3614,
      3562,
      3478,
      3242,
      3110,
      3048,
      2928,
      2789,
      2671,
      2569,
      2253,
      2192,
      2142,
      1951,
      1890,
      1704,
      1313,
      1158,
      1039,
      858,
      691,
      603,
      369,
      200,
      206,
      61
    ],
    "swim:geom": "approach",
    "swim:timestamps": [
      1784811991,
      1784812035,
      1784812057,
      1784812064,
      1784812099,
      1784812126,
      1784812161,
      1784812179,
      1784812193,
      1784812205,
      1784812214,
      1784812231,
      1784812273,
      1784812300,
      1784812327,
      1784812369,
      1784812394,
      1784812415,
      1784812433,
      1784812495,
      1784812506,
      1784812517,
      1784812550,
      1784812562,
      1784812597,
      1784812659,
      1784812700,
      1784812720,
      1784812756,
      1784812784,
      1784812808,
      1784812848,
      1784812886,
      1784812897,
      1784812937
    ],
    "wof:geomhash": "ba9057e5b7e64dc609ca8385158ec633",
    "wof:id": 2031942247,
    "wof:repo": "sfomuseum-data-flights-2026-07"
  },
  "bbox": [
    -122.35156,
    37.44085,
    -121.25751,
    37.61119
  ],
  "geometry": {"coordinates":[[-121.25751,37.59353],[-121.34724,37.58322],[-121.39068,37.57882],[-121.40375,37.57733],[-121.46504,37.56986],[-121.50928,37.56428],[-121.56493,37.55723],[-121.5919,37.55398],[-121.6128,37.55166],[-121.63031,37.54972],[-121.64357,37.55082],[-121.666,37.55874],[-121.72204,37.58167],[-121.75958,37.58083],[-121.78072,37.55812],[-121.79397,37.51248],[-121.80173,37.48524],[-121.80922,37.46358],[-121.82775,37.44954],[-121.91375,37.44182],[-121.92911,37.44085],[-121.94411,37.44165],[-121.98458,37.456],[-121.99894,37.46206],[-122.04239,37.48092],[-122.11529,37.51156],[-122.15619,37.52883],[-122.1758,37.53718],[-122.20909,37.55148],[-122.23423,37.56193],[-122.25497,37.57072],[-122.28642,37.58388],[-122.31497,37.59579],[-122.32283,37.59911],[-122.35156,37.61119]],"type":"LineString"}
}
