{
  "id": 2032037383,
  "type": "Feature",
  "properties": {
    "geom:area": 0,
    "geom:bbox": "-122.400000,37.633333,-73.600000,43.263611",
    "geom:latitude": 41.34334499029299,
    "geom:longitude": -97.87279343900359,
    "src:alt_label": "swim-path",
    "src:geom": "swim",
    "swim:altitudes": [
      "007",
      "022",
      "040",
      "060",
      "078",
      "097",
      "110",
      "122",
      "139",
      "153",
      "166",
      "178",
      "190",
      "204",
      "214",
      "222",
      "231",
      "241",
      "250",
      "258",
      "264",
      "266",
      "271",
      "273",
      "278",
      "280",
      "285",
      "286",
      "291",
      "293",
      "299",
      "306",
      "312",
      "313",
      "318",
      "321",
      "324",
      "326",
      "329C",
      "330C",
      "330C",
      "330C",
      "330C",
      "330C",
      "330C",
      "330C",
      "330C",
      "330C",
      "330C",
      "330C",
      "330C",
      "330C",
      "330C",
      "330C",
      "330C",
      "330C",
      "330C",
      "330C",
      "330C",
      "330C",
      "330C",
      "330C",
      "330C",
      "330C",
      "330C",
      "330C",
      "330C",
      "330C",
      "330C",
      "330C",
      "330C",
      "330C",
      "330C",
      "330C",
      "330C",
      "330C",
      "330C",
      "330C",
      "330C",
      "330C",
      "330C",
      "330C",
      "330C",
      "330C",
      "330C",
      "330C",
      "330C",
      "330C",
      "330C",
      "330C",
      "330C",
      "330C",
      "330C",
      "330C",
      "330C",
      "330C",
      "330C",
      "330C",
      "330C",
      "330C",
      "330C",
      "330C",
      "330C",
      "330C",
      "330C",
      "330C",
      "330C",
      "330C",
      "330C",
      "330C",
      "330C",
      "330C",
      "330C",
      "330C",
      "330C",
      "330C",
      "330C",
      "330C",
      "330C",
      "330C",
      "330C",
      "330C",
      "330C",
      "330C",
      "330C",
      "330C",
      "330C",
      "330C",
      "330C",
      "330C",
      "330C",
      "330C",
      "330C",
      "330C",
      "330C",
      "330C",
      "330C",
      "330C",
      "330C",
      "331",
      "338",
      "343",
      "349C",
      "350C",
      "350C",
      "350C",
      "350C",
      "350C",
      "350C",
      "350C",
      "350C",
      "350C",
      "350C",
      "350C",
      "350C",
      "350C",
      "350C",
      "350C",
      "350C",
      "350C",
      "350C",
      "350C",
      "350C",
      "350C",
      "350C",
      "350C",
      "350C",
      "350C",
      "350C",
      "350C",
      "350C",
      "350C",
      "350C",
      "350C",
      "350C",
      "350C",
      "350C",
      "350C",
      "350C",
      "350C",
      "350C",
      "350C",
      "350C",
      "350C",
      "350C",
      "350C",
      "350C",
      "350C",
      "350C",
      "350C",
      "350C",
      "350C",
      "350C",
      "350C",
      "350C",
      "350C",
      "350C",
      "350C",
      "350C",
      "350C",
      "350C",
      "350C",
      "350C",
      "350C",
      "350C",
      "350C",
      "350C",
      "350C",
      "350C",
      "350C",
      "350C",
      "350C",
      "350C",
      "350C",
      "350C",
      "350C",
      "350C",
      "350C",
      "350C",
      "350C",
      "350C",
      "350C",
      "350C",
      "350C",
      "350C",
      "350C",
      "350C",
      "350C",
      "350C",
      "350C",
      "350C",
      "350C",
      "350C",
      "350C",
      "350C",
      "350C",
      "350C",
      "350C",
      "350C",
      "350C",
      "350C",
      "350C",
      "350C",
      "350C",
      "350C",
      "350C",
      "350C",
      "350C",
      "350C",
      "350C",
      "350C",
      "350C",
      "350C",
      "350C",
      "350C",
      "350C",
      "350C",
      "350C",
      "350C",
      "350C",
      "350C",
      "350C",
      "350C",
      "350C",
      "350C",
      "350C",
      "350C",
      "350C",
      "350C",
      "350C",
      "350C",
      "350C",
      "350C",
      "350C",
      "350C",
      "350C",
      "350C",
      "350C",
      "350C",
      "350C",
      "350C",
      "350C",
      "350C",
      "350C",
      "350C",
      "350C",
      "350C",
      "350C",
      "350C",
      "350C",
      "350C",
      "350C",
      "350C",
      "350C",
      "350C",
      "350C",
      "350C",
      "350C",
      "350C",
      "350C",
      "350C",
      "350C",
      "350C",
      "350C",
      "350C",
      "350C",
      "350C",
      "350C",
      "350C",
      "350C",
      "350C",
      "350C",
      "350C",
      "350C",
      "350C",
      "350C",
      "350C",
      "350C",
      "350C",
      "350C",
      "350C",
      "350C",
      "350C",
      "350C",
      "350C",
      "350C",
      "350C",
      "350C",
      "350C",
      "350C",
      "350C",
      "350C",
      "350C",
      "350C",
      "350C",
      "350C",
      "350C",
      "350C",
      "350C",
      "350C",
      "350C",
      "350C",
      "350C",
      "350C",
      "350C",
      "350C",
      "350C",
      "350C",
      "350C",
      "350C",
      "350C",
      "350C",
      "350C",
      "350C",
      "350C",
      "350C",
      "350C",
      "350C",
      "350C",
      "350C",
      "350C",
      "350C",
      "350C",
      "350C",
      "350C",
      "350C",
      "350C",
      "350C",
      "350C",
      "350C",
      "350C",
      "350C",
      "350C",
      "350C",
      "350C",
      "350C",
      "350C",
      "350C",
      "350C",
      "350C",
      "350C",
      "350C",
      "350C",
      "350C",
      "350C",
      "350C",
      "350C",
      "350",
      "350",
      "350",
      "350",
      "350",
      "350",
      "350",
      "350",
      "350",
      "350",
      "350",
      "350",
      "347",
      "335",
      "317",
      "304",
      "294",
      "275",
      "252",
      "232C",
      "230",
      "230",
      "230",
      "230",
      "230",
      "217",
      "210",
      "197",
      "194",
      "191C",
      "190",
      "189C",
      "183",
      "172",
      "169",
      "155",
      "149",
      "137",
      "131",
      "118",
      "113",
      "102",
      "097",
      "084",
      "066",
      "061",
      "049",
      "043",
      "036",
      "033",
      "026",
      "023",
      "017",
      "014",
      "007",
      "006"
    ],
    "swim:geom": "path",
    "swim:speeds": [
      175,
      230,
      262,
      268,
      286,
      301,
      326,
      357,
      362,
      372,
      376,
      390,
      398,
      402,
      409,
      422,
      431,
      440,
      447,
      456,
      461,
      462,
      465,
      470,
      471,
      477,
      480,
      483,
      484,
      488,
      492,
      494,
      496,
      496,
      496,
      498,
      498,
      500,
      504,
      504,
      508,
      506,
      509,
      510,
      510,
      511,
      512,
      513,
      513,
      514,
      514,
      514,
      513,
      512,
      512,
      511,
      512,
      511,
      511,
      511,
      511,
      510,
      511,
      511,
      511,
      511,
      512,
      514,
      515,
      515,
      516,
      517,
      516,
      516,
      516,
      516,
      517,
      517,
      518,
      517,
      517,
      516,
      517,
      517,
      517,
      517,
      517,
      517,
      517,
      518,
      518,
      519,
      520,
      519,
      520,
      520,
      521,
      521,
      522,
      522,
      522,
      522,
      523,
      524,
      524,
      524,
      525,
      525,
      525,
      525,
      526,
      526,
      526,
      526,
      526,
      525,
      525,
      525,
      524,
      524,
      523,
      523,
      522,
      522,
      522,
      522,
      522,
      521,
      522,
      521,
      521,
      521,
      521,
      521,
      521,
      520,
      520,
      519,
      519,
      518,
      519,
      520,
      521,
      522,
      523,
      523,
      523,
      522,
      521,
      519,
      518,
      517,
      517,
      518,
      519,
      521,
      521,
      522,
      523,
      523,
      522,
      521,
      520,
      518,
      516,
      516,
      516,
      517,
      519,
      520,
      520,
      520,
      527,
      520,
      518,
      520,
      519,
      520,
      520,
      521,
      521,
      521,
      522,
      522,
      523,
      523,
      524,
      523,
      523,
      523,
      523,
      522,
      522,
      521,
      521,
      519,
      518,
      518,
      517,
      516,
      516,
      515,
      511,
      506,
      503,
      502,
      500,
      499,
      498,
      499,
      500,
      500,
      500,
      503,
      502,
      503,
      503,
      505,
      509,
      509,
      513,
      514,
      517,
      517,
      518,
      518,
      519,
      519,
      519,
      520,
      519,
      519,
      518,
      518,
      518,
      518,
      518,
      517,
      502,
      501,
      500,
      500,
      501,
      501,
      506,
      509,
      514,
      515,
      516,
      517,
      518,
      509,
      505,
      501,
      501,
      499,
      499,
      498,
      498,
      498,
      498,
      497,
      497,
      497,
      497,
      497,
      497,
      496,
      495,
      494,
      494,
      493,
      492,
      492,
      492,
      492,
      492,
      492,
      494,
      501,
      504,
      506,
      506,
      506,
      506,
      505,
      503,
      501,
      497,
      499,
      497,
      498,
      496,
      497,
      501,
      499,
      504,
      500,
      502,
      500,
      502,
      500,
      500,
      499,
      499,
      498,
      498,
      497,
      497,
      496,
      496,
      496,
      496,
      496,
      495,
      495,
      495,
      494,
      493,
      490,
      489,
      487,
      485,
      484,
      483,
      483,
      483,
      484,
      485,
      486,
      487,
      492,
      488,
      491,
      488,
      491,
      488,
      490,
      488,
      489,
      486,
      487,
      483,
      480,
      478,
      478,
      476,
      475,
      474,
      474,
      474,
      474,
      474,
      474,
      474,
      475,
      474,
      475,
      474,
      475,
      475,
      475,
      475,
      475,
      475,
      478,
      481,
      479,
      483,
      487,
      483,
      485,
      482,
      483,
      482,
      482,
      481,
      482,
      481,
      482,
      481,
      481,
      481,
      482,
      482,
      484,
      484,
      485,
      485,
      483,
      479,
      477,
      476,
      475,
      475,
      473,
      473,
      472,
      472,
      472,
      472,
      480,
      485,
      489,
      478,
      463,
      450,
      440,
      440,
      441,
      440,
      439,
      438,
      428,
      426,
      409,
      384,
      371,
      365,
      364,
      363,
      352,
      348,
      340,
      334,
      326,
      324,
      316,
      312,
      303,
      298,
      280,
      270,
      258,
      240,
      207,
      192,
      189,
      186,
      177,
      161,
      158,
      155
    ],
    "swim:timestamps": [
      1785478686,
      1785478750,
      1785478811,
      1785478871,
      1785478931,
      1785478991,
      1785479051,
      1785479111,
      1785479171,
      1785479231,
      1785479291,
      1785479351,
      1785479411,
      1785479471,
      1785479531,
      1785479591,
      1785479651,
      1785479711,
      1785479771,
      1785479831,
      1785479871,
      1785479891,
      1785479932,
      1785479951,
      1785479992,
      1785480011,
      1785480052,
      1785480071,
      1785480112,
      1785480132,
      1785480192,
      1785480252,
      1785480292,
      1785480312,
      1785480352,
      1785480372,
      1785480412,
      1785480432,
      1785480472,
      1785480492,
      1785480532,
      1785480552,
      1785480592,
      1785480652,
      1785480672,
      1785480712,
      1785480732,
      1785480772,
      1785480792,
      1785480852,
      1785480892,
      1785480912,
      1785480952,
      1785480972,
      1785481012,
      1785481032,
      1785481072,
      1785481092,
      1785481132,
      1785481152,
      1785481193,
      1785481212,
      1785481253,
      1785481272,
      1785481313,
      1785481332,
      1785481373,
      1785481433,
      1785481493,
      1785481553,
      1785481613,
      1785481673,
      1785481733,
      1785481793,
      1785481853,
      1785481913,
      1785481973,
      1785482033,
      1785482093,
      1785482153,
      1785482213,
      1785482273,
      1785482333,
      1785482393,
      1785482453,
      1785482514,
      1785482574,
      1785482634,
      1785482694,
      1785482754,
      1785482814,
      1785482874,
      1785482906,
      1785482934,
      1785482966,
      1785482994,
      1785483026,
      1785483054,
      1785483086,
      1785483114,
      1785483146,
      1785483174,
      1785483206,
      1785483234,
      1785483266,
      1785483294,
      1785483326,
      1785483354,
      1785483386,
      1785483414,
      1785483446,
      1785483474,
      1785483506,
      1785483534,
      1785483566,
      1785483594,
      1785483626,
      1785483654,
      1785483686,
      1785483714,
      1785483746,
      1785483774,
      1785483806,
      1785483835,
      1785483866,
      1785483895,
      1785483926,
      1785483955,
      1785483986,
      1785484015,
      1785484046,
      1785484075,
      1785484107,
      1785484135,
      1785484167,
      1785484195,
      1785484227,
      1785484287,
      1785484347,
      1785484407,
      1785484467,
      1785484527,
      1785484587,
      1785484647,
      1785484707,
      1785484767,
      1785484827,
      1785484887,
      1785484947,
      1785485007,
      1785485067,
      1785485127,
      1785485187,
      1785485247,
      1785485307,
      1785485367,
      1785485427,
      1785485487,
      1785485547,
      1785485607,
      1785485667,
      1785485727,
      1785485787,
      1785485847,
      1785485907,
      1785485967,
      1785486027,
      1785486087,
      1785486148,
      1785486208,
      1785486268,
      1785486328,
      1785486363,
      1785486388,
      1785486423,
      1785486448,
      1785486483,
      1785486508,
      1785486543,
      1785486568,
      1785486603,
      1785486628,
      1785486663,
      1785486688,
      1785486723,
      1785486748,
      1785486783,
      1785486808,
      1785486843,
      1785486868,
      1785486903,
      1785486928,
      1785486963,
      1785486988,
      1785487023,
      1785487083,
      1785487144,
      1785487204,
      1785487264,
      1785487324,
      1785487384,
      1785487444,
      1785487504,
      1785487564,
      1785487624,
      1785487684,
      1785487744,
      1785487804,
      1785487864,
      1785487924,
      1785487984,
      1785488044,
      1785488104,
      1785488119,
      1785488164,
      1785488224,
      1785488237,
      1785488298,
      1785488344,
      1785488359,
      1785488404,
      1785488419,
      1785488464,
      1785488479,
      1785488524,
      1785488537,
      1785488584,
      1785488599,
      1785488644,
      1785488660,
      1785488705,
      1785488717,
      1785488765,
      1785488778,
      1785488825,
      1785488838,
      1785488885,
      1785488898,
      1785488945,
      1785488958,
      1785489005,
      1785489017,
      1785489065,
      1785489077,
      1785489125,
      1785489137,
      1785489185,
      1785489197,
      1785489245,
      1785489258,
      1785489317,
      1785489365,
      1785489380,
      1785489425,
      1785489437,
      1785489485,
      1785489500,
      1785489545,
      1785489559,
      1785489605,
      1785489619,
      1785489665,
      1785489679,
      1785489725,
      1785489740,
      1785489785,
      1785489798,
      1785489845,
      1785489858,
      1785489918,
      1785489965,
      1785489978,
      1785490025,
      1785490039,
      1785490085,
      1785490099,
      1785490145,
      1785490158,
      1785490205,
      1785490218,
      1785490278,
      1785490340,
      1785490400,
      1785490460,
      1785490518,
      1785490581,
      1785490638,
      1785490698,
      1785490720,
      1785490758,
      1785490780,
      1785490818,
      1785490840,
      1785490880,
      1785490902,
      1785490940,
      1785490963,
      1785491001,
      1785491020,
      1785491061,
      1785491080,
      1785491121,
      1785491140,
      1785491179,
      1785491202,
      1785491239,
      1785491263,
      1785491299,
      1785491320,
      1785491359,
      1785491380,
      1785491421,
      1785491440,
      1785491480,
      1785491500,
      1785491540,
      1785491563,
      1785491600,
      1785491623,
      1785491660,
      1785491683,
      1785491743,
      1785491803,
      1785491863,
      1785491921,
      1785491981,
      1785492041,
      1785492101,
      1785492161,
      1785492222,
      1785492282,
      1785492317,
      1785492342,
      1785492377,
      1785492402,
      1785492438,
      1785492462,
      1785492498,
      1785492522,
      1785492558,
      1785492582,
      1785492618,
      1785492642,
      1785492678,
      1785492703,
      1785492738,
      1785492763,
      1785492798,
      1785492823,
      1785492858,
      1785492883,
      1785492918,
      1785492943,
      1785492978,
      1785493003,
      1785493038,
      1785493063,
      1785493098,
      1785493123,
      1785493158,
      1785493183,
      1785493218,
      1785493243,
      1785493278,
      1785493303,
      1785493338,
      1785493364,
      1785493399,
      1785493424,
      1785493459,
      1785493484,
      1785493519,
      1785493544,
      1785493579,
      1785493604,
      1785493639,
      1785493664,
      1785493699,
      1785493724,
      1785493759,
      1785493784,
      1785493819,
      1785493844,
      1785493879,
      1785493904,
      1785493939,
      1785493964,
      1785493999,
      1785494024,
      1785494059,
      1785494085,
      1785494119,
      1785494145,
      1785494180,
      1785494205,
      1785494240,
      1785494265,
      1785494300,
      1785494325,
      1785494360,
      1785494385,
      1785494420,
      1785494445,
      1785494480,
      1785494540,
      1785494600,
      1785494660,
      1785494720,
      1785494780,
      1785494841,
      1785494901,
      1785494961,
      1785495021,
      1785495036,
      1785495081,
      1785495097,
      1785495141,
      1785495157,
      1785495201,
      1785495216,
      1785495261,
      1785495271,
      1785495321,
      1785495336,
      1785495381,
      1785495397,
      1785495441,
      1785495456,
      1785495502,
      1785495516,
      1785495562,
      1785495622,
      1785495637,
      1785495682,
      1785495697,
      1785495742,
      1785495757,
      1785495802,
      1785495822,
      1785495862,
      1785495877,
      1785495922,
      1785495937
    ],
    "wof:geomhash": "748e54e378cd4ddb546d95501ab36d60",
    "wof:id": 2032037383,
    "wof:repo": "sfomuseum-data-flights-2026-07"
  },
  "bbox": [
    -122.4,
    37.63333333333333,
    -73.6,
    43.26361111111111
  ],
  "geometry": {"coordinates":[[-122.4,37.63333333333333],[-122.37888888888888,37.68055555555555],[-122.33944444444444,37.74277777777778],[-122.3711111111111,37.81361111111111],[-122.38527777777779,37.89055555555556],[-122.3275,37.95277777777778],[-122.22055555555556,37.973888888888894],[-122.09916666666666,37.99805555555556],[-121.97611111111111,38.022777777777776],[-121.84916666666666,38.04805555555556],[-121.72722222222222,38.07194444444445],[-121.59444444444443,38.09805555555556],[-121.45805555555556,38.124722222222225],[-121.32222222222222,38.151111111111106],[-121.18222222222222,38.17805555555555],[-121.04027777777777,38.205000000000005],[-120.88972222222223,38.22666666666667],[-120.73777777777778,38.248333333333335],[-120.58027777777778,38.27027777777778],[-120.4225,38.29222222222222],[-120.29888888888888,38.30777777777777],[-120.26138888888889,38.314166666666665],[-120.13611111111112,38.330000000000005],[-120.09805555555555,38.336666666666666],[-119.97083333333333,38.35305555555556],[-119.92944444444444,38.35916666666667],[-119.80194444444444,38.375],[-119.7611111111111,38.38138888888889],[-119.63138888888888,38.39611111111111],[-119.59055555555555,38.403888888888886],[-119.42500000000001,38.42527777777777],[-119.25277777777778,38.447222222222216],[-119.11305555555555,38.464444444444446],[-119.0786111111111,38.46944444444445],[-118.93972222222223,38.48527777777778],[-118.86999999999999,38.495555555555555],[-118.76555555555555,38.507222222222225],[-118.69416666666667,38.516666666666666],[-118.57527777777777,38.53111111111111],[-118.51722222222222,38.53805555555555],[-118.41333333333334,38.550555555555555],[-118.34138888888889,38.55888888888889],[-118.25111111111111,38.56944444444445],[-118.06944444444444,38.59111111111111],[-117.99583333333334,38.599722222222226],[-117.89027777777778,38.61222222222222],[-117.81527777777778,38.62083333333334],[-117.7075,38.63333333333333],[-117.6325,38.64194444444444],[-117.45,38.6625],[-117.34222222222222,38.67444444444444],[-117.27111111111111,38.68722222222222],[-117.16861111111112,38.715],[-117.09527777777777,38.73527777777778],[-116.995,38.76277777777778],[-116.92500000000001,38.781666666666666],[-116.82305555555556,38.809444444444445],[-116.75166666666667,38.82888888888889],[-116.64888888888889,38.85666666666667],[-116.58111111111111,38.875277777777775],[-116.47722222222222,38.903055555555554],[-116.4075,38.92166666666667],[-116.30333333333333,38.94916666666666],[-116.2575,38.96138888888889],[-116.13222222222221,38.995],[-116.08388888888888,39.007777777777775],[-115.95694444444445,39.04138888888889],[-115.78361111111111,39.086666666666666],[-115.60722222222222,39.1325],[-115.42694444444444,39.178888888888885],[-115.25305555555556,39.223333333333336],[-115.07777777777777,39.268055555555556],[-114.90027777777779,39.31305555555555],[-114.72500000000001,39.35722222222223],[-114.55027777777778,39.400555555555556],[-114.37249999999999,39.44416666666666],[-114.19222222222223,39.48861111111111],[-114.0125,39.532777777777774],[-113.83722222222222,39.575],[-113.65666666666667,39.61833333333333],[-113.47916666666667,39.660555555555554],[-113.30333333333333,39.70166666666667],[-113.12333333333332,39.74388888888889],[-112.955,39.782777777777774],[-112.77638888888889,39.82416666666667],[-112.59972222222221,39.865],[-112.41777777777779,39.90611111111111],[-112.23944444444444,39.94638888888888],[-112.06055555555555,39.98638888888889],[-111.8786111111111,40.01722222222222],[-111.69527777777778,40.04333333333333],[-111.51083333333334,40.06888888888889],[-111.38777777777779,40.08583333333333],[-111.3261111111111,40.09444444444445],[-111.20361111111112,40.111111111111114],[-111.14361111111111,40.11944444444445],[-111.01527777777778,40.13666666666666],[-110.95555555555556,40.144444444444446],[-110.82944444444443,40.16111111111111],[-110.7538888888889,40.17111111111111],[-110.64416666666668,40.18583333333333],[-110.56555555555555,40.19611111111111],[-110.45416666666667,40.21027777777778],[-110.37916666666666,40.22],[-110.2675,40.23416666666667],[-110.1888888888889,40.244166666666665],[-110.08,40.25805555555556],[-110.00472222222223,40.2675],[-109.8888888888889,40.28194444444444],[-109.81277777777777,40.29138888888889],[-109.7,40.30555555555555],[-109.62194444444444,40.31472222222222],[-109.50888888888889,40.32833333333333],[-109.43444444444445,40.33722222222222],[-109.35805555555555,40.34638888888889],[-109.24361111111111,40.36055555555556],[-109.16916666666667,40.371944444444445],[-109.05777777777777,40.38972222222222],[-108.98361111111112,40.401666666666664],[-108.86916666666666,40.41861111111111],[-108.79527777777777,40.42944444444444],[-108.67500000000001,40.44694444444444],[-108.60694444444444,40.456944444444446],[-108.49027777777778,40.473888888888894],[-108.41972222222223,40.48416666666667],[-108.30194444444444,40.50111111111111],[-108.20805555555556,40.51444444444444],[-108.11722222222221,40.52722222222222],[-108.03777777777778,40.538888888888884],[-107.93305555555555,40.56305555555555],[-107.8561111111111,40.581944444444446],[-107.755,40.606944444444444],[-107.68166666666667,40.625],[-107.57305555555556,40.651111111111106],[-107.50166666666667,40.668055555555554],[-107.39333333333335,40.69416666666666],[-107.32444444444444,40.71055555555556],[-107.14555555555556,40.75333333333333],[-106.965,40.79611111111111],[-106.78111111111112,40.839444444444446],[-106.6,40.88166666666667],[-106.41611111111112,40.924166666666665],[-106.23361111111112,40.96611111111111],[-106.03805555555556,41.01027777777778],[-105.85833333333333,41.05083333333333],[-105.67444444444445,41.091944444444444],[-105.49138888888889,41.1325],[-105.30805555555555,41.17305555555555],[-105.12222222222222,41.21333333333334],[-104.93972222222223,41.25277777777778],[-104.75777777777778,41.291666666666664],[-104.5761111111111,41.33027777777778],[-104.39222222222223,41.36888888888889],[-104.20777777777778,41.407222222222224],[-104.02555555555556,41.44499999999999],[-103.83805555555556,41.483333333333334],[-103.65277777777779,41.52111111111111],[-103.42972222222222,41.56583333333333],[-103.24222222222222,41.60333333333333],[-103.05722222222222,41.63972222222222],[-102.8711111111111,41.67611111111111],[-102.6825,41.71277777777778],[-102.52833333333334,41.742222222222225],[-102.3125,41.783055555555556],[-102.15916666666668,41.81166666666666],[-101.96555555555555,41.84805555555556],[-101.77972222222222,41.8825],[-101.58916666666666,41.91722222222222],[-101.40138888888889,41.95111111111111],[-101.21194444444444,41.98527777777778],[-101.02333333333333,42.01861111111111],[-100.83138888888888,42.05222222222222],[-100.71111111111111,42.07027777777778],[-100.6438888888889,42.084722222222226],[-100.52888888888889,42.10444444444445],[-100.45333333333333,42.117222222222225],[-100.33722222222222,42.136944444444445],[-100.26416666666667,42.14944444444444],[-100.14805555555556,42.16916666666666],[-100.07249999999999,42.18194444444444],[-99.94083333333333,42.20388888888889],[-99.88305555555554,42.21333333333334],[-99.75027777777778,42.23527777777778],[-99.68944444444445,42.24527777777778],[-99.55916666666667,42.26638888888889],[-99.49972222222222,42.27611111111111],[-99.36527777777778,42.297777777777775],[-99.30527777777777,42.30722222222222],[-99.17555555555556,42.32777777777778],[-99.115,42.337500000000006],[-98.98444444444445,42.35805555555556],[-98.92444444444445,42.3675],[-98.79055555555556,42.38805555555555],[-98.73777777777778,42.396388888888886],[-98.60111111111111,42.4175],[-98.41277777777778,42.44583333333333],[-98.22055555555556,42.475],[-98.03111111111112,42.50333333333333],[-97.83916666666666,42.53111111111111],[-97.64972222222222,42.55888888888889],[-97.45833333333334,42.58638888888889],[-97.26861111111111,42.613055555555555],[-97.07833333333333,42.63944444444444],[-96.89277777777778,42.665],[-96.70555555555556,42.690555555555555],[-96.53027777777778,42.71416666666667],[-96.34722222222221,42.73861111111111],[-96.16305555555556,42.76277777777778],[-95.97805555555556,42.78666666666666],[-95.7936111111111,42.81027777777778],[-95.60583333333332,42.83361111111111],[-95.42,42.856944444444444],[-95.23444444444445,42.87972222222222],[-95.205,42.885],[-95.04805555555555,42.90222222222222],[-94.85694444444444,42.925],[-94.8286111111111,42.92805555555555],[-94.63777777777779,42.95111111111111],[-94.48333333333333,42.968611111111116],[-94.44638888888889,42.973888888888894],[-94.29166666666667,42.99027777777778],[-94.25333333333333,42.99472222222222],[-94.09805555555555,43.01222222222222],[-94.05916666666667,43.016666666666666],[-93.90027777777779,43.03388888888889],[-93.86527777777778,43.0375],[-93.70611111111111,43.05472222222222],[-93.66805555555555,43.05888888888889],[-93.51333333333334,43.07527777777778],[-93.4738888888889,43.07944444444445],[-93.31527777777778,43.09666666666667],[-93.2775,43.10055555555556],[-93.12166666666666,43.1175],[-93.08416666666666,43.12166666666667],[-92.92916666666667,43.138888888888886],[-92.89055555555557,43.143055555555556],[-92.73305555555555,43.15972222222222],[-92.69666666666667,43.163888888888884],[-92.54555555555555,43.18055555555555],[-92.50777777777778,43.184999999999995],[-92.3561111111111,43.202222222222225],[-92.31833333333333,43.20666666666667],[-92.16555555555556,43.225],[-92.12777777777777,43.22916666666667],[-91.97611111111111,43.24527777777778],[-91.93722222222223,43.24944444444444],[-91.77666666666667,43.26361111111111],[-91.74027777777778,43.2625],[-91.57972222222222,43.25805555555556],[-91.53999999999999,43.25694444444444],[-91.33999999999999,43.25055555555556],[-91.18277777777779,43.245],[-91.14500000000001,43.243611111111115],[-90.99444444444444,43.23833333333334],[-90.95444444444445,43.23694444444445],[-90.80444444444444,43.23166666666667],[-90.76611111111112,43.23027777777778],[-90.61555555555555,43.22416666666667],[-90.57888888888888,43.22277777777778],[-90.42444444444445,43.21666666666667],[-90.3875,43.21527777777778],[-90.23833333333333,43.20916666666667],[-90.19638888888889,43.2075],[-90.03999999999999,43.200833333333335],[-90.00888888888889,43.19944444444444],[-89.85194444444444,43.19222222222222],[-89.81916666666666,43.19083333333333],[-89.66666666666667,43.183611111111105],[-89.6325,43.18194444444444],[-89.44611111111111,43.17305555555555],[-89.30166666666666,43.16611111111111],[-89.2611111111111,43.16361111111111],[-89.11749999999999,43.15611111111111],[-89.07694444444444,43.15416666666667],[-88.93138888888889,43.14555555555555],[-88.8913888888889,43.144444444444446],[-88.74805555555555,43.134166666666665],[-88.70694444444445,43.134166666666665],[-88.56166666666667,43.12361111111111],[-88.5225,43.12388888888889],[-88.33166666666666,43.11277777777778],[-88.1413888888889,43.10138888888889],[-87.95027777777779,43.08972222222222],[-87.76055555555556,43.0775],[-87.57083333333333,43.06527777777777],[-87.38111111111111,43.052499999999995],[-87.20194444444445,43.04055555555556],[-87.01388888888889,43.02722222222222],[-86.94166666666668,43.021388888888886],[-86.8286111111111,43.01416666666667],[-86.755,43.00805555555556],[-86.64277777777778,43.000277777777775],[-86.56888888888888,42.99444444444445],[-86.45361111111112,42.98638888888889],[-86.39083333333333,42.98166666666667],[-86.23083333333334,42.96944444444445],[-86.19500000000001,42.96666666666667],[-86.0475,42.955000000000005],[-85.98138888888889,42.94972222222222],[-85.86333333333333,42.94027777777777],[-85.79222222222222,42.93444444444444],[-85.68,42.925555555555555],[-85.60805555555555,42.919444444444444],[-85.49361111111111,42.90972222222222],[-85.41805555555555,42.903055555555554],[-85.30583333333333,42.89333333333333],[-85.23305555555555,42.886944444444445],[-85.11999999999999,42.8775],[-85.04888888888888,42.87111111111111],[-84.935,42.861111111111114],[-84.86388888888888,42.85472222222222],[-84.75,42.844722222222224],[-84.6763888888889,42.83777777777778],[-84.56555555555555,42.82777777777778],[-84.49194444444444,42.82083333333334],[-84.3786111111111,42.81027777777778],[-84.30805555555555,42.80333333333333],[-84.19500000000001,42.7925],[-84.14694444444446,42.78777777777778],[-84.01361111111112,42.775],[-83.96583333333334,42.77055555555555],[-83.7825,42.7525],[-83.60055555555554,42.73388888888889],[-83.42055555555557,42.715833333333336],[-83.23805555555556,42.696666666666665],[-83.05777777777777,42.67777777777778],[-82.87388888888889,42.658055555555556],[-82.69361111111111,42.63861111111111],[-82.51083333333334,42.61833333333333],[-82.32777777777777,42.59777777777778],[-82.14722222222223,42.577222222222225],[-82.04194444444444,42.56194444444444],[-81.96666666666667,42.556666666666665],[-81.86,42.54222222222222],[-81.76527777777778,42.532777777777774],[-81.67833333333334,42.520833333333336],[-81.58166666666666,42.51111111111111],[-81.49777777777778,42.50055555555556],[-81.4025,42.489444444444445],[-81.31722222222221,42.477222222222224],[-81.2213888888889,42.467222222222226],[-81.13861111111112,42.45611111111111],[-81.04472222222222,42.445277777777775],[-80.96277777777777,42.4325],[-80.86694444444444,42.42305555555555],[-80.78666666666666,42.41111111111111],[-80.69361111111111,42.401111111111106],[-80.61305555555555,42.38805555555555],[-80.5175,42.37833333333333],[-80.43833333333333,42.36666666666667],[-80.3425,42.35583333333334],[-80.2625,42.344166666666666],[-80.1675,42.3325],[-80.08805555555556,42.32138888888889],[-79.99222222222222,42.30916666666666],[-79.91194444444444,42.29833333333333],[-79.84083333333332,42.28861111111111],[-79.7375,42.27388888888889],[-79.66722222222222,42.265],[-79.54166666666667,42.2475],[-79.49,42.24055555555556],[-79.36722222222221,42.22361111111111],[-79.31638888888888,42.21611111111111],[-79.19361111111111,42.1975],[-79.14,42.191111111111105],[-79.0213888888889,42.16277777777778],[-78.96888888888888,42.150555555555556],[-78.85166666666666,42.12083333333334],[-78.7961111111111,42.10722222222223],[-78.68166666666667,42.07833333333333],[-78.6261111111111,42.064166666666665],[-78.51083333333334,42.035],[-78.45416666666667,42.02055555555555],[-78.34416666666667,41.9925],[-78.28527777777778,41.977222222222224],[-78.17444444444445,41.94888888888889],[-78.1061111111111,41.93111111111111],[-78.00722222222223,41.905277777777776],[-77.94333333333334,41.88861111111111],[-77.83916666666666,41.86138888888889],[-77.77472222222222,41.844722222222224],[-77.67194444444445,41.8175],[-77.60666666666665,41.80027777777777],[-77.50333333333333,41.772777777777776],[-77.43416666666667,41.754444444444445],[-77.33444444444444,41.72777777777778],[-77.26611111111112,41.70944444444445],[-77.16555555555556,41.6825],[-77.0975,41.66444444444444],[-76.99833333333333,41.6375],[-76.92888888888889,41.618611111111115],[-76.83388888888888,41.5925],[-76.76277777777777,41.573055555555555],[-76.67083333333333,41.5475],[-76.60027777777778,41.528055555555554],[-76.49722222222222,41.499722222222225],[-76.42083333333333,41.478611111111114],[-76.33138888888888,41.45388888888889],[-76.25611111111111,41.43277777777777],[-76.16111111111111,41.406388888888884],[-76.0925,41.38722222222222],[-75.99333333333334,41.35944444444445],[-75.92694444444444,41.34055555555556],[-75.84694444444445,41.31777777777778],[-75.68277777777779,41.27111111111111],[-75.50416666666666,41.21027777777778],[-75.35083333333333,41.159166666666664],[-75.205,41.11027777777778],[-75.06277777777777,41.06194444444444],[-74.91361111111112,41.01111111111111],[-74.7575,40.98305555555556],[-74.5975,40.96388888888889],[-74.44027777777778,40.945277777777775],[-74.38333333333334,40.93333333333333],[-74.28666666666666,40.926944444444445],[-74.23333333333333,40.916666666666664],[-74.1413888888889,40.90888888888889],[-74.1,40.9],[-74.05083333333333,40.83972222222222],[-74.03333333333333,40.81666666666667],[-74.01388888888889,40.74388888888889],[-74,40.71666666666667],[-73.97944444444444,40.65083333333333],[-73.96666666666667,40.61666666666667],[-73.9475,40.56111111111111],[-73.93333333333334,40.53333333333333],[-73.91722222222222,40.47277777777778],[-73.9,40.45],[-73.84861111111111,40.40694444444444],[-73.81666666666666,40.4],[-73.75416666666666,40.362500000000004],[-73.65861111111111,40.382777777777775],[-73.65,40.4],[-73.61222222222221,40.44638888888888],[-73.6,40.46666666666667],[-73.61972222222222,40.50833333333333],[-73.61666666666666,40.516666666666666],[-73.64027777777778,40.558055555555555],[-73.65,40.56666666666667],[-73.68916666666667,40.59],[-73.7,40.6],[-73.7375,40.612500000000004],[-73.75,40.61666666666667]],"type":"LineString"}
}
