{
  "id": 2032053825,
  "type": "Feature",
  "properties": {
    "geom:area": 0,
    "geom:bbox": "-122.539980,36.722240,-121.441230,37.666730",
    "geom:latitude": 37.20608152876676,
    "geom:longitude": -122.0635031609382,
    "src:alt_label": "swim-takeoff",
    "src:geom": "swim",
    "swim:elevations": [
      469,
      511,
      1025,
      1332,
      1992,
      2717,
      3003,
      3281,
      3432,
      3760,
      4146,
      4519,
      4632,
      4798,
      5245,
      5686,
      5922,
      6303,
      6674,
      6950,
      7023,
      7583,
      7979,
      8396,
      8553,
      8953,
      9296
    ],
    "swim:geom": "takeoff",
    "swim:timestamps": [
      1785536308,
      1785536314,
      1785536367,
      1785536411,
      1785536467,
      1785536508,
      1785536522,
      1785536545,
      1785536574,
      1785536605,
      1785536634,
      1785536658,
      1785536666,
      1785536678,
      1785536714,
      1785536754,
      1785536775,
      1785536810,
      1785536845,
      1785536872,
      1785536881,
      1785536935,
      1785536975,
      1785537020,
      1785537044,
      1785537098,
      1785537136
    ],
    "wof:geomhash": "657502745f67e75cae0c992e952a4535",
    "wof:id": 2032053825,
    "wof:repo": "sfomuseum-data-flights-2026-07"
  },
  "bbox": [
    -122.53998,
    36.72224,
    -121.44123,
    37.66673
  ],
  "geometry": {"coordinates":[[-122.40438,37.63157],[-122.40927,37.63362],[-122.46245,37.65707],[-122.52036,37.66673],[-122.53998,37.60544],[-122.51187,37.55562],[-122.50175,37.53773],[-122.48554,37.50947],[-122.45101,37.47224],[-122.40319,37.43698],[-122.35623,37.40247],[-122.31592,37.37291],[-122.30186,37.36263],[-122.28191,37.34801],[-122.22103,37.30303],[-122.15409,37.25359],[-122.11761,37.2266],[-122.05465,37.1798],[-121.99241,37.13357],[-121.94369,37.09741],[-121.92723,37.08515],[-121.82668,37.00991],[-121.75068,36.95533],[-121.66481,36.8915],[-121.61856,36.85685],[-121.51438,36.77837],[-121.44123,36.72224]],"type":"LineString"}
}
