{
  "id": 2031955671,
  "type": "Feature",
  "properties": {
    "geom:area": 0,
    "geom:bbox": "-122.337778,33.920278,-118.490833,37.603056",
    "geom:latitude": 35.524995816338055,
    "geom:longitude": -120.74560164861812,
    "src:alt_label": "swim-path",
    "src:geom": "swim",
    "swim:altitudes": [
      "019",
      "028",
      "039",
      "055",
      "075",
      "109",
      "129",
      "150",
      "173",
      "209",
      "225",
      "227",
      "240",
      "256",
      "269",
      "283",
      "286",
      "297",
      "305",
      "313",
      "324",
      "337",
      "340",
      "360C",
      "360C",
      "360C",
      "360C",
      "360C",
      "360C",
      "360C",
      "356",
      "349",
      "347",
      "338",
      "323",
      "305",
      "290",
      "273",
      "264",
      "254",
      "241",
      "229",
      "224",
      "210",
      "206",
      "194",
      "189",
      "178",
      "171",
      "160",
      "154",
      "142",
      "125",
      "106",
      "101",
      "100",
      "093",
      "088",
      "079",
      "074",
      "068",
      "064",
      "057",
      "051",
      "047",
      "043",
      "041",
      "035",
      "033",
      "028",
      "026",
      "021",
      "019",
      "014",
      "007",
      "004"
    ],
    "swim:geom": "path",
    "swim:speeds": [
      213,
      232,
      241,
      273,
      279,
      329,
      352,
      361,
      367,
      385,
      395,
      404,
      406,
      426,
      433,
      438,
      440,
      453,
      462,
      473,
      482,
      488,
      487,
      462,
      460,
      458,
      457,
      457,
      444,
      444,
      442,
      443,
      443,
      447,
      449,
      441,
      430,
      435,
      426,
      418,
      403,
      393,
      395,
      370,
      378,
      372,
      374,
      364,
      366,
      360,
      362,
      353,
      342,
      334,
      298,
      283,
      263,
      262,
      254,
      257,
      228,
      220,
      204,
      180,
      180,
      170,
      175,
      164,
      158,
      146,
      149,
      144,
      143,
      138,
      138,
      139
    ],
    "swim:timestamps": [
      1784901961,
      1784901980,
      1784902021,
      1784902081,
      1784902141,
      1784902262,
      1784902322,
      1784902382,
      1784902442,
      1784902552,
      1784902612,
      1784902622,
      1784902672,
      1784902742,
      1784902792,
      1784902852,
      1784902863,
      1784902923,
      1784902973,
      1784903033,
      1784903093,
      1784903153,
      1784903163,
      1784903213,
      1784903223,
      1784903283,
      1784903343,
      1784903393,
      1784903453,
      1784903463,
      1784903524,
      1784903573,
      1784903584,
      1784903633,
      1784903693,
      1784903753,
      1784903813,
      1784903874,
      1784903934,
      1784903994,
      1784904054,
      1784904084,
      1784904114,
      1784904150,
      1784904174,
      1784904204,
      1784904234,
      1784904264,
      1784904294,
      1784904324,
      1784904354,
      1784904385,
      1784904450,
      1784904534,
      1784904565,
      1784904594,
      1784904624,
      1784904654,
      1784904684,
      1784904715,
      1784904745,
      1784904775,
      1784904804,
      1784904859,
      1784904895,
      1784904930,
      1784904955,
      1784904985,
      1784905015,
      1784905045,
      1784905075,
      1784905105,
      1784905135,
      1784905165,
      1784905225,
      1784905255
    ],
    "wof:geomhash": "e2dd02093222ce2fd3f283c4d57736f1",
    "wof:id": 2031955671,
    "wof:repo": "sfomuseum-data-flights-2026-07"
  },
  "bbox": [
    -122.33777777777777,
    33.92027777777778,
    -118.49083333333333,
    37.60305555555556
  ],
  "geometry": {"coordinates":[[-118.49083333333333,33.942499999999995],[-118.51666666666667,33.93333333333333],[-118.56805555555555,33.937777777777775],[-118.65722222222223,33.93083333333333],[-118.75111111111111,33.92333333333333],[-118.95277777777778,33.92027777777778],[-119.06222222222222,33.94638888888888],[-119.15666666666667,34.00972222222222],[-119.23972222222223,34.08527777777778],[-119.4075,34.234722222222224],[-119.49722222222222,34.31777777777778],[-119.50805555555556,34.32777777777778],[-119.59166666666667,34.40222222222222],[-119.69944444444445,34.499722222222225],[-119.79222222222222,34.58222222222223],[-119.89333333333335,34.67222222222222],[-119.9113888888889,34.68833333333333],[-120.01555555555555,34.780833333333334],[-120.10444444444444,34.85944444444445],[-120.2063888888889,34.94944444444444],[-120.3275,35.05555555555555],[-120.44055555555556,35.155],[-120.45277777777778,35.16555555555556],[-120.55138888888888,35.25222222222222],[-120.55805555555555,35.25833333333333],[-120.66416666666667,35.35],[-120.77111111111111,35.442499999999995],[-120.84944444444444,35.51611111111111],[-120.97944444444444,35.578611111111115],[-121.01055555555556,35.58861111111111],[-121.14861111111112,35.63472222222222],[-121.25722222222223,35.67111111111111],[-121.2825,35.67972222222222],[-121.40027777777779,35.719722222222224],[-121.5425,35.76777777777777],[-121.6825,35.81361111111111],[-121.79527777777777,35.88138888888889],[-121.79833333333333,36.014722222222225],[-121.77722222222222,36.118611111111115],[-121.75361111111111,36.23305555555556],[-121.73055555555555,36.344722222222224],[-121.71666666666667,36.416666666666664],[-121.70805555555556,36.453611111111115],[-121.73333333333333,36.53333333333333],[-121.74388888888889,36.55138888888889],[-121.78333333333333,36.61666666666667],[-121.8125,36.638888888888886],[-121.86666666666666,36.7],[-121.88444444444445,36.73027777777778],[-121.9,36.78333333333333],[-121.91777777777779,36.82611111111112],[-121.93333333333334,36.88333333333333],[-121.96666666666667,36.983333333333334],[-122.01166666666667,37.102222222222224],[-122.03333333333333,37.15],[-122.04222222222222,37.18083333333333],[-122.06666666666666,37.21666666666667],[-122.06972222222223,37.25055555555556],[-122.08333333333333,37.3],[-122.09638888888888,37.3175],[-122.11666666666666,37.35],[-122.1211111111111,37.37972222222222],[-122.11666666666666,37.416666666666664],[-122.06666666666666,37.45],[-122.07166666666666,37.474444444444444],[-122.1,37.5],[-122.11277777777777,37.50833333333333],[-122.15,37.516666666666666],[-122.16277777777778,37.529444444444444],[-122.18333333333334,37.53333333333333],[-122.20861111111111,37.54861111111111],[-122.23333333333333,37.56666666666667],[-122.2525,37.56722222222223],[-122.28333333333333,37.583333333333336],[-122.31666666666666,37.6],[-122.33777777777777,37.60305555555556]],"type":"LineString"}
}
