{
  "id": 2032020433,
  "type": "Feature",
  "properties": {
    "geom:area": 0,
    "geom:bbox": "-122.360690,37.492100,-121.276950,37.615360",
    "geom:latitude": 37.54191545820516,
    "geom:longitude": -121.82589269028455,
    "src:alt_label": "swim-approach",
    "src:geom": "swim",
    "swim:elevations": [
      4543,
      4365,
      4139,
      3915,
      3666,
      3448,
      3164,
      3106,
      3045,
      2907,
      2766,
      2532,
      2378,
      2189,
      2021,
      1909,
      1728,
      1627,
      1463,
      1203,
      1161,
      1056,
      1033,
      884,
      747,
      633,
      521,
      504,
      425,
      354,
      273,
      154,
      102
    ],
    "swim:geom": "approach",
    "swim:timestamps": [
      1785353451,
      1785353470,
      1785353492,
      1785353514,
      1785353540,
      1785353561,
      1785353602,
      1785353626,
      1785353643,
      1785353668,
      1785353687,
      1785353720,
      1785353755,
      1785353786,
      1785353810,
      1785353836,
      1785353867,
      1785353880,
      1785353910,
      1785353960,
      1785353971,
      1785354006,
      1785354015,
      1785354044,
      1785354072,
      1785354098,
      1785354124,
      1785354127,
      1785354147,
      1785354172,
      1785354190,
      1785354224,
      1785354267
    ],
    "wof:geomhash": "82f292db8fe9bef683f6e4aa423d4231",
    "wof:id": 2032020433,
    "wof:repo": "sfomuseum-data-flights-2026-07"
  },
  "bbox": [
    -122.36069,
    37.4921,
    -121.27695,
    37.61536
  ],
  "geometry": {"coordinates":[[-121.27695,37.59079],[-121.31411,37.58641],[-121.35855,37.58163],[-121.40309,37.57667],[-121.45607,37.57063],[-121.49669,37.56588],[-121.57612,37.55654],[-121.61911,37.55075],[-121.64804,37.5451],[-121.68736,37.53598],[-121.71837,37.52858],[-121.76875,37.51645],[-121.81998,37.50403],[-121.86442,37.49363],[-121.90114,37.4921],[-121.93806,37.4942],[-121.98139,37.49694],[-122.00027,37.49811],[-122.04034,37.50038],[-122.10368,37.50701],[-122.11638,37.51181],[-122.15139,37.52682],[-122.16059,37.5307],[-122.18992,37.54316],[-122.21795,37.55498],[-122.24197,37.56512],[-122.2641,37.57441],[-122.26691,37.57561],[-122.28158,37.58173],[-122.29824,37.58876],[-122.30986,37.59366],[-122.33247,37.60316],[-122.36069,37.61536]],"type":"LineString"}
}
