{
  "id": 2031964773,
  "type": "Feature",
  "properties": {
    "geom:area": 0,
    "geom:bbox": "-122.359130,37.462400,-121.252430,37.614360",
    "geom:latitude": 37.53934439429163,
    "geom:longitude": -121.81092768120138,
    "src:alt_label": "swim-approach",
    "src:geom": "swim",
    "swim:elevations": [
      4798,
      4418,
      4084,
      3781,
      3481,
      3396,
      3233,
      3107,
      3064,
      3048,
      2977,
      2678,
      2448,
      2438,
      2324,
      2284,
      2150,
      2134,
      2010,
      1888,
      1829,
      1829,
      1769,
      1526,
      1306,
      1173,
      968,
      905,
      697,
      546,
      440,
      411,
      346,
      191,
      115,
      23
    ],
    "swim:geom": "approach",
    "swim:timestamps": [
      1784971036,
      1784971071,
      1784971106,
      1784971135,
      1784971164,
      1784971176,
      1784971203,
      1784971227,
      1784971239,
      1784971260,
      1784971297,
      1784971340,
      1784971375,
      1784971399,
      1784971432,
      1784971438,
      1784971460,
      1784971485,
      1784971511,
      1784971537,
      1784971556,
      1784971583,
      1784971605,
      1784971636,
      1784971676,
      1784971698,
      1784971736,
      1784971752,
      1784971794,
      1784971827,
      1784971855,
      1784971864,
      1784971879,
      1784971917,
      1784971938,
      1784971967
    ],
    "wof:geomhash": "fc965010676838491ef467da84fc4f9a",
    "wof:id": 2031964773,
    "wof:repo": "sfomuseum-data-flights-2026-07"
  },
  "bbox": [
    -122.35913,
    37.4624,
    -121.25243,
    37.61436
  ],
  "geometry": {"coordinates":[[-121.25243,37.59418],[-121.32497,37.58529],[-121.39419,37.57789],[-121.45373,37.57106],[-121.51143,37.56411],[-121.53409,37.56146],[-121.58522,37.55559],[-121.62581,37.55665],[-121.64622,37.56434],[-121.67697,37.57713],[-121.72727,37.58887],[-121.75345,37.55018],[-121.7636,37.51273],[-121.77114,37.48781],[-121.80814,37.47261],[-121.81636,37.47204],[-121.84735,37.47019],[-121.8821,37.46823],[-121.9173,37.46613],[-121.95173,37.46395],[-121.97691,37.4624],[-122.0104,37.46795],[-122.03654,37.47784],[-122.07179,37.49326],[-122.11757,37.5126],[-122.13997,37.52212],[-122.17546,37.53706],[-122.19008,37.54324],[-122.22808,37.55925],[-122.25662,37.57126],[-122.2778,37.58013],[-122.28415,37.58283],[-122.29465,37.58715],[-122.3227,37.59907],[-122.33794,37.60549],[-122.35913,37.61436]],"type":"LineString"}
}
