{
  "id": 2032019969,
  "type": "Feature",
  "properties": {
    "geom:area": 0,
    "geom:bbox": "-122.351240,36.756290,-121.896960,37.608690",
    "geom:latitude": 37.228477411119165,
    "geom:longitude": -122.08995729867144,
    "src:alt_label": "swim-approach",
    "src:geom": "swim",
    "swim:elevations": [
      5313,
      5069,
      4782,
      4440,
      4137,
      4032,
      3682,
      3611,
      3474,
      3360,
      3220,
      3049,
      2752,
      2612,
      2589,
      2435,
      2164,
      1920,
      1835,
      1715,
      1491,
      1355,
      1195,
      1122,
      943,
      765,
      723,
      617,
      493,
      395,
      275,
      145,
      91,
      62
    ],
    "swim:geom": "approach",
    "swim:timestamps": [
      1785326966,
      1785326989,
      1785327018,
      1785327051,
      1785327078,
      1785327093,
      1785327138,
      1785327148,
      1785327164,
      1785327184,
      1785327213,
      1785327240,
      1785327298,
      1785327327,
      1785327331,
      1785327362,
      1785327404,
      1785327435,
      1785327452,
      1785327487,
      1785327535,
      1785327567,
      1785327595,
      1785327618,
      1785327653,
      1785327687,
      1785327697,
      1785327723,
      1785327751,
      1785327782,
      1785327814,
      1785327849,
      1785327863,
      1785327873
    ],
    "wof:geomhash": "1203dcaa82d2c274c61a007744306d63",
    "wof:id": 2032019969,
    "wof:repo": "sfomuseum-data-flights-2026-07"
  },
  "bbox": [
    -122.35124,
    36.75629,
    -121.89696,
    37.60869
  ],
  "geometry": {"coordinates":[[-121.89696,36.75629],[-121.90827,36.79278],[-121.92189,36.84085],[-121.9366,36.8936],[-121.94855,36.93654],[-121.95553,36.95872],[-121.9819,37.02581],[-121.98742,37.04011],[-121.9963,37.06217],[-122.007,37.08901],[-122.02101,37.12546],[-122.03367,37.15713],[-122.09041,37.20425],[-122.11939,37.22753],[-122.12322,37.23064],[-122.1531,37.25462],[-122.17379,37.29537],[-122.18394,37.32981],[-122.17694,37.34852],[-122.16043,37.38322],[-122.14263,37.43261],[-122.13161,37.46399],[-122.13856,37.49121],[-122.15379,37.51077],[-122.17753,37.53544],[-122.20898,37.54889],[-122.21768,37.55252],[-122.23967,37.56191],[-122.26221,37.57131],[-122.28569,37.58113],[-122.30987,37.59138],[-122.33505,37.60191],[-122.34417,37.60589],[-122.35124,37.60869]],"type":"LineString"}
}
