{
  "id": 2031976131,
  "type": "Feature",
  "properties": {
    "geom:area": 0,
    "geom:bbox": "-123.085860,37.415790,-122.096240,38.476920",
    "geom:latitude": 37.84102419226897,
    "geom:longitude": -122.54878206594577,
    "src:alt_label": "swim-approach",
    "src:geom": "swim",
    "swim:elevations": [
      7590,
      7270,
      6926,
      6495,
      6311,
      5915,
      5685,
      5521,
      5368,
      5198,
      5052,
      4876,
      4758,
      4637,
      4389,
      4129,
      4022,
      3720,
      3475,
      3383,
      3353,
      3353,
      3353,
      3353,
      3353,
      3321,
      3241,
      2968,
      2772,
      2390,
      2140,
      1894,
      1785,
      1723,
      1439,
      1248,
      1025,
      799,
      705,
      636,
      511,
      333,
      273,
      91
    ],
    "swim:geom": "approach",
    "swim:timestamps": [
      1785073626,
      1785073666,
      1785073699,
      1785073734,
      1785073751,
      1785073794,
      1785073818,
      1785073835,
      1785073860,
      1785073881,
      1785073905,
      1785073930,
      1785073952,
      1785073970,
      1785074006,
      1785074037,
      1785074048,
      1785074079,
      1785074118,
      1785074153,
      1785074181,
      1785074214,
      1785074239,
      1785074250,
      1785074282,
      1785074302,
      1785074317,
      1785074364,
      1785074395,
      1785074453,
      1785074482,
      1785074510,
      1785074523,
      1785074535,
      1785074585,
      1785074623,
      1785074661,
      1785074697,
      1785074713,
      1785074731,
      1785074762,
      1785074801,
      1785074820,
      1785074869
    ],
    "wof:geomhash": "86108335a197c6244996002acef88122",
    "wof:id": 2031976131,
    "wof:repo": "sfomuseum-data-flights-2026-07"
  },
  "bbox": [
    -123.08586,
    37.41579,
    -122.09624,
    38.47692
  ],
  "geometry": {"coordinates":[[-123.08586,38.47692],[-123.0179,38.42443],[-122.96784,38.37918],[-122.92867,38.32695],[-122.91244,38.29996],[-122.87345,38.23416],[-122.85193,38.1981],[-122.83617,38.17172],[-122.81351,38.13426],[-122.79524,38.10365],[-122.77411,38.06847],[-122.75235,38.03219],[-122.73403,38.00162],[-122.71886,37.97605],[-122.68839,37.92481],[-122.65575,37.88304],[-122.64148,37.86945],[-122.60182,37.83191],[-122.55065,37.78403],[-122.51045,37.74606],[-122.47909,37.71627],[-122.44204,37.68137],[-122.41459,37.65564],[-122.40164,37.64352],[-122.36556,37.60937],[-122.35048,37.58606],[-122.34194,37.56699],[-122.31134,37.51171],[-122.2891,37.476],[-122.24335,37.4205],[-122.20348,37.41579],[-122.16984,37.43145],[-122.15411,37.44053],[-122.1407,37.44837],[-122.09624,37.48634],[-122.12276,37.51513],[-122.16627,37.53323],[-122.20599,37.54997],[-122.22252,37.55687],[-122.24022,37.56435],[-122.26566,37.57509],[-122.29506,37.58743],[-122.30914,37.59336],[-122.34458,37.60831]],"type":"LineString"}
}
