{
  "id": 2031996407,
  "type": "Feature",
  "properties": {
    "geom:area": 0,
    "geom:bbox": "-118.829722,35.083611,-74.931944,39.916667",
    "geom:latitude": 37.16720149426418,
    "geom:longitude": -96.45102155938656,
    "src:alt_label": "swim-path",
    "src:geom": "swim",
    "swim:altitudes": [
      "326",
      "330C",
      "330C",
      "330C",
      "330C",
      "330C",
      "330C",
      "330C",
      "330C",
      "330C",
      "330C",
      "330C",
      "330C",
      "330C",
      "330C",
      "330C",
      "330C",
      "330C",
      "330C",
      "330C",
      "330C",
      "330C",
      "330C",
      "330C",
      "330C",
      "330C",
      "330C",
      "330C",
      "330C",
      "330C",
      "330C",
      "330C",
      "330C",
      "330C",
      "330C",
      "330C",
      "330C",
      "330C",
      "330C",
      "330C",
      "330C",
      "330C",
      "330C",
      "330C",
      "330C",
      "330C",
      "330C",
      "330C",
      "330C",
      "330C",
      "330C",
      "330C",
      "330C",
      "330C",
      "330C",
      "330C",
      "330C",
      "330C",
      "330C",
      "330C",
      "330C",
      "330C",
      "330C",
      "330C",
      "330C",
      "330C",
      "330C",
      "330C",
      "330C",
      "330C",
      "330C",
      "330C",
      "330C",
      "330C",
      "330C",
      "330C",
      "330C",
      "330C",
      "330C",
      "336",
      "344",
      "348C",
      "350C",
      "350C",
      "350C",
      "350C",
      "350C",
      "350C",
      "350C",
      "350C",
      "350C",
      "350C",
      "350C",
      "350C",
      "350C",
      "350C",
      "350C",
      "350C",
      "350C",
      "350C",
      "350C",
      "350C",
      "350C",
      "350C",
      "350C",
      "350C",
      "350C",
      "350C",
      "350C",
      "350C",
      "350C",
      "350C",
      "350C",
      "350C",
      "350C",
      "350C",
      "350C",
      "350C",
      "350C",
      "350C",
      "350C",
      "350C",
      "350C",
      "350C",
      "350C",
      "350C",
      "350C",
      "350C",
      "350C",
      "350C",
      "350C",
      "350C",
      "350C",
      "350C",
      "350C",
      "350C",
      "350C",
      "350C",
      "350C",
      "350C",
      "350C",
      "350C",
      "350C",
      "350C",
      "350C",
      "350C",
      "350C",
      "350C",
      "350C",
      "350C",
      "350C",
      "350C",
      "350C",
      "350C",
      "350C",
      "350C",
      "350C",
      "350C",
      "350C",
      "350C",
      "350C",
      "350C",
      "350C",
      "350C",
      "350C",
      "350C",
      "350C",
      "350C",
      "350C",
      "350C",
      "350C",
      "350C",
      "350C",
      "350C",
      "350C",
      "350C",
      "350C",
      "350C",
      "350C",
      "350C",
      "350C",
      "350C",
      "350C",
      "350C",
      "350C",
      "350C",
      "350C",
      "350C",
      "350C",
      "350C",
      "350C",
      "350C",
      "350C",
      "350C",
      "350C",
      "350C",
      "350C",
      "350C",
      "350C",
      "350C",
      "350C",
      "350C",
      "350C",
      "350C",
      "350C",
      "350C",
      "350C",
      "350C",
      "350C",
      "350C",
      "350C",
      "350C",
      "350C",
      "350C",
      "350C",
      "350C",
      "350C",
      "350C",
      "350C",
      "350C",
      "350C",
      "350C",
      "350C",
      "350C",
      "350C",
      "350C",
      "350C",
      "350C",
      "350C",
      "350C",
      "350C",
      "350C",
      "350C",
      "350C",
      "350C",
      "350C",
      "350C",
      "350C",
      "350C",
      "350C",
      "350C",
      "350C",
      "350C",
      "350C",
      "350C",
      "350C",
      "350C",
      "350C",
      "350C",
      "350C",
      "350C",
      "350C",
      "350C",
      "350C",
      "350C",
      "350C",
      "350C",
      "350C",
      "350C",
      "350C",
      "350C",
      "350C",
      "350C",
      "350C",
      "350C",
      "350C",
      "350C",
      "350C",
      "350C",
      "350C",
      "350C",
      "350C",
      "350C",
      "350C",
      "350C",
      "350C",
      "350C",
      "350C",
      "350C",
      "350C",
      "350C",
      "350C",
      "350C",
      "350C",
      "350C",
      "350C",
      "350C",
      "350C",
      "350C",
      "350C",
      "350C",
      "350C",
      "350C",
      "350C",
      "350C",
      "350C",
      "350C",
      "350C",
      "350C",
      "350C",
      "350C",
      "350C",
      "350C",
      "350C",
      "350C",
      "350C",
      "350C",
      "350C",
      "350C",
      "350C",
      "350C",
      "350C",
      "350C",
      "350C",
      "350C",
      "350C",
      "350C",
      "350C",
      "350C",
      "350C",
      "350C",
      "350C",
      "350C",
      "350C",
      "350C",
      "350C",
      "350C",
      "350C",
      "350C",
      "350C",
      "350C",
      "350C",
      "350C",
      "350C",
      "350C",
      "350C",
      "350",
      "351",
      "363",
      "370C",
      "370C",
      "370C",
      "370C",
      "370C",
      "370C",
      "370C",
      "370C",
      "370C",
      "370C",
      "370C",
      "370C",
      "370C",
      "370C",
      "370C",
      "370C",
      "370C",
      "370C",
      "370C",
      "370C",
      "370C",
      "370C",
      "370C",
      "370C",
      "370C",
      "370C",
      "370C",
      "370C",
      "370C",
      "370C",
      "370C",
      "370C",
      "370C",
      "370C",
      "370C",
      "370C",
      "370C",
      "370C",
      "370C",
      "370C",
      "370C",
      "370C",
      "370C",
      "370C",
      "370C",
      "370C",
      "370C",
      "370C",
      "370C",
      "370C",
      "370C",
      "370C",
      "370",
      "365",
      "355",
      "350",
      "350",
      "350",
      "350",
      "350",
      "350",
      "350",
      "350",
      "350",
      "350",
      "350",
      "342",
      "334",
      "321",
      "290C",
      "290C",
      "290C",
      "290C",
      "290C",
      "290C",
      "290C",
      "290C",
      "290C",
      "290",
      "280",
      "270",
      "261",
      "253",
      "237",
      "215",
      "198",
      "160",
      "150C",
      "150",
      "150",
      "149",
      "145",
      "140",
      "134",
      "127",
      "119",
      "110",
      "102",
      "100C",
      "096",
      "090",
      "086",
      "080",
      "076",
      "071",
      "065",
      "061",
      "060",
      "060",
      "060",
      "060",
      "060",
      "060",
      "060",
      "057",
      "053",
      "047",
      "045",
      "040",
      "040",
      "038",
      "036",
      "030",
      "030",
      "027",
      "026",
      "018",
      "016",
      "009",
      "002"
    ],
    "swim:geom": "path",
    "swim:speeds": [
      507,
      504,
      503,
      502,
      503,
      501,
      501,
      499,
      499,
      498,
      496,
      496,
      495,
      495,
      495,
      495,
      495,
      495,
      495,
      495,
      494,
      495,
      494,
      495,
      494,
      494,
      494,
      494,
      494,
      494,
      494,
      493,
      493,
      492,
      490,
      489,
      489,
      489,
      490,
      491,
      491,
      491,
      490,
      489,
      489,
      490,
      490,
      491,
      491,
      485,
      483,
      482,
      480,
      481,
      478,
      479,
      477,
      475,
      475,
      474,
      474,
      474,
      474,
      474,
      475,
      475,
      475,
      474,
      474,
      474,
      474,
      474,
      474,
      474,
      474,
      475,
      475,
      475,
      475,
      474,
      467,
      465,
      461,
      460,
      459,
      459,
      459,
      459,
      459,
      461,
      462,
      463,
      463,
      464,
      464,
      464,
      464,
      463,
      462,
      462,
      462,
      462,
      461,
      461,
      460,
      458,
      458,
      458,
      458,
      459,
      459,
      459,
      458,
      457,
      456,
      455,
      454,
      454,
      453,
      453,
      454,
      455,
      456,
      454,
      454,
      457,
      498,
      460,
      471,
      461,
      470,
      461,
      460,
      459,
      457,
      457,
      457,
      458,
      461,
      459,
      461,
      461,
      463,
      462,
      464,
      465,
      463,
      464,
      461,
      460,
      456,
      456,
      454,
      453,
      453,
      451,
      450,
      451,
      448,
      448,
      449,
      449,
      450,
      453,
      455,
      454,
      457,
      456,
      459,
      459,
      453,
      460,
      460,
      458,
      462,
      462,
      456,
      462,
      462,
      460,
      463,
      462,
      464,
      464,
      466,
      466,
      466,
      466,
      466,
      465,
      464,
      464,
      463,
      463,
      463,
      463,
      463,
      463,
      462,
      462,
      462,
      462,
      461,
      461,
      462,
      463,
      463,
      463,
      463,
      463,
      464,
      464,
      465,
      465,
      465,
      464,
      463,
      462,
      461,
      460,
      461,
      462,
      460,
      463,
      461,
      464,
      467,
      466,
      468,
      467,
      469,
      468,
      468,
      468,
      468,
      468,
      468,
      468,
      468,
      468,
      467,
      466,
      465,
      464,
      463,
      463,
      461,
      461,
      460,
      459,
      460,
      461,
      463,
      463,
      464,
      464,
      465,
      466,
      467,
      467,
      468,
      468,
      469,
      469,
      469,
      469,
      469,
      469,
      468,
      468,
      467,
      466,
      466,
      466,
      466,
      466,
      467,
      467,
      468,
      469,
      469,
      470,
      470,
      470,
      471,
      471,
      472,
      472,
      473,
      473,
      474,
      475,
      475,
      476,
      477,
      477,
      478,
      479,
      480,
      480,
      482,
      482,
      481,
      483,
      483,
      482,
      483,
      483,
      482,
      483,
      482,
      483,
      483,
      482,
      482,
      481,
      481,
      479,
      479,
      478,
      477,
      477,
      476,
      476,
      475,
      476,
      476,
      479,
      480,
      480,
      481,
      481,
      482,
      482,
      483,
      484,
      484,
      485,
      482,
      480,
      479,
      478,
      478,
      478,
      478,
      480,
      491,
      493,
      493,
      493,
      491,
      490,
      489,
      488,
      488,
      486,
      486,
      484,
      483,
      482,
      481,
      480,
      475,
      472,
      470,
      470,
      470,
      472,
      474,
      476,
      477,
      477,
      479,
      480,
      481,
      484,
      485,
      487,
      489,
      489,
      489,
      489,
      490,
      490,
      490,
      471,
      456,
      454,
      454,
      454,
      455,
      457,
      461,
      465,
      469,
      471,
      472,
      472,
      472,
      471,
      472,
      471,
      472,
      473,
      479,
      478,
      478,
      483,
      484,
      478,
      474,
      470,
      425,
      405,
      396,
      395,
      395,
      395,
      395,
      395,
      404,
      413,
      416,
      403,
      392,
      366,
      361,
      360,
      347,
      349,
      344,
      343,
      327,
      330,
      325,
      327,
      326,
      313,
      303,
      305,
      299,
      301,
      294,
      297,
      289,
      291,
      279,
      280,
      275,
      278,
      275,
      276,
      254,
      236,
      226,
      224,
      220,
      222,
      217,
      221,
      214,
      184,
      177,
      174,
      174,
      173,
      163,
      151,
      153
    ],
    "swim:timestamps": [
      1785223486,
      1785223516,
      1785223546,
      1785223576,
      1785223606,
      1785223636,
      1785223666,
      1785223696,
      1785223726,
      1785223756,
      1785223816,
      1785223846,
      1785223876,
      1785223906,
      1785223936,
      1785223966,
      1785223996,
      1785224026,
      1785224056,
      1785224086,
      1785224116,
      1785224146,
      1785224176,
      1785224206,
      1785224266,
      1785224296,
      1785224326,
      1785224356,
      1785224386,
      1785224416,
      1785224447,
      1785224476,
      1785224507,
      1785224567,
      1785224627,
      1785224687,
      1785224747,
      1785224807,
      1785224867,
      1785224927,
      1785224987,
      1785225047,
      1785225107,
      1785225167,
      1785225227,
      1785225287,
      1785225347,
      1785225407,
      1785225467,
      1785225527,
      1785225587,
      1785225647,
      1785225707,
      1785225722,
      1785225767,
      1785225782,
      1785225842,
      1785225888,
      1785225902,
      1785225948,
      1785225962,
      1785226008,
      1785226022,
      1785226068,
      1785226082,
      1785226142,
      1785226202,
      1785226248,
      1785226262,
      1785226308,
      1785226322,
      1785226368,
      1785226382,
      1785226428,
      1785226442,
      1785226488,
      1785226502,
      1785226548,
      1785226562,
      1785226622,
      1785226668,
      1785226682,
      1785226728,
      1785226743,
      1785226788,
      1785226803,
      1785226863,
      1785226923,
      1785226983,
      1785227043,
      1785227103,
      1785227163,
      1785227223,
      1785227272,
      1785227283,
      1785227332,
      1785227343,
      1785227392,
      1785227452,
      1785227463,
      1785227512,
      1785227523,
      1785227572,
      1785227583,
      1785227643,
      1785227692,
      1785227703,
      1785227752,
      1785227763,
      1785227812,
      1785227823,
      1785227883,
      1785227935,
      1785227995,
      1785228003,
      1785228063,
      1785228113,
      1785228123,
      1785228173,
      1785228183,
      1785228233,
      1785228293,
      1785228352,
      1785228474,
      1785228534,
      1785228592,
      1785228612,
      1785228655,
      1785228670,
      1785228715,
      1785228730,
      1785228773,
      1785228833,
      1785228895,
      1785228955,
      1785229013,
      1785229073,
      1785229135,
      1785229185,
      1785229195,
      1785229245,
      1785229255,
      1785229315,
      1785229365,
      1785229425,
      1785229433,
      1785229485,
      1785229495,
      1785229545,
      1785229555,
      1785229605,
      1785229613,
      1785229665,
      1785229673,
      1785229690,
      1785229725,
      1785229733,
      1785229751,
      1785229785,
      1785229794,
      1785229813,
      1785229846,
      1785229854,
      1785229870,
      1785229913,
      1785229930,
      1785229973,
      1785229993,
      1785230026,
      1785230033,
      1785230051,
      1785230086,
      1785230094,
      1785230114,
      1785230146,
      1785230154,
      1785230171,
      1785230206,
      1785230214,
      1785230231,
      1785230266,
      1785230294,
      1785230333,
      1785230351,
      1785230386,
      1785230393,
      1785230413,
      1785230446,
      1785230455,
      1785230471,
      1785230515,
      1785230533,
      1785230566,
      1785230574,
      1785230591,
      1785230652,
      1785230710,
      1785230719,
      1785230774,
      1785230780,
      1785230830,
      1785230838,
      1785230890,
      1785230898,
      1785230953,
      1785231010,
      1785231018,
      1785231070,
      1785231078,
      1785231131,
      1785231191,
      1785231250,
      1785231310,
      1785231371,
      1785231430,
      1785231491,
      1785231550,
      1785231610,
      1785231670,
      1785231790,
      1785231854,
      1785231915,
      1785231956,
      1785231975,
      1785232016,
      1785232035,
      1785232076,
      1785232095,
      1785232136,
      1785232152,
      1785232196,
      1785232212,
      1785232256,
      1785232272,
      1785232316,
      1785232332,
      1785232376,
      1785232392,
      1785232436,
      1785232453,
      1785232496,
      1785232513,
      1785232556,
      1785232573,
      1785232617,
      1785232635,
      1785232677,
      1785232694,
      1785232737,
      1785232797,
      1785232873,
      1785232917,
      1785232977,
      1785232992,
      1785233037,
      1785233053,
      1785233097,
      1785233115,
      1785233157,
      1785233174,
      1785233217,
      1785233235,
      1785233277,
      1785233295,
      1785233337,
      1785233355,
      1785233397,
      1785233415,
      1785233457,
      1785233475,
      1785233517,
      1785233535,
      1785233577,
      1785233596,
      1785233637,
      1785233653,
      1785233697,
      1785233715,
      1785233757,
      1785233776,
      1785233817,
      1785233836,
      1785233877,
      1785233895,
      1785233937,
      1785233955,
      1785233997,
      1785234016,
      1785234057,
      1785234074,
      1785234117,
      1785234135,
      1785234178,
      1785234193,
      1785234238,
      1785234253,
      1785234298,
      1785234313,
      1785234358,
      1785234373,
      1785234418,
      1785234433,
      1785234468,
      1785234478,
      1785234496,
      1785234528,
      1785234538,
      1785234553,
      1785234588,
      1785234616,
      1785234648,
      1785234658,
      1785234675,
      1785234708,
      1785234735,
      1785234768,
      1785234778,
      1785234838,
      1785234856,
      1785234888,
      1785234948,
      1785234958,
      1785235008,
      1785235018,
      1785235078,
      1785235129,
      1785235138,
      1785235258,
      1785235309,
      1785235318,
      1785235369,
      1785235378,
      1785235429,
      1785235438,
      1785235489,
      1785235558,
      1785235609,
      1785235669,
      1785235739,
      1785235789,
      1785235799,
      1785235859,
      1785235910,
      1785235919,
      1785235970,
      1785235979,
      1785236039,
      1785236090,
      1785236099,
      1785236150,
      1785236270,
      1785236330,
      1785236390,
      1785236450,
      1785236510,
      1785236570,
      1785236630,
      1785236691,
      1785236751,
      1785236811,
      1785236871,
      1785236931,
      1785236991,
      1785237051,
      1785237171,
      1785237231,
      1785237291,
      1785237352,
      1785237412,
      1785237453,
      1785237461,
      1785237472,
      1785237521,
      1785237574,
      1785237592,
      1785237634,
      1785237652,
      1785237694,
      1785237738,
      1785237754,
      1785237772,
      1785237798,
      1785237814,
      1785237832,
      1785237858,
      1785237892,
      1785237918,
      1785237952,
      1785237978,
      1785238013,
      1785238038,
      1785238073,
      1785238098,
      1785238133,
      1785238158,
      1785238193,
      1785238219,
      1785238253,
      1785238279,
      1785238313,
      1785238339,
      1785238373,
      1785238399,
      1785238462,
      1785238519,
      1785238582,
      1785238642,
      1785238702,
      1785238819,
      1785238882,
      1785238942,
      1785239003,
      1785239060,
      1785239123,
      1785239180,
      1785239243,
      1785239303,
      1785239363,
      1785239420,
      1785239483,
      1785239543,
      1785239601,
      1785239663,
      1785239724,
      1785239781,
      1785239904,
      1785239964,
      1785240024,
      1785240051,
      1785240082,
      1785240112,
      1785240144,
      1785240178,
      1785240204,
      1785240231,
      1785240264,
      1785240292,
      1785240324,
      1785240352,
      1785240384,
      1785240412,
      1785240445,
      1785240472,
      1785240505,
      1785240538,
      1785240565,
      1785240592,
      1785240625,
      1785240649,
      1785240685,
      1785240712,
      1785240745,
      1785240766,
      1785240803,
      1785240826,
      1785240865,
      1785240886,
      1785240925,
      1785240944,
      1785240985,
      1785241001,
      1785241058,
      1785241106,
      1785241166,
      1785241175,
      1785241226,
      1785241239,
      1785241295,
      1785241346
    ],
    "wof:geomhash": "04866f192929d015d7aa5764378a93e2",
    "wof:id": 2031996407,
    "wof:repo": "sfomuseum-data-flights-2026-07"
  },
  "bbox": [
    -118.82972222222222,
    35.08361111111111,
    -74.93194444444445,
    39.916666666666664
  ],
  "geometry": {"coordinates":[[-118.82972222222222,38.202222222222225],[-118.72361111111111,38.20777777777778],[-118.65555555555557,38.21055555555556],[-118.55083333333333,38.21666666666667],[-118.48305555555555,38.22],[-118.37527777777777,38.22527777777778],[-118.29083333333332,38.22916666666667],[-118.20083333333334,38.233333333333334],[-118.11472222222221,38.237500000000004],[-118.04444444444444,38.24055555555556],[-117.86916666666666,38.24861111111111],[-117.76638888888888,38.253055555555555],[-117.69472222222223,38.25611111111111],[-117.59027777777777,38.26027777777778],[-117.51861111111111,38.263333333333335],[-117.41388888888889,38.2675],[-117.33055555555555,38.270833333333336],[-117.23555555555555,38.27444444444444],[-117.1588888888889,38.277499999999996],[-117.0911111111111,38.27972222222222],[-116.98472222222222,38.28361111111111],[-116.91638888888889,38.28611111111111],[-116.80583333333333,38.29],[-116.73944444444444,38.2925],[-116.5625,38.29833333333333],[-116.45666666666666,38.30166666666666],[-116.3888888888889,38.303888888888885],[-116.2825,38.30722222222222],[-116.21611111111112,38.30916666666666],[-116.10749999999999,38.31222222222222],[-116.04166666666667,38.314166666666665],[-115.93361111111112,38.31722222222223],[-115.86527777777778,38.31888888888889],[-115.69250000000001,38.32333333333334],[-115.51972222222223,38.32777777777778],[-115.34833333333333,38.33166666666667],[-115.17500000000001,38.33527777777778],[-115.00166666666667,38.33888888888889],[-114.82555555555555,38.342222222222226],[-114.65111111111112,38.345],[-114.47805555555556,38.34777777777778],[-114.30611111111111,38.35],[-114.13333333333334,38.3525],[-113.95944444444444,38.35416666666667],[-113.78694444444444,38.35583333333334],[-113.61333333333333,38.35722222222223],[-113.44,38.35861111111111],[-113.26361111111112,38.35944444444445],[-113.0911111111111,38.36],[-112.9238888888889,38.33305555555556],[-112.76305555555555,38.28472222222222],[-112.60472222222222,38.236666666666665],[-112.44694444444445,38.18833333333333],[-112.42305555555556,38.18111111111111],[-112.28888888888889,38.14],[-112.25833333333334,38.13055555555555],[-112.10222222222221,38.081944444444446],[-111.97888888888889,38.04361111111111],[-111.94666666666667,38.03361111111111],[-111.82194444444444,37.99472222222222],[-111.79305555555555,37.98555555555556],[-111.66722222222222,37.94611111111111],[-111.6363888888889,37.93611111111111],[-111.51138888888889,37.89666666666667],[-111.48083333333334,37.886944444444445],[-111.3261111111111,37.83777777777778],[-111.17222222222223,37.78861111111111],[-111.04916666666666,37.74888888888889],[-111.01861111111111,37.73916666666667],[-110.89527777777778,37.69916666666666],[-110.86277777777777,37.68861111111111],[-110.74166666666667,37.649166666666666],[-110.70972222222223,37.638888888888886],[-110.58638888888889,37.598333333333336],[-110.55722222222222,37.58888888888889],[-110.43361111111112,37.54861111111111],[-110.40305555555557,37.53861111111111],[-110.28055555555555,37.49805555555556],[-110.24944444444445,37.487500000000004],[-110.08527777777778,37.43277777777777],[-109.97666666666667,37.39666666666667],[-109.93388888888889,37.3825],[-109.82888888888888,37.34722222222222],[-109.78805555555556,37.333333333333336],[-109.6825,37.297777777777775],[-109.64194444444445,37.28388888888889],[-109.495,37.23444444444444],[-109.36027777777777,37.18833333333333],[-109.21138888888889,37.1375],[-109.05416666666666,37.083333333333336],[-108.90555555555557,37.03194444444444],[-108.75972222222222,36.98111111111111],[-108.61166666666666,36.92944444444444],[-108.48833333333333,36.89222222222222],[-108.46027777777778,36.884166666666665],[-108.33583333333333,36.84861111111111],[-108.31,36.84138888888889],[-108.18527777777778,36.805277777777775],[-108.03611111111111,36.761944444444445],[-108.0275,36.759166666666665],[-107.88583333333334,36.717777777777776],[-107.85666666666665,36.70944444444445],[-107.73694444444445,36.674166666666665],[-107.70555555555556,36.665],[-107.5586111111111,36.62166666666667],[-107.43861111111111,36.586111111111116],[-107.40916666666668,36.577222222222225],[-107.28999999999999,36.541666666666664],[-107.26055555555556,36.532777777777774],[-107.14194444444445,36.49722222222222],[-107.11222222222221,36.48833333333334],[-106.96388888888889,36.44361111111111],[-106.84555555555555,36.407777777777774],[-106.69888888888889,36.363055555555555],[-106.66888888888889,36.35388888888889],[-106.52305555555556,36.30916666666666],[-106.40694444444445,36.27333333333333],[-106.38444444444445,36.266666666666666],[-106.25888888888889,36.2275],[-106.2375,36.22083333333334],[-106.1211111111111,36.18472222222222],[-105.97222222222223,36.138333333333335],[-105.82333333333332,36.09166666666667],[-105.53944444444444,36.001666666666665],[-105.40166666666667,35.99027777777778],[-105.24194444444444,36.00388888888889],[-105.19250000000001,36.006388888888885],[-105.08388888888888,36.01722222222222],[-105.03472222222221,36.019999999999996],[-104.92694444444444,36.03055555555555],[-104.87666666666667,36.03138888888889],[-104.76833333333333,36.03638888888889],[-104.62666666666667,35.984722222222224],[-104.48666666666666,35.92444444444444],[-104.34833333333333,35.86527777777778],[-104.20861111111111,35.80638888888888],[-104.07055555555556,35.74777777777778],[-103.93027777777779,35.687777777777775],[-103.80583333333333,35.634166666666665],[-103.78972222222222,35.62833333333333],[-103.66555555555556,35.575833333333335],[-103.64805555555556,35.56888888888889],[-103.50611111111111,35.510555555555555],[-103.37194444444444,35.45305555555556],[-103.24638888888889,35.39472222222222],[-103.22666666666667,35.38583333333333],[-103.10777777777777,35.3325],[-103.08888888888889,35.32416666666667],[-102.97027777777778,35.27222222222222],[-102.95055555555555,35.26361111111111],[-102.83583333333333,35.21277777777778],[-102.80888888888889,35.20055555555556],[-102.70055555555555,35.153888888888886],[-102.6725,35.14416666666666],[-102.64666666666668,35.13444444444444],[-102.56083333333333,35.108333333333334],[-102.53194444444445,35.102222222222224],[-102.50333333333333,35.09527777777778],[-102.41388888888889,35.08444444444444],[-102.38166666666666,35.08361111111111],[-102.35499999999999,35.08416666666667],[-102.26472222222222,35.10305555555556],[-102.23388888888888,35.11027777777778],[-102.20527777777778,35.117222222222225],[-102.0825,35.144999999999996],[-102.05611111111111,35.15083333333333],[-101.93972222222223,35.177499999999995],[-101.89694444444446,35.18694444444444],[-101.81444444444445,35.20583333333334],[-101.78916666666666,35.211666666666666],[-101.74583333333334,35.220555555555556],[-101.64444444444445,35.244166666666665],[-101.63861111111112,35.24527777777778],[-101.59222222222222,35.257222222222225],[-101.49583333333334,35.27722222222222],[-101.49833333333333,35.276666666666664],[-101.44027777777778,35.28944444444444],[-101.34388888888888,35.31083333333333],[-101.34666666666666,35.31027777777778],[-101.28916666666666,35.323055555555555],[-101.19166666666668,35.344722222222224],[-101.13194444444444,35.35777777777778],[-101.03805555555556,35.378055555555555],[-100.97916666666667,35.39083333333333],[-100.88527777777779,35.41138888888889],[-100.88305555555554,35.411944444444444],[-100.825,35.42444444444444],[-100.73555555555555,35.443888888888885],[-100.73083333333334,35.44472222222222],[-100.6725,35.4575],[-100.57888888888888,35.4775],[-100.52083333333333,35.49],[-100.42972222222222,35.50944444444445],[-100.42972222222222,35.50944444444445],[-100.36777777777777,35.5225],[-100.21722222222222,35.55444444444444],[-100.06333333333333,35.586666666666666],[-100.06083333333333,35.58722222222222],[-99.91333333333334,35.617777777777775],[-99.90805555555556,35.61888888888889],[-99.75888888888889,35.65],[-99.75611111111111,35.650555555555556],[-99.60583333333332,35.68138888888889],[-99.60333333333332,35.681666666666665],[-99.45416666666667,35.71222222222222],[-99.29916666666666,35.743611111111115],[-99.29638888888888,35.744166666666665],[-99.14861111111112,35.774166666666666],[-99.14583333333334,35.77472222222222],[-99.0125,35.801111111111105],[-98.85777777777777,35.83222222222223],[-98.68583333333333,35.86611111111111],[-98.52972222222222,35.896388888888886],[-98.3825,35.92527777777777],[-98.2213888888889,35.95611111111111],[-98.07416666666666,35.98416666666667],[-97.91111111111111,36.015277777777776],[-97.77194444444444,36.04138888888889],[-97.61749999999999,36.07027777777778],[-97.30916666666667,36.1275],[-97.15305555555557,36.15611111111111],[-97,36.18388888888889],[-96.88444444444445,36.20194444444445],[-96.84138888888889,36.212500000000006],[-96.72805555555556,36.23111111111111],[-96.66583333333334,36.243611111111115],[-96.57277777777777,36.26027777777778],[-96.50833333333334,36.27166666666667],[-96.41527777777779,36.28777777777778],[-96.34916666666666,36.29944444444444],[-96.25666666666666,36.315555555555555],[-96.19083333333333,36.327222222222225],[-96.09916666666666,36.34305555555556],[-96.03527777777778,36.35388888888889],[-95.9413888888889,36.37],[-95.87694444444443,36.380833333333335],[-95.78388888888888,36.39666666666667],[-95.74861111111112,36.40277777777778],[-95.62388888888889,36.42388888888889],[-95.5825,36.43083333333333],[-95.46138888888889,36.450833333333335],[-95.42472222222223,36.456944444444446],[-95.29916666666666,36.47777777777778],[-95.27027777777778,36.48277777777778],[-95.14083333333333,36.50416666666667],[-95.11444444444444,36.50833333333333],[-94.985,36.529444444444444],[-94.95222222222222,36.53472222222222],[-94.82944444444443,36.55472222222222],[-94.67444444444445,36.57944444444445],[-94.48472222222222,36.60944444444445],[-94.35972222222222,36.62916666666667],[-94.20305555555557,36.65361111111111],[-94.16861111111112,36.65888888888889],[-94.0436111111111,36.67833333333333],[-94.0111111111111,36.68333333333333],[-93.88527777777779,36.7025],[-93.85305555555556,36.70722222222223],[-93.72555555555556,36.72666666666667],[-93.70027777777779,36.730555555555554],[-93.57944444444443,36.74861111111111],[-93.5411111111111,36.754444444444445],[-93.41916666666667,36.7725],[-93.37944444444443,36.77833333333333],[-93.26083333333334,36.79611111111111],[-93.21944444444445,36.80222222222222],[-93.10222222222221,36.81916666666667],[-93.06694444444445,36.82416666666667],[-92.9413888888889,36.842222222222226],[-92.91000000000001,36.846944444444446],[-92.78472222222221,36.86472222222223],[-92.75277777777778,36.869166666666665],[-92.6261111111111,36.88722222222222],[-92.59444444444443,36.89194444444444],[-92.46833333333333,36.90972222222222],[-92.43555555555555,36.91416666666667],[-92.30833333333334,36.931666666666665],[-92.27416666666666,36.936388888888885],[-92.14805555555556,36.953611111111115],[-92.11583333333333,36.95805555555556],[-91.98722222222223,36.97555555555556],[-91.95333333333333,36.98027777777778],[-91.82555555555555,36.9975],[-91.79305555555555,37.001666666666665],[-91.665,37.01888888888889],[-91.63277777777778,37.02305555555555],[-91.50305555555556,37.04],[-91.47055555555556,37.044444444444444],[-91.34194444444444,37.061388888888885],[-91.275,37.07],[-91.17805555555556,37.08222222222223],[-91.1125,37.090833333333336],[-91.01444444444445,37.10333333333333],[-90.94888888888889,37.111666666666665],[-90.85,37.12416666666667],[-90.785,37.132222222222225],[-90.68166666666667,37.144999999999996],[-90.64972222222222,37.14888888888889],[-90.51444444444445,37.165277777777774],[-90.4825,37.16916666666666],[-90.34694444444445,37.18583333333333],[-90.31277777777777,37.19],[-90.21861111111112,37.20138888888889],[-90.18,37.20583333333334],[-90.1463888888889,37.21],[-90.05222222222221,37.22138888888889],[-90.01277777777777,37.22555555555556],[-89.97777777777777,37.22972222222222],[-89.8863888888889,37.24],[-89.8125,37.24888888888889],[-89.72055555555556,37.25888888888889],[-89.67722222222223,37.264722222222225],[-89.64527777777778,37.26833333333333],[-89.55499999999999,37.27861111111111],[-89.47805555555556,37.2875],[-89.39222222222223,37.29722222222222],[-89.34444444444443,37.302499999999995],[-89.17944444444444,37.32083333333334],[-89.14472222222223,37.32472222222223],[-89.06305555555555,37.33361111111111],[-88.89861111111112,37.35138888888889],[-88.84833333333333,37.356944444444444],[-88.73611111111111,37.36888888888889],[-88.68305555555555,37.374722222222225],[-88.51722222222222,37.39222222222222],[-88.39916666666667,37.404444444444444],[-88.35166666666666,37.409444444444446],[-88.03055555555555,37.44194444444444],[-87.89861111111112,37.45444444444445],[-87.86388888888888,37.456944444444446],[-87.72833333333334,37.46638888888889],[-87.69500000000001,37.46888888888889],[-87.56055555555555,37.47888888888889],[-87.52777777777777,37.481388888888894],[-87.39277777777778,37.49138888888889],[-87.19055555555556,37.505833333333335],[-87.05361111111111,37.51555555555556],[-86.88527777777779,37.526944444444446],[-86.68388888888889,37.54111111111111],[-86.53166666666667,37.551111111111105],[-86.5175,37.55222222222222],[-86.34916666666666,37.562777777777775],[-86.21666666666667,37.571111111111115],[-86.18444444444445,37.57333333333334],[-86.03166666666667,37.581944444444446],[-86.01527777777778,37.580555555555556],[-85.84472222222222,37.55333333333333],[-85.69361111111111,37.529444444444444],[-85.67527777777778,37.526666666666664],[-85.52277777777778,37.5025],[-85.18916666666667,37.45111111111111],[-85.02305555555556,37.42583333333333],[-84.85305555555556,37.40083333333333],[-84.6863888888889,37.37694444444445],[-84.51861111111111,37.355555555555554],[-84.35333333333332,37.33833333333334],[-84.18472222222222,37.31916666666667],[-84.01694444444445,37.29972222222222],[-83.85138888888888,37.280833333333334],[-83.68555555555555,37.26027777777778],[-83.52027777777778,37.23861111111111],[-83.35527777777777,37.21666666666667],[-83.19361111111111,37.19472222222222],[-83.03027777777778,37.17305555555555],[-82.73527777777778,37.13583333333333],[-82.57333333333332,37.11638888888889],[-82.41055555555556,37.096944444444446],[-82.24722222222222,37.0775],[-82.08166666666666,37.058611111111105],[-81.95027777777779,37.04333333333333],[-81.93555555555555,37.041666666666664],[-81.91694444444445,37.03972222222222],[-81.76888888888888,37.026944444444446],[-81.61777777777777,37.014722222222225],[-81.58444444444444,37.01277777777778],[-81.43805555555556,37.00388888888889],[-81.4063888888889,37.001666666666665],[-81.30305555555556,36.99444444444445],[-81.16055555555556,36.987500000000004],[-81.1,36.98583333333333],[-81.0675,36.985],[-80.99944444444445,36.983333333333334],[-80.93,36.981388888888894],[-80.89888888888889,36.980555555555554],[-80.82972222222222,36.97833333333333],[-80.73111111111112,36.989444444444445],[-80.67472222222223,37.010555555555555],[-80.59166666666667,37.04555555555555],[-80.535,37.06916666666667],[-80.45055555555555,37.103611111111114],[-80.39500000000001,37.126111111111115],[-80.30749999999999,37.161944444444444],[-80.25111111111111,37.184999999999995],[-80.16277777777778,37.221111111111114],[-80.10499999999999,37.24472222222222],[-80.01694444444445,37.280277777777776],[-79.9575,37.30416666666667],[-79.87055555555555,37.339444444444446],[-79.81333333333333,37.362500000000004],[-79.72361111111111,37.39861111111111],[-79.66472222222222,37.42222222222222],[-79.57777777777777,37.456944444444446],[-79.49555555555555,37.48972222222222],[-79.34666666666666,37.54972222222222],[-79.19527777777778,37.60888888888889],[-79.0461111111111,37.668055555555554],[-78.89583333333334,37.72777777777778],[-78.74305555555556,37.786944444444444],[-78.4388888888889,37.90361111111111],[-78.2863888888889,37.96361111111111],[-78.1375,38.02027777777778],[-78.00083333333333,38.08972222222222],[-77.87194444444444,38.153888888888886],[-77.75194444444445,38.21222222222222],[-77.63583333333334,38.27166666666667],[-77.51861111111111,38.328611111111115],[-77.40138888888889,38.38666666666666],[-77.28416666666666,38.44416666666666],[-77.16666666666667,38.501666666666665],[-77.04916666666666,38.558611111111105],[-76.92777777777778,38.617222222222225],[-76.79555555555555,38.66833333333333],[-76.65666666666667,38.70194444444445],[-76.49277777777777,38.742222222222225],[-76.36638888888888,38.772777777777776],[-76.10666666666665,38.835],[-75.99,38.86138888888889],[-75.86833333333333,38.88611111111111],[-75.81666666666666,38.916666666666664],[-75.78,38.95333333333333],[-75.75,38.983333333333334],[-75.70861111111111,39.02833333333333],[-75.68333333333334,39.083333333333336],[-75.67222222222223,39.11472222222223],[-75.66666666666667,39.166666666666664],[-75.66222222222223,39.20416666666667],[-75.65,39.25],[-75.64444444444445,39.293055555555554],[-75.61666666666666,39.333333333333336],[-75.58527777777778,39.363055555555555],[-75.55,39.38333333333333],[-75.49777777777778,39.4075],[-75.45,39.416666666666664],[-75.4,39.43722222222222],[-75.35,39.45],[-75.30388888888889,39.465833333333336],[-75.26666666666667,39.483333333333334],[-75.23138888888889,39.52388888888889],[-75.21666666666667,39.55],[-75.18333333333334,39.59027777777778],[-75.16666666666667,39.61666666666667],[-75.135,39.657222222222224],[-75.11666666666666,39.68333333333333],[-75.09555555555555,39.71222222222222],[-75.08333333333333,39.733333333333334],[-75.03805555555556,39.76083333333333],[-75.01666666666667,39.766666666666666],[-74.97972222222222,39.802499999999995],[-74.96666666666667,39.81666666666667],[-74.93194444444445,39.84805555555556],[-74.93333333333334,39.86666666666667],[-74.95,39.916666666666664],[-75.00138888888888,39.914722222222224],[-75.06083333333333,39.90333333333333],[-75.06666666666666,39.9],[-75.12055555555555,39.89138888888889],[-75.13333333333334,39.88333333333333],[-75.18333333333334,39.88333333333333],[-75.22722222222222,39.87027777777778]],"type":"LineString"}
}
