{
  "id": 2031964765,
  "type": "Feature",
  "properties": {
    "geom:area": 0,
    "geom:bbox": "-122.340278,30.124722,-97.699722,37.866389",
    "geom:latitude": 33.83253831612292,
    "geom:longitude": -110.26594391320128,
    "src:alt_label": "swim-path",
    "src:geom": "swim",
    "swim:altitudes": [
      "023",
      "029",
      "042",
      "058",
      "072",
      "102",
      "113",
      "135",
      "175",
      "193",
      "210",
      "225",
      "240",
      "267",
      "277",
      "286",
      "311",
      "323",
      "338",
      "348",
      "356",
      "360C",
      "360C",
      "360C",
      "360C",
      "360C",
      "360C",
      "360C",
      "360C",
      "360C",
      "360C",
      "360C",
      "360C",
      "360C",
      "360C",
      "360C",
      "360C",
      "360C",
      "360C",
      "360C",
      "360C",
      "360C",
      "360C",
      "360C",
      "360C",
      "360C",
      "360C",
      "360C",
      "360C",
      "360C",
      "360C",
      "360C",
      "360C",
      "360C",
      "360C",
      "360C",
      "360C",
      "360C",
      "360C",
      "360C",
      "360C",
      "360C",
      "360C",
      "360C",
      "360C",
      "361",
      "372",
      "380C",
      "380C",
      "380C",
      "380C",
      "380C",
      "380C",
      "380C",
      "380C",
      "380C",
      "380C",
      "380C",
      "380C",
      "380C",
      "380C",
      "380C",
      "380C",
      "380C",
      "380C",
      "380C",
      "380C",
      "380C",
      "380C",
      "380C",
      "380C",
      "380C",
      "380C",
      "380C",
      "380C",
      "380C",
      "380C",
      "380C",
      "380C",
      "380C",
      "380C",
      "380C",
      "380C",
      "380C",
      "380C",
      "380C",
      "380C",
      "380C",
      "380C",
      "380C",
      "380C",
      "380C",
      "380C",
      "380C",
      "380C",
      "380C",
      "380C",
      "380C",
      "380C",
      "380C",
      "380C",
      "380C",
      "380C",
      "380C",
      "380C",
      "380C",
      "380C",
      "380C",
      "380C",
      "380C",
      "380C",
      "380C",
      "380C",
      "380C",
      "380C",
      "380C",
      "380C",
      "380C",
      "380C",
      "380C",
      "380C",
      "380C",
      "380C",
      "380C",
      "380C",
      "380C",
      "380C",
      "380C",
      "380C",
      "380C",
      "380C",
      "380",
      "380",
      "380",
      "380",
      "380",
      "375",
      "349",
      "316",
      "295",
      "289",
      "266",
      "248",
      "243",
      "221",
      "201",
      "194",
      "190",
      "179",
      "162",
      "151",
      "148",
      "132",
      "130",
      "121",
      "119",
      "105",
      "093",
      "090",
      "036",
      "026",
      "011",
      "011",
      "004"
    ],
    "swim:geom": "path",
    "swim:speeds": [
      197,
      216,
      233,
      239,
      272,
      296,
      348,
      370,
      397,
      407,
      419,
      431,
      442,
      461,
      470,
      480,
      487,
      486,
      477,
      473,
      471,
      473,
      474,
      475,
      475,
      475,
      474,
      474,
      474,
      475,
      479,
      481,
      482,
      482,
      481,
      481,
      481,
      480,
      479,
      477,
      476,
      474,
      473,
      472,
      471,
      470,
      468,
      468,
      476,
      478,
      478,
      479,
      479,
      479,
      478,
      479,
      480,
      479,
      479,
      478,
      479,
      481,
      486,
      486,
      485,
      484,
      481,
      478,
      477,
      478,
      482,
      479,
      479,
      480,
      480,
      479,
      480,
      479,
      478,
      477,
      477,
      477,
      478,
      479,
      481,
      481,
      486,
      482,
      487,
      482,
      482,
      495,
      483,
      483,
      484,
      486,
      487,
      486,
      489,
      487,
      487,
      488,
      489,
      490,
      490,
      486,
      484,
      484,
      484,
      484,
      484,
      484,
      484,
      483,
      482,
      481,
      480,
      480,
      478,
      476,
      474,
      472,
      471,
      471,
      470,
      471,
      472,
      471,
      470,
      468,
      469,
      469,
      470,
      469,
      468,
      465,
      463,
      459,
      459,
      458,
      457,
      419,
      415,
      413,
      410,
      410,
      411,
      411,
      411,
      411,
      412,
      412,
      410,
      411,
      411,
      410,
      407,
      403,
      423,
      431,
      428,
      418,
      415,
      409,
      396,
      380,
      336,
      327,
      320,
      321,
      302,
      306,
      300,
      257,
      243,
      246,
      240,
      237,
      239,
      192,
      169,
      154,
      151,
      140
    ],
    "swim:timestamps": [
      1785014258,
      1785014285,
      1785014312,
      1785014345,
      1785014384,
      1785014465,
      1785014525,
      1785014586,
      1785014706,
      1785014766,
      1785014826,
      1785014886,
      1785014946,
      1785015066,
      1785015126,
      1785015186,
      1785015307,
      1785015367,
      1785015427,
      1785015487,
      1785015547,
      1785015607,
      1785015667,
      1785015727,
      1785015787,
      1785015847,
      1785015968,
      1785016028,
      1785016088,
      1785016148,
      1785016268,
      1785016328,
      1785016388,
      1785016448,
      1785016569,
      1785016629,
      1785016689,
      1785016810,
      1785016870,
      1785016930,
      1785016990,
      1785017050,
      1785017110,
      1785017170,
      1785017230,
      1785017291,
      1785017411,
      1785017471,
      1785017711,
      1785017771,
      1785017831,
      1785017891,
      1785017952,
      1785018012,
      1785018072,
      1785018132,
      1785018252,
      1785018312,
      1785018372,
      1785018492,
      1785018613,
      1785018673,
      1785018853,
      1785018913,
      1785018973,
      1785019033,
      1785019093,
      1785019153,
      1785019214,
      1785019274,
      1785019323,
      1785019334,
      1785019394,
      1785019503,
      1785019563,
      1785019574,
      1785019623,
      1785019683,
      1785019743,
      1785019754,
      1785019804,
      1785019811,
      1785019864,
      1785019932,
      1785019984,
      1785020052,
      1785020104,
      1785020112,
      1785020164,
      1785020172,
      1785020232,
      1785020284,
      1785020292,
      1785020352,
      1785020412,
      1785020465,
      1785020525,
      1785020585,
      1785020645,
      1785020653,
      1785020713,
      1785020765,
      1785020825,
      1785020885,
      1785020893,
      1785020953,
      1785021005,
      1785021013,
      1785021065,
      1785021073,
      1785021133,
      1785021194,
      1785021254,
      1785021314,
      1785021366,
      1785021426,
      1785021486,
      1785021546,
      1785021606,
      1785021666,
      1785021726,
      1785021786,
      1785021967,
      1785022027,
      1785022087,
      1785022207,
      1785022267,
      1785022327,
      1785022387,
      1785022451,
      1785022508,
      1785022568,
      1785022628,
      1785022688,
      1785022748,
      1785022812,
      1785022868,
      1785022928,
      1785022988,
      1785023048,
      1785023108,
      1785023169,
      1785023229,
      1785023289,
      1785023349,
      1785023412,
      1785023473,
      1785023533,
      1785023593,
      1785023653,
      1785023713,
      1785023773,
      1785023833,
      1785023893,
      1785023953,
      1785024013,
      1785024073,
      1785024133,
      1785024193,
      1785024238,
      1785024253,
      1785024314,
      1785024358,
      1785024374,
      1785024434,
      1785024494,
      1785024554,
      1785024614,
      1785024664,
      1785024734,
      1785024779,
      1785024794,
      1785024844,
      1785024914,
      1785024959,
      1785024974,
      1785025034,
      1785025079,
      1785025094,
      1785025335,
      1785025395,
      1785025505,
      1785025515,
      1785025575
    ],
    "wof:geomhash": "7bc7361929bd59114ae6882b28e5be1c",
    "wof:id": 2031964765,
    "wof:repo": "sfomuseum-data-flights-2026-07"
  },
  "bbox": [
    -122.34027777777777,
    30.12472222222222,
    -97.69972222222222,
    37.86638888888889
  ],
  "geometry": {"coordinates":[[-97.69972222222222,30.153888888888886],[-97.71638888888889,30.134166666666665],[-97.74916666666667,30.12472222222222],[-97.77944444444444,30.14611111111111],[-97.80944444444444,30.184722222222224],[-97.88111111111111,30.274444444444445],[-97.97833333333334,30.290277777777778],[-98.09305555555555,30.313333333333333],[-98.33777777777777,30.370555555555555],[-98.46666666666667,30.400555555555552],[-98.59583333333333,30.43027777777778],[-98.7286111111111,30.461111111111112],[-98.86749999999999,30.493055555555557],[-99.1538888888889,30.558333333333334],[-99.28166666666667,30.58722222222222],[-99.43166666666667,30.620555555555555],[-99.73444444444445,30.688055555555557],[-99.88666666666667,30.721666666666664],[-100.03277777777778,30.753888888888888],[-100.17888888888889,30.785833333333336],[-100.325,30.817777777777778],[-100.4725,30.849444444444444],[-100.62222222222222,30.88138888888889],[-100.77194444444444,30.913055555555555],[-100.94944444444445,30.950833333333332],[-101.09888888888888,30.98222222222222],[-101.39527777777778,31.04416666666667],[-101.54333333333334,31.07472222222222],[-101.69416666666667,31.105555555555558],[-101.8436111111111,31.135833333333334],[-102.14583333333334,31.197222222222223],[-102.30055555555555,31.227777777777778],[-102.42972222222222,31.253611111111113],[-102.58277777777778,31.28388888888889],[-102.8888888888889,31.343888888888888],[-103.04194444444444,31.373333333333335],[-103.19361111111111,31.4025],[-103.49972222222222,31.460555555555555],[-103.65027777777779,31.489166666666666],[-103.80333333333333,31.517777777777777],[-103.9625,31.547222222222224],[-104.11166666666666,31.57472222222222],[-104.26194444444444,31.602222222222224],[-104.40944444444445,31.628888888888888],[-104.55833333333334,31.65583333333333],[-104.70777777777778,31.68277777777778],[-105.00555555555556,31.735555555555557],[-105.15333333333334,31.761388888888888],[-105.77916666666667,31.86916666666667],[-105.93305555555555,31.895],[-106.08694444444444,31.920833333333334],[-106.23861111111111,31.94611111111111],[-106.385,31.988611111111112],[-106.53027777777778,32.035555555555554],[-106.66611111111112,32.07944444444445],[-106.81305555555555,32.12638888888889],[-107.11666666666666,32.223333333333336],[-107.27222222222223,32.27222222222222],[-107.41472222222222,32.3175],[-107.70361111111112,32.40555555555555],[-108.0038888888889,32.46027777777778],[-108.15916666666668,32.48888888888889],[-108.63027777777778,32.57666666666667],[-108.78722222222223,32.60666666666667],[-108.94305555555556,32.63638888888889],[-109.09944444444444,32.66583333333333],[-109.25611111111111,32.69499999999999],[-109.40861111111111,32.722500000000004],[-109.56416666666667,32.75138888888889],[-109.71861111111112,32.77972222222222],[-109.85666666666665,32.802499999999995],[-109.8736111111111,32.808055555555555],[-110.02777777777777,32.83527777777778],[-110.3236111111111,32.87388888888889],[-110.48,32.89388888888889],[-110.49527777777777,32.89805555555556],[-110.63722222222223,32.91416666666667],[-110.79222222222222,32.934999999999995],[-110.94777777777779,32.95416666666667],[-110.95277777777778,32.95666666666667],[-111.10333333333332,32.9775],[-111.10888888888888,32.98222222222223],[-111.25222222222222,33.01777777777777],[-111.40444444444445,33.0775],[-111.53722222222223,33.136944444444445],[-111.68138888888889,33.21222222222222],[-111.80027777777778,33.2875],[-111.80749999999999,33.29333333333333],[-111.91777777777779,33.37861111111111],[-111.92805555555556,33.385555555555555],[-112.04722222222222,33.476111111111116],[-112.15694444444445,33.55972222222222],[-112.16777777777779,33.56722222222223],[-112.28833333333333,33.6575],[-112.40944444444445,33.74888888888889],[-112.5175,33.82972222222222],[-112.63833333333334,33.919444444444444],[-112.75972222222222,34.00944444444445],[-112.88111111111111,34.09916666666667],[-112.89750000000001,34.11138888888889],[-113.01916666666666,34.20111111111111],[-113.13416666666667,34.285555555555554],[-113.25944444444444,34.37694444444445],[-113.3825,34.466944444444444],[-113.38027777777778,34.46527777777778],[-113.5038888888889,34.55555555555555],[-113.62722222222222,34.64472222222222],[-113.62527777777777,34.643055555555556],[-113.75166666666667,34.73444444444444],[-113.74972222222222,34.73277777777778],[-113.8711111111111,34.82027777777778],[-114.01027777777777,34.91972222222222],[-114.13138888888888,35.00611111111111],[-114.25444444444445,35.094166666666666],[-114.35499999999999,35.165277777777774],[-114.47888888888889,35.2525],[-114.60194444444444,35.339444444444446],[-114.72500000000001,35.42583333333333],[-114.84805555555555,35.51166666666666],[-114.9875,35.60888888888889],[-115.10194444444444,35.68805555555555],[-115.21583333333334,35.76694444444444],[-115.5886111111111,36.022777777777776],[-115.71277777777777,36.10722222222223],[-115.83999999999999,36.19361111111111],[-116.07805555555555,36.35444444444445],[-116.20527777777778,36.439722222222215],[-116.33055555555555,36.52361111111111],[-116.45527777777778,36.606944444444444],[-116.60416666666666,36.70583333333334],[-116.70527777777778,36.7725],[-116.81944444444444,36.865833333333335],[-116.92722222222223,36.963055555555556],[-117.03666666666666,37.06194444444444],[-117.14250000000001,37.15972222222222],[-117.24638888888889,37.29222222222222],[-117.31333333333333,37.37972222222222],[-117.39500000000001,37.487500000000004],[-117.4786111111111,37.59777777777778],[-117.56138888888889,37.70861111111111],[-117.64166666666668,37.81861111111112],[-117.77388888888889,37.86638888888889],[-117.91777777777779,37.85777777777778],[-118.06388888888888,37.85055555555556],[-118.2063888888889,37.84305555555556],[-118.34944444444444,37.834722222222226],[-118.49361111111111,37.82638888888889],[-118.63722222222223,37.81805555555556],[-118.78277777777778,37.80916666666666],[-118.9413888888889,37.79944444444444],[-119.08694444444444,37.790277777777774],[-119.23055555555555,37.78111111111111],[-119.3736111111111,37.77166666666667],[-119.51694444444445,37.76222222222222],[-119.66222222222223,37.75222222222222],[-119.80416666666666,37.7425],[-119.94666666666667,37.7325],[-120.08722222222222,37.722500000000004],[-120.23444444444445,37.71138888888889],[-120.35,37.7],[-120.38555555555556,37.700833333333335],[-120.5325,37.68444444444444],[-120.63333333333334,37.666666666666664],[-120.67194444444445,37.668055555555554],[-120.8111111111111,37.65138888888889],[-120.94333333333334,37.63527777777778],[-121.06333333333333,37.61972222222222],[-121.17222222222223,37.605000000000004],[-121.26666666666667,37.6],[-121.39444444444445,37.57777777777778],[-121.48333333333333,37.56666666666667],[-121.49833333333333,37.565555555555555],[-121.58333333333333,37.55],[-121.67694444444444,37.49777777777778],[-121.73333333333333,37.46666666666667],[-121.7475,37.46],[-121.81666666666666,37.42361111111111],[-121.88333333333334,37.43333333333333],[-121.89944444444446,37.430277777777775],[-122.14750000000001,37.52333333333333],[-122.20277777777778,37.54611111111111],[-122.28333333333333,37.583333333333336],[-122.29722222222222,37.586111111111116],[-122.34027777777777,37.60416666666667]],"type":"LineString"}
}
