{
  "id": 2031965041,
  "type": "Feature",
  "properties": {
    "geom:area": 0,
    "geom:bbox": "-122.358750,36.754790,-121.896300,37.611780",
    "geom:latitude": 37.22862518956009,
    "geom:longitude": -122.0766499372468,
    "src:alt_label": "swim-approach",
    "src:geom": "swim",
    "swim:elevations": [
      5067,
      4848,
      4531,
      4328,
      4062,
      3860,
      3528,
      3422,
      3365,
      3302,
      3049,
      2847,
      2644,
      2569,
      2228,
      2158,
      2041,
      1836,
      1765,
      1557,
      1429,
      1377,
      1265,
      1101,
      936,
      914,
      765,
      632,
      337,
      275,
      80,
      68,
      0
    ],
    "swim:geom": "approach",
    "swim:timestamps": [
      1784967449,
      1784967472,
      1784967507,
      1784967531,
      1784967562,
      1784967584,
      1784967624,
      1784967645,
      1784967658,
      1784967663,
      1784967694,
      1784967747,
      1784967777,
      1784967788,
      1784967837,
      1784967848,
      1784967867,
      1784967897,
      1784967916,
      1784967957,
      1784967979,
      1784967987,
      1784968007,
      1784968042,
      1784968077,
      1784968084,
      1784968116,
      1784968147,
      1784968213,
      1784968232,
      1784968288,
      1784968292,
      1784968303
    ],
    "wof:geomhash": "14a926c3301160af13eb59e9e40e0746",
    "wof:id": 2031965041,
    "wof:repo": "sfomuseum-data-flights-2026-07"
  },
  "bbox": [
    -122.35875,
    36.75479,
    -121.8963,
    37.61178
  ],
  "geometry": {"coordinates":[[-121.8963,36.75479],[-121.90878,36.79433],[-121.92502,36.85164],[-121.93586,36.8904],[-121.94965,36.94007],[-121.96156,36.97356],[-121.98478,37.0337],[-121.99664,37.06404],[-122.00362,37.08166],[-122.00692,37.09007],[-122.02351,37.13252],[-122.05075,37.20198],[-122.06528,37.23885],[-122.07045,37.25195],[-122.09312,37.30979],[-122.09809,37.32204],[-122.10601,37.3425],[-122.1189,37.37505],[-122.12597,37.39477],[-122.13896,37.43342],[-122.14539,37.45312],[-122.14776,37.45997],[-122.1538,37.47719],[-122.16361,37.50614],[-122.17672,37.53374],[-122.18195,37.53734],[-122.21047,37.5496],[-122.23798,37.56101],[-122.29234,37.58398],[-122.30566,37.58956],[-122.34711,37.60692],[-122.35001,37.60816],[-122.35875,37.61178]],"type":"LineString"}
}
