{
  "id": 2031942265,
  "type": "Feature",
  "properties": {
    "geom:area": 0,
    "geom:bbox": "-122.359910,37.492050,-121.246420,37.614620",
    "geom:latitude": 37.543174007045245,
    "geom:longitude": -121.81029736457367,
    "src:alt_label": "swim-approach",
    "src:geom": "swim",
    "swim:elevations": [
      4809,
      4599,
      4477,
      4272,
      4066,
      3626,
      3368,
      3180,
      2989,
      2772,
      2622,
      2531,
      2294,
      2253,
      2135,
      2134,
      2004,
      1931,
      1786,
      1466,
      1350,
      1281,
      1167,
      1034,
      943,
      780,
      644,
      628,
      511,
      466,
      376,
      358,
      250,
      191,
      0
    ],
    "swim:geom": "approach",
    "swim:timestamps": [
      1784836462,
      1784836481,
      1784836494,
      1784836515,
      1784836533,
      1784836576,
      1784836602,
      1784836640,
      1784836676,
      1784836705,
      1784836726,
      1784836746,
      1784836791,
      1784836797,
      1784836826,
      1784836850,
      1784836886,
      1784836894,
      1784836912,
      1784836948,
      1784836970,
      1784836980,
      1784836999,
      1784837023,
      1784837042,
      1784837077,
      1784837108,
      1784837113,
      1784837139,
      1784837155,
      1784837169,
      1784837183,
      1784837212,
      1784837224,
      1784837274
    ],
    "wof:geomhash": "140ddd78a7875354cc2857bf4cf4114b",
    "wof:id": 2031942265,
    "wof:repo": "sfomuseum-data-flights-2026-07"
  },
  "bbox": [
    -122.35991,
    37.49205,
    -121.24642,
    37.61462
  ],
  "geometry": {"coordinates":[[-121.24642,37.59489],[-121.28529,37.58972],[-121.31148,37.58675],[-121.35516,37.58219],[-121.39194,37.57812],[-121.47759,37.56795],[-121.52734,37.56207],[-121.599,37.55388],[-121.66058,37.54228],[-121.70787,37.53106],[-121.74115,37.52308],[-121.77294,37.51545],[-121.84172,37.49883],[-121.85069,37.49661],[-121.89504,37.49205],[-121.93005,37.49418],[-121.98483,37.49712],[-121.99787,37.49788],[-122.02455,37.49926],[-122.07473,37.50221],[-122.10372,37.50658],[-122.11515,37.51083],[-122.13579,37.52013],[-122.1599,37.53056],[-122.17809,37.53826],[-122.20903,37.55118],[-122.23541,37.56239],[-122.23985,37.56423],[-122.26027,37.5728],[-122.27158,37.57759],[-122.28205,37.5821],[-122.29205,37.58614],[-122.31264,37.59486],[-122.32211,37.59883],[-122.35991,37.61462]],"type":"LineString"}
}
