{
  "id": 2031960187,
  "type": "Feature",
  "properties": {
    "geom:area": 0,
    "geom:bbox": "-122.533333,33.950000,-118.230556,37.666667",
    "geom:latitude": 35.72706254637018,
    "geom:longitude": -120.40879921013415,
    "src:alt_label": "swim-path",
    "src:geom": "swim",
    "swim:altitudes": [
      "010",
      "017",
      "037",
      "055",
      "092",
      "096",
      "151",
      "180",
      "190",
      "212",
      "236",
      "256",
      "278",
      "295",
      "312",
      "350C",
      "350C",
      "350C",
      "350C",
      "350C",
      "350C",
      "350C",
      "350C",
      "350",
      "331",
      "298",
      "290",
      "290",
      "290",
      "290",
      "290",
      "277",
      "254",
      "236",
      "229",
      "218",
      "214",
      "192",
      "176",
      "171",
      "156",
      "150",
      "135",
      "126",
      "122",
      "099",
      "095",
      "085",
      "082",
      "076",
      "073",
      "062",
      "053",
      "043",
      "039",
      "027",
      "022",
      "015",
      "011",
      "006",
      "005"
    ],
    "swim:geom": "path",
    "swim:speeds": [
      136,
      134,
      200,
      265,
      282,
      280,
      369,
      375,
      393,
      399,
      408,
      429,
      435,
      446,
      453,
      447,
      434,
      433,
      432,
      435,
      437,
      439,
      441,
      424,
      408,
      418,
      418,
      418,
      419,
      421,
      422,
      417,
      408,
      398,
      389,
      382,
      385,
      373,
      360,
      362,
      349,
      352,
      339,
      297,
      301,
      273,
      278,
      276,
      277,
      248,
      247,
      242,
      238,
      216,
      212,
      187,
      185,
      159,
      163,
      138,
      141
    ],
    "swim:timestamps": [
      1784948213,
      1784948237,
      1784948297,
      1784948345,
      1784948405,
      1784948417,
      1784948541,
      1784948601,
      1784948658,
      1784948718,
      1784948781,
      1784948838,
      1784948898,
      1784948958,
      1784949018,
      1784949142,
      1784949258,
      1784949318,
      1784949382,
      1784949502,
      1784949562,
      1784949619,
      1784949682,
      1784949799,
      1784949863,
      1784949923,
      1784950043,
      1784950099,
      1784950159,
      1784950223,
      1784950340,
      1784950400,
      1784950463,
      1784950524,
      1784950539,
      1784950569,
      1784950584,
      1784950644,
      1784950684,
      1784950704,
      1784950743,
      1784950764,
      1784950803,
      1784950863,
      1784950884,
      1784950983,
      1784951004,
      1784951043,
      1784951064,
      1784951103,
      1784951124,
      1784951185,
      1784951224,
      1784951284,
      1784951305,
      1784951365,
      1784951425,
      1784951464,
      1784951485,
      1784951530,
      1784951545
    ],
    "wof:geomhash": "d9d3befe170b5f240c73f0907fccd931",
    "wof:id": 2031960187,
    "wof:repo": "sfomuseum-data-flights-2026-07"
  },
  "bbox": [
    -122.53333333333333,
    33.95,
    -118.23055555555555,
    37.666666666666664
  ],
  "geometry": {"coordinates":[[-122.38333333333334,37.61666666666667],[-122.40083333333334,37.62972222222222],[-122.45833333333334,37.65472222222222],[-122.53333333333333,37.666666666666664],[-122.53333333333333,37.6],[-122.53166666666667,37.58861111111111],[-122.39333333333335,37.42805555555555],[-122.29805555555555,37.355000000000004],[-122.20333333333333,37.290277777777774],[-122.10111111111111,37.214444444444446],[-121.98916666666666,37.12555555555556],[-121.88666666666667,37.05472222222222],[-121.77472222222222,36.97138888888889],[-121.66722222222222,36.88166666666667],[-121.56444444444445,36.79555555555555],[-121.3386111111111,36.60055555555556],[-121.14666666666668,36.44083333333333],[-121.04583333333333,36.355000000000004],[-120.92611111111111,36.2525],[-120.71972222222223,36.074444444444445],[-120.61749999999999,35.98583333333333],[-120.53222222222222,35.91166666666666],[-120.40944444444445,35.80472222222222],[-120.22416666666666,35.64222222222222],[-120.16888888888889,35.521388888888886],[-120.19222222222223,35.409166666666664],[-120.02305555555556,35.25361111111111],[-119.90611111111112,35.18194444444444],[-119.7925,35.111666666666665],[-119.68083333333334,35.04222222222222],[-119.45666666666666,34.8925],[-119.37277777777777,34.79944444444444],[-119.29305555555555,34.709722222222226],[-119.20805555555556,34.611666666666665],[-119.18333333333334,34.583333333333336],[-119.15,34.53333333333333],[-119.13305555555554,34.525],[-119.05805555555555,34.44083333333333],[-119,34.38333333333333],[-118.98861111111111,34.36055555555556],[-118.93333333333334,34.3],[-118.91805555555555,34.28194444444444],[-118.86666666666666,34.233333333333334],[-118.8,34.15],[-118.78444444444445,34.14083333333333],[-118.66666666666667,34.03333333333333],[-118.64944444444446,34.02861111111111],[-118.58333333333333,34.016666666666666],[-118.55777777777777,34.01972222222222],[-118.5,34.016666666666666],[-118.47444444444444,34.011944444444445],[-118.39416666666668,34.020833333333336],[-118.33333333333333,34.03333333333333],[-118.26666666666667,34.03333333333333],[-118.24055555555556,34.03916666666667],[-118.23055555555555,33.99805555555556],[-118.28027777777778,33.968333333333334],[-118.31666666666666,33.96666666666667],[-118.33305555555555,33.95916666666667],[-118.36666666666666,33.95],[-118.38,33.95416666666667]],"type":"LineString"}
}
