{
  "id": 2032024853,
  "type": "Feature",
  "properties": {
    "geom:area": 0,
    "geom:bbox": "-122.525710,37.625000,-121.990450,38.503410",
    "geom:latitude": 38.045127604390274,
    "geom:longitude": -122.30219415381755,
    "src:alt_label": "swim-takeoff",
    "src:geom": "swim",
    "swim:elevations": [
      152,
      986,
      1352,
      2235,
      2533,
      2955,
      3341,
      3418,
      3586,
      3998,
      4319,
      4661,
      4869,
      5020,
      5155,
      5386,
      5682,
      5864,
      6152,
      6380,
      6672,
      6966
    ],
    "swim:geom": "takeoff",
    "swim:timestamps": [
      1785346895,
      1785346972,
      1785347019,
      1785347085,
      1785347107,
      1785347140,
      1785347182,
      1785347198,
      1785347222,
      1785347257,
      1785347284,
      1785347312,
      1785347330,
      1785347344,
      1785347358,
      1785347381,
      1785347404,
      1785347427,
      1785347477,
      1785347501,
      1785347538,
      1785347571
    ],
    "wof:geomhash": "af0326682525e6408e1e8f1e14f8d566",
    "wof:id": 2032024853,
    "wof:repo": "sfomuseum-data-flights-2026-07"
  },
  "bbox": [
    -122.52571,
    37.625,
    -121.99045,
    38.50341
  ],
  "geometry": {"coordinates":[[-122.38953,37.625],[-122.45803,37.65444],[-122.5145,37.67967],[-122.52571,37.75757],[-122.52145,37.78601],[-122.49717,37.82654],[-122.45692,37.87699],[-122.43981,37.89988],[-122.41484,37.93351],[-122.37681,37.98536],[-122.34535,38.0268],[-122.31211,38.0692],[-122.29096,38.09555],[-122.27367,38.11682],[-122.25713,38.1374],[-122.22746,38.17432],[-122.19854,38.2101],[-122.16863,38.24593],[-122.10166,38.32912],[-122.07261,38.37202],[-122.02863,38.44155],[-121.99045,38.50341]],"type":"LineString"}
}
