{
  "id": 2031940037,
  "type": "Feature",
  "properties": {
    "geom:area": 0,
    "geom:bbox": "-123.326944,37.533333,-122.050000,45.651667",
    "geom:latitude": 41.36061122721384,
    "geom:longitude": -123.03623112390765,
    "src:alt_label": "swim-path",
    "src:geom": "swim",
    "swim:altitudes": [
      "021",
      "037",
      "076",
      "105",
      "139",
      "163",
      "183",
      "205",
      "227",
      "246",
      "264",
      "279",
      "296",
      "315",
      "333",
      "348C",
      "350C",
      "350C",
      "350C",
      "350C",
      "350C",
      "350C",
      "350C",
      "350C",
      "350C",
      "350C",
      "350C",
      "350C",
      "350C",
      "350C",
      "350C",
      "350C",
      "350C",
      "350C",
      "350C",
      "350C",
      "350C",
      "350C",
      "350C",
      "350C",
      "350C",
      "350",
      "350",
      "350",
      "350",
      "350",
      "350",
      "350",
      "322",
      "299",
      "280",
      "270",
      "249",
      "228",
      "189",
      "171",
      "155",
      "141",
      "125",
      "111C",
      "110C",
      "101",
      "076",
      "064",
      "057",
      "034",
      "024",
      "015",
      "014",
      "002"
    ],
    "swim:geom": "path",
    "swim:speeds": [
      214,
      257,
      277,
      280,
      347,
      360,
      374,
      386,
      393,
      400,
      405,
      411,
      413,
      413,
      400,
      391,
      388,
      388,
      388,
      388,
      390,
      391,
      392,
      393,
      393,
      394,
      395,
      395,
      397,
      395,
      395,
      397,
      398,
      399,
      399,
      399,
      401,
      403,
      404,
      404,
      402,
      401,
      402,
      401,
      400,
      399,
      399,
      398,
      397,
      398,
      393,
      389,
      377,
      368,
      349,
      331,
      307,
      294,
      290,
      287,
      265,
      260,
      251,
      223,
      196,
      185,
      182,
      170,
      154,
      134
    ],
    "swim:timestamps": [
      1784846413,
      1784846467,
      1784846577,
      1784846637,
      1784846757,
      1784846817,
      1784846877,
      1784846937,
      1784846997,
      1784847057,
      1784847117,
      1784847178,
      1784847238,
      1784847298,
      1784847358,
      1784847418,
      1784847478,
      1784847538,
      1784847658,
      1784847718,
      1784847778,
      1784847899,
      1784847959,
      1784848016,
      1784848136,
      1784848256,
      1784848316,
      1784848376,
      1784848436,
      1784848556,
      1784848616,
      1784848737,
      1784848797,
      1784848860,
      1784848977,
      1784849040,
      1784849157,
      1784849338,
      1784849458,
      1784849518,
      1784849638,
      1784849761,
      1784849938,
      1784849998,
      1784850059,
      1784850119,
      1784850179,
      1784850251,
      1784850311,
      1784850371,
      1784850431,
      1784850491,
      1784850551,
      1784850611,
      1784850731,
      1784850792,
      1784850852,
      1784850912,
      1784850972,
      1784851032,
      1784851092,
      1784851152,
      1784851272,
      1784851339,
      1784851393,
      1784851513,
      1784851568,
      1784851633,
      1784851639,
      1784851753
    ],
    "wof:geomhash": "b7bf275d650e735eeea18cc3789722ab",
    "wof:id": 2031940037,
    "wof:repo": "sfomuseum-data-flights-2026-07"
  },
  "bbox": [
    -123.32694444444444,
    37.53333333333333,
    -122.05,
    45.651666666666664
  ],
  "geometry": {"coordinates":[[-122.69083333333333,45.62361111111111],[-122.76583333333333,45.651666666666664],[-122.84638888888888,45.552499999999995],[-122.87444444444444,45.477222222222224],[-122.9388888888889,45.303888888888885],[-122.97611111111111,45.20805555555556],[-123.0261111111111,45.10916666666667],[-123.07694444444444,45.007777777777775],[-123.12972222222221,44.901666666666664],[-123.18194444444445,44.79666666666667],[-123.23611111111111,44.687777777777775],[-123.28999999999999,44.578611111111115],[-123.32694444444444,44.46555555555556],[-123.32277777777777,44.35166666666667],[-123.31805555555555,44.23916666666667],[-123.31416666666667,44.13166666666667],[-123.31,44.01638888888889],[-123.30555555555556,43.909166666666664],[-123.29666666666667,43.69333333333333],[-123.29277777777777,43.58583333333333],[-123.28833333333333,43.476111111111116],[-123.28,43.259166666666665],[-123.27583333333334,43.150555555555556],[-123.27166666666666,43.04944444444444],[-123.26361111111112,42.831388888888895],[-123.25444444444445,42.61138888888889],[-123.24972222222222,42.50222222222222],[-123.24722222222222,42.39222222222222],[-123.24305555555556,42.28138888888889],[-123.235,42.06305555555555],[-123.23083333333334,41.953611111111115],[-123.22277777777778,41.73361111111111],[-123.21888888888888,41.623333333333335],[-123.21416666666667,41.49],[-123.2075,41.279444444444444],[-123.205,41.17222222222222],[-123.19916666666667,40.947222222222216],[-123.19083333333333,40.611111111111114],[-123.18527777777778,40.38611111111111],[-123.18222222222222,40.274166666666666],[-123.17694444444444,40.05222222222222],[-123.16833333333334,39.82472222222223],[-123.10583333333332,39.5025],[-123.07638888888889,39.38666666666666],[-123.04916666666666,39.278888888888886],[-123.02194444444444,39.17055555555555],[-122.99416666666667,39.06083333333333],[-122.96722222222222,38.95305555555556],[-122.93472222222222,38.82361111111111],[-122.90722222222223,38.71388888888889],[-122.88055555555555,38.60722222222223],[-122.84972222222221,38.50388888888889],[-122.81972222222223,38.401944444444446],[-122.78999999999999,38.30138888888889],[-122.73472222222222,38.111111111111114],[-122.70861111111111,38.02055555555555],[-122.68444444444445,37.937777777777775],[-122.64083333333333,37.86888888888889],[-122.56416666666667,37.79666666666667],[-122.50027777777778,37.736111111111114],[-122.41638888888889,37.705555555555556],[-122.33111111111111,37.68055555555555],[-122.17027777777778,37.628055555555555],[-122.08333333333333,37.6],[-122.05,37.55],[-122.16666666666667,37.53333333333333],[-122.21666666666667,37.55],[-122.26833333333333,37.573888888888895],[-122.28333333333333,37.583333333333336],[-122.35222222222221,37.60916666666667]],"type":"LineString"}
}
