{
  "id": 2031981639,
  "type": "Feature",
  "properties": {
    "geom:area": 0,
    "geom:bbox": "-122.393680,37.626110,-121.427770,38.519110",
    "geom:latitude": 38.12740897015997,
    "geom:longitude": -122.01177585283196,
    "src:alt_label": "swim-takeoff",
    "src:geom": "swim",
    "swim:elevations": [
      183,
      579,
      612,
      726,
      772,
      1694,
      2458,
      2611,
      2841,
      3202,
      3275,
      3417,
      3632,
      4227,
      4423,
      4681,
      5096,
      5369,
      5425,
      5756,
      5971,
      6155
    ],
    "swim:geom": "takeoff",
    "swim:timestamps": [
      1785111319,
      1785111367,
      1785111376,
      1785111405,
      1785111415,
      1785111499,
      1785111567,
      1785111582,
      1785111609,
      1785111653,
      1785111671,
      1785111699,
      1785111750,
      1785111830,
      1785111855,
      1785111890,
      1785111955,
      1785111988,
      1785111997,
      1785112047,
      1785112077,
      1785112111
    ],
    "wof:geomhash": "53df88ca0348f08165de32e345d598a5",
    "wof:id": 2031981639,
    "wof:repo": "sfomuseum-data-flights-2026-07"
  },
  "bbox": [
    -122.39368,
    37.62611,
    -121.42777,
    38.51911
  ],
  "geometry": {"coordinates":[[-122.38653,37.62611],[-122.39368,37.6578],[-122.38787,37.66504],[-122.36564,37.69076],[-122.35665,37.70112],[-122.36359,37.79843],[-122.38575,37.88297],[-122.38474,37.90309],[-122.37779,37.93951],[-122.31891,37.98051],[-122.29119,37.99683],[-122.24468,38.0249],[-122.15671,38.07858],[-122.00553,38.17056],[-121.95663,38.20026],[-121.88746,38.2423],[-121.75668,38.32086],[-121.68793,38.36211],[-121.66921,38.37333],[-121.56487,38.43567],[-121.501,38.47398],[-121.42777,38.51911]],"type":"LineString"}
}
