{
  "id": 2032018897,
  "type": "Feature",
  "properties": {
    "geom:area": 0,
    "geom:bbox": "-122.354444,37.493889,-73.816667,40.690278",
    "geom:latitude": 39.43225757174009,
    "geom:longitude": -98.06358578739932,
    "src:alt_label": "swim-path",
    "src:geom": "swim",
    "swim:altitudes": [
      "005",
      "016",
      "035",
      "038",
      "060",
      "067",
      "114",
      "129",
      "170",
      "175",
      "215",
      "251",
      "268",
      "283",
      "290",
      "304",
      "324",
      "340C",
      "340C",
      "340C",
      "340C",
      "340C",
      "340C",
      "340C",
      "340C",
      "340C",
      "340C",
      "340C",
      "340C",
      "340C",
      "340C",
      "340C",
      "340C",
      "340C",
      "340C",
      "340C",
      "340C",
      "340C",
      "340C",
      "340C",
      "340C",
      "340C",
      "340C",
      "340C",
      "340C",
      "340C",
      "340C",
      "340C",
      "340C",
      "340C",
      "340C",
      "340C",
      "340C",
      "340C",
      "340C",
      "340C",
      "340C",
      "340C",
      "340C",
      "340C",
      "340C",
      "340C",
      "340C",
      "340C",
      "340C",
      "340C",
      "340C",
      "340C",
      "340C",
      "340C",
      "340C",
      "340C",
      "340C",
      "340C",
      "340C",
      "340C",
      "340C",
      "340C",
      "340C",
      "340C",
      "340C",
      "340C",
      "340C",
      "340C",
      "340C",
      "340C",
      "340C",
      "340C",
      "340C",
      "340C",
      "340C",
      "340C",
      "340C",
      "340C",
      "340C",
      "340C",
      "340C",
      "340C",
      "340C",
      "340C",
      "340C",
      "340C",
      "340C",
      "340C",
      "340C",
      "340C",
      "340C",
      "340C",
      "340C",
      "340C",
      "340C",
      "340C",
      "340C",
      "340C",
      "340C",
      "340C",
      "340C",
      "340C",
      "340C",
      "340C",
      "340C",
      "340C",
      "340C",
      "340C",
      "340C",
      "340C",
      "340C",
      "340C",
      "340C",
      "340C",
      "340C",
      "340C",
      "340C",
      "340C",
      "340C",
      "340C",
      "340C",
      "340C",
      "340C",
      "340C",
      "340C",
      "340C",
      "340C",
      "340C",
      "340C",
      "340C",
      "340C",
      "340C",
      "340C",
      "340C",
      "340C",
      "340C",
      "340C",
      "340C",
      "340C",
      "340C",
      "340C",
      "340C",
      "340C",
      "340C",
      "340C",
      "340C",
      "340C",
      "340C",
      "340C",
      "340C",
      "340C",
      "340C",
      "340C",
      "340C",
      "340C",
      "340C",
      "340C",
      "340C",
      "340C",
      "340C",
      "340C",
      "340C",
      "340C",
      "340C",
      "340C",
      "340C",
      "340C",
      "340C",
      "340C",
      "340C",
      "340C",
      "340C",
      "340C",
      "340C",
      "340C",
      "340C",
      "340C",
      "340C",
      "340C",
      "340C",
      "340C",
      "340C",
      "340C",
      "340C",
      "340C",
      "340C",
      "340C",
      "340C",
      "340C",
      "340C",
      "340C",
      "340C",
      "340C",
      "340C",
      "340C",
      "340C",
      "340C",
      "340C",
      "340C",
      "340C",
      "340C",
      "340C",
      "340C",
      "340C",
      "340C",
      "340C",
      "340C",
      "340C",
      "340C",
      "340C",
      "340C",
      "340C",
      "340C",
      "340C",
      "340C",
      "340C",
      "340C",
      "340C",
      "340C",
      "340C",
      "340C",
      "340C",
      "340C",
      "340C",
      "340C",
      "340C",
      "340C",
      "340C",
      "340C",
      "340C",
      "340C",
      "340C",
      "340C",
      "340C",
      "340C",
      "340C",
      "340C",
      "340C",
      "340C",
      "340C",
      "340C",
      "345",
      "352",
      "356",
      "360C",
      "360C",
      "360C",
      "360C",
      "360C",
      "360C",
      "360C",
      "360C",
      "360C",
      "360C",
      "360C",
      "360C",
      "360C",
      "360C",
      "360C",
      "360C",
      "360",
      "360",
      "366",
      "369",
      "374",
      "375",
      "380C",
      "380C",
      "380C",
      "380C",
      "380C",
      "380C",
      "380C",
      "380C",
      "380C",
      "380C",
      "380C",
      "380C",
      "380C",
      "380C",
      "380C",
      "380C",
      "380C",
      "380C",
      "380C",
      "380C",
      "380C",
      "380C",
      "380C",
      "380C",
      "380C",
      "380C",
      "380C",
      "380C",
      "380C",
      "380C",
      "380C",
      "380C",
      "380C",
      "380C",
      "380C",
      "380C",
      "380C",
      "380C",
      "380C",
      "380C",
      "380C",
      "380C",
      "380",
      "371",
      "360C",
      "360C",
      "360C",
      "360C",
      "360C",
      "360C",
      "360C",
      "360C",
      "360C",
      "360C",
      "360C",
      "360C",
      "360C",
      "360C",
      "360C",
      "360C",
      "360C",
      "360C",
      "360C",
      "360C",
      "360C",
      "360C",
      "360C",
      "360C",
      "360C",
      "360C",
      "360C",
      "360C",
      "360C",
      "360C",
      "360C",
      "360C",
      "360C",
      "360C",
      "360C",
      "360C",
      "360C",
      "360C",
      "360C",
      "360C",
      "360C",
      "360C",
      "360C",
      "360C",
      "360C",
      "360C",
      "360C",
      "360",
      "360",
      "360",
      "355",
      "328",
      "286",
      "265",
      "252",
      "244",
      "233",
      "222",
      "212",
      "202",
      "191",
      "185",
      "169",
      "162",
      "142",
      "129",
      "122",
      "110",
      "106",
      "102",
      "097",
      "087",
      "084",
      "078",
      "075",
      "068",
      "064",
      "060",
      "057",
      "047",
      "044",
      "036",
      "034",
      "025",
      "017",
      "011",
      "004",
      "002"
    ],
    "swim:geom": "path",
    "swim:speeds": [
      175,
      183,
      231,
      254,
      267,
      276,
      299,
      345,
      390,
      396,
      409,
      420,
      424,
      429,
      429,
      435,
      441,
      450,
      450,
      450,
      453,
      455,
      454,
      454,
      455,
      456,
      456,
      455,
      456,
      457,
      456,
      456,
      456,
      456,
      457,
      457,
      457,
      458,
      458,
      459,
      460,
      462,
      462,
      462,
      461,
      460,
      460,
      458,
      457,
      455,
      455,
      453,
      452,
      451,
      451,
      450,
      450,
      450,
      449,
      449,
      449,
      450,
      450,
      450,
      450,
      450,
      451,
      451,
      452,
      452,
      453,
      457,
      457,
      454,
      457,
      454,
      457,
      455,
      457,
      455,
      457,
      449,
      452,
      447,
      447,
      446,
      447,
      446,
      447,
      439,
      441,
      438,
      437,
      438,
      438,
      438,
      438,
      443,
      442,
      444,
      443,
      444,
      445,
      446,
      446,
      446,
      447,
      446,
      446,
      445,
      446,
      445,
      444,
      444,
      444,
      444,
      444,
      443,
      443,
      443,
      444,
      445,
      445,
      446,
      446,
      447,
      448,
      448,
      448,
      448,
      448,
      447,
      447,
      446,
      446,
      446,
      446,
      443,
      446,
      446,
      443,
      443,
      440,
      439,
      438,
      437,
      436,
      435,
      436,
      434,
      429,
      436,
      428,
      426,
      425,
      424,
      424,
      424,
      424,
      424,
      423,
      424,
      425,
      438,
      438,
      438,
      439,
      439,
      439,
      440,
      440,
      440,
      441,
      442,
      443,
      443,
      444,
      444,
      443,
      443,
      442,
      443,
      445,
      449,
      452,
      453,
      455,
      456,
      457,
      458,
      458,
      458,
      464,
      458,
      459,
      456,
      458,
      455,
      455,
      454,
      454,
      453,
      453,
      452,
      452,
      452,
      452,
      453,
      453,
      453,
      454,
      454,
      455,
      456,
      455,
      456,
      456,
      456,
      457,
      457,
      457,
      457,
      457,
      457,
      458,
      457,
      457,
      457,
      457,
      456,
      456,
      456,
      451,
      449,
      447,
      445,
      442,
      440,
      439,
      439,
      439,
      440,
      442,
      445,
      447,
      452,
      456,
      460,
      462,
      461,
      453,
      460,
      452,
      454,
      459,
      459,
      463,
      461,
      454,
      461,
      455,
      461,
      461,
      460,
      461,
      463,
      461,
      461,
      461,
      461,
      460,
      456,
      459,
      453,
      454,
      454,
      451,
      454,
      450,
      453,
      443,
      448,
      440,
      439,
      436,
      439,
      435,
      441,
      442,
      445,
      448,
      448,
      448,
      447,
      447,
      446,
      446,
      445,
      445,
      445,
      444,
      444,
      444,
      444,
      444,
      444,
      445,
      446,
      446,
      447,
      448,
      449,
      449,
      448,
      446,
      445,
      443,
      442,
      440,
      438,
      438,
      438,
      444,
      445,
      447,
      447,
      446,
      446,
      445,
      441,
      440,
      441,
      439,
      441,
      438,
      440,
      439,
      440,
      439,
      440,
      436,
      434,
      432,
      431,
      430,
      429,
      429,
      429,
      430,
      430,
      431,
      431,
      431,
      432,
      433,
      434,
      435,
      435,
      436,
      436,
      437,
      437,
      437,
      436,
      436,
      436,
      437,
      437,
      437,
      438,
      438,
      438,
      437,
      436,
      434,
      433,
      427,
      423,
      406,
      393,
      382,
      381,
      373,
      374,
      367,
      368,
      361,
      364,
      357,
      360,
      357,
      347,
      342,
      333,
      336,
      301,
      301,
      287,
      283,
      256,
      257,
      253,
      255,
      235,
      241,
      238,
      229,
      194,
      189,
      171,
      154,
      141,
      141,
      143
    ],
    "swim:timestamps": [
      1785358831,
      1785358862,
      1785358922,
      1785358933,
      1785358982,
      1785358994,
      1785359103,
      1785359163,
      1785359283,
      1785359343,
      1785359463,
      1785359583,
      1785359643,
      1785359704,
      1785359764,
      1785359828,
      1785359944,
      1785360064,
      1785360124,
      1785360184,
      1785360244,
      1785360365,
      1785360425,
      1785360549,
      1785360665,
      1785360725,
      1785360785,
      1785360830,
      1785360849,
      1785360910,
      1785360950,
      1785361010,
      1785361131,
      1785361150,
      1785361191,
      1785361251,
      1785361270,
      1785361311,
      1785361330,
      1785361390,
      1785361431,
      1785361510,
      1785361551,
      1785361571,
      1785361631,
      1785361671,
      1785361691,
      1785361751,
      1785361792,
      1785361852,
      1785361871,
      1785361931,
      1785361972,
      1785361991,
      1785362051,
      1785362092,
      1785362152,
      1785362172,
      1785362232,
      1785362292,
      1785362332,
      1785362472,
      1785362532,
      1785362592,
      1785362633,
      1785362652,
      1785362713,
      1785362753,
      1785362813,
      1785362873,
      1785362933,
      1785362963,
      1785363023,
      1785363053,
      1785363083,
      1785363114,
      1785363144,
      1785363174,
      1785363204,
      1785363234,
      1785363264,
      1785363294,
      1785363324,
      1785363354,
      1785363384,
      1785363414,
      1785363444,
      1785363474,
      1785363504,
      1785363534,
      1785363564,
      1785363606,
      1785363654,
      1785363666,
      1785363726,
      1785363780,
      1785363841,
      1785363955,
      1785363961,
      1785364015,
      1785364039,
      1785364099,
      1785364141,
      1785364219,
      1785364261,
      1785364279,
      1785364315,
      1785364351,
      1785364381,
      1785364435,
      1785364441,
      1785364501,
      1785364531,
      1785364556,
      1785364562,
      1785364591,
      1785364622,
      1785364652,
      1785364682,
      1785364712,
      1785364736,
      1785364832,
      1785364862,
      1785364892,
      1785364928,
      1785364952,
      1785365012,
      1785365042,
      1785365102,
      1785365132,
      1785365162,
      1785365192,
      1785365253,
      1785365313,
      1785365343,
      1785365373,
      1785365403,
      1785365419,
      1785365433,
      1785365463,
      1785365479,
      1785365539,
      1785365553,
      1785365583,
      1785365613,
      1785365643,
      1785365673,
      1785365703,
      1785365719,
      1785365733,
      1785365763,
      1785365780,
      1785365840,
      1785365854,
      1785365884,
      1785365968,
      1785366022,
      1785366032,
      1785366082,
      1785366092,
      1785366136,
      1785366200,
      1785366262,
      1785366317,
      1785366383,
      1785366443,
      1785366461,
      1785366501,
      1785366521,
      1785366581,
      1785366621,
      1785366641,
      1785366681,
      1785366741,
      1785366921,
      1785366942,
      1785366981,
      1785367002,
      1785367062,
      1785367101,
      1785367161,
      1785367222,
      1785367282,
      1785367402,
      1785367522,
      1785367582,
      1785367642,
      1785367702,
      1785367762,
      1785367822,
      1785367882,
      1785367943,
      1785367965,
      1785368003,
      1785368025,
      1785368063,
      1785368085,
      1785368123,
      1785368145,
      1785368183,
      1785368205,
      1785368243,
      1785368266,
      1785368303,
      1785368326,
      1785368363,
      1785368423,
      1785368446,
      1785368483,
      1785368506,
      1785368543,
      1785368604,
      1785368626,
      1785368686,
      1785368724,
      1785368746,
      1785368784,
      1785368844,
      1785368866,
      1785368926,
      1785368964,
      1785368987,
      1785369024,
      1785369047,
      1785369107,
      1785369167,
      1785369227,
      1785369287,
      1785369347,
      1785369407,
      1785369467,
      1785369527,
      1785369647,
      1785369708,
      1785369768,
      1785369828,
      1785369948,
      1785370068,
      1785370128,
      1785370188,
      1785370248,
      1785370308,
      1785370368,
      1785370428,
      1785370489,
      1785370549,
      1785370609,
      1785370669,
      1785370729,
      1785370813,
      1785370849,
      1785370873,
      1785370909,
      1785370933,
      1785370981,
      1785370993,
      1785371041,
      1785371113,
      1785371161,
      1785371173,
      1785371222,
      1785371234,
      1785371294,
      1785371342,
      1785371414,
      1785371462,
      1785371474,
      1785371534,
      1785371582,
      1785371654,
      1785371714,
      1785371762,
      1785371774,
      1785371882,
      1785371894,
      1785371955,
      1785372003,
      1785372015,
      1785372063,
      1785372075,
      1785372123,
      1785372135,
      1785372183,
      1785372195,
      1785372243,
      1785372255,
      1785372363,
      1785372423,
      1785372435,
      1785372483,
      1785372543,
      1785372555,
      1785372615,
      1785372664,
      1785372675,
      1785372724,
      1785372736,
      1785372784,
      1785372796,
      1785372844,
      1785372856,
      1785372904,
      1785372916,
      1785372976,
      1785373036,
      1785373156,
      1785373216,
      1785373276,
      1785373336,
      1785373396,
      1785373457,
      1785373517,
      1785373577,
      1785373637,
      1785373697,
      1785373757,
      1785373817,
      1785373877,
      1785373937,
      1785374057,
      1785374117,
      1785374177,
      1785374238,
      1785374298,
      1785374358,
      1785374418,
      1785374478,
      1785374538,
      1785374598,
      1785374746,
      1785374778,
      1785374806,
      1785374838,
      1785374866,
      1785374898,
      1785374926,
      1785374959,
      1785374986,
      1785375019,
      1785375046,
      1785375079,
      1785375106,
      1785375139,
      1785375166,
      1785375199,
      1785375287,
      1785375319,
      1785375347,
      1785375407,
      1785375439,
      1785375467,
      1785375499,
      1785375527,
      1785375559,
      1785375587,
      1785375619,
      1785375647,
      1785375679,
      1785375707,
      1785375740,
      1785375767,
      1785375800,
      1785375827,
      1785375920,
      1785375947,
      1785376007,
      1785376067,
      1785376128,
      1785376188,
      1785376248,
      1785376308,
      1785376368,
      1785376428,
      1785376488,
      1785376548,
      1785376608,
      1785376668,
      1785376728,
      1785376848,
      1785376909,
      1785376946,
      1785376969,
      1785377000,
      1785377029,
      1785377060,
      1785377089,
      1785377120,
      1785377149,
      1785377180,
      1785377209,
      1785377269,
      1785377300,
      1785377329,
      1785377360,
      1785377389,
      1785377420,
      1785377449,
      1785377480,
      1785377509,
      1785377546,
      1785377569,
      1785377601,
      1785377629,
      1785377666,
      1785377690,
      1785377726,
      1785377750,
      1785377786,
      1785377810,
      1785377870,
      1785377930,
      1785377967,
      1785378027,
      1785378050
    ],
    "wof:geomhash": "f80699dc8e7d1b79f9ec43905cdc65e6",
    "wof:id": 2032018897,
    "wof:repo": "sfomuseum-data-flights-2026-07"
  },
  "bbox": [
    -122.35444444444444,
    37.49388888888889,
    -73.81666666666666,
    40.69027777777777
  ],
  "geometry": {"coordinates":[[-73.81666666666666,40.65],[-73.84722222222221,40.64861111111111],[-73.90138888888889,40.60333333333333],[-73.91666666666667,40.583333333333336],[-73.95222222222222,40.54083333333333],[-73.96666666666667,40.516666666666666],[-74.06777777777778,40.40083333333333],[-74.165,40.347500000000004],[-74.40805555555556,40.25194444444445],[-74.55222222222221,40.236666666666665],[-74.84305555555555,40.218611111111116],[-75.14472222222223,40.198611111111106],[-75.29833333333333,40.18805555555555],[-75.45083333333334,40.17722222222222],[-75.60722222222222,40.16555555555556],[-75.75416666666666,40.155277777777776],[-76.07666666666667,40.13055555555555],[-76.3913888888889,40.10611111111111],[-76.55333333333333,40.10111111111111],[-76.71861111111112,40.10138888888889],[-76.8825,40.100833333333334],[-77.21083333333334,40.09861111111111],[-77.375,40.09722222222222],[-77.70027777777779,40.094166666666666],[-78.05472222222222,40.08972222222222],[-78.21972222222223,40.08722222222222],[-78.38694444444445,40.08444444444444],[-78.4975,40.08305555555556],[-78.55444444444444,40.081388888888895],[-78.72083333333333,40.07805555555556],[-78.84166666666667,40.07666666666667],[-79,40.07694444444445],[-79.3286111111111,40.07527777777778],[-79.37194444444444,40.07472222222223],[-79.49666666666667,40.073888888888895],[-79.66250000000001,40.072500000000005],[-79.70777777777778,40.07194444444445],[-79.82944444444443,40.07083333333334],[-79.87777777777777,40.07027777777778],[-80.04722222222222,40.06805555555556],[-80.16388888888889,40.06666666666667],[-80.38777777777779,40.06333333333333],[-80.49333333333334,40.06166666666666],[-80.52416666666666,40.06111111111111],[-80.69277777777778,40.058055555555555],[-80.82666666666667,40.05555555555555],[-80.86,40.055],[-81.02722222222222,40.05166666666666],[-81.15555555555557,40.04888888888889],[-81.32111111111111,40.044999999999995],[-81.35583333333332,40.04416666666666],[-81.52805555555555,40.03972222222222],[-81.64666666666668,40.03666666666666],[-81.69055555555556,40.035555555555554],[-81.85249999999999,40.03111111111111],[-81.97972222222222,40.027499999999996],[-82.14250000000001,40.0225],[-82.17805555555556,40.021388888888886],[-82.3386111111111,40.01638888888889],[-82.50055555555555,40.01111111111111],[-82.63027777777778,40.006388888888885],[-82.98861111111111,39.99333333333333],[-83.15027777777779,39.98694444444445],[-83.30638888888889,39.980555555555554],[-83.44611111111111,39.975],[-83.46805555555555,39.973888888888894],[-83.65166666666667,39.96611111111111],[-83.7725,39.96083333333333],[-83.9213888888889,39.95388888888889],[-84.08361111111111,39.94638888888888],[-84.2475,39.93833333333333],[-84.3175,39.93666666666666],[-84.48083333333334,39.92861111111111],[-84.57166666666666,39.92194444444444],[-84.64416666666668,39.91972222222222],[-84.7363888888889,39.913333333333334],[-84.80777777777777,39.90972222222222],[-84.9,39.904444444444444],[-84.97472222222223,39.902499999999996],[-85.05666666666666,39.895833333333336],[-85.14,39.89416666666666],[-85.21833333333333,39.89111111111111],[-85.30027777777778,39.894999999999996],[-85.40222222222222,39.89388888888889],[-85.45916666666668,39.894999999999996],[-85.56222222222222,39.89416666666666],[-85.62055555555555,39.895833333333336],[-85.72166666666666,39.89055555555556],[-85.78111111111112,39.890277777777776],[-85.87833333333333,39.885555555555555],[-85.9375,39.884166666666665],[-86.04444444444444,39.88055555555555],[-86.19333333333334,39.876111111111115],[-86.23055555555555,39.874722222222225],[-86.38583333333334,39.87111111111111],[-86.50444444444445,39.87916666666667],[-86.66166666666668,39.89222222222222],[-86.9925,39.91611111111111],[-86.9775,39.915],[-87.15222222222222,39.927499999999995],[-87.20333333333333,39.93111111111111],[-87.36555555555555,39.942499999999995],[-87.45722222222223,39.94888888888889],[-87.68666666666667,39.964444444444446],[-87.78277777777778,39.97083333333334],[-87.8461111111111,39.975],[-87.94250000000001,39.981388888888894],[-88.0075,39.98555555555556],[-88.1036111111111,39.99166666666667],[-88.26416666666667,40.001666666666665],[-88.26555555555555,40.001666666666665],[-88.4263888888889,40.01138888888889],[-88.52083333333333,40.016666666666666],[-88.56666666666666,40.019444444444446],[-88.58611111111111,40.02055555555555],[-88.68055555555556,40.02583333333333],[-88.74527777777777,40.02972222222222],[-88.8411111111111,40.035],[-88.90722222222223,40.038888888888884],[-89.00027777777778,40.04388888888889],[-89.07777777777777,40.04833333333333],[-89.32249999999999,40.06111111111111],[-89.38944444444445,40.06472222222222],[-89.48527777777778,40.06944444444445],[-89.59277777777777,40.075],[-89.64916666666667,40.07777777777778],[-89.81055555555555,40.08555555555556],[-89.87833333333333,40.08888888888889],[-90.04305555555555,40.09638888888889],[-90.13805555555557,40.100833333333334],[-90.20305555555557,40.10388888888889],[-90.30194444444444,40.10805555555556],[-90.46166666666667,40.115],[-90.62527777777777,40.12166666666667],[-90.68944444444445,40.12444444444444],[-90.78611111111111,40.12833333333333],[-90.85249999999999,40.130833333333335],[-90.9113888888889,40.13305555555556],[-90.94694444444445,40.13444444444444],[-91.01027777777777,40.13666666666666],[-91.07249999999999,40.13916666666667],[-91.23138888888889,40.154444444444444],[-91.26416666666667,40.165],[-91.32249999999999,40.17527777777777],[-91.41777777777779,40.19222222222222],[-91.47444444444444,40.2025],[-91.56944444444444,40.219722222222224],[-91.62888888888888,40.23083333333334],[-91.6888888888889,40.24111111111111],[-91.72027777777778,40.24777777777778],[-91.77722222222222,40.26583333333333],[-91.83138888888888,40.285555555555554],[-91.97027777777778,40.335],[-92.00194444444445,40.345555555555556],[-92.05444444444444,40.364444444444445],[-92.24861111111112,40.434999999999995],[-92.39055555555557,40.487500000000004],[-92.41583333333334,40.496944444444445],[-92.53111111111112,40.53972222222222],[-92.55444444444444,40.54833333333333],[-92.64555555555556,40.5825],[-92.79638888888888,40.63916666666667],[-92.93555555555555,40.686388888888885],[-93.09722222222221,40.68222222222222],[-93.25472222222223,40.68888888888888],[-93.41472222222222,40.69027777777777],[-93.47916666666667,40.69],[-93.57416666666666,40.68944444444444],[-93.64027777777778,40.689166666666665],[-93.80083333333333,40.68833333333333],[-93.89694444444446,40.687777777777775],[-93.96222222222222,40.68722222222222],[-94.05722222222222,40.686388888888885],[-94.21833333333333,40.68527777777778],[-94.70222222222222,40.67972222222222],[-94.76916666666666,40.678888888888885],[-94.86388888888888,40.677499999999995],[-94.93305555555555,40.67638888888889],[-95.09333333333333,40.67388888888889],[-95.18805555555556,40.67222222222222],[-95.35194444444444,40.66916666666666],[-95.5125,40.66583333333333],[-95.67361111111111,40.64277777777778],[-95.99416666666667,40.58277777777778],[-96.3175,40.51972222222222],[-96.47694444444444,40.48833333333334],[-96.64,40.45583333333334],[-96.80027777777778,40.42388888888889],[-96.96111111111111,40.39138888888889],[-97.12388888888889,40.358333333333334],[-97.28694444444444,40.325],[-97.44722222222222,40.291666666666664],[-97.50694444444444,40.27611111111111],[-97.60666666666665,40.25861111111111],[-97.6675,40.24388888888889],[-97.76666666666667,40.225],[-97.82638888888889,40.212500000000006],[-97.92500000000001,40.19166666666666],[-97.98416666666667,40.17916666666667],[-98.08305555555555,40.158055555555556],[-98.14305555555556,40.144999999999996],[-98.2388888888889,40.12444444444444],[-98.30055555555555,40.111111111111114],[-98.39805555555556,40.09027777777778],[-98.45805555555556,40.077222222222225],[-98.55416666666666,40.05611111111111],[-98.71388888888889,40.02111111111111],[-98.77416666666666,40.007777777777775],[-98.8711111111111,39.986666666666665],[-98.93138888888889,39.973055555555554],[-99.02777777777777,39.95166666666667],[-99.1875,39.91583333333333],[-99.24972222222222,39.901944444444446],[-99.40833333333335,39.86611111111111],[-99.50083333333333,39.845],[-99.565,39.83027777777778],[-99.66194444444444,39.808055555555555],[-99.81722222222221,39.77222222222222],[-99.8825,39.757222222222225],[-100.04166666666667,39.72],[-100.14555555555556,39.69583333333333],[-100.19861111111112,39.68333333333333],[-100.28861111111111,39.661944444444444],[-100.35805555555555,39.64555555555555],[-100.51416666666667,39.60861111111111],[-100.67305555555556,39.57055555555556],[-100.82944444444443,39.532777777777774],[-100.98694444444445,39.49472222222222],[-101.14361111111111,39.45638888888889],[-101.29944444444445,39.418055555555554],[-101.45527777777778,39.379444444444445],[-101.60916666666667,39.34138888888889],[-101.9263888888889,39.26138888888889],[-102.07722222222222,39.223055555555554],[-102.22666666666667,39.184999999999995],[-102.37694444444443,39.146388888888886],[-102.67583333333334,39.06888888888889],[-102.98111111111112,38.98888888888889],[-103.12777777777777,38.95],[-103.275,38.910555555555554],[-103.42555555555556,38.87027777777778],[-103.56055555555555,38.83388888888889],[-103.71361111111112,38.81722222222223],[-103.87388888888889,38.81777777777778],[-104.03277777777778,38.818333333333335],[-104.21277777777777,38.81805555555556],[-104.37722222222222,38.81777777777778],[-104.5436111111111,38.816944444444445],[-104.70861111111111,38.816111111111105],[-104.92611111111111,38.816944444444445],[-105.03361111111111,38.82],[-105.08527777777778,38.82611111111112],[-105.16777777777779,38.88777777777778],[-105.20666666666666,38.9125],[-105.31666666666666,38.99027777777778],[-105.32833333333333,38.99944444444444],[-105.45111111111112,39.0625],[-105.62833333333333,39.07],[-105.7425,39.06444444444444],[-105.79222222222222,39.06194444444444],[-105.90666666666667,39.058055555555555],[-105.95416666666667,39.05583333333333],[-106.11888888888888,39.04861111111111],[-106.25055555555555,39.04416666666666],[-106.44972222222222,39.03583333333333],[-106.5825,39.03],[-106.61333333333333,39.028888888888886],[-106.77833333333334,39.02055555555555],[-106.90861111111111,39.015],[-107.10555555555555,39.00472222222222],[-107.26722222222222,38.99722222222222],[-107.39694444444446,38.99111111111111],[-107.42916666666667,38.98833333333334],[-107.71888888888888,38.97416666666667],[-107.75027777777778,38.97222222222222],[-107.91083333333334,38.96277777777778],[-108.03944444444444,38.95638888888889],[-108.07138888888889,38.95333333333333],[-108.19777777777779,38.947222222222216],[-108.23027777777779,38.94444444444444],[-108.35305555555556,38.925555555555555],[-108.38083333333333,38.91305555555555],[-108.4888888888889,38.867222222222225],[-108.51805555555555,38.85416666666667],[-108.62944444444443,38.81111111111111],[-108.65972222222223,38.80472222222222],[-108.93777777777778,38.7925],[-109.095,38.784166666666664],[-109.12722222222222,38.782777777777774],[-109.25361111111111,38.77611111111111],[-109.41333333333334,38.7675],[-109.44694444444445,38.76583333333333],[-109.60499999999999,38.757222222222225],[-109.73333333333333,38.75138888888889],[-109.76361111111112,38.75],[-109.89027777777778,38.74472222222222],[-109.92166666666667,38.74305555555556],[-110.04666666666667,38.738055555555555],[-110.0786111111111,38.73722222222222],[-110.20555555555556,38.731944444444444],[-110.2375,38.73083333333334],[-110.36222222222221,38.72666666666667],[-110.39611111111111,38.725833333333334],[-110.55111111111111,38.72083333333334],[-110.71083333333334,38.71611111111111],[-110.99833333333333,38.70777777777778],[-111.16277777777778,38.70444444444445],[-111.31777777777778,38.70166666666667],[-111.5111111111111,38.69083333333333],[-111.66888888888889,38.678888888888885],[-111.82694444444444,38.66694444444444],[-111.985,38.65416666666667],[-112.1413888888889,38.640277777777776],[-112.29861111111111,38.626111111111115],[-112.45527777777778,38.61222222222222],[-112.60944444444443,38.59805555555556],[-112.76527777777778,38.58361111111111],[-112.91944444444445,38.56888888888889],[-113.07222222222222,38.55444444444444],[-113.37833333333333,38.52444444444444],[-113.53333333333333,38.50888888888889],[-113.68472222222222,38.493611111111115],[-113.8425,38.477222222222224],[-113.99888888888889,38.461111111111116],[-114.1563888888889,38.44472222222222],[-114.3125,38.428888888888885],[-114.46638888888889,38.41361111111111],[-114.62277777777777,38.397777777777776],[-114.77805555555555,38.38138888888889],[-115.15083333333334,38.341944444444444],[-115.23861111111111,38.3325],[-115.30277777777778,38.32638888888889],[-115.39888888888889,38.31527777777777],[-115.4563888888889,38.30972222222222],[-115.55111111111111,38.29833333333333],[-115.60972222222222,38.2925],[-115.70361111111112,38.28138888888889],[-115.76222222222222,38.27583333333333],[-115.8586111111111,38.263888888888886],[-115.92055555555557,38.25666666666667],[-116.00972222222222,38.24638888888889],[-116.06972222222223,38.23972222222222],[-116.1588888888889,38.22916666666667],[-116.21861111111112,38.22222222222222],[-116.30749999999999,38.21194444444445],[-116.51777777777778,38.18694444444444],[-116.60694444444444,38.17611111111111],[-116.66916666666667,38.16861111111111],[-116.82027777777778,38.150277777777774],[-116.90583333333333,38.14],[-116.96972222222223,38.13194444444444],[-117.05611111111111,38.12138888888889],[-117.13916666666667,38.11083333333333],[-117.20583333333333,38.1025],[-117.29027777777777,38.091944444444444],[-117.35583333333332,38.08361111111111],[-117.44083333333333,38.07277777777778],[-117.50944444444444,38.06388888888888],[-117.57472222222222,38.05555555555555],[-117.66055555555556,38.044444444444444],[-117.72833333333334,38.035555555555554],[-117.80416666666666,38.02583333333333],[-117.88,38.01583333333333],[-118.10722222222222,37.98555555555556],[-118.17055555555557,37.97694444444445],[-118.32277777777777,37.95638888888889],[-118.47361111111111,37.93583333333333],[-118.62666666666667,37.914722222222224],[-118.77722222222222,37.89388888888889],[-118.95472222222223,37.87416666666667],[-119.10583333333332,37.856944444444444],[-119.25944444444444,37.83888888888889],[-119.40916666666668,37.82138888888889],[-119.56166666666667,37.80305555555555],[-119.71111111111111,37.78527777777778],[-119.8625,37.766666666666666],[-120.00944444444444,37.74861111111111],[-120.15666666666667,37.73027777777778],[-120.44305555555556,37.69444444444444],[-120.57916666666667,37.678888888888885],[-120.66666666666667,37.666666666666664],[-120.71111111111111,37.663333333333334],[-120.78333333333333,37.65],[-120.84166666666667,37.6475],[-120.9,37.63333333333333],[-120.96694444444445,37.6325],[-121.03333333333333,37.61666666666667],[-121.06805555555555,37.61888888888889],[-121.15,37.6],[-121.20055555555555,37.60111111111111],[-121.3236111111111,37.58527777777778],[-121.4,37.583333333333336],[-121.44250000000001,37.57222222222222],[-121.51666666666667,37.56666666666667],[-121.55916666666667,37.558611111111105],[-121.63333333333334,37.55],[-121.66333333333334,37.54138888888889],[-121.73333333333333,37.53333333333333],[-121.75944444444444,37.51861111111111],[-121.81666666666666,37.5],[-121.84555555555555,37.49777777777778],[-121.9,37.5],[-121.93472222222222,37.49388888888889],[-122,37.5],[-122.01861111111111,37.49916666666667],[-122.08333333333333,37.5],[-122.10222222222221,37.50666666666667],[-122.15,37.53333333333333],[-122.16555555555556,37.532777777777774],[-122.21833333333333,37.555],[-122.26722222222222,37.575833333333335],[-122.3,37.583333333333336],[-122.35,37.6],[-122.35444444444444,37.61222222222222]],"type":"LineString"}
}
