{
  "id": 2032006227,
  "type": "Feature",
  "properties": {
    "geom:area": 0,
    "geom:bbox": "-122.300000,28.319167,-81.316667,37.583333",
    "geom:latitude": 32.29738703654279,
    "geom:longitude": -102.03567289316052,
    "src:alt_label": "swim-path",
    "src:geom": "swim",
    "swim:altitudes": [
      "013",
      "030",
      "035",
      "052",
      "061",
      "084",
      "108",
      "121",
      "138",
      "157",
      "175",
      "194",
      "210",
      "222",
      "233",
      "246",
      "258",
      "271",
      "281",
      "284",
      "292",
      "301",
      "308",
      "316",
      "320C",
      "320C",
      "319C",
      "319C",
      "319C",
      "320C",
      "320C",
      "320C",
      "319C",
      "320C",
      "320C",
      "319C",
      "320C",
      "320C",
      "320C",
      "320C",
      "320C",
      "320C",
      "320C",
      "320C",
      "320C",
      "320C",
      "320C",
      "320C",
      "319C",
      "320C",
      "320C",
      "320C",
      "319C",
      "320C",
      "320C",
      "320C",
      "320C",
      "320C",
      "320C",
      "320C",
      "320C",
      "320C",
      "320C",
      "320C",
      "320C",
      "320C",
      "320C",
      "320C",
      "320C",
      "320C",
      "320C",
      "320C",
      "320C",
      "320C",
      "320C",
      "320C",
      "320C",
      "320C",
      "320C",
      "320C",
      "320C",
      "320C",
      "320C",
      "320C",
      "320C",
      "320C",
      "320C",
      "320C",
      "320C",
      "320C",
      "320C",
      "320C",
      "320C",
      "320C",
      "320C",
      "320C",
      "320C",
      "320C",
      "320C",
      "320C",
      "320C",
      "320C",
      "320C",
      "320C",
      "320C",
      "320C",
      "320C",
      "320C",
      "320C",
      "320C",
      "320C",
      "320C",
      "320",
      "320",
      "320",
      "320",
      "325",
      "334",
      "340C",
      "340C",
      "340C",
      "340C",
      "340C",
      "340C",
      "340C",
      "340C",
      "340C",
      "340C",
      "340C",
      "340C",
      "340C",
      "340C",
      "340C",
      "340C",
      "340C",
      "340C",
      "340C",
      "340C",
      "340C",
      "340C",
      "340C",
      "340C",
      "340C",
      "340C",
      "340C",
      "340C",
      "340C",
      "340C",
      "340C",
      "340C",
      "340C",
      "340C",
      "340C",
      "340C",
      "340C",
      "340C",
      "340C",
      "340C",
      "340C",
      "340C",
      "340C",
      "340C",
      "340C",
      "340C",
      "340C",
      "340C",
      "340C",
      "340C",
      "340C",
      "340C",
      "340C",
      "340C",
      "340C",
      "340C",
      "340C",
      "340C",
      "340C",
      "340C",
      "340C",
      "340C",
      "340C",
      "340C",
      "340C",
      "340C",
      "340C",
      "340C",
      "340C",
      "340C",
      "340C",
      "340C",
      "340C",
      "340C",
      "340C",
      "340C",
      "340C",
      "340C",
      "340C",
      "340C",
      "340C",
      "340C",
      "340C",
      "340C",
      "340C",
      "340C",
      "340C",
      "340C",
      "340C",
      "340C",
      "340C",
      "340C",
      "340C",
      "340C",
      "340C",
      "340C",
      "340C",
      "340C",
      "340C",
      "340C",
      "340C",
      "340C",
      "340C",
      "340C",
      "340C",
      "340C",
      "340C",
      "340C",
      "340C",
      "340C",
      "340C",
      "340C",
      "340C",
      "340C",
      "340C",
      "340C",
      "340C",
      "340C",
      "340C",
      "340C",
      "340C",
      "340C",
      "340C",
      "340C",
      "340C",
      "340C",
      "340C",
      "340C",
      "340C",
      "340C",
      "340C",
      "340C",
      "340C",
      "340C",
      "340C",
      "340C",
      "340C",
      "340C",
      "340C",
      "340C",
      "340C",
      "340C",
      "340C",
      "340C",
      "340C",
      "340C",
      "340C",
      "340C",
      "340C",
      "340C",
      "340C",
      "340C",
      "340C",
      "340C",
      "340C",
      "340C",
      "340C",
      "340C",
      "340C",
      "340C",
      "340C",
      "340C",
      "340C",
      "340C",
      "340C",
      "340C",
      "340C",
      "340C",
      "340C",
      "340C",
      "340C",
      "340C",
      "340C",
      "340C",
      "340C",
      "340C",
      "340C",
      "340C",
      "340C",
      "340C",
      "340C",
      "340C",
      "340C",
      "340C",
      "340C",
      "340C",
      "340C",
      "340C",
      "340C",
      "340C",
      "340C",
      "340C",
      "340C",
      "340C",
      "340C",
      "340C",
      "340C",
      "340C",
      "340C",
      "340C",
      "340C",
      "340C",
      "340C",
      "340C",
      "340C",
      "340C",
      "340C",
      "340C",
      "340C",
      "340C",
      "340C",
      "340C",
      "340C",
      "340C",
      "340C",
      "340C",
      "340C",
      "340C",
      "340C",
      "340C",
      "340C",
      "340C",
      "340C",
      "340C",
      "340C",
      "340C",
      "340C",
      "340C",
      "340C",
      "340C",
      "340C",
      "340C",
      "340C",
      "340C",
      "340C",
      "340C",
      "340C",
      "340C",
      "340C",
      "340C",
      "340C",
      "340C",
      "340C",
      "340C",
      "340C",
      "340C",
      "340C",
      "340C",
      "340C",
      "340C",
      "340C",
      "340C",
      "340C",
      "340C",
      "340C",
      "340C",
      "340C",
      "340C",
      "340C",
      "340C",
      "340C",
      "340C",
      "340",
      "340",
      "340",
      "340",
      "340",
      "340",
      "340",
      "340",
      "340",
      "340",
      "327",
      "305",
      "261",
      "240",
      "222",
      "203",
      "203",
      "181",
      "159",
      "158",
      "140",
      "139",
      "121",
      "120",
      "104",
      "097",
      "097",
      "091",
      "082",
      "067",
      "049",
      "040",
      "028",
      "026",
      "020",
      "011"
    ],
    "swim:geom": "path",
    "swim:speeds": [
      193,
      228,
      236,
      263,
      267,
      284,
      291,
      336,
      364,
      378,
      391,
      397,
      405,
      417,
      422,
      428,
      434,
      439,
      441,
      463,
      473,
      474,
      479,
      481,
      482,
      481,
      483,
      480,
      482,
      478,
      480,
      475,
      475,
      471,
      473,
      468,
      469,
      467,
      468,
      466,
      466,
      466,
      466,
      466,
      466,
      466,
      466,
      465,
      466,
      465,
      465,
      469,
      474,
      469,
      471,
      469,
      471,
      470,
      471,
      470,
      470,
      470,
      471,
      471,
      471,
      473,
      472,
      474,
      473,
      475,
      475,
      476,
      477,
      477,
      479,
      479,
      487,
      488,
      492,
      491,
      493,
      492,
      494,
      493,
      495,
      495,
      496,
      495,
      496,
      496,
      496,
      496,
      497,
      497,
      498,
      498,
      500,
      501,
      502,
      502,
      503,
      501,
      500,
      499,
      499,
      498,
      498,
      499,
      501,
      503,
      504,
      506,
      507,
      508,
      508,
      509,
      510,
      509,
      509,
      510,
      510,
      510,
      510,
      509,
      508,
      508,
      508,
      507,
      507,
      506,
      506,
      507,
      507,
      508,
      508,
      509,
      508,
      509,
      508,
      508,
      508,
      507,
      505,
      502,
      501,
      498,
      495,
      495,
      494,
      494,
      494,
      494,
      494,
      494,
      494,
      495,
      496,
      495,
      496,
      496,
      497,
      497,
      496,
      496,
      494,
      493,
      493,
      493,
      493,
      493,
      494,
      494,
      494,
      493,
      493,
      492,
      492,
      492,
      491,
      491,
      491,
      490,
      489,
      488,
      487,
      486,
      485,
      485,
      484,
      484,
      484,
      484,
      485,
      485,
      487,
      487,
      487,
      487,
      487,
      487,
      486,
      485,
      483,
      482,
      481,
      479,
      477,
      478,
      477,
      478,
      478,
      478,
      480,
      480,
      481,
      482,
      483,
      483,
      484,
      484,
      484,
      484,
      484,
      483,
      482,
      482,
      482,
      481,
      481,
      480,
      480,
      480,
      480,
      480,
      480,
      480,
      480,
      480,
      480,
      480,
      480,
      480,
      480,
      480,
      480,
      480,
      480,
      481,
      481,
      482,
      482,
      483,
      483,
      483,
      483,
      482,
      482,
      482,
      482,
      482,
      482,
      482,
      483,
      483,
      483,
      483,
      484,
      485,
      485,
      485,
      486,
      486,
      486,
      488,
      489,
      490,
      491,
      492,
      492,
      493,
      493,
      492,
      491,
      490,
      489,
      490,
      491,
      491,
      492,
      493,
      494,
      494,
      497,
      501,
      503,
      504,
      503,
      483,
      502,
      501,
      505,
      498,
      498,
      495,
      495,
      496,
      497,
      496,
      499,
      497,
      500,
      501,
      502,
      502,
      502,
      503,
      510,
      497,
      496,
      495,
      495,
      494,
      488,
      485,
      483,
      481,
      480,
      482,
      485,
      486,
      486,
      486,
      487,
      488,
      487,
      471,
      470,
      469,
      469,
      470,
      472,
      473,
      474,
      473,
      472,
      468,
      466,
      464,
      463,
      461,
      459,
      456,
      457,
      454,
      455,
      466,
      467,
      469,
      470,
      473,
      474,
      475,
      475,
      474,
      473,
      473,
      472,
      472,
      470,
      469,
      466,
      466,
      464,
      463,
      462,
      462,
      461,
      460,
      460,
      460,
      459,
      459,
      458,
      458,
      457,
      456,
      455,
      454,
      454,
      453,
      451,
      457,
      436,
      421,
      397,
      373,
      378,
      367,
      364,
      365,
      353,
      356,
      333,
      337,
      316,
      280,
      285,
      249,
      235,
      230,
      228,
      192,
      189,
      187,
      158,
      146
    ],
    "swim:timestamps": [
      1785275019,
      1785275080,
      1785275107,
      1785275140,
      1785275168,
      1785275228,
      1785275288,
      1785275348,
      1785275408,
      1785275468,
      1785275528,
      1785275588,
      1785275648,
      1785275708,
      1785275768,
      1785275828,
      1785275889,
      1785275949,
      1785276009,
      1785276069,
      1785276129,
      1785276189,
      1785276249,
      1785276309,
      1785276369,
      1785276429,
      1785276444,
      1785276489,
      1785276505,
      1785276549,
      1785276565,
      1785276610,
      1785276625,
      1785276670,
      1785276685,
      1785276730,
      1785276745,
      1785276790,
      1785276805,
      1785276850,
      1785276865,
      1785276910,
      1785276925,
      1785276970,
      1785276985,
      1785277030,
      1785277045,
      1785277090,
      1785277105,
      1785277150,
      1785277166,
      1785277210,
      1785277226,
      1785277270,
      1785277286,
      1785277331,
      1785277346,
      1785277391,
      1785277406,
      1785277451,
      1785277466,
      1785277511,
      1785277526,
      1785277571,
      1785277586,
      1785277631,
      1785277646,
      1785277691,
      1785277706,
      1785277751,
      1785277766,
      1785277827,
      1785277871,
      1785277887,
      1785277931,
      1785277947,
      1785277991,
      1785278007,
      1785278052,
      1785278067,
      1785278112,
      1785278127,
      1785278172,
      1785278187,
      1785278232,
      1785278247,
      1785278292,
      1785278307,
      1785278352,
      1785278367,
      1785278412,
      1785278427,
      1785278472,
      1785278488,
      1785278532,
      1785278548,
      1785278592,
      1785278608,
      1785278652,
      1785278668,
      1785278728,
      1785278788,
      1785278848,
      1785278908,
      1785278968,
      1785279028,
      1785279088,
      1785279149,
      1785279209,
      1785279269,
      1785279329,
      1785279389,
      1785279449,
      1785279509,
      1785279569,
      1785279629,
      1785279689,
      1785279749,
      1785279810,
      1785279870,
      1785279930,
      1785279990,
      1785280050,
      1785280110,
      1785280170,
      1785280230,
      1785280290,
      1785280350,
      1785280410,
      1785280471,
      1785280531,
      1785280591,
      1785280651,
      1785280711,
      1785280771,
      1785280801,
      1785280831,
      1785280861,
      1785280891,
      1785280921,
      1785280951,
      1785280981,
      1785281011,
      1785281053,
      1785281071,
      1785281126,
      1785281186,
      1785281192,
      1785281246,
      1785281252,
      1785281306,
      1785281312,
      1785281366,
      1785281372,
      1785281426,
      1785281432,
      1785281486,
      1785281492,
      1785281546,
      1785281552,
      1785281618,
      1785281678,
      1785281738,
      1785281799,
      1785281871,
      1785281931,
      1785281991,
      1785282033,
      1785282051,
      1785282093,
      1785282111,
      1785282153,
      1785282183,
      1785282213,
      1785282243,
      1785282273,
      1785282303,
      1785282309,
      1785282363,
      1785282369,
      1785282399,
      1785282429,
      1785282459,
      1785282489,
      1785282520,
      1785282550,
      1785282580,
      1785282610,
      1785282640,
      1785282670,
      1785282700,
      1785282730,
      1785282772,
      1785282790,
      1785282832,
      1785282850,
      1785282892,
      1785282910,
      1785282952,
      1785282970,
      1785283012,
      1785283030,
      1785283084,
      1785283090,
      1785283156,
      1785283277,
      1785283306,
      1785283337,
      1785283366,
      1785283391,
      1785283397,
      1785283426,
      1785283451,
      1785283457,
      1785283486,
      1785283517,
      1785283546,
      1785283577,
      1785283606,
      1785283631,
      1785283637,
      1785283666,
      1785283697,
      1785283726,
      1785283751,
      1785283757,
      1785283786,
      1785283811,
      1785283817,
      1785283846,
      1785283872,
      1785283878,
      1785283907,
      1785283932,
      1785283938,
      1785283967,
      1785283998,
      1785284027,
      1785284058,
      1785284087,
      1785284118,
      1785284147,
      1785284178,
      1785284207,
      1785284238,
      1785284267,
      1785284298,
      1785284327,
      1785284358,
      1785284418,
      1785284447,
      1785284478,
      1785284508,
      1785284538,
      1785284568,
      1785284599,
      1785284628,
      1785284659,
      1785284688,
      1785284719,
      1785284748,
      1785284779,
      1785284808,
      1785284839,
      1785284868,
      1785284899,
      1785284928,
      1785284959,
      1785284988,
      1785285019,
      1785285048,
      1785285079,
      1785285108,
      1785285229,
      1785285289,
      1785285349,
      1785285409,
      1785285469,
      1785285529,
      1785285589,
      1785285649,
      1785285709,
      1785285769,
      1785285829,
      1785285890,
      1785285950,
      1785286010,
      1785286070,
      1785286130,
      1785286190,
      1785286250,
      1785286310,
      1785286370,
      1785286431,
      1785286491,
      1785286551,
      1785286611,
      1785286678,
      1785286738,
      1785286851,
      1785286858,
      1785286911,
      1785286918,
      1785286978,
      1785287039,
      1785287099,
      1785287152,
      1785287159,
      1785287212,
      1785287219,
      1785287279,
      1785287339,
      1785287399,
      1785287459,
      1785287519,
      1785287579,
      1785287639,
      1785287692,
      1785287752,
      1785287760,
      1785287820,
      1785287880,
      1785287933,
      1785288000,
      1785288060,
      1785288113,
      1785288180,
      1785288240,
      1785288361,
      1785288421,
      1785288481,
      1785288541,
      1785288601,
      1785288661,
      1785288721,
      1785288841,
      1785288901,
      1785289022,
      1785289082,
      1785289142,
      1785289214,
      1785289274,
      1785289334,
      1785289394,
      1785289454,
      1785289514,
      1785289574,
      1785289634,
      1785289695,
      1785289755,
      1785289815,
      1785289875,
      1785289895,
      1785289935,
      1785289955,
      1785290055,
      1785290115,
      1785290195,
      1785290235,
      1785290255,
      1785290315,
      1785290355,
      1785290375,
      1785290436,
      1785290496,
      1785290556,
      1785290596,
      1785290616,
      1785290656,
      1785290676,
      1785290716,
      1785290736,
      1785290776,
      1785290796,
      1785290836,
      1785290856,
      1785290896,
      1785290916,
      1785290956,
      1785290976,
      1785291016,
      1785291036,
      1785291077,
      1785291096,
      1785291137,
      1785291156,
      1785291216,
      1785291257,
      1785291276,
      1785291337,
      1785291397,
      1785291457,
      1785291577,
      1785291637,
      1785291697,
      1785291747,
      1785291757,
      1785291817,
      1785291868,
      1785291877,
      1785291928,
      1785291937,
      1785291988,
      1785291997,
      1785292057,
      1785292108,
      1785292117,
      1785292178,
      1785292238,
      1785292298,
      1785292358,
      1785292414,
      1785292478,
      1785292526,
      1785292586,
      1785292654
    ],
    "wof:geomhash": "6789b9df87a35a1b6e05ffeedf57c960",
    "wof:id": 2032006227,
    "wof:repo": "sfomuseum-data-flights-2026-07"
  },
  "bbox": [
    -122.3,
    28.319166666666668,
    -81.31666666666666,
    37.583333333333336
  ],
  "geometry": {"coordinates":[[-81.31666666666666,28.4],[-81.36666666666666,28.366666666666667],[-81.39888888888889,28.352777777777778],[-81.45,28.333333333333332],[-81.47833333333334,28.319166666666668],[-81.5625,28.319166666666668],[-81.64916666666667,28.345277777777778],[-81.74527777777777,28.37388888888889],[-81.85249999999999,28.40583333333333],[-81.97027777777778,28.42666666666667],[-82.09388888888888,28.42888888888889],[-82.21833333333333,28.430555555555557],[-82.34777777777778,28.432222222222222],[-82.47416666666666,28.45138888888889],[-82.54083333333332,28.53111111111111],[-82.61194444444443,28.636666666666667],[-82.6825,28.741944444444446],[-82.75361111111111,28.847777777777775],[-82.825,28.953333333333333],[-82.89861111111112,29.06222222222222],[-82.98694444444445,29.170555555555556],[-83.07555555555555,29.278888888888886],[-83.16611111111112,29.389166666666664],[-83.25694444444444,29.499722222222225],[-83.3475,29.610000000000003],[-83.43805555555556,29.719166666666666],[-83.4575,29.739722222222223],[-83.52805555555555,29.82777777777778],[-83.5475,29.848888888888887],[-83.61749999999999,29.935277777777777],[-83.63611111111112,29.95638888888889],[-83.70694444444445,30.04277777777778],[-83.72444444444444,30.06361111111111],[-83.79555555555555,30.147777777777776],[-83.81555555555555,30.16777777777778],[-83.9113888888889,30.229999999999997],[-83.93555555555555,30.24361111111111],[-84.03527777777778,30.303611111111113],[-84.05888888888889,30.31722222222222],[-84.1575,30.375555555555557],[-84.18194444444445,30.390277777777776],[-84.27722222222222,30.445833333333333],[-84.30583333333333,30.464444444444442],[-84.40083333333334,30.51861111111111],[-84.42555555555556,30.533611111111114],[-84.52361111111111,30.590555555555554],[-84.54916666666666,30.60666666666667],[-84.64750000000001,30.662777777777777],[-84.67305555555556,30.678611111111113],[-84.7713888888889,30.734722222222224],[-84.7961111111111,30.75111111111111],[-84.9413888888889,30.7775],[-84.9413888888889,30.779166666666665],[-85.09277777777777,30.783333333333335],[-85.09305555555555,30.78388888888889],[-85.2425,30.788333333333334],[-85.27333333333333,30.789444444444445],[-85.39277777777778,30.793055555555558],[-85.42611111111111,30.79416666666667],[-85.54277777777777,30.797777777777778],[-85.57638888888889,30.79888888888889],[-85.69444444444444,30.802222222222223],[-85.72444444444444,30.803055555555556],[-85.8461111111111,30.80666666666667],[-85.87916666666666,30.8075],[-85.99944444444445,30.810555555555556],[-86.03083333333333,30.81138888888889],[-86.15194444444445,30.814722222222223],[-86.18027777777779,30.815555555555555],[-86.30416666666666,30.81833333333333],[-86.33611111111111,30.81888888888889],[-86.49083333333333,30.821944444444444],[-86.61333333333333,30.82472222222222],[-86.64194444444445,30.825277777777778],[-86.76388888888889,30.821666666666665],[-86.79722222222222,30.81972222222222],[-86.9213888888889,30.813055555555557],[-86.95555555555556,30.81138888888889],[-87.07916666666667,30.804166666666667],[-87.11055555555555,30.802500000000002],[-87.24055555555556,30.795],[-87.27277777777778,30.793333333333337],[-87.39888888888889,30.785833333333336],[-87.42972222222222,30.78388888888889],[-87.55916666666667,30.77638888888889],[-87.59027777777777,30.774444444444445],[-87.71916666666667,30.766666666666666],[-87.76222222222222,30.764166666666668],[-87.87916666666666,30.756666666666668],[-87.92277777777778,30.753888888888888],[-88.04222222222222,30.755555555555556],[-88.08361111111111,30.75722222222222],[-88.20416666666667,30.761111111111113],[-88.24472222222222,30.7625],[-88.36888888888888,30.766111111111112],[-88.40583333333333,30.76722222222222],[-88.53083333333333,30.770833333333332],[-88.56722222222221,30.771666666666665],[-88.69527777777778,30.775277777777777],[-88.73,30.77611111111111],[-88.89166666666668,30.780277777777776],[-89.05277777777778,30.784444444444446],[-89.21472222222222,30.788333333333334],[-89.37333333333332,30.791666666666668],[-89.53333333333333,30.79527777777778],[-89.69500000000001,30.798611111111114],[-89.84861111111111,30.80138888888889],[-90.00888888888889,30.804166666666667],[-90.17027777777778,30.80666666666667],[-90.33083333333333,30.809166666666666],[-90.49472222222222,30.81138888888889],[-90.6563888888889,30.813333333333333],[-90.82138888888889,30.81527777777778],[-90.98527777777778,30.816666666666666],[-91.14333333333335,30.81833333333333],[-91.31,30.81972222222222],[-91.47472222222223,30.820555555555554],[-91.63916666666667,30.82138888888889],[-91.80277777777778,30.821944444444444],[-91.96888888888888,30.822222222222223],[-92.135,30.822499999999998],[-92.30083333333333,30.822222222222223],[-92.46638888888889,30.822222222222223],[-92.63055555555555,30.821666666666665],[-92.79583333333333,30.82111111111111],[-92.97444444444444,30.82],[-93.13944444444445,30.81888888888889],[-93.30111111111111,30.818055555555556],[-93.46666666666667,30.81638888888889],[-93.62333333333332,30.814444444444444],[-93.78472222222221,30.81277777777778],[-93.94833333333334,30.810555555555556],[-94.1111111111111,30.808055555555555],[-94.27555555555556,30.805555555555557],[-94.43944444444445,30.803055555555556],[-94.535,30.80138888888889],[-94.60333333333332,30.80027777777778],[-94.6975,30.810000000000002],[-94.76416666666667,30.820833333333333],[-94.8611111111111,30.83611111111111],[-94.92222222222223,30.845555555555553],[-95.01861111111111,30.860833333333336],[-95.08,30.87027777777778],[-95.21111111111111,30.890555555555554],[-95.23972222222223,30.89527777777778],[-95.40111111111112,30.92027777777778],[-95.55694444444444,30.944166666666668],[-95.55388888888889,30.94361111111111],[-95.71222222222222,30.967777777777776],[-95.70722222222223,30.966944444444444],[-95.86944444444444,30.99138888888889],[-95.86944444444444,30.99138888888889],[-96.02805555555555,31.015],[-96.02555555555556,31.014722222222222],[-96.15194444444445,31.033333333333335],[-96.18416666666667,31.03805555555556],[-96.34416666666667,31.06138888888889],[-96.34166666666667,31.061111111111114],[-96.50194444444445,31.084444444444443],[-96.49916666666667,31.083888888888886],[-96.69055555555556,31.11138888888889],[-96.84888888888888,31.133888888888887],[-97.00805555555556,31.156388888888888],[-97.1613888888889,31.17777777777778],[-97.3175,31.199444444444445],[-97.50333333333333,31.224999999999998],[-97.66083333333334,31.24638888888889],[-97.78333333333333,31.263055555555557],[-97.8175,31.2675],[-97.94166666666668,31.28388888888889],[-97.97638888888889,31.288611111111113],[-98.10194444444444,31.305],[-98.13388888888889,31.309444444444445],[-98.26055555555556,31.325833333333332],[-98.32388888888889,31.333888888888886],[-98.41555555555556,31.34583333333333],[-98.47916666666667,31.35388888888889],[-98.51138888888889,31.358055555555556],[-98.60583333333332,31.37],[-98.66861111111112,31.378055555555555],[-98.73111111111112,31.38611111111111],[-98.82249999999999,31.397777777777776],[-98.88777777777779,31.40611111111111],[-98.97888888888889,31.41722222222222],[-99.04277777777777,31.425],[-99.1363888888889,31.436666666666667],[-99.22944444444444,31.448055555555555],[-99.29166666666667,31.455555555555556],[-99.3863888888889,31.46722222222222],[-99.44666666666667,31.47472222222222],[-99.51055555555556,31.48222222222222],[-99.60083333333333,31.493055555555557],[-99.69888888888889,31.504722222222224],[-99.75527777777778,31.511388888888888],[-99.85666666666665,31.523333333333333],[-99.91194444444444,31.529444444444444],[-100.03999999999999,31.544444444444448],[-100.0675,31.547777777777778],[-100.19444444444444,31.56222222222222],[-100.22527777777778,31.565833333333334],[-100.35,31.58],[-100.38111111111111,31.583333333333332],[-100.53722222222223,31.600833333333334],[-100.53472222222221,31.600555555555555],[-100.67722222222223,31.616666666666667],[-101.01888888888888,31.653888888888886],[-101.07916666666667,31.660277777777775],[-101.17111111111112,31.67027777777778],[-101.23527777777778,31.676944444444445],[-101.32722222222222,31.686666666666667],[-101.32722222222222,31.686666666666667],[-101.39055555555557,31.693333333333335],[-101.4825,31.702777777777776],[-101.4825,31.702777777777776],[-101.54666666666667,31.709722222222222],[-101.63777777777779,31.719166666666666],[-101.70138888888889,31.725555555555555],[-101.79444444444444,31.735],[-101.86,31.741666666666667],[-101.95277777777778,31.750833333333333],[-101.95277777777778,31.750833333333333],[-102.01583333333333,31.75722222222222],[-102.10972222222222,31.766666666666666],[-102.17277777777778,31.771944444444443],[-102.26666666666667,31.774166666666666],[-102.26666666666667,31.773888888888887],[-102.35333333333332,31.77611111111111],[-102.41444444444446,31.7775],[-102.44500000000001,31.778333333333332],[-102.50861111111111,31.779999999999998],[-102.56805555555555,31.781666666666666],[-102.59833333333333,31.78222222222222],[-102.66444444444446,31.78388888888889],[-102.72444444444444,31.78527777777778],[-102.75583333333333,31.785833333333336],[-102.81944444444444,31.787222222222223],[-102.90972222222223,31.789166666666667],[-102.97555555555556,31.790555555555557],[-103.06722222222221,31.7925],[-103.13083333333333,31.79388888888889],[-103.22277777777778,31.795555555555556],[-103.28527777777778,31.796666666666667],[-103.37916666666666,31.798333333333336],[-103.44277777777778,31.799444444444447],[-103.535,31.800833333333333],[-103.59805555555555,31.801944444444445],[-103.69250000000001,31.803333333333335],[-103.755,31.804444444444446],[-103.84916666666666,31.805555555555557],[-104.00472222222223,31.8075],[-104.07944444444443,31.808611111111112],[-104.16305555555556,31.809722222222224],[-104.23472222222222,31.810277777777777],[-104.32166666666666,31.81138888888889],[-104.39333333333335,31.811944444444446],[-104.47694444444444,31.81277777777778],[-104.54916666666666,31.813333333333333],[-104.63333333333334,31.81388888888889],[-104.705,31.814444444444444],[-104.79277777777777,31.815],[-104.8611111111111,31.815555555555555],[-104.94861111111112,31.816111111111113],[-105.01805555555555,31.81638888888889],[-105.10666666666665,31.816666666666666],[-105.17694444444444,31.816944444444445],[-105.26416666666667,31.81722222222222],[-105.33416666666666,31.8175],[-105.42361111111111,31.8175],[-105.49111111111111,31.817777777777778],[-105.5825,31.817777777777778],[-105.65527777777778,31.817777777777778],[-105.73944444444444,31.817777777777778],[-105.815,31.8175],[-106.13138888888888,31.81638888888889],[-106.28833333333333,31.81833333333333],[-106.44722222222222,31.842777777777776],[-106.60694444444444,31.86861111111111],[-106.76361111111112,31.894166666666667],[-106.92277777777778,31.919722222222223],[-107.08277777777778,31.945],[-107.24305555555556,31.970277777777778],[-107.40083333333334,31.994722222222222],[-107.56166666666667,32.01972222222222],[-107.71861111111112,32.04361111111111],[-107.8761111111111,32.0675],[-108.02888888888889,32.11027777777778],[-108.18166666666667,32.156666666666666],[-108.335,32.20277777777778],[-108.47083333333333,32.266666666666666],[-108.5975,32.35333333333333],[-108.72333333333333,32.439166666666665],[-108.85,32.525277777777774],[-108.97972222222222,32.61361111111111],[-109.10944444444443,32.70111111111111],[-109.24194444444444,32.790277777777774],[-109.375,32.87916666666667],[-109.505,32.965833333333336],[-109.6325,33.04722222222222],[-109.76333333333334,33.13527777777778],[-110.02638888888889,33.31111111111111],[-110.02194444444444,33.3125],[-110.1563888888889,33.39666666666667],[-110.15166666666667,33.39527777777778],[-110.28111111111112,33.47916666666667],[-110.41194444444444,33.56444444444444],[-110.54166666666667,33.64972222222222],[-110.67916666666667,33.73638888888889],[-110.67277777777778,33.73416666666667],[-110.81194444444444,33.82055555555556],[-110.80527777777777,33.818333333333335],[-110.96000000000001,33.8725],[-111.11916666666666,33.913888888888884],[-111.28,33.95583333333334],[-111.44055555555556,33.99666666666667],[-111.63138888888888,34.04527777777778],[-111.76055555555556,34.081388888888895],[-111.92472222222223,34.12027777777778],[-112.07583333333334,34.155833333333334],[-112.23416666666667,34.19499999999999],[-112.24166666666667,34.197222222222216],[-112.40111111111112,34.237500000000004],[-112.57666666666667,34.27972222222222],[-112.70416666666667,34.31083333333333],[-112.8736111111111,34.35194444444445],[-113.0286111111111,34.38944444444444],[-113.16916666666667,34.42305555555555],[-113.33916666666666,34.46361111111111],[-113.49583333333334,34.50055555555556],[-113.81,34.574444444444445],[-113.98722222222223,34.61555555555556],[-114.14444444444445,34.651666666666664],[-114.30222222222221,34.687777777777775],[-114.46055555555556,34.723888888888894],[-114.61944444444444,34.75972222222222],[-114.7786111111111,34.79555555555555],[-115.09444444444443,34.81861111111112],[-115.25527777777778,34.81055555555555],[-115.56972222222223,34.79361111111111],[-115.72722222222222,34.785],[-115.88722222222223,34.77583333333333],[-116.07833333333333,34.764722222222225],[-116.23833333333333,34.75527777777778],[-116.39805555555556,34.745555555555555],[-116.55638888888889,34.73583333333333],[-116.715,34.72555555555556],[-116.87277777777777,34.71527777777778],[-117.02777777777777,34.705000000000005],[-117.18611111111112,34.69416666666666],[-117.33972222222222,34.68388888888889],[-117.4961111111111,34.672777777777775],[-117.65,34.66222222222222],[-117.8025,34.65083333333333],[-117.84583333333333,34.64527777777778],[-117.9563888888889,34.63944444444444],[-117.98861111111111,34.63388888888889],[-118.2461111111111,34.717777777777776],[-118.38222222222221,34.782222222222224],[-118.55555555555556,34.865],[-118.63611111111112,34.901666666666664],[-118.70055555555555,34.93194444444444],[-118.84138888888889,34.99777777777778],[-118.9213888888889,35.035],[-118.98055555555555,35.0625],[-119.11972222222222,35.12694444444445],[-119.26083333333334,35.19194444444444],[-119.39888888888889,35.25527777777778],[-119.47805555555556,35.291666666666664],[-119.53833333333333,35.31916666666667],[-119.61861111111111,35.35583333333334],[-119.67611111111111,35.38194444444444],[-119.75555555555556,35.418055555555554],[-119.81388888888888,35.44444444444444],[-119.89194444444445,35.47972222222222],[-119.95027777777779,35.50611111111111],[-120.02833333333334,35.54111111111111],[-120.08611111111111,35.56722222222223],[-120.16444444444446,35.602222222222224],[-120.21944444444445,35.62694444444445],[-120.3261111111111,35.67472222222222],[-120.35555555555555,35.68722222222222],[-120.46444444444445,35.72888888888889],[-120.495,35.74055555555556],[-120.60499999999999,35.7825],[-120.63722222222223,35.79472222222222],[-120.74444444444444,35.83527777777778],[-120.77666666666667,35.847500000000004],[-120.91722222222222,35.90083333333333],[-121.02527777777777,35.94138888888889],[-121.05555555555556,35.95277777777778],[-121.19666666666667,36.005833333333335],[-121.33444444444444,36.05916666666666],[-121.43305555555555,36.15694444444444],[-121.59638888888888,36.365],[-121.67472222222223,36.464444444444446],[-121.74944444444445,36.55888888888889],[-121.81666666666666,36.65],[-121.81916666666666,36.64694444444444],[-121.88833333333334,36.737500000000004],[-121.91666666666667,36.833333333333336],[-121.92027777777778,36.835],[-121.95,36.93333333333333],[-121.94805555555556,36.933611111111105],[-121.98333333333333,37.016666666666666],[-121.98083333333334,37.02333333333333],[-122.01444444444445,37.10916666666667],[-122.05,37.18333333333333],[-122.04388888888889,37.18416666666666],[-122.07138888888889,37.25472222222222],[-122.12194444444444,37.296388888888885],[-122.13833333333334,37.348333333333336],[-122.11916666666666,37.4075],[-122.13333333333334,37.46666666666667],[-122.15027777777779,37.515277777777776],[-122.18805555555556,37.54055555555556],[-122.24027777777778,37.56194444444444],[-122.3,37.583333333333336]],"type":"LineString"}
}
