{
  "id": 2031940105,
  "type": "Feature",
  "properties": {
    "geom:area": 0,
    "geom:bbox": "-122.753056,37.416667,-73.547500,45.413889",
    "geom:latitude": 42.95889890473884,
    "geom:longitude": -99.15156107105172,
    "src:alt_label": "swim-path",
    "src:geom": "swim",
    "swim:altitudes": [
      "017",
      "035",
      "051",
      "074",
      "083",
      "098",
      "107",
      "114",
      "125",
      "145",
      "167",
      "170",
      "177",
      "223",
      "237",
      "249",
      "260",
      "271",
      "285",
      "297",
      "310",
      "320C",
      "320C",
      "320C",
      "320C",
      "320C",
      "320C",
      "320C",
      "320C",
      "320C",
      "320C",
      "320C",
      "320C",
      "320C",
      "320C",
      "320C",
      "320C",
      "320C",
      "320C",
      "320C",
      "320C",
      "320C",
      "320C",
      "320C",
      "320C",
      "320C",
      "320C",
      "320C",
      "320C",
      "320C",
      "320C",
      "320C",
      "320C",
      "320C",
      "320C",
      "320C",
      "320C",
      "320C",
      "320C",
      "320C",
      "320C",
      "320C",
      "320C",
      "320C",
      "320C",
      "320C",
      "320C",
      "320C",
      "320C",
      "320C",
      "320C",
      "320C",
      "320C",
      "320C",
      "320C",
      "320C",
      "320C",
      "320C",
      "320C",
      "320C",
      "320C",
      "320C",
      "320C",
      "320C",
      "320C",
      "320C",
      "320C",
      "320C",
      "320C",
      "320C",
      "320C",
      "320C",
      "320C",
      "320",
      "327",
      "340C",
      "340C",
      "340C",
      "340C",
      "340C",
      "340C",
      "340C",
      "340C",
      "340C",
      "340C",
      "340C",
      "340C",
      "340C",
      "340C",
      "340C",
      "340C",
      "340C",
      "340C",
      "340C",
      "340C",
      "340C",
      "340C",
      "340C",
      "340C",
      "340C",
      "340C",
      "340C",
      "340C",
      "340C",
      "340C",
      "340C",
      "340C",
      "340C",
      "340C",
      "340C",
      "340C",
      "340C",
      "340C",
      "340C",
      "340C",
      "340C",
      "340C",
      "340C",
      "340C",
      "340C",
      "340C",
      "340C",
      "340C",
      "340C",
      "340C",
      "340C",
      "340C",
      "340C",
      "340C",
      "340C",
      "340C",
      "340C",
      "340C",
      "340C",
      "340C",
      "340C",
      "340C",
      "340C",
      "340C",
      "340C",
      "340C",
      "340C",
      "340C",
      "340C",
      "340C",
      "340C",
      "340C",
      "340C",
      "340C",
      "340C",
      "340C",
      "340C",
      "340C",
      "340C",
      "340C",
      "340C",
      "340C",
      "340C",
      "340C",
      "340C",
      "340C",
      "340C",
      "340C",
      "340C",
      "340C",
      "340C",
      "340C",
      "340C",
      "340C",
      "340C",
      "340C",
      "340C",
      "340C",
      "340C",
      "340C",
      "340C",
      "340C",
      "340C",
      "340C",
      "340C",
      "340C",
      "340C",
      "340C",
      "340C",
      "340C",
      "340C",
      "340C",
      "340C",
      "340C",
      "354",
      "360C",
      "360C",
      "360C",
      "360C",
      "360C",
      "360C",
      "360C",
      "360C",
      "360C",
      "360C",
      "360C",
      "360C",
      "360C",
      "360C",
      "360C",
      "360C",
      "360C",
      "360C",
      "360C",
      "360C",
      "360C",
      "360C",
      "360C",
      "360C",
      "360C",
      "360C",
      "360C",
      "360C",
      "360C",
      "360C",
      "360C",
      "360C",
      "360C",
      "360C",
      "360C",
      "360C",
      "360C",
      "360C",
      "360C",
      "360C",
      "360C",
      "360C",
      "360C",
      "360C",
      "360C",
      "360C",
      "360C",
      "360C",
      "360C",
      "360C",
      "360C",
      "360C",
      "360C",
      "360C",
      "360C",
      "360C",
      "360C",
      "360C",
      "360C",
      "360C",
      "360C",
      "360C",
      "360C",
      "360C",
      "360C",
      "360C",
      "360C",
      "360C",
      "360C",
      "360C",
      "360C",
      "360C",
      "360C",
      "360C",
      "360C",
      "360C",
      "360C",
      "360C",
      "360C",
      "360C",
      "360C",
      "360C",
      "360C",
      "360C",
      "360C",
      "360C",
      "360C",
      "360C",
      "360C",
      "360C",
      "360C",
      "360C",
      "360C",
      "360C",
      "360C",
      "360C",
      "360C",
      "360C",
      "360C",
      "360C",
      "360C",
      "360C",
      "360C",
      "360C",
      "360C",
      "360C",
      "360C",
      "360C",
      "360C",
      "360C",
      "360C",
      "360C",
      "360C",
      "360C",
      "360C",
      "360C",
      "360C",
      "360C",
      "360C",
      "360C",
      "360",
      "360",
      "360",
      "360",
      "360",
      "360",
      "354",
      "326",
      "304",
      "283",
      "262",
      "241",
      "220",
      "199",
      "181",
      "162",
      "156",
      "143",
      "134",
      "122",
      "115",
      "111C",
      "110",
      "110C",
      "110",
      "110C",
      "105",
      "096",
      "090",
      "080",
      "072",
      "064",
      "061",
      "060",
      "060",
      "052",
      "048",
      "040",
      "038",
      "034",
      "030",
      "028",
      "024",
      "021",
      "017",
      "014",
      "010",
      "007",
      "003",
      "110"
    ],
    "swim:geom": "path",
    "swim:speeds": [
      216,
      265,
      261,
      274,
      283,
      286,
      292,
      321,
      364,
      372,
      375,
      378,
      379,
      412,
      416,
      422,
      427,
      433,
      433,
      420,
      423,
      420,
      417,
      417,
      414,
      414,
      413,
      414,
      415,
      415,
      416,
      417,
      417,
      418,
      418,
      418,
      418,
      418,
      417,
      411,
      423,
      422,
      421,
      420,
      421,
      421,
      422,
      423,
      419,
      418,
      410,
      416,
      411,
      414,
      410,
      408,
      408,
      407,
      407,
      407,
      406,
      406,
      406,
      405,
      406,
      408,
      408,
      407,
      405,
      403,
      400,
      400,
      399,
      398,
      392,
      390,
      388,
      386,
      385,
      384,
      383,
      383,
      383,
      386,
      387,
      388,
      390,
      391,
      391,
      388,
      388,
      388,
      389,
      391,
      393,
      383,
      384,
      386,
      387,
      388,
      389,
      389,
      389,
      389,
      390,
      391,
      392,
      393,
      394,
      394,
      393,
      392,
      392,
      393,
      393,
      394,
      394,
      394,
      394,
      394,
      394,
      394,
      395,
      396,
      397,
      399,
      400,
      401,
      402,
      402,
      403,
      403,
      401,
      402,
      403,
      403,
      403,
      402,
      401,
      401,
      401,
      402,
      404,
      406,
      410,
      410,
      411,
      412,
      416,
      418,
      421,
      423,
      424,
      424,
      424,
      424,
      424,
      423,
      424,
      422,
      424,
      422,
      421,
      421,
      419,
      419,
      418,
      417,
      417,
      417,
      417,
      416,
      418,
      420,
      420,
      422,
      422,
      424,
      424,
      426,
      427,
      429,
      429,
      431,
      431,
      432,
      432,
      433,
      433,
      433,
      433,
      433,
      432,
      432,
      431,
      431,
      430,
      430,
      429,
      429,
      429,
      429,
      429,
      429,
      429,
      428,
      428,
      428,
      428,
      427,
      424,
      423,
      423,
      424,
      424,
      425,
      423,
      421,
      420,
      418,
      416,
      415,
      417,
      418,
      418,
      417,
      416,
      415,
      414,
      414,
      413,
      414,
      415,
      416,
      417,
      418,
      419,
      419,
      420,
      420,
      419,
      417,
      416,
      416,
      416,
      417,
      417,
      416,
      414,
      413,
      412,
      412,
      412,
      413,
      412,
      412,
      412,
      412,
      412,
      414,
      416,
      418,
      418,
      418,
      417,
      419,
      423,
      425,
      425,
      431,
      425,
      427,
      425,
      426,
      424,
      423,
      425,
      424,
      418,
      416,
      415,
      414,
      413,
      415,
      414,
      414,
      416,
      415,
      416,
      417,
      417,
      417,
      417,
      415,
      413,
      412,
      412,
      412,
      413,
      413,
      411,
      407,
      404,
      403,
      403,
      402,
      403,
      404,
      405,
      407,
      408,
      408,
      408,
      432,
      432,
      432,
      430,
      426,
      424,
      423,
      423,
      425,
      426,
      427,
      413,
      411,
      395,
      387,
      387,
      386,
      385,
      385,
      385,
      387,
      389,
      390,
      390,
      389,
      380,
      376,
      373,
      364,
      356,
      352,
      351,
      348,
      343,
      346,
      343,
      341,
      334,
      315,
      294,
      263,
      253,
      255,
      249,
      249,
      243,
      241,
      236,
      222,
      208,
      208,
      206,
      207,
      205,
      191,
      195,
      193,
      169,
      161,
      155,
      144,
      146,
      145,
      134,
      130,
      143,
      138
    ],
    "swim:timestamps": [
      1784850489,
      1784850549,
      1784850591,
      1784850651,
      1784850670,
      1784850711,
      1784850729,
      1784850771,
      1784850831,
      1784850891,
      1784850951,
      1784851011,
      1784851072,
      1784851252,
      1784851312,
      1784851372,
      1784851432,
      1784851492,
      1784851552,
      1784851611,
      1784851671,
      1784851733,
      1784851793,
      1784851852,
      1784851913,
      1784851973,
      1784852033,
      1784852092,
      1784852152,
      1784852213,
      1784852273,
      1784852333,
      1784852392,
      1784852454,
      1784852514,
      1784852574,
      1784852633,
      1784852693,
      1784852753,
      1784852873,
      1784853594,
      1784853654,
      1784853714,
      1784853774,
      1784853834,
      1784853894,
      1784853954,
      1784854015,
      1784854075,
      1784854135,
      1784854174,
      1784854195,
      1784854246,
      1784854255,
      1784854315,
      1784854366,
      1784854426,
      1784854486,
      1784854495,
      1784854546,
      1784854555,
      1784854615,
      1784854666,
      1784854736,
      1784854796,
      1784854916,
      1784854976,
      1784855036,
      1784855096,
      1784855216,
      1784855396,
      1784855457,
      1784855520,
      1784855577,
      1784855700,
      1784855757,
      1784855817,
      1784855880,
      1784855940,
      1784856000,
      1784856057,
      1784856120,
      1784856241,
      1784856361,
      1784856421,
      1784856481,
      1784856541,
      1784856661,
      1784856721,
      1784856841,
      1784856901,
      1784856961,
      1784857022,
      1784857214,
      1784857274,
      1784857454,
      1784857574,
      1784857634,
      1784857694,
      1784857755,
      1784857815,
      1784857875,
      1784857935,
      1784857995,
      1784858067,
      1784858127,
      1784858187,
      1784858247,
      1784858367,
      1784858428,
      1784858488,
      1784858548,
      1784858608,
      1784858668,
      1784858728,
      1784858788,
      1784858848,
      1784858908,
      1784859028,
      1784859088,
      1784859148,
      1784859209,
      1784859329,
      1784859389,
      1784859449,
      1784859509,
      1784859581,
      1784859641,
      1784859701,
      1784859761,
      1784859821,
      1784859882,
      1784860002,
      1784860062,
      1784860122,
      1784860182,
      1784860242,
      1784860302,
      1784860362,
      1784860422,
      1784860482,
      1784860542,
      1784860603,
      1784860663,
      1784860783,
      1784860843,
      1784860903,
      1784860963,
      1784861023,
      1784861083,
      1784861143,
      1784861203,
      1784861323,
      1784861384,
      1784861444,
      1784861504,
      1784861549,
      1784861564,
      1784861609,
      1784861624,
      1784861669,
      1784861684,
      1784861729,
      1784861744,
      1784861789,
      1784861804,
      1784861849,
      1784861910,
      1784861924,
      1784861970,
      1784861984,
      1784862044,
      1784862105,
      1784862150,
      1784862165,
      1784862210,
      1784862225,
      1784862270,
      1784862285,
      1784862330,
      1784862345,
      1784862390,
      1784862405,
      1784862450,
      1784862465,
      1784862510,
      1784862525,
      1784862585,
      1784862630,
      1784862645,
      1784862691,
      1784862705,
      1784862750,
      1784862765,
      1784862810,
      1784862826,
      1784862871,
      1784862886,
      1784862931,
      1784862946,
      1784862991,
      1784863006,
      1784863051,
      1784863066,
      1784863111,
      1784863171,
      1784863231,
      1784863291,
      1784863351,
      1784863472,
      1784863531,
      1784863592,
      1784863652,
      1784863712,
      1784863772,
      1784863832,
      1784863892,
      1784863952,
      1784864012,
      1784864073,
      1784864133,
      1784864192,
      1784864252,
      1784864313,
      1784864373,
      1784864433,
      1784864493,
      1784864553,
      1784864613,
      1784864673,
      1784864733,
      1784864793,
      1784864853,
      1784864913,
      1784864973,
      1784865033,
      1784865093,
      1784865153,
      1784865214,
      1784865274,
      1784865334,
      1784865394,
      1784865454,
      1784865514,
      1784865574,
      1784865634,
      1784865814,
      1784865874,
      1784865934,
      1784865995,
      1784866055,
      1784866115,
      1784866175,
      1784866235,
      1784866295,
      1784866355,
      1784866415,
      1784866475,
      1784866535,
      1784866595,
      1784866655,
      1784866715,
      1784866775,
      1784866836,
      1784866896,
      1784866956,
      1784867016,
      1784867136,
      1784867196,
      1784867240,
      1784867256,
      1784867300,
      1784867316,
      1784867360,
      1784867376,
      1784867436,
      1784867493,
      1784867553,
      1784867616,
      1784867677,
      1784867733,
      1784867797,
      1784867857,
      1784867913,
      1784867977,
      1784868037,
      1784868093,
      1784868157,
      1784868217,
      1784868273,
      1784868337,
      1784868397,
      1784868454,
      1784868514,
      1784868574,
      1784868634,
      1784868698,
      1784868754,
      1784868814,
      1784868874,
      1784868934,
      1784868994,
      1784869054,
      1784869114,
      1784869174,
      1784869234,
      1784869294,
      1784869354,
      1784869414,
      1784869475,
      1784869535,
      1784869595,
      1784869655,
      1784869715,
      1784869775,
      1784869835,
      1784869895,
      1784869955,
      1784870015,
      1784870075,
      1784870135,
      1784870195,
      1784870255,
      1784870315,
      1784870375,
      1784870435,
      1784870495,
      1784870556,
      1784870616,
      1784870676,
      1784870736,
      1784870796,
      1784870856,
      1784870916,
      1784870976,
      1784871036,
      1784871096,
      1784871156,
      1784871216,
      1784871276,
      1784871336,
      1784871396,
      1784871456,
      1784871516,
      1784871577,
      1784871637,
      1784871644,
      1784871697,
      1784871716,
      1784871757,
      1784871776,
      1784871817,
      1784871836,
      1784871877,
      1784871896,
      1784871937,
      1784871956,
      1784871997,
      1784872016,
      1784872057,
      1784872076,
      1784872117,
      1784872136,
      1784872177,
      1784872196,
      1784872237,
      1784872256,
      1784872316,
      1784872357,
      1784872376,
      1784872417,
      1784872436,
      1784872477,
      1784872496,
      1784872537,
      1784872556,
      1784872597,
      1784872616,
      1784872657,
      1784872718
    ],
    "wof:geomhash": "69eacf7a414465d426e76bec1f632a50",
    "wof:id": 2031940105,
    "wof:repo": "sfomuseum-data-flights-2026-07"
  },
  "bbox": [
    -122.75305555555556,
    37.416666666666664,
    -73.5475,
    45.413888888888884
  ],
  "geometry": {"coordinates":[[-73.73333333333333,40.61666666666667],[-73.65,40.583333333333336],[-73.60305555555556,40.59916666666667],[-73.56916666666666,40.67055555555555],[-73.55,40.7],[-73.5475,40.7475],[-73.55,40.78333333333333],[-73.54888888888888,40.83305555555556],[-73.59333333333333,40.92444444444444],[-73.68166666666667,41.00138888888889],[-73.78944444444444,41.06666666666667],[-73.89833333333334,41.132222222222225],[-74.00888888888889,41.198611111111106],[-74.3586111111111,41.406388888888884],[-74.49666666666667,41.466944444444444],[-74.6261111111111,41.522777777777776],[-74.76333333333334,41.58166666666667],[-74.90277777777779,41.64138888888889],[-75.04083333333332,41.70027777777778],[-75.1738888888889,41.756388888888885],[-75.31861111111111,41.8175],[-75.44861111111112,41.87222222222222],[-75.5825,41.92861111111111],[-75.7238888888889,41.98777777777778],[-75.85027777777778,42.03972222222222],[-75.97583333333334,42.09166666666667],[-76.1388888888889,42.158055555555556],[-76.27,42.20027777777778],[-76.415,42.24666666666667],[-76.565,42.294444444444444],[-76.70861111111111,42.33972222222222],[-76.85444444444444,42.385555555555555],[-76.96861111111112,42.42166666666667],[-77.14305555555556,42.475833333333334],[-77.28805555555556,42.52055555555555],[-77.43361111111112,42.56527777777777],[-77.57111111111111,42.6075],[-77.71638888888889,42.651666666666664],[-77.85527777777777,42.69138888888889],[-78.14611111111111,42.77194444444444],[-80.00527777777778,43.01777777777777],[-80.16444444444446,43.025555555555556],[-80.32416666666666,43.033055555555556],[-80.48333333333333,43.04055555555556],[-80.6413888888889,43.0475],[-80.8025,43.05444444444444],[-80.96416666666667,43.06111111111111],[-81.12333333333332,43.07],[-81.27888888888889,43.09],[-81.43111111111112,43.10916666666667],[-81.535,43.121944444444445],[-81.59638888888888,43.129444444444445],[-81.68805555555556,43.14083333333333],[-81.75166666666667,43.14888888888889],[-81.90361111111112,43.16722222222222],[-82.03611111111111,43.18333333333333],[-82.18777777777778,43.20111111111111],[-82.34055555555555,43.21944444444445],[-82.36,43.22166666666667],[-82.49333333333334,43.23722222222222],[-82.51194444444444,43.23916666666667],[-82.66388888888889,43.25666666666667],[-82.79277777777777,43.28388888888889],[-82.95722222222223,43.32694444444445],[-83.10249999999999,43.365],[-83.39500000000001,43.441111111111105],[-83.54222222222222,43.47888888888889],[-83.68444444444445,43.515],[-83.82805555555555,43.55166666666666],[-84.13166666666666,43.628055555555555],[-84.56638888888888,43.73555555555556],[-84.71027777777778,43.77055555555555],[-84.85666666666665,43.80611111111111],[-84.99944444444445,43.84055555555556],[-85.28611111111111,43.909166666666664],[-85.42361111111111,43.94166666666666],[-85.56555555555555,43.975],[-85.70666666666666,44.007777777777775],[-85.84666666666666,44.04055555555556],[-85.98722222222223,44.07277777777778],[-86.12388888888889,44.10416666666667],[-86.28555555555555,44.14138888888889],[-86.56833333333333,44.20472222222222],[-86.85472222222222,44.26833333333333],[-87,44.300555555555555],[-87.14361111111111,44.331944444444446],[-87.27638888888889,44.36055555555556],[-87.56527777777778,44.4225],[-87.70944444444444,44.45333333333333],[-87.99694444444445,44.513888888888886],[-88.14083333333333,44.54388888888889],[-88.28722222222223,44.56805555555556],[-88.43694444444445,44.58833333333334],[-88.91361111111112,44.651944444444446],[-89.06388888888888,44.671388888888885],[-89.50416666666666,44.72777777777778],[-89.79777777777778,44.76444444444444],[-89.94916666666667,44.782777777777774],[-90.0975,44.80083333333333],[-90.2175,44.81527777777777],[-90.39611111111111,44.83638888888889],[-90.55083333333333,44.85444444444445],[-90.70138888888889,44.871944444444445],[-90.85416666666666,44.88916666666667],[-90.99972222222222,44.905833333333334],[-91.18222222222222,44.92583333333333],[-91.33444444444444,44.942499999999995],[-91.48583333333333,44.95916666666667],[-91.79166666666667,44.99138888888889],[-91.94305555555556,45.007222222222225],[-92.09416666666667,45.0225],[-92.24527777777777,45.03805555555555],[-92.39861111111112,45.05333333333333],[-92.58138888888888,45.071111111111115],[-92.73361111111112,45.086111111111116],[-92.88611111111112,45.10055555555556],[-93.03888888888889,45.115],[-93.18972222222223,45.12888888888889],[-93.49444444444444,45.155],[-93.64777777777779,45.16638888888889],[-93.80138888888888,45.177499999999995],[-93.9525,45.18861111111111],[-94.26194444444444,45.21027777777778],[-94.41666666666667,45.22083333333334],[-94.575,45.23111111111111],[-94.73555555555555,45.24166666666667],[-94.89277777777778,45.251666666666665],[-95.08083333333333,45.263333333333335],[-95.24027777777778,45.27305555555555],[-95.39722222222223,45.282222222222224],[-95.55472222222222,45.29138888888889],[-95.71444444444445,45.300555555555555],[-96.0275,45.3175],[-96.185,45.325833333333335],[-96.34055555555555,45.33361111111111],[-96.49888888888889,45.34138888888889],[-96.65472222222223,45.348888888888894],[-96.8125,45.35638888888889],[-96.96972222222223,45.36361111111111],[-97.12555555555555,45.37027777777778],[-97.28527777777778,45.37722222222222],[-97.44305555555556,45.38361111111111],[-97.60222222222221,45.39],[-97.76222222222222,45.39611111111111],[-98.08722222222222,45.407777777777774],[-98.24861111111112,45.413333333333334],[-98.40916666666668,45.413888888888884],[-98.57083333333333,45.39972222222222],[-98.73722222222223,45.385],[-98.89861111111112,45.37027777777778],[-99.065,45.355000000000004],[-99.23166666666667,45.33972222222222],[-99.56166666666667,45.308055555555555],[-99.72611111111111,45.29194444444444],[-99.89,45.27583333333333],[-100.08444444444444,45.25611111111111],[-100.19333333333334,45.24527777777778],[-100.245,45.23972222222222],[-100.34138888888889,45.22972222222222],[-100.40833333333335,45.22277777777778],[-100.5225,45.209722222222226],[-100.57138888888889,45.205555555555556],[-100.7025,45.19166666666666],[-100.73277777777778,45.18833333333333],[-100.86333333333333,45.174166666666665],[-100.89666666666668,45.17055555555555],[-101.02388888888889,45.156388888888884],[-101.185,45.13861111111111],[-101.21777777777778,45.135],[-101.34555555555555,45.120555555555555],[-101.37833333333333,45.11694444444444],[-101.54194444444444,45.098333333333336],[-101.70138888888889,45.07944444444445],[-101.82972222222222,45.05444444444444],[-101.86166666666666,45.047777777777775],[-101.99138888888889,45.021388888888886],[-102.02166666666666,45.015],[-102.15111111111112,44.98833333333334],[-102.15194444444445,44.988055555555555],[-102.31055555555555,44.955000000000005],[-102.345,44.94777777777777],[-102.47500000000001,44.92055555555555],[-102.50555555555556,44.913888888888884],[-102.63583333333334,44.88611111111111],[-102.66694444444445,44.879444444444445],[-102.79777777777778,44.85138888888889],[-102.83138888888888,44.844166666666666],[-102.99111111111111,44.80972222222222],[-103.12249999999999,44.78111111111111],[-103.15305555555557,44.77444444444444],[-103.2825,44.74583333333334],[-103.31444444444445,44.73888888888889],[-103.44416666666667,44.71027777777778],[-103.47444444444444,44.703611111111115],[-103.60416666666666,44.675],[-103.63416666666667,44.668055555555554],[-103.76027777777777,44.63972222222222],[-103.7925,44.6325],[-103.9225,44.60305555555556],[-103.95138888888889,44.59666666666667],[-104.07888888888888,44.56777777777778],[-104.1125,44.559999999999995],[-104.23694444444445,44.53138888888889],[-104.26861111111111,44.52388888888889],[-104.39694444444446,44.49444444444445],[-104.55138888888888,44.458333333333336],[-104.71027777777778,44.42111111111111],[-104.86805555555554,44.384166666666665],[-105.02305555555556,44.34722222222222],[-105.33555555555554,44.27194444444444],[-105.49166666666667,44.23444444444444],[-105.64500000000001,44.19694444444444],[-105.79888888888888,44.15888888888889],[-105.95361111111112,44.120555555555555],[-106.10777777777777,44.08222222222223],[-106.25222222222222,44.04611111111111],[-106.41638888888889,44.00472222222222],[-106.56666666666666,43.96361111111111],[-106.715,43.921388888888885],[-106.86333333333333,43.88],[-107.00277777777778,43.840833333333336],[-107.1525,43.79805555555556],[-107.30305555555556,43.75527777777778],[-107.45222222222222,43.71222222222222],[-107.60027777777778,43.66916666666666],[-107.75,43.62555555555556],[-107.89611111111111,43.58277777777778],[-108.04416666666667,43.538888888888884],[-108.18972222222223,43.49583333333334],[-108.335,43.45277777777778],[-108.48527777777778,43.41111111111111],[-108.63055555555555,43.36972222222222],[-108.78027777777778,43.327222222222225],[-108.92694444444444,43.285],[-109.07638888888889,43.24194444444444],[-109.22305555555556,43.19972222222222],[-109.3711111111111,43.156388888888884],[-109.52027777777778,43.112500000000004],[-109.66777777777779,43.06916666666667],[-109.81444444444445,43.025555555555556],[-109.95777777777778,42.98277777777778],[-110.10444444444444,42.93888888888888],[-110.25055555555555,42.894999999999996],[-110.39583333333334,42.85055555555556],[-110.54083333333332,42.80611111111111],[-110.6863888888889,42.76166666666666],[-111.12277777777777,42.626111111111115],[-111.26555555555555,42.58166666666667],[-111.41444444444446,42.53444444444444],[-111.55777777777777,42.48888888888889],[-111.69194444444445,42.44611111111111],[-111.84027777777777,42.39861111111111],[-111.98333333333333,42.3525],[-112.12472222222222,42.30638888888888],[-112.26472222222222,42.26083333333333],[-112.40527777777778,42.215],[-112.54277777777777,42.16916666666666],[-112.68694444444445,42.12027777777778],[-112.82333333333332,42.07361111111111],[-112.96444444444445,42.025555555555556],[-113.1061111111111,41.97694444444445],[-113.24722222222222,41.92833333333333],[-113.38944444444445,41.87861111111111],[-113.52944444444444,41.82972222222222],[-113.66888888888889,41.78111111111111],[-113.81166666666667,41.730555555555554],[-113.95555555555556,41.67944444444444],[-114.2388888888889,41.57833333333333],[-114.38222222222221,41.526944444444446],[-114.49638888888889,41.48583333333333],[-114.52361111111111,41.475833333333334],[-114.63666666666667,41.43472222222222],[-114.66444444444446,41.42472222222222],[-114.77805555555555,41.38361111111111],[-114.80416666666666,41.37361111111111],[-114.91611111111112,41.3325],[-115.08527777777778,41.269999999999996],[-115.22305555555556,41.21888888888889],[-115.35833333333333,41.16861111111111],[-115.49555555555555,41.1175],[-115.63138888888888,41.06666666666667],[-115.76583333333333,41.01555555555556],[-115.90222222222222,40.96361111111111],[-116.03888888888889,40.911944444444444],[-116.17166666666667,40.86083333333333],[-116.30694444444444,40.80888888888889],[-116.44388888888889,40.75611111111111],[-116.57666666666667,40.70416666666667],[-116.74083333333333,40.64055555555556],[-116.84833333333333,40.59805555555556],[-117.01055555555556,40.545833333333334],[-117.15166666666667,40.509166666666665],[-117.26916666666666,40.478611111111114],[-117.41000000000001,40.44138888888889],[-117.55,40.40416666666667],[-117.69,40.36694444444444],[-117.85833333333333,40.32166666666667],[-118.00138888888888,40.283055555555556],[-118.11861111111111,40.25138888888889],[-118.25833333333334,40.213055555555556],[-118.39805555555556,40.17472222222222],[-118.53472222222221,40.13722222222222],[-118.6975,40.089444444444446],[-118.83222222222221,40.04861111111111],[-118.96722222222222,40.007777777777775],[-119.10166666666666,39.967222222222226],[-119.23666666666666,39.92583333333333],[-119.37194444444444,39.884166666666665],[-119.5075,39.8425],[-119.64222222222223,39.800555555555555],[-119.78055555555555,39.7575],[-119.915,39.71555555555556],[-120.05027777777778,39.67305555555555],[-120.20722222222223,39.68388888888889],[-120.35805555555555,39.70722222222223],[-120.50972222222222,39.73222222222223],[-120.66166666666668,39.757777777777775],[-120.81,39.782777777777774],[-120.95777777777778,39.80722222222222],[-121.1061111111111,39.83222222222223],[-121.25916666666667,39.858333333333334],[-121.41111111111111,39.88472222222222],[-121.56138888888889,39.91027777777778],[-121.7125,39.936388888888885],[-121.86333333333333,39.948611111111106],[-122.0111111111111,39.930277777777775],[-122.10916666666667,39.886944444444445],[-122.2038888888889,39.81194444444444],[-122.24138888888889,39.70666666666667],[-122.27916666666667,39.60472222222222],[-122.31666666666666,39.50083333333333],[-122.35777777777777,39.38638888888889],[-122.39472222222223,39.283055555555556],[-122.4325,39.17777777777778],[-122.46972222222223,39.07333333333334],[-122.50638888888889,38.96888888888889],[-122.54333333333334,38.865],[-122.58,38.76138888888889],[-122.61638888888888,38.658055555555556],[-122.65083333333334,38.56166666666666],[-122.68472222222222,38.463055555555556],[-122.71833333333333,38.36694444444444],[-122.75138888888888,38.270833333333336],[-122.75305555555556,38.175],[-122.72611111111111,38.08111111111111],[-122.69944444444445,37.989444444444445],[-122.7,37.96666666666667],[-122.66888888888889,37.9],[-122.63333333333334,37.86666666666667],[-122.58277777777778,37.81388888888888],[-122.55,37.78333333333333],[-122.51027777777777,37.74527777777778],[-122.48333333333333,37.71666666666667],[-122.4475,37.686388888888885],[-122.43333333333334,37.666666666666664],[-122.39111111111112,37.63333333333333],[-122.36666666666666,37.61666666666667],[-122.34333333333333,37.57666666666667],[-122.33333333333333,37.55],[-122.31166666666667,37.515],[-122.3,37.5],[-122.26916666666666,37.46138888888889],[-122.25,37.45],[-122.20305555555557,37.44],[-122.18333333333334,37.43333333333333],[-122.13666666666667,37.41833333333333],[-122.11666666666666,37.416666666666664],[-122.1,37.46666666666667],[-122.12388888888889,37.495],[-122.13333333333334,37.516666666666666],[-122.16805555555555,37.531666666666666],[-122.18333333333334,37.53333333333333],[-122.21638888888889,37.551944444444445],[-122.23333333333333,37.56666666666667],[-122.26027777777777,37.57055555555556],[-122.28333333333333,37.583333333333336],[-122.30333333333333,37.58861111111111],[-122.31666666666666,37.6],[-122.3461111111111,37.60666666666667],[-122.38361111111112,37.62222222222222]],"type":"LineString"}
}
