{
  "id": 2032053361,
  "type": "Feature",
  "properties": {
    "geom:area": 0,
    "geom:bbox": "-122.406500,37.625000,-121.698000,38.356140",
    "geom:latitude": 38.03263203573879,
    "geom:longitude": -122.14317941292913,
    "src:alt_label": "swim-takeoff",
    "src:geom": "swim",
    "swim:elevations": [
      152,
      378,
      551,
      659,
      749,
      935,
      1186,
      1360,
      1759,
      2041,
      2171,
      2511,
      2619,
      2936,
      3201,
      3213,
      3431,
      3536,
      3593,
      3721,
      3787,
      3956,
      3993,
      4218,
      4426
    ],
    "swim:geom": "takeoff",
    "swim:timestamps": [
      1785566906,
      1785566924,
      1785566943,
      1785566966,
      1785566996,
      1785567027,
      1785567056,
      1785567074,
      1785567111,
      1785567145,
      1785567160,
      1785567194,
      1785567210,
      1785567249,
      1785567298,
      1785567301,
      1785567354,
      1785567388,
      1785567403,
      1785567440,
      1785567463,
      1785567505,
      1785567511,
      1785567556,
      1785567592
    ],
    "wof:geomhash": "f9ccb508511e11160654a1bcd88893f9",
    "wof:id": 2032053361,
    "wof:repo": "sfomuseum-data-flights-2026-07"
  },
  "bbox": [
    -122.4065,
    37.625,
    -121.698,
    38.35614
  ],
  "geometry": {"coordinates":[[-122.38994,37.625],[-122.40389,37.63323],[-122.4065,37.64818],[-122.39371,37.66643],[-122.37046,37.69074],[-122.34222,37.71974],[-122.33824,37.75436],[-122.34836,37.77539],[-122.3723,37.81805],[-122.38756,37.85816],[-122.38709,37.87814],[-122.38426,37.92322],[-122.376,37.94289],[-122.32393,37.97711],[-122.25352,38.01973],[-122.24896,38.02252],[-122.16296,38.07518],[-122.10436,38.11087],[-122.07688,38.12757],[-122.00688,38.16992],[-121.96182,38.1972],[-121.87845,38.24775],[-121.86618,38.25512],[-121.77233,38.31162],[-121.698,38.35614]],"type":"LineString"}
}
