{
  "id": 2031978075,
  "type": "Feature",
  "properties": {
    "geom:area": 0,
    "geom:bbox": "-122.758430,37.422370,-122.077990,38.470170",
    "geom:latitude": 37.82806986462483,
    "geom:longitude": -122.46033481702766,
    "src:alt_label": "swim-approach",
    "src:geom": "swim",
    "swim:elevations": [
      8504,
      8352,
      7860,
      7447,
      7209,
      6810,
      6431,
      6215,
      5817,
      5612,
      5497,
      5413,
      5196,
      4925,
      4781,
      4274,
      3906,
      3720,
      3658,
      3531,
      3444,
      3383,
      3353,
      3353,
      3353,
      3353,
      3318,
      3276,
      3152,
      2875,
      2804,
      2494,
      2312,
      2070,
      2029,
      1883,
      1796,
      1670,
      1540,
      1288,
      1219,
      1219,
      1219,
      1155,
      980,
      947,
      850,
      785,
      638,
      487,
      475,
      426,
      304,
      250,
      240,
      153,
      123,
      0
    ],
    "swim:geom": "approach",
    "swim:timestamps": [
      1785109399,
      1785109417,
      1785109456,
      1785109496,
      1785109516,
      1785109553,
      1785109587,
      1785109608,
      1785109645,
      1785109665,
      1785109676,
      1785109686,
      1785109707,
      1785109732,
      1785109747,
      1785109796,
      1785109828,
      1785109850,
      1785109856,
      1785109869,
      1785109882,
      1785109905,
      1785109948,
      1785109978,
      1785109999,
      1785110028,
      1785110061,
      1785110071,
      1785110093,
      1785110126,
      1785110132,
      1785110168,
      1785110193,
      1785110225,
      1785110228,
      1785110246,
      1785110255,
      1785110267,
      1785110280,
      1785110307,
      1785110335,
      1785110347,
      1785110382,
      1785110412,
      1785110437,
      1785110449,
      1785110478,
      1785110493,
      1785110532,
      1785110577,
      1785110580,
      1785110588,
      1785110624,
      1785110637,
      1785110640,
      1785110665,
      1785110675,
      1785110709
    ],
    "wof:geomhash": "25bd88cfd953ba9126c6bd58b91b72bb",
    "wof:id": 2031978075,
    "wof:repo": "sfomuseum-data-flights-2026-07"
  },
  "bbox": [
    -122.75843,
    37.42237,
    -122.07799,
    38.47017
  ],
  "geometry": {"coordinates":[[-122.51633,38.47017],[-122.54092,38.44644],[-122.59415,38.39409],[-122.64907,38.34043],[-122.67671,38.3132],[-122.72606,38.26488],[-122.75843,38.21504],[-122.75379,38.17838],[-122.73634,38.11719],[-122.72696,38.08462],[-122.72168,38.06663],[-122.7172,38.05129],[-122.70734,38.01693],[-122.6959,37.97733],[-122.68886,37.95334],[-122.65257,37.88007],[-122.61051,37.84005],[-122.58342,37.81442],[-122.57593,37.80734],[-122.5601,37.79255],[-122.54304,37.77652],[-122.51553,37.75056],[-122.46678,37.70477],[-122.43314,37.6732],[-122.40985,37.65117],[-122.37753,37.6206],[-122.34808,37.58537],[-122.34238,37.5752],[-122.33187,37.55164],[-122.30965,37.51946],[-122.30333,37.5149],[-122.26489,37.48721],[-122.23856,37.46799],[-122.20422,37.44585],[-122.20037,37.44448],[-122.17716,37.43673],[-122.16558,37.43291],[-122.14984,37.42784],[-122.133,37.42237],[-122.09694,37.42357],[-122.07799,37.44709],[-122.08,37.45971],[-122.09136,37.49434],[-122.12105,37.51182],[-122.14754,37.52285],[-122.16005,37.52831],[-122.18823,37.54018],[-122.20164,37.5459],[-122.23245,37.55875],[-122.26578,37.57281],[-122.26794,37.57373],[-122.27358,37.57616],[-122.29951,37.58701],[-122.309,37.59093],[-122.31122,37.59185],[-122.32897,37.59943],[-122.33602,37.60238],[-122.36088,37.61281]],"type":"LineString"}
}
