{
  "id": 2032006489,
  "type": "Feature",
  "properties": {
    "geom:area": 0,
    "geom:bbox": "-122.367778,37.416389,-122.116667,37.618056",
    "geom:latitude": 37.50836356561081,
    "geom:longitude": -122.22020671088694,
    "src:alt_label": "swim-path",
    "src:geom": "swim",
    "swim:altitudes": [
      "085",
      "081",
      "070",
      "058",
      "049",
      "042",
      "031",
      "031",
      "017",
      "012",
      "003",
      "110"
    ],
    "swim:geom": "path",
    "swim:speeds": [
      268,
      262,
      252,
      232,
      239,
      206,
      184,
      184,
      167,
      134,
      121,
      122
    ],
    "swim:timestamps": [
      1785292108,
      1785292141,
      1785292202,
      1785292228,
      1785292262,
      1785292288,
      1785292354,
      1785292382,
      1785292474,
      1785292526,
      1785292594,
      1785292646
    ],
    "wof:geomhash": "b48e2c317c4970e783d9de73e2ea1400",
    "wof:id": 2032006489,
    "wof:repo": "sfomuseum-data-flights-2026-07"
  },
  "bbox": [
    -122.36777777777777,
    37.41638888888889,
    -122.11666666666666,
    37.61805555555556
  ],
  "geometry": {"coordinates":[[-122.28333333333333,37.483333333333334],[-122.26722222222222,37.44944444444444],[-122.18694444444445,37.41638888888889],[-122.15,37.43333333333333],[-122.13166666666666,37.45388888888889],[-122.11666666666666,37.483333333333334],[-122.15,37.53333333333333],[-122.17277777777778,37.53583333333333],[-122.26666666666667,37.56666666666667],[-122.29583333333333,37.58777777777778],[-122.35,37.6],[-122.36777777777777,37.61805555555556]],"type":"LineString"}
}
