{
  "id": 2032024371,
  "type": "Feature",
  "properties": {
    "geom:area": 0,
    "geom:bbox": "-122.555320,36.730340,-121.451870,37.669690",
    "geom:latitude": 37.22904963134612,
    "geom:longitude": -122.05580223297115,
    "src:alt_label": "swim-takeoff",
    "src:geom": "swim",
    "swim:elevations": [
      523,
      1063,
      1375,
      1954,
      2268,
      3005,
      3219,
      3650,
      4039,
      4345,
      4536,
      5001,
      5160,
      5441,
      5827,
      6346,
      6545,
      7325,
      7827,
      8020,
      8529,
      8597,
      8743,
      8891,
      9214,
      9853,
      9982,
      10129,
      10190,
      10478
    ],
    "swim:geom": "takeoff",
    "swim:timestamps": [
      1785354700,
      1785354750,
      1785354783,
      1785354834,
      1785354854,
      1785354895,
      1785354909,
      1785354941,
      1785354965,
      1785354984,
      1785354995,
      1785355028,
      1785355041,
      1785355061,
      1785355090,
      1785355127,
      1785355142,
      1785355207,
      1785355254,
      1785355274,
      1785355321,
      1785355327,
      1785355342,
      1785355358,
      1785355387,
      1785355454,
      1785355466,
      1785355482,
      1785355487,
      1785355517
    ],
    "wof:geomhash": "10248ddbd212c6aeb93896113e5fd3d7",
    "wof:id": 2032024371,
    "wof:repo": "sfomuseum-data-flights-2026-07"
  },
  "bbox": [
    -122.55532,
    36.73034,
    -121.45187,
    37.66969
  ],
  "geometry": {"coordinates":[[-122.41072,37.63341],[-122.4602,37.65616],[-122.5002,37.66969],[-122.55532,37.63115],[-122.54696,37.60478],[-122.49702,37.56495],[-122.47908,37.55067],[-122.43475,37.51595],[-122.40106,37.49003],[-122.37432,37.46952],[-122.35783,37.45681],[-122.30794,37.41816],[-122.2882,37.4029],[-122.25761,37.37899],[-122.21128,37.34304],[-122.15136,37.29635],[-122.12666,37.27707],[-122.0157,37.19025],[-121.93248,37.12463],[-121.89784,37.09711],[-121.81193,37.02942],[-121.80079,37.02075],[-121.77265,36.99871],[-121.74245,36.97484],[-121.68782,36.93141],[-121.56451,36.82891],[-121.54226,36.8092],[-121.51442,36.78492],[-121.50468,36.77633],[-121.45187,36.73034]],"type":"LineString"}
}
