{
  "id": 2032024667,
  "type": "Feature",
  "properties": {
    "geom:area": 0,
    "geom:bbox": "-121.235000,34.197778,-118.365833,36.446389",
    "geom:latitude": 35.19384983886947,
    "geom:longitude": -119.86494523939899,
    "src:alt_label": "swim-path",
    "src:geom": "swim",
    "swim:altitudes": [
      "310C",
      "310C",
      "310C",
      "310C",
      "310C",
      "310C",
      "310C",
      "310C",
      "310",
      "310",
      "310",
      "303",
      "277",
      "255",
      "237",
      "215",
      "190",
      "174",
      "156",
      "139",
      "124",
      "119",
      "111",
      "103",
      "075",
      "061",
      "058",
      "045",
      "045",
      "035",
      "033",
      "025",
      "023",
      "016",
      "007"
    ],
    "swim:geom": "path",
    "swim:speeds": [
      487,
      487,
      484,
      482,
      481,
      481,
      481,
      481,
      481,
      481,
      481,
      480,
      461,
      445,
      434,
      419,
      407,
      388,
      375,
      337,
      327,
      317,
      308,
      296,
      285,
      282,
      230,
      215,
      228,
      195,
      197,
      188,
      188,
      152,
      154
    ],
    "swim:timestamps": [
      1785384045,
      1785384107,
      1785384167,
      1785384225,
      1785384287,
      1785384347,
      1785384405,
      1785384467,
      1785384585,
      1785384648,
      1785384708,
      1785384765,
      1785384828,
      1785384888,
      1785384946,
      1785385006,
      1785385068,
      1785385126,
      1785385186,
      1785385249,
      1785385309,
      1785385321,
      1785385359,
      1785385429,
      1785385549,
      1785385609,
      1785385665,
      1785385722,
      1785385741,
      1785385785,
      1785385801,
      1785385845,
      1785385862,
      1785385905,
      1785385982
    ],
    "wof:geomhash": "f314e71bd15e99864f365c8f2b92c6d1",
    "wof:id": 2032024667,
    "wof:repo": "sfomuseum-data-flights-2026-07"
  },
  "bbox": [
    -121.235,
    34.19777777777777,
    -118.36583333333333,
    36.44638888888888
  ],
  "geometry": {"coordinates":[[-121.235,36.44638888888888],[-121.1275,36.349444444444444],[-121.02194444444444,36.24666666666667],[-120.915,36.14194444444444],[-120.81166666666667,36.040277777777774],[-120.70694444444445,35.93722222222222],[-120.59861111111111,35.83027777777778],[-120.4975,35.72944444444445],[-120.28388888888888,35.51888888888889],[-120.17472222222223,35.415277777777774],[-120.06805555555555,35.31222222222222],[-119.98111111111112,35.22805555555556],[-119.8611111111111,35.111666666666665],[-119.76416666666667,35.016666666666666],[-119.68611111111112,34.94083333333333],[-119.59027777777777,34.85611111111111],[-119.46527777777779,34.77194444444444],[-119.38,34.71611111111111],[-119.28083333333333,34.651111111111106],[-119.17666666666668,34.59805555555556],[-119.07916666666667,34.5575],[-119.05,34.53333333333333],[-119.01666666666667,34.5],[-118.95138888888889,34.42777777777778],[-118.83277777777778,34.30444444444444],[-118.76194444444444,34.25666666666667],[-118.68333333333334,34.233333333333334],[-118.61666666666666,34.2],[-118.61472222222221,34.20305555555556],[-118.55,34.2],[-118.53416666666666,34.20027777777778],[-118.48333333333333,34.2],[-118.47111111111111,34.19944444444444],[-118.41666666666667,34.2],[-118.36583333333333,34.19777777777777]],"type":"LineString"}
}
