{
  "id": 2031969455,
  "type": "Feature",
  "properties": {
    "geom:area": 0,
    "geom:bbox": "-114.529722,28.313889,-80.949167,41.966667",
    "geom:latitude": 34.81793125941596,
    "geom:longitude": -92.86825857080802,
    "src:alt_label": "swim-path",
    "src:geom": "swim",
    "swim:altitudes": [
      "330C",
      "330C",
      "330C",
      "330C",
      "330C",
      "330C",
      "330C",
      "330C",
      "330C",
      "330C",
      "330C",
      "330C",
      "330C",
      "330C",
      "330C",
      "330C",
      "330C",
      "330C",
      "330C",
      "330C",
      "330C",
      "330C",
      "330C",
      "330C",
      "330C",
      "330C",
      "330C",
      "330C",
      "330C",
      "330C",
      "330C",
      "330C",
      "330C",
      "330C",
      "330C",
      "330C",
      "330C",
      "330C",
      "330C",
      "330C",
      "330C",
      "330C",
      "330C",
      "330C",
      "330C",
      "330C",
      "330C",
      "330C",
      "330C",
      "330C",
      "330C",
      "330C",
      "330C",
      "330C",
      "330C",
      "330C",
      "330C",
      "330C",
      "330C",
      "330C",
      "330C",
      "330C",
      "330C",
      "330C",
      "330C",
      "330C",
      "330C",
      "330C",
      "330C",
      "330C",
      "330C",
      "330C",
      "330C",
      "330C",
      "330C",
      "330C",
      "330C",
      "330C",
      "330C",
      "330C",
      "330C",
      "330C",
      "330C",
      "330C",
      "330C",
      "330C",
      "330C",
      "330C",
      "330C",
      "330C",
      "330C",
      "330C",
      "330C",
      "330C",
      "330C",
      "330C",
      "330C",
      "330C",
      "330C",
      "330C",
      "330C",
      "330C",
      "330C",
      "330C",
      "330C",
      "330C",
      "330C",
      "330C",
      "330C",
      "330C",
      "330C",
      "330C",
      "330C",
      "330C",
      "330C",
      "330C",
      "330C",
      "330C",
      "330C",
      "330C",
      "330C",
      "330C",
      "330C",
      "330C",
      "330C",
      "330C",
      "330C",
      "330C",
      "330C",
      "330C",
      "330C",
      "330C",
      "330C",
      "330C",
      "330C",
      "330C",
      "330C",
      "330C",
      "330C",
      "330C",
      "330C",
      "330C",
      "330C",
      "330C",
      "330C",
      "330C",
      "330C",
      "330C",
      "330",
      "334",
      "342",
      "350C",
      "350C",
      "350C",
      "350C",
      "350C",
      "350C",
      "350C",
      "350C",
      "350C",
      "350C",
      "350C",
      "350C",
      "350C",
      "350C",
      "350C",
      "350C",
      "350C",
      "350C",
      "350C",
      "350C",
      "350C",
      "350C",
      "350C",
      "350C",
      "350C",
      "350C",
      "350C",
      "350C",
      "350C",
      "350C",
      "350C",
      "350C",
      "350C",
      "350C",
      "350C",
      "350C",
      "350C",
      "350C",
      "350C",
      "350C",
      "350C",
      "350C",
      "350C",
      "350C",
      "350C",
      "350C",
      "350C",
      "350C",
      "350C",
      "350C",
      "350C",
      "350C",
      "350C",
      "350C",
      "350C",
      "350C",
      "350C",
      "350C",
      "350C",
      "350C",
      "350C",
      "350C",
      "350C",
      "350C",
      "350C",
      "350C",
      "350C",
      "350C",
      "350C",
      "350C",
      "350C",
      "350C",
      "350C",
      "350C",
      "350C",
      "350C",
      "350C",
      "350",
      "340",
      "331C",
      "330C",
      "330C",
      "330C",
      "330C",
      "330C",
      "330C",
      "330C",
      "330C",
      "330C",
      "330C",
      "330",
      "323",
      "301",
      "290C",
      "290C",
      "281",
      "268",
      "260C",
      "260C",
      "256",
      "246",
      "236",
      "224",
      "201",
      "177",
      "168",
      "154",
      "135",
      "117",
      "110",
      "110C",
      "110",
      "110",
      "102",
      "096",
      "086",
      "074",
      "067",
      "059",
      "060",
      "059",
      "059",
      "053",
      "051",
      "041",
      "036",
      "031",
      "026",
      "016",
      "012",
      "007",
      "004",
      "006",
      "015",
      "030",
      "047",
      "056",
      "071",
      "082",
      "098",
      "104",
      "114",
      "146",
      "164",
      "180",
      "194",
      "208",
      "221",
      "232",
      "242",
      "253",
      "263",
      "271",
      "297",
      "310",
      "318",
      "328C",
      "330C",
      "330C",
      "330C",
      "330C",
      "330C",
      "330C",
      "330C",
      "330C",
      "330C",
      "330C",
      "330C",
      "330C",
      "330C",
      "330C",
      "330C",
      "330C",
      "330C",
      "330C",
      "330C",
      "330C",
      "330",
      "330",
      "330",
      "327",
      "320C",
      "320C",
      "320C",
      "320C",
      "320C",
      "320C",
      "320C",
      "320C",
      "319C",
      "320C",
      "320C",
      "320C",
      "320C",
      "320C",
      "320C",
      "320C",
      "320C",
      "320C",
      "319C",
      "319C",
      "319C",
      "320C",
      "320C",
      "320C",
      "320C",
      "320C",
      "320C",
      "320C",
      "320C",
      "320C",
      "320C",
      "320C",
      "320C",
      "320C",
      "320C",
      "320C",
      "320C",
      "320C",
      "320C",
      "320C",
      "320C",
      "320C",
      "320C",
      "320C",
      "320C",
      "320C",
      "320C",
      "320C",
      "320C",
      "320C",
      "319C",
      "319C",
      "320C",
      "320C",
      "320C",
      "320C",
      "320C",
      "320C",
      "320C",
      "320C",
      "320C",
      "320C",
      "320C",
      "320",
      "315",
      "305",
      "297",
      "295",
      "287",
      "285",
      "280C",
      "280C",
      "280C",
      "280C",
      "280C",
      "280",
      "275",
      "272",
      "265",
      "263",
      "251",
      "241C",
      "239",
      "234",
      "233",
      "223",
      "213",
      "206",
      "203",
      "200C",
      "200C",
      "200C",
      "200C",
      "200",
      "200",
      "200",
      "200",
      "200",
      "189",
      "184",
      "160",
      "130",
      "121",
      "120",
      "120",
      "120",
      "120",
      "111",
      "107",
      "096",
      "091",
      "080",
      "079",
      "071",
      "070",
      "070",
      "070",
      "064",
      "060",
      "051",
      "050",
      "050",
      "050",
      "050",
      "050",
      "050",
      "049",
      "040",
      "022",
      "016",
      "009"
    ],
    "swim:geom": "path",
    "swim:speeds": [
      484,
      484,
      484,
      483,
      484,
      487,
      487,
      486,
      485,
      484,
      485,
      483,
      484,
      482,
      483,
      482,
      483,
      483,
      483,
      483,
      484,
      484,
      486,
      486,
      486,
      485,
      484,
      484,
      484,
      484,
      484,
      484,
      484,
      485,
      485,
      486,
      486,
      486,
      487,
      487,
      487,
      487,
      487,
      487,
      487,
      486,
      486,
      486,
      486,
      485,
      484,
      483,
      482,
      480,
      478,
      476,
      475,
      476,
      476,
      476,
      477,
      477,
      475,
      475,
      474,
      474,
      471,
      472,
      470,
      471,
      470,
      471,
      469,
      471,
      470,
      471,
      471,
      472,
      472,
      473,
      475,
      476,
      477,
      477,
      478,
      477,
      477,
      476,
      477,
      476,
      472,
      471,
      469,
      468,
      467,
      467,
      468,
      468,
      468,
      468,
      469,
      469,
      469,
      470,
      470,
      471,
      470,
      470,
      469,
      468,
      466,
      464,
      463,
      462,
      461,
      460,
      459,
      459,
      459,
      459,
      459,
      459,
      460,
      460,
      460,
      460,
      460,
      459,
      458,
      458,
      458,
      458,
      458,
      459,
      459,
      459,
      458,
      457,
      455,
      453,
      451,
      450,
      450,
      450,
      449,
      450,
      452,
      455,
      457,
      460,
      463,
      464,
      464,
      464,
      464,
      464,
      463,
      461,
      461,
      460,
      464,
      462,
      465,
      466,
      466,
      464,
      464,
      462,
      461,
      460,
      460,
      460,
      462,
      463,
      464,
      465,
      464,
      466,
      466,
      469,
      465,
      469,
      464,
      463,
      464,
      461,
      458,
      457,
      459,
      456,
      459,
      463,
      461,
      463,
      463,
      466,
      467,
      467,
      467,
      467,
      466,
      466,
      465,
      464,
      464,
      463,
      463,
      463,
      463,
      463,
      463,
      463,
      463,
      464,
      464,
      466,
      465,
      467,
      467,
      467,
      466,
      466,
      465,
      465,
      465,
      465,
      464,
      463,
      462,
      453,
      452,
      451,
      451,
      452,
      456,
      459,
      458,
      458,
      457,
      455,
      453,
      452,
      453,
      461,
      455,
      449,
      444,
      468,
      475,
      475,
      476,
      474,
      465,
      457,
      443,
      428,
      368,
      326,
      319,
      314,
      311,
      312,
      307,
      305,
      301,
      298,
      299,
      290,
      284,
      283,
      280,
      272,
      236,
      226,
      211,
      201,
      204,
      199,
      203,
      199,
      191,
      175,
      166,
      185,
      191,
      263,
      273,
      278,
      279,
      279,
      283,
      293,
      350,
      370,
      381,
      389,
      400,
      412,
      420,
      428,
      435,
      437,
      441,
      446,
      458,
      458,
      457,
      456,
      449,
      450,
      451,
      451,
      451,
      449,
      448,
      448,
      448,
      448,
      448,
      447,
      446,
      444,
      443,
      443,
      442,
      441,
      438,
      434,
      430,
      427,
      425,
      423,
      421,
      423,
      422,
      424,
      448,
      425,
      430,
      425,
      426,
      427,
      428,
      427,
      428,
      427,
      428,
      427,
      427,
      426,
      422,
      425,
      420,
      421,
      419,
      420,
      418,
      417,
      418,
      417,
      417,
      417,
      416,
      416,
      414,
      414,
      412,
      413,
      412,
      411,
      410,
      409,
      408,
      408,
      407,
      406,
      404,
      403,
      403,
      404,
      429,
      453,
      443,
      424,
      419,
      414,
      412,
      396,
      395,
      395,
      395,
      394,
      393,
      392,
      391,
      390,
      390,
      394,
      400,
      404,
      406,
      405,
      422,
      426,
      427,
      425,
      425,
      424,
      423,
      421,
      417,
      414,
      406,
      405,
      404,
      390,
      375,
      370,
      364,
      357,
      356,
      353,
      352,
      351,
      351,
      350,
      350,
      350,
      351,
      351,
      352,
      348,
      342,
      325,
      311,
      291,
      284,
      283,
      282,
      282,
      277,
      274,
      267,
      267,
      261,
      265,
      272,
      267,
      256,
      231,
      234,
      239,
      221,
      216,
      213,
      193,
      173,
      176,
      176,
      167,
      171,
      145,
      144
    ],
    "swim:timestamps": [
      1784993165,
      1784993225,
      1784993285,
      1784993465,
      1784993526,
      1784993826,
      1784993886,
      1784993946,
      1784994006,
      1784994066,
      1784994092,
      1784994126,
      1784994152,
      1784994186,
      1784994212,
      1784994247,
      1784994272,
      1784994332,
      1784994367,
      1784994392,
      1784994427,
      1784994452,
      1784994487,
      1784994547,
      1784994572,
      1784994607,
      1784994632,
      1784994667,
      1784994692,
      1784994727,
      1784994752,
      1784994787,
      1784994813,
      1784994847,
      1784994873,
      1784994933,
      1784994967,
      1784994993,
      1784995028,
      1784995053,
      1784995113,
      1784995148,
      1784995173,
      1784995208,
      1784995233,
      1784995293,
      1784995413,
      1784995473,
      1784995534,
      1784995594,
      1784995654,
      1784995714,
      1784995774,
      1784995834,
      1784995894,
      1784995954,
      1784996014,
      1784996074,
      1784996134,
      1784996194,
      1784996255,
      1784996315,
      1784996375,
      1784996419,
      1784996435,
      1784996479,
      1784996555,
      1784996599,
      1784996615,
      1784996659,
      1784996675,
      1784996719,
      1784996735,
      1784996779,
      1784996795,
      1784996839,
      1784996900,
      1784996915,
      1784996960,
      1784997020,
      1784997036,
      1784997080,
      1784997096,
      1784997140,
      1784997156,
      1784997260,
      1784997276,
      1784997320,
      1784997336,
      1784997380,
      1784997561,
      1784997621,
      1784997681,
      1784997741,
      1784997801,
      1784997861,
      1784997921,
      1784997946,
      1784997981,
      1784998006,
      1784998041,
      1784998066,
      1784998127,
      1784998222,
      1784998247,
      1784998307,
      1784998342,
      1784998367,
      1784998399,
      1784998427,
      1784998487,
      1784998519,
      1784998547,
      1784998579,
      1784998607,
      1784998667,
      1784998699,
      1784998727,
      1784998759,
      1784998788,
      1784998820,
      1784998848,
      1784998968,
      1784999028,
      1784999060,
      1784999088,
      1784999148,
      1784999208,
      1784999268,
      1784999328,
      1784999388,
      1784999448,
      1784999509,
      1784999569,
      1784999629,
      1784999689,
      1784999749,
      1784999809,
      1784999869,
      1784999929,
      1784999989,
      1785000049,
      1785000109,
      1785000169,
      1785000230,
      1785000350,
      1785000410,
      1785000470,
      1785000530,
      1785000590,
      1785000650,
      1785000710,
      1785000770,
      1785000830,
      1785000890,
      1785000950,
      1785001011,
      1785001071,
      1785001131,
      1785001191,
      1785001248,
      1785001311,
      1785001431,
      1785001491,
      1785001551,
      1785001611,
      1785001671,
      1785001729,
      1785001792,
      1785001834,
      1785001852,
      1785001912,
      1785002089,
      1785002152,
      1785002212,
      1785002272,
      1785002299,
      1785002332,
      1785002392,
      1785002419,
      1785002452,
      1785002479,
      1785002513,
      1785002573,
      1785002659,
      1785002719,
      1785002753,
      1785002810,
      1785002840,
      1785002871,
      1785002960,
      1785003020,
      1785003051,
      1785003080,
      1785003111,
      1785003231,
      1785003320,
      1785003351,
      1785003380,
      1785003411,
      1785003472,
      1785003532,
      1785003621,
      1785003652,
      1785003681,
      1785003712,
      1785003741,
      1785003772,
      1785003801,
      1785003892,
      1785003921,
      1785003952,
      1785003981,
      1785004012,
      1785004041,
      1785004101,
      1785004133,
      1785004161,
      1785004221,
      1785004282,
      1785004313,
      1785004342,
      1785004402,
      1785004462,
      1785004522,
      1785004553,
      1785004582,
      1785004642,
      1785004702,
      1785004762,
      1785004822,
      1785004882,
      1785004942,
      1785005003,
      1785005123,
      1785005243,
      1785005375,
      1785005435,
      1785005495,
      1785005555,
      1785005615,
      1785005675,
      1785005736,
      1785005796,
      1785005856,
      1785005916,
      1785006036,
      1785006096,
      1785006156,
      1785006216,
      1785006336,
      1785006396,
      1785006457,
      1785006517,
      1785006577,
      1785006637,
      1785006697,
      1785006757,
      1785006817,
      1785006877,
      1785006901,
      1785006937,
      1785006955,
      1785007015,
      1785007057,
      1785007075,
      1785007117,
      1785007177,
      1785007183,
      1785007238,
      1785007249,
      1785007298,
      1785007375,
      1785007418,
      1785007429,
      1785007495,
      1785007538,
      1785007561,
      1785007598,
      1785007658,
      1785007675,
      1785007718,
      1785007730,
      1785012544,
      1785012568,
      1785012628,
      1785012669,
      1785012688,
      1785012729,
      1785012748,
      1785012789,
      1785012808,
      1785012868,
      1785012969,
      1785013029,
      1785013090,
      1785013150,
      1785013210,
      1785013270,
      1785013330,
      1785013390,
      1785013450,
      1785013510,
      1785013570,
      1785013750,
      1785013871,
      1785013931,
      1785013991,
      1785014171,
      1785014231,
      1785014291,
      1785014351,
      1785014411,
      1785014471,
      1785014532,
      1785014592,
      1785014652,
      1785014712,
      1785014772,
      1785014832,
      1785014892,
      1785014952,
      1785015012,
      1785015072,
      1785015132,
      1785015192,
      1785015313,
      1785015373,
      1785015493,
      1785015553,
      1785015613,
      1785015673,
      1785015733,
      1785015793,
      1785015853,
      1785015913,
      1785015929,
      1785015973,
      1785015989,
      1785016036,
      1785016109,
      1785016157,
      1785016217,
      1785016229,
      1785016277,
      1785016289,
      1785016337,
      1785016397,
      1785016410,
      1785016470,
      1785016517,
      1785016530,
      1785016577,
      1785016590,
      1785016637,
      1785016650,
      1785016757,
      1785016818,
      1785016830,
      1785016890,
      1785016938,
      1785016950,
      1785016998,
      1785017070,
      1785017118,
      1785017131,
      1785017178,
      1785017191,
      1785017251,
      1785017298,
      1785017311,
      1785017358,
      1785017371,
      1785017418,
      1785017431,
      1785017491,
      1785017551,
      1785017611,
      1785017671,
      1785017731,
      1785017792,
      1785017852,
      1785017912,
      1785017972,
      1785018032,
      1785018092,
      1785018152,
      1785018212,
      1785018272,
      1785018332,
      1785018392,
      1785018452,
      1785018513,
      1785018573,
      1785018633,
      1785018693,
      1785018753,
      1785018813,
      1785018860,
      1785018873,
      1785018920,
      1785018933,
      1785018980,
      1785019053,
      1785019113,
      1785019174,
      1785019220,
      1785019234,
      1785019280,
      1785019294,
      1785019340,
      1785019354,
      1785019414,
      1785019474,
      1785019534,
      1785019581,
      1785019594,
      1785019654,
      1785019714,
      1785019761,
      1785019774,
      1785019821,
      1785019834,
      1785019881,
      1785019895,
      1785019955,
      1785020001,
      1785020015,
      1785020061,
      1785020075,
      1785020122,
      1785020135,
      1785020182,
      1785020248,
      1785020302,
      1785020308,
      1785020362,
      1785020422,
      1785020440,
      1785020482,
      1785020494,
      1785020542,
      1785020560,
      1785020662,
      1785020680,
      1785020723,
      1785020740,
      1785020783,
      1785020800,
      1785020854,
      1785020914,
      1785020963,
      1785021023,
      1785021034,
      1785021094,
      1785021143,
      1785021154,
      1785021203,
      1785021214,
      1785021274,
      1785021394,
      1785021444,
      1785021504
    ],
    "wof:geomhash": "7012120c81bfab61927598dd853b254a",
    "wof:id": 2031969455,
    "wof:repo": "sfomuseum-data-flights-2026-07"
  },
  "bbox": [
    -114.52972222222222,
    28.31388888888889,
    -80.94916666666667,
    41.96666666666667
  ],
  "geometry": {"coordinates":[[-114.52972222222222,38.477222222222224],[-114.35694444444444,38.48166666666667],[-114.1863888888889,38.48555555555556],[-113.67277777777778,38.49611111111111],[-113.50027777777778,38.49916666666667],[-112.66861111111112,38.51027777777778],[-112.49472222222222,38.511944444444445],[-112.32555555555555,38.513333333333335],[-112.1525,38.51444444444444],[-111.98027777777779,38.515277777777776],[-111.90833333333335,38.515277777777776],[-111.81,38.51444444444444],[-111.73722222222223,38.507222222222225],[-111.64055555555557,38.49722222222222],[-111.56666666666666,38.48916666666667],[-111.47277777777778,38.47916666666667],[-111.4,38.47138888888889],[-111.23027777777779,38.45333333333333],[-111.1325,38.44305555555555],[-111.0611111111111,38.434999999999995],[-110.96111111111111,38.42361111111111],[-110.87388888888889,38.419999999999995],[-110.76916666666666,38.42166666666667],[-110.59833333333333,38.42333333333333],[-110.53,38.42388888888889],[-110.42722222222223,38.42444444444444],[-110.35805555555555,38.425],[-110.25666666666666,38.42527777777777],[-110.18805555555556,38.425555555555555],[-110.08416666666666,38.42611111111111],[-110.01638888888888,38.42638888888889],[-109.91527777777779,38.42666666666666],[-109.84638888888888,38.426944444444445],[-109.74194444444444,38.42722222222222],[-109.67611111111111,38.42722222222222],[-109.50444444444445,38.42722222222222],[-109.39888888888889,38.426944444444445],[-109.33277777777778,38.426944444444445],[-109.22694444444444,38.42666666666666],[-109.16027777777778,38.42638888888889],[-108.98777777777778,38.425555555555555],[-108.88444444444445,38.425],[-108.81611111111111,38.42444444444444],[-108.71361111111112,38.42388888888889],[-108.64666666666668,38.42333333333333],[-108.47305555555556,38.42166666666667],[-108.13361111111112,38.41777777777777],[-107.96027777777778,38.41555555555556],[-107.78972222222222,38.410555555555554],[-107.62944444444443,38.36833333333333],[-107.4713888888889,38.31777777777778],[-107.3125,38.26611111111111],[-107.14222222222223,38.21055555555556],[-106.98666666666666,38.15972222222222],[-106.83083333333333,38.10805555555556],[-106.69333333333334,38.0625],[-106.54055555555556,38.01138888888889],[-106.37388888888889,37.955555555555556],[-106.21972222222223,37.90361111111111],[-106.06611111111111,37.85166666666667],[-105.91250000000001,37.799166666666665],[-105.76,37.746944444444445],[-105.60583333333332,37.693888888888885],[-105.52,37.66416666666667],[-105.45416666666667,37.64138888888889],[-105.36361111111111,37.61],[-105.15444444444445,37.536944444444444],[-105.03972222222222,37.49666666666667],[-105.00638888888889,37.485],[-104.88944444444445,37.443888888888885],[-104.85666666666665,37.43222222222222],[-104.7388888888889,37.39055555555556],[-104.70611111111111,37.37888888888889],[-104.58805555555556,37.33694444444445],[-104.55972222222222,37.32666666666667],[-104.43944444444445,37.28361111111111],[-104.28944444444444,37.22972222222222],[-104.26083333333334,37.21944444444445],[-104.14527777777778,37.17777777777778],[-103.99083333333333,37.12166666666667],[-103.96111111111111,37.11083333333333],[-103.84166666666667,37.0675],[-103.81277777777777,37.05694444444444],[-103.69027777777778,37.011944444444445],[-103.66000000000001,37.00055555555556],[-103.39222222222223,36.901666666666664],[-103.33305555555555,36.88],[-103.24333333333334,36.84638888888889],[-103.18305555555555,36.823888888888895],[-103.0925,36.78972222222222],[-102.65083333333334,36.623333333333335],[-102.51833333333333,36.57277777777778],[-102.3711111111111,36.516666666666666],[-102.22555555555556,36.46055555555556],[-102.07916666666667,36.403888888888886],[-101.93416666666667,36.34805555555556],[-101.7911111111111,36.29194444444444],[-101.70333333333333,36.2575],[-101.64250000000001,36.23388888888889],[-101.55722222222222,36.200833333333335],[-101.49694444444445,36.17666666666666],[-101.41166666666668,36.14416666666666],[-101.26694444444445,36.08583333333333],[-101.07083333333333,36.007777777777775],[-100.97500000000001,35.969166666666666],[-100.83222222222221,35.911944444444444],[-100.75138888888888,35.879444444444445],[-100.69527777777778,35.856944444444444],[-100.60944444444443,35.82222222222222],[-100.55305555555556,35.799166666666665],[-100.41361111111112,35.7425],[-100.32694444444444,35.706944444444446],[-100.2713888888889,35.68444444444444],[-100.18472222222222,35.64888888888889],[-100.13333333333334,35.62777777777778],[-99.99472222222222,35.57055555555556],[-99.90722222222223,35.53444444444444],[-99.85555555555555,35.51305555555555],[-99.76944444444445,35.4775],[-99.71694444444445,35.45527777777778],[-99.63055555555555,35.419444444444444],[-99.5761111111111,35.39666666666667],[-99.3,35.280833333333334],[-99.16111111111111,35.22222222222222],[-99.07583333333334,35.18583333333333],[-99.02388888888889,35.163888888888884],[-98.88444444444445,35.10444444444445],[-98.74638888888889,35.04555555555555],[-98.61027777777777,34.98694444444445],[-98.45416666666667,34.91972222222222],[-98.3175,34.86055555555556],[-98.18055555555556,34.801111111111105],[-98.04416666666667,34.74138888888889],[-97.90944444444445,34.6825],[-97.77305555555556,34.62222222222222],[-97.63833333333334,34.5625],[-97.50333333333333,34.50277777777778],[-97.36861111111111,34.44277777777778],[-97.23527777777778,34.38333333333333],[-97.10333333333332,34.323888888888895],[-96.97194444444445,34.264722222222225],[-96.83888888888889,34.20444444444445],[-96.7063888888889,34.144444444444446],[-96.575,34.08444444444444],[-96.44527777777778,34.025],[-96.18,33.903055555555554],[-96.04833333333333,33.842222222222226],[-95.91555555555556,33.78055555555555],[-95.78083333333333,33.7175],[-95.64500000000001,33.65416666666667],[-95.51138888888889,33.59138888888889],[-95.37722222222222,33.528055555555554],[-95.24305555555556,33.464444444444446],[-95.10833333333333,33.400555555555556],[-94.97527777777778,33.33722222222222],[-94.84277777777777,33.27361111111111],[-94.70972222222223,33.209722222222226],[-94.57833333333333,33.146388888888886],[-94.44805555555556,33.083333333333336],[-94.31583333333333,33.01916666666666],[-94.20777777777778,32.96611111111111],[-94.05472222222222,32.891666666666666],[-93.78861111111111,32.76277777777778],[-93.65027777777779,32.70861111111111],[-93.5125,32.65416666666667],[-93.37555555555555,32.599722222222226],[-93.23916666666666,32.54555555555555],[-93.10499999999999,32.49194444444444],[-92.96611111111112,32.43611111111111],[-92.85833333333333,32.3925],[-92.80499999999999,32.37111111111111],[-92.66916666666667,32.316111111111105],[-92.27222222222223,32.15416666666667],[-92.12083333333332,32.091944444444444],[-91.98222222222222,32.03472222222222],[-91.84444444444443,31.977777777777778],[-91.79555555555555,31.9525],[-91.70694444444445,31.920555555555556],[-91.57166666666666,31.86416666666667],[-91.52166666666666,31.83833333333333],[-91.46194444444444,31.818055555555556],[-91.38611111111112,31.780833333333334],[-91.32555555555555,31.760555555555555],[-91.19083333333333,31.703888888888887],[-90.98305555555555,31.610555555555557],[-90.85055555555554,31.55388888888889],[-90.78972222222222,31.533333333333335],[-90.66305555555556,31.478888888888886],[-90.58583333333333,31.441388888888888],[-90.53194444444445,31.4225],[-90.31972222222223,31.3275],[-90.17583333333334,31.289444444444445],[-90.1125,31.28888888888889],[-90.02583333333334,31.27722222222222],[-89.96361111111112,31.273055555555555],[-89.66055555555556,31.240000000000002],[-89.42333333333333,31.213055555555556],[-89.35722222222222,31.20638888888889],[-89.27416666666666,31.19638888888889],[-89.20833333333334,31.189722222222223],[-89.05777777777777,31.1725],[-88.9075,31.154999999999998],[-88.67666666666668,31.12777777777778],[-88.61583333333333,31.120833333333334],[-88.53055555555555,31.110555555555557],[-88.46138888888889,31.102500000000003],[-88.37888888888888,31.092499999999998],[-88.31388888888888,31.084722222222222],[-88.22444444444444,31.073888888888888],[-88.01527777777778,31.048333333333336],[-87.92222222222223,31.03666666666667],[-87.86861111111111,31.029999999999998],[-87.77277777777778,31.018055555555556],[-87.71833333333333,31.011388888888888],[-87.62444444444444,30.999444444444446],[-87.47555555555556,30.980555555555554],[-87.41416666666667,30.972777777777775],[-87.32472222222222,30.961388888888887],[-87.17666666666668,30.941944444444445],[-87.02694444444444,30.9225],[-86.98277777777778,30.916666666666668],[-86.87888888888888,30.903055555555554],[-86.72944444444444,30.883055555555558],[-86.59916666666666,30.865555555555556],[-86.44888888888889,30.845277777777778],[-86.38861111111112,30.836944444444445],[-86.30166666666666,30.825277777777778],[-86.15444444444445,30.805],[-86.00666666666666,30.78777777777778],[-85.85916666666667,30.793333333333337],[-85.71333333333334,30.8],[-85.56888888888888,30.80611111111111],[-85.42333333333333,30.81222222222222],[-85.27583333333334,30.818055555555556],[-84.98305555555555,30.78666666666667],[-84.69111111111111,30.73777777777778],[-84.38027777777778,30.6875],[-84.23666666666666,30.663888888888888],[-84.0911111111111,30.644444444444446],[-83.94944444444445,30.66777777777778],[-83.80888888888889,30.697222222222223],[-83.66611111111112,30.721944444444443],[-83.51,30.677500000000002],[-83.37277777777777,30.626944444444444],[-83.23361111111112,30.575277777777778],[-83.10027777777778,30.52583333333333],[-82.83944444444444,30.428333333333335],[-82.70111111111112,30.37638888888889],[-82.5611111111111,30.32361111111111],[-82.42027777777778,30.27027777777778],[-82.22222222222223,30.122777777777777],[-82.18805555555556,29.994444444444447],[-82.15027777777779,29.86861111111111],[-82.10777777777777,29.72833333333333],[-82.07138888888889,29.608611111111113],[-82.03666666666666,29.492222222222225],[-82.00444444444445,29.384722222222223],[-82.03527777777778,29.297777777777778],[-82.03833333333333,29.215],[-81.98861111111111,29.139722222222222],[-81.96666666666667,29.1],[-81.9413888888889,29.06416666666667],[-81.93333333333334,29.033333333333335],[-81.88333333333334,28.966666666666665],[-81.8436111111111,28.918333333333333],[-81.81666666666666,28.9],[-81.76055555555556,28.88222222222222],[-81.69638888888889,28.85666666666667],[-81.66666666666667,28.85],[-81.59694444444445,28.816666666666666],[-81.58333333333333,28.816666666666666],[-81.51805555555555,28.781944444444445],[-81.43333333333334,28.733333333333334],[-81.38722222222223,28.72138888888889],[-81.36666666666666,28.716666666666665],[-81.33333333333333,28.683333333333334],[-81.32916666666667,28.641111111111112],[-81.33333333333333,28.616666666666667],[-81.3286111111111,28.585277777777776],[-81.32805555555555,28.531388888888888],[-81.33333333333333,28.516666666666666],[-81.32722222222222,28.480277777777776],[-81.33333333333333,28.466666666666665],[-81.31666666666666,28.416666666666668],[-81.31666666666666,28.4],[-81.36666666666666,28.35],[-81.40666666666667,28.31388888888889],[-81.43333333333334,28.316666666666666],[-81.46833333333333,28.33972222222222],[-81.46666666666667,28.383333333333333],[-81.44416666666667,28.42638888888889],[-81.43333333333334,28.45],[-81.4,28.533333333333335],[-81.34138888888889,28.699722222222224],[-81.30361111111111,28.8],[-81.29444444444444,28.90694444444444],[-81.30361111111111,29.0175],[-81.30833333333334,29.13277777777778],[-81.2875,29.248333333333335],[-81.26694444444445,29.366111111111113],[-81.25611111111111,29.489166666666666],[-81.24916666666667,29.607222222222223],[-81.23166666666667,29.72861111111111],[-81.2088888888889,29.852777777777778],[-81.20166666666667,30.232499999999998],[-81.20277777777778,30.485833333333336],[-81.20166666666667,30.61277777777778],[-81.17944444444444,30.73638888888889],[-81.08027777777778,31.099444444444444],[-81.04722222222222,31.22222222222222],[-81.01444444444445,31.34472222222222],[-80.98166666666667,31.46722222222222],[-80.94916666666667,31.588055555555556],[-80.97444444444444,31.724444444444444],[-81.01166666666667,31.845555555555553],[-81.04888888888888,31.965],[-81.08694444444444,32.08722222222222],[-81.125,32.20916666666667],[-81.16250000000001,32.32888888888889],[-81.2,32.448055555555555],[-81.23472222222222,32.56944444444445],[-81.27083333333333,32.68861111111111],[-81.30722222222222,32.80888888888889],[-81.3436111111111,32.927499999999995],[-81.38027777777778,33.047777777777775],[-81.41638888888889,33.16583333333333],[-81.49888888888889,33.375],[-81.58,33.473055555555554],[-81.76222222222222,33.684999999999995],[-81.83416666666666,33.78666666666666],[-81.89222222222223,33.8925],[-81.95083333333334,33.99861111111111],[-82.00861111111111,34.103611111111114],[-82.0675,34.21],[-82.1261111111111,34.31583333333333],[-82.18583333333333,34.42333333333333],[-82.19694444444445,34.44416666666666],[-82.24638888888889,34.531666666666666],[-82.25666666666666,34.551111111111105],[-82.30638888888889,34.63916666666667],[-82.37638888888888,34.76694444444444],[-82.4263888888889,34.85333333333333],[-82.4875,34.96138888888889],[-82.50055555555555,34.98222222222223],[-82.54861111111111,35.069722222222225],[-82.56,35.09055555555556],[-82.61027777777777,35.17861111111111],[-82.6713888888889,35.28583333333333],[-82.68388888888889,35.30694444444444],[-82.74444444444444,35.4125],[-82.79194444444444,35.496944444444445],[-82.80499999999999,35.518055555555556],[-82.85305555555556,35.603611111111114],[-82.865,35.62361111111111],[-82.91333333333334,35.70805555555556],[-82.92527777777778,35.72916666666667],[-83.035,35.91861111111111],[-83.09555555555555,36.02305555555555],[-83.10833333333333,36.04472222222222],[-83.16888888888889,36.14888888888889],[-83.21805555555555,36.233333333333334],[-83.23083333333334,36.255],[-83.28,36.33888888888889],[-83.35388888888889,36.464444444444446],[-83.40277777777779,36.5475],[-83.41388888888889,36.56666666666667],[-83.46388888888889,36.65083333333333],[-83.47583333333334,36.671388888888885],[-83.53805555555556,36.77611111111111],[-83.58694444444444,36.858333333333334],[-83.59916666666666,36.87888888888889],[-83.64777777777779,36.96027777777778],[-83.66000000000001,36.980555555555554],[-83.70972222222223,37.06361111111111],[-83.72166666666666,37.08388888888889],[-83.78222222222222,37.18444444444444],[-83.84305555555555,37.28611111111111],[-83.90444444444445,37.38722222222222],[-83.96527777777779,37.48777777777778],[-84.02722222222222,37.59027777777778],[-84.03055555555555,37.70472222222222],[-83.93805555555556,37.805277777777775],[-83.85805555555555,37.91],[-83.87777777777777,38.02638888888889],[-83.98583333333333,38.10055555555556],[-84.11,38.15555555555555],[-84.18055555555556,38.255833333333335],[-84.24388888888889,38.353611111111114],[-84.30722222222222,38.45111111111111],[-84.37083333333332,38.54861111111111],[-84.43388888888889,38.64527777777778],[-84.49388888888889,38.73722222222222],[-84.55722222222222,38.83361111111111],[-84.62166666666666,38.93138888888889],[-84.685,39.026944444444446],[-84.74944444444445,39.12416666666667],[-84.81388888888888,39.22138888888889],[-84.87888888888888,39.31888888888889],[-84.92944444444444,39.39666666666667],[-84.94444444444444,39.41638888888889],[-84.99861111111112,39.4975],[-85.0111111111111,39.51611111111111],[-85.06583333333333,39.597500000000004],[-85.15222222222222,39.72555555555556],[-85.22305555555556,39.82944444444445],[-85.30111111111111,39.94416666666666],[-85.34972222222221,40.01555555555556],[-85.37222222222222,40.04861111111111],[-85.42083333333333,40.11944444444445],[-85.44277777777778,40.15138888888889],[-85.49083333333333,40.22027777777778],[-85.50555555555556,40.23555555555556],[-85.63777777777779,40.32944444444445],[-85.74638888888889,40.40361111111111],[-85.85527777777777,40.4775],[-85.92,40.521388888888886],[-85.95944444444444,40.54805555555556],[-86.06055555555555,40.61611111111111],[-86.15944444444445,40.68277777777777],[-86.22777777777777,40.728611111111114],[-86.25555555555556,40.746944444444445],[-86.325,40.79361111111111],[-86.34333333333333,40.80583333333333],[-86.42083333333333,40.8575],[-86.44027777777778,40.87027777777778],[-86.53555555555555,40.933611111111105],[-86.61361111111111,40.98527777777778],[-86.63305555555554,40.99805555555556],[-86.71166666666667,41.05],[-86.73027777777779,41.06222222222222],[-86.80694444444444,41.112500000000004],[-86.82888888888888,41.12694444444445],[-86.9075,41.17861111111111],[-87.01666666666667,41.25],[-87.08527777777778,41.29944444444444],[-87.1,41.31666666666667],[-87.15916666666668,41.35472222222222],[-87.2325,41.409444444444446],[-87.26666666666667,41.43333333333333],[-87.30722222222222,41.46472222222223],[-87.33333333333333,41.483333333333334],[-87.37444444444444,41.520833333333336],[-87.4,41.55],[-87.48388888888888,41.64277777777778],[-87.5,41.666666666666664],[-87.51444444444445,41.711111111111116],[-87.51666666666667,41.733333333333334],[-87.53361111111111,41.78972222222222],[-87.53333333333333,41.81666666666667],[-87.48333333333333,41.85],[-87.41666666666667,41.88333333333333],[-87.34694444444445,41.90138888888889],[-87.3586111111111,41.95277777777778],[-87.38333333333334,41.96666666666667],[-87.45,41.96666666666667],[-87.51166666666667,41.965833333333336],[-87.53333333333333,41.96666666666667],[-87.57694444444444,41.965833333333336],[-87.6,41.96666666666667],[-87.65,41.96666666666667],[-87.78333333333333,41.96666666666667],[-87.8236111111111,41.965833333333336],[-87.87527777777777,41.965833333333336]],"type":"LineString"}
}
