{
  "id": 2031969845,
  "type": "Feature",
  "properties": {
    "geom:area": 0,
    "geom:bbox": "-123.220556,37.654167,-122.215556,44.346944",
    "geom:latitude": 41.11727642739049,
    "geom:longitude": -122.68136621485834,
    "src:alt_label": "swim-path",
    "src:geom": "swim",
    "swim:altitudes": [
      "030",
      "040",
      "060",
      "088",
      "109",
      "118",
      "137",
      "155",
      "174",
      "203",
      "221",
      "230",
      "242",
      "251",
      "254",
      "264",
      "275",
      "282",
      "293",
      "301",
      "311",
      "318C",
      "320C",
      "320C",
      "320C",
      "320C",
      "321C",
      "320C",
      "320C",
      "320C",
      "321C",
      "320C",
      "307",
      "300",
      "298",
      "289",
      "279",
      "270",
      "260",
      "244",
      "215",
      "186",
      "147",
      "135",
      "126",
      "114",
      "105",
      "101C",
      "099",
      "087",
      "077",
      "071",
      "056",
      "050",
      "050",
      "050",
      "050",
      "045",
      "036",
      "030",
      "030",
      "029",
      "027",
      "022",
      "016",
      "009",
      "003",
      "005"
    ],
    "swim:geom": "path",
    "swim:speeds": [
      167,
      219,
      283,
      296,
      303,
      382,
      391,
      403,
      420,
      438,
      453,
      458,
      469,
      489,
      495,
      518,
      520,
      520,
      530,
      525,
      528,
      528,
      528,
      525,
      525,
      526,
      526,
      524,
      522,
      521,
      520,
      519,
      515,
      521,
      519,
      521,
      524,
      524,
      523,
      526,
      522,
      485,
      460,
      438,
      422,
      413,
      398,
      374,
      320,
      319,
      309,
      294,
      268,
      241,
      239,
      241,
      240,
      226,
      216,
      212,
      217,
      213,
      203,
      184,
      170,
      140,
      130,
      50
    ],
    "swim:timestamps": [
      1785003215,
      1785003275,
      1785003335,
      1785003395,
      1785003456,
      1785003515,
      1785003576,
      1785003636,
      1785003695,
      1785003816,
      1785003876,
      1785003937,
      1785003997,
      1785004056,
      1785004117,
      1785004177,
      1785004236,
      1785004297,
      1785004357,
      1785004416,
      1785004477,
      1785004537,
      1785004597,
      1785004658,
      1785004718,
      1785004777,
      1785004838,
      1785004898,
      1785004957,
      1785005017,
      1785005078,
      1785005137,
      1785005198,
      1785005318,
      1785005439,
      1785005499,
      1785005559,
      1785005619,
      1785005679,
      1785005739,
      1785005799,
      1785005859,
      1785005938,
      1785005979,
      1785006003,
      1785006039,
      1785006063,
      1785006099,
      1785006129,
      1785006159,
      1785006189,
      1785006220,
      1785006286,
      1785006340,
      1785006364,
      1785006400,
      1785006424,
      1785006460,
      1785006478,
      1785006520,
      1785006538,
      1785006580,
      1785006592,
      1785006646,
      1785006706,
      1785006766,
      1785006820,
      1785006880
    ],
    "wof:geomhash": "02569b11f4d9d5c4d389b373e10f37fc",
    "wof:id": 2031969845,
    "wof:repo": "sfomuseum-data-flights-2026-07"
  },
  "bbox": [
    -123.22055555555556,
    37.65416666666667,
    -122.21555555555555,
    44.346944444444446
  ],
  "geometry": {"coordinates":[[-122.37722222222222,37.65416666666667],[-122.31611111111111,37.67805555555555],[-122.23416666666667,37.71277777777778],[-122.21555555555555,37.79083333333333],[-122.21944444444445,37.87416666666667],[-122.2213888888889,37.97888888888889],[-122.2238888888889,38.085],[-122.22805555555556,38.19888888888889],[-122.23083333333334,38.321111111111115],[-122.26,38.558611111111105],[-122.28694444444444,38.70305555555556],[-122.30138888888888,38.81166666666666],[-122.32222222222222,38.94305555555555],[-122.35055555555554,39.099722222222226],[-122.36666666666666,39.21527777777778],[-122.39166666666668,39.36],[-122.42055555555557,39.534166666666664],[-122.43861111111111,39.647777777777776],[-122.46805555555555,39.82333333333334],[-122.4875,39.94166666666666],[-122.51194444444444,40.08888888888889],[-122.53666666666666,40.238055555555555],[-122.5611111111111,40.386944444444445],[-122.58555555555554,40.531666666666666],[-122.60972222222222,40.67583333333333],[-122.63444444444445,40.82194444444445],[-122.65916666666668,40.96805555555556],[-122.68388888888889,41.11222222222222],[-122.70833333333334,41.256388888888885],[-122.73472222222222,41.40861111111111],[-122.75972222222222,41.55444444444444],[-122.78444444444445,41.696666666666665],[-122.80833333333334,41.83833333333334],[-122.85277777777777,42.12694444444445],[-122.89805555555556,42.415],[-122.92083333333333,42.55916666666666],[-122.94388888888889,42.70527777777778],[-122.96722222222222,42.85027777777778],[-122.99027777777778,42.99583333333334],[-123.01388888888889,43.14194444444444],[-123.03722222222223,43.28666666666666],[-123.05916666666667,43.42055555555555],[-123.08666666666666,43.59055555555556],[-123.08277777777778,43.67472222222222],[-123.07944444444443,43.723055555555554],[-123.07249999999999,43.79055555555556],[-123.07,43.837500000000006],[-123.06277777777777,43.897777777777776],[-123.05972222222222,43.94555555555555],[-123.05333333333333,43.98777777777778],[-123.05138888888888,44.0325],[-123.04916666666666,44.07083333333334],[-123.05194444444444,44.15972222222222],[-123.05,44.218333333333334],[-123.05194444444444,44.248333333333335],[-123.05111111111111,44.28472222222222],[-123.05111111111111,44.315],[-123.07416666666666,44.343333333333334],[-123.10527777777777,44.346944444444446],[-123.1563888888889,44.34583333333334],[-123.18666666666667,44.33861111111111],[-123.21611111111112,44.31027777777778],[-123.22055555555556,44.29555555555555],[-123.22,44.24805555555556],[-123.22027777777778,44.198611111111106],[-123.21972222222223,44.15972222222222],[-123.21888888888888,44.126111111111115],[-123.21833333333333,44.11333333333334]],"type":"LineString"}
}
