{
  "id": 2031959145,
  "type": "Feature",
  "properties": {
    "geom:area": 0,
    "geom:bbox": "-122.526840,37.625140,-121.443390,38.510010",
    "geom:latitude": 38.0751599044736,
    "geom:longitude": -122.06406404051468,
    "src:alt_label": "swim-takeoff",
    "src:geom": "swim",
    "swim:elevations": [
      122,
      550,
      702,
      1007,
      1515,
      1794,
      2126,
      2317,
      2647,
      2933,
      3325,
      3408,
      3659,
      3917,
      4158,
      4315,
      4568,
      5024,
      5356,
      5481,
      5827,
      5931,
      6084,
      6365,
      6573,
      6743,
      6885,
      7057,
      7237,
      7362
    ],
    "swim:geom": "takeoff",
    "swim:timestamps": [
      1784958857,
      1784958890,
      1784958910,
      1784958939,
      1784958987,
      1784959014,
      1784959045,
      1784959063,
      1784959095,
      1784959122,
      1784959161,
      1784959175,
      1784959226,
      1784959253,
      1784959277,
      1784959295,
      1784959321,
      1784959372,
      1784959408,
      1784959425,
      1784959467,
      1784959479,
      1784959496,
      1784959527,
      1784959556,
      1784959580,
      1784959604,
      1784959625,
      1784959650,
      1784959668
    ],
    "wof:geomhash": "98eeaefd7c1219524efe70ff760da1c4",
    "wof:id": 2031959145,
    "wof:repo": "sfomuseum-data-flights-2026-07"
  },
  "bbox": [
    -122.52684,
    37.62514,
    -121.44339,
    38.51001
  ],
  "geometry": {"coordinates":[[-122.39019,37.62514],[-122.41928,37.63758],[-122.44005,37.64651],[-122.47105,37.66044],[-122.52306,37.69129],[-122.52684,37.72392],[-122.52612,37.76397],[-122.52467,37.78713],[-122.4913,37.82126],[-122.4474,37.83666],[-122.38649,37.866],[-122.36734,37.8805],[-122.28783,37.93856],[-122.24207,37.97075],[-122.20076,37.99941],[-122.1694,38.02116],[-122.12384,38.05273],[-122.03047,38.11673],[-121.96383,38.16264],[-121.93246,38.18413],[-121.8521,38.23913],[-121.82889,38.25503],[-121.79499,38.27834],[-121.73423,38.31965],[-121.678,38.35808],[-121.62981,38.3908],[-121.57988,38.42453],[-121.53626,38.45315],[-121.48262,38.48589],[-121.44339,38.51001]],"type":"LineString"}
}
