{
  "id": 2031960949,
  "type": "Feature",
  "properties": {
    "geom:area": 0,
    "geom:bbox": "-122.394440,37.622750,-121.329280,38.373190",
    "geom:latitude": 37.99072421977297,
    "geom:longitude": -121.8645235388416,
    "src:alt_label": "swim-takeoff",
    "src:geom": "swim",
    "swim:elevations": [
      152,
      388,
      1078,
      1232,
      1536,
      1746,
      1973,
      2301,
      2470,
      2948,
      3298,
      3403,
      3600,
      3769,
      4017,
      4276,
      4508,
      4712,
      4857,
      5452,
      5580,
      5629,
      6063,
      6359,
      6395,
      6988,
      7120,
      7386
    ],
    "swim:geom": "takeoff",
    "swim:timestamps": [
      1784915248,
      1784915263,
      1784915333,
      1784915354,
      1784915396,
      1784915415,
      1784915430,
      1784915451,
      1784915463,
      1784915498,
      1784915534,
      1784915555,
      1784915573,
      1784915588,
      1784915608,
      1784915632,
      1784915652,
      1784915672,
      1784915686,
      1784915745,
      1784915755,
      1784915762,
      1784915811,
      1784915838,
      1784915841,
      1784915920,
      1784915935,
      1784915973
    ],
    "wof:geomhash": "776961d6a791ba10847c95e3f15dc56a",
    "wof:id": 2031960949,
    "wof:repo": "sfomuseum-data-flights-2026-07"
  },
  "bbox": [
    -122.39444,
    37.62275,
    -121.32928,
    38.37319
  ],
  "geometry": {"coordinates":[[-122.38422,37.62275],[-122.39444,37.62807],[-122.3606,37.66227],[-122.33744,37.67055],[-122.28414,37.69121],[-122.25599,37.70209],[-122.23363,37.71073],[-122.20536,37.72878],[-122.19339,37.7415],[-122.14944,37.77754],[-122.10237,37.81416],[-122.0708,37.83775],[-122.04186,37.85895],[-122.01813,37.87625],[-121.98573,37.89997],[-121.94765,37.9278],[-121.91337,37.95304],[-121.87981,37.97767],[-121.85625,37.99502],[-121.7558,38.06877],[-121.73803,38.08175],[-121.7255,38.09093],[-121.63694,38.15565],[-121.58731,38.1919],[-121.5818,38.19591],[-121.43486,38.30291],[-121.40589,38.32395],[-121.32928,38.37319]],"type":"LineString"}
}
