{
  "id": 2031991689,
  "type": "Feature",
  "properties": {
    "geom:area": 0,
    "geom:bbox": "-122.350000,37.424444,-74.233333,43.504444",
    "geom:latitude": 41.72914716848222,
    "geom:longitude": -98.4756630386143,
    "src:alt_label": "swim-path",
    "src:geom": "swim",
    "swim:altitudes": [
      "033",
      "042",
      "056",
      "075",
      "106",
      "124",
      "148",
      "177",
      "203",
      "222",
      "241",
      "281",
      "317",
      "320C",
      "320",
      "320",
      "328",
      "326",
      "340C",
      "340C",
      "340C",
      "340C",
      "340C",
      "340C",
      "340C",
      "340C",
      "340C",
      "340C",
      "340C",
      "340C",
      "340C",
      "340C",
      "340",
      "340",
      "344",
      "360C",
      "360C",
      "360C",
      "360C",
      "360C",
      "360C",
      "360C",
      "360C",
      "360C",
      "360C",
      "360C",
      "360C",
      "360C",
      "360C",
      "360C",
      "360C",
      "360C",
      "360C",
      "360C",
      "360C",
      "360C",
      "360C",
      "360C",
      "360C",
      "360C",
      "360C",
      "360C",
      "360C",
      "360C",
      "360C",
      "360C",
      "360C",
      "360C",
      "360C",
      "360C",
      "360C",
      "360C",
      "360C",
      "360C",
      "360C",
      "360C",
      "360C",
      "360C",
      "360C",
      "360C",
      "360C",
      "360C",
      "360C",
      "360C",
      "360C",
      "360C",
      "360C",
      "360C",
      "360C",
      "360C",
      "360C",
      "360C",
      "360C",
      "360C",
      "360C",
      "360C",
      "360C",
      "360C",
      "360C",
      "360C",
      "360C",
      "360C",
      "360C",
      "360C",
      "360C",
      "360C",
      "360C",
      "360C",
      "360C",
      "360C",
      "360C",
      "360C",
      "360C",
      "360C",
      "360C",
      "360C",
      "360C",
      "360C",
      "360C",
      "360C",
      "360C",
      "360C",
      "360C",
      "360C",
      "360C",
      "360C",
      "360C",
      "360C",
      "360C",
      "360C",
      "360C",
      "360C",
      "360C",
      "360C",
      "360C",
      "360C",
      "360C",
      "360C",
      "360C",
      "360C",
      "360C",
      "360C",
      "360C",
      "360C",
      "360C",
      "360C",
      "360C",
      "360C",
      "360C",
      "360C",
      "360C",
      "360C",
      "360C",
      "360C",
      "360C",
      "360C",
      "360C",
      "360C",
      "360C",
      "360C",
      "360C",
      "360C",
      "360C",
      "360C",
      "360C",
      "360C",
      "360C",
      "360C",
      "360C",
      "360C",
      "360C",
      "360C",
      "360C",
      "360C",
      "360C",
      "360C",
      "360C",
      "360C",
      "360C",
      "360C",
      "360C",
      "360C",
      "360C",
      "360C",
      "360C",
      "360C",
      "360C",
      "360C",
      "360C",
      "360C",
      "360C",
      "360C",
      "360C",
      "360C",
      "360C",
      "360C",
      "360C",
      "360C",
      "360C",
      "360C",
      "360C",
      "360C",
      "360C",
      "360C",
      "360C",
      "360C",
      "360C",
      "360C",
      "360C",
      "360C",
      "360C",
      "360C",
      "360C",
      "360C",
      "360C",
      "360C",
      "360C",
      "360C",
      "360C",
      "360C",
      "360C",
      "360C",
      "360C",
      "360C",
      "360C",
      "360C",
      "360C",
      "360C",
      "360C",
      "360C",
      "360C",
      "360C",
      "360C",
      "360C",
      "360C",
      "360C",
      "360C",
      "360C",
      "360C",
      "360C",
      "360C",
      "360C",
      "360C",
      "360C",
      "360C",
      "360C",
      "360C",
      "360C",
      "360C",
      "360C",
      "360C",
      "360C",
      "360C",
      "360C",
      "360C",
      "360C",
      "360C",
      "360C",
      "360C",
      "360C",
      "360C",
      "360C",
      "360C",
      "360C",
      "360C",
      "360C",
      "360C",
      "360C",
      "360C",
      "360C",
      "360C",
      "360C",
      "360C",
      "360C",
      "360C",
      "360C",
      "360C",
      "360C",
      "360C",
      "360C",
      "360C",
      "360C",
      "360C",
      "360C",
      "360C",
      "360C",
      "360C",
      "360C",
      "360C",
      "360C",
      "360C",
      "360C",
      "360C",
      "360C",
      "360C",
      "360C",
      "360C",
      "360C",
      "360C",
      "360C",
      "360C",
      "360C",
      "360C",
      "360C",
      "360C",
      "360C",
      "360C",
      "360C",
      "360C",
      "360C",
      "360C",
      "360C",
      "360C",
      "360C",
      "360C",
      "360C",
      "360C",
      "360C",
      "360C",
      "360C",
      "360C",
      "360C",
      "360C",
      "360C",
      "360C",
      "360C",
      "360C",
      "369",
      "380C",
      "380C",
      "380C",
      "380C",
      "380C",
      "380C",
      "380C",
      "380C",
      "380C",
      "380C",
      "380C",
      "380C",
      "380C",
      "380C",
      "380C",
      "380C",
      "380C",
      "380C",
      "380C",
      "380C",
      "380C",
      "380C",
      "380C",
      "380C",
      "380C",
      "380C",
      "380C",
      "380C",
      "380C",
      "380C",
      "380C",
      "380C",
      "380C",
      "380C",
      "380C",
      "380C",
      "380C",
      "380C",
      "380C",
      "380C",
      "380C",
      "380C",
      "380C",
      "380C",
      "380C",
      "380C",
      "380",
      "374",
      "353",
      "334",
      "315",
      "289",
      "267",
      "248",
      "242",
      "229",
      "224",
      "210",
      "202",
      "190",
      "183",
      "171",
      "164",
      "153",
      "148",
      "138",
      "133",
      "125",
      "120",
      "112",
      "109",
      "111",
      "110",
      "110",
      "110",
      "105",
      "100",
      "091",
      "090",
      "085",
      "080",
      "080",
      "076",
      "070",
      "066",
      "061",
      "060",
      "057",
      "052",
      "047",
      "044",
      "038",
      "035",
      "029",
      "025",
      "022",
      "019",
      "015",
      "011",
      "007",
      "003"
    ],
    "swim:geom": "path",
    "swim:speeds": [
      185,
      221,
      269,
      266,
      279,
      342,
      385,
      405,
      426,
      439,
      453,
      479,
      449,
      467,
      475,
      469,
      450,
      452,
      447,
      441,
      440,
      437,
      432,
      430,
      430,
      432,
      434,
      435,
      436,
      437,
      437,
      438,
      438,
      437,
      435,
      424,
      419,
      417,
      415,
      413,
      413,
      412,
      413,
      416,
      420,
      420,
      420,
      420,
      417,
      414,
      412,
      411,
      411,
      410,
      410,
      416,
      417,
      417,
      417,
      415,
      414,
      413,
      412,
      414,
      411,
      413,
      412,
      415,
      412,
      412,
      414,
      413,
      414,
      415,
      419,
      419,
      420,
      420,
      422,
      424,
      425,
      426,
      425,
      426,
      427,
      428,
      428,
      428,
      427,
      427,
      428,
      428,
      428,
      429,
      430,
      431,
      432,
      432,
      433,
      433,
      434,
      435,
      436,
      436,
      437,
      437,
      437,
      437,
      437,
      437,
      437,
      438,
      438,
      438,
      438,
      439,
      439,
      439,
      437,
      437,
      436,
      434,
      431,
      433,
      431,
      431,
      429,
      431,
      430,
      431,
      429,
      431,
      431,
      432,
      432,
      433,
      433,
      434,
      434,
      434,
      434,
      434,
      434,
      434,
      434,
      435,
      435,
      435,
      435,
      435,
      435,
      436,
      436,
      436,
      437,
      437,
      437,
      437,
      436,
      435,
      435,
      434,
      434,
      434,
      434,
      434,
      435,
      435,
      435,
      436,
      436,
      436,
      437,
      438,
      442,
      442,
      445,
      445,
      444,
      436,
      434,
      432,
      433,
      434,
      434,
      435,
      436,
      436,
      435,
      431,
      430,
      431,
      432,
      433,
      435,
      436,
      436,
      436,
      437,
      437,
      436,
      436,
      432,
      432,
      432,
      433,
      437,
      438,
      440,
      442,
      443,
      443,
      444,
      442,
      445,
      445,
      445,
      445,
      445,
      442,
      445,
      446,
      444,
      446,
      448,
      448,
      446,
      449,
      446,
      448,
      448,
      446,
      447,
      446,
      446,
      445,
      445,
      445,
      446,
      447,
      450,
      448,
      450,
      449,
      450,
      451,
      452,
      452,
      452,
      453,
      454,
      452,
      453,
      451,
      453,
      450,
      449,
      449,
      449,
      450,
      449,
      450,
      449,
      451,
      453,
      452,
      451,
      450,
      452,
      448,
      450,
      449,
      451,
      450,
      452,
      454,
      455,
      455,
      455,
      455,
      456,
      456,
      457,
      457,
      457,
      457,
      457,
      457,
      456,
      456,
      455,
      455,
      455,
      455,
      456,
      456,
      457,
      458,
      458,
      458,
      458,
      458,
      458,
      458,
      458,
      459,
      461,
      461,
      460,
      460,
      459,
      460,
      462,
      464,
      467,
      468,
      468,
      468,
      467,
      468,
      469,
      470,
      471,
      469,
      469,
      470,
      471,
      471,
      463,
      462,
      460,
      458,
      457,
      458,
      458,
      459,
      460,
      463,
      464,
      466,
      468,
      468,
      468,
      470,
      470,
      469,
      468,
      464,
      458,
      454,
      462,
      461,
      460,
      460,
      459,
      463,
      464,
      464,
      463,
      461,
      460,
      459,
      457,
      457,
      456,
      458,
      458,
      457,
      456,
      456,
      457,
      458,
      457,
      454,
      452,
      450,
      451,
      440,
      423,
      388,
      379,
      377,
      371,
      372,
      369,
      371,
      370,
      362,
      352,
      348,
      340,
      327,
      319,
      322,
      318,
      318,
      312,
      312,
      299,
      258,
      249,
      252,
      251,
      251,
      240,
      242,
      245,
      242,
      241,
      242,
      238,
      235,
      230,
      210,
      185,
      183,
      182,
      174,
      167,
      165,
      158,
      156,
      147,
      149,
      145,
      147,
      138,
      139,
      143
    ],
    "swim:timestamps": [
      1785196302,
      1785196336,
      1785196368,
      1785196396,
      1785196457,
      1785196517,
      1785196577,
      1785196637,
      1785196697,
      1785196757,
      1785196817,
      1785196937,
      1785196997,
      1785197063,
      1785197178,
      1785197244,
      1785197298,
      1785197304,
      1785197358,
      1785197418,
      1785197424,
      1785197478,
      1785197538,
      1785197598,
      1785197604,
      1785197664,
      1785197724,
      1785197779,
      1785197839,
      1785197905,
      1785197965,
      1785198025,
      1785198079,
      1785198145,
      1785198205,
      1785198265,
      1785198325,
      1785198385,
      1785198445,
      1785198505,
      1785198566,
      1785198626,
      1785198686,
      1785198746,
      1785198806,
      1785198866,
      1785198926,
      1785198986,
      1785199046,
      1785199106,
      1785199166,
      1785199227,
      1785199287,
      1785199347,
      1785199407,
      1785199467,
      1785199527,
      1785199584,
      1785199644,
      1785199825,
      1785199885,
      1785199945,
      1785200005,
      1785200028,
      1785200088,
      1785200125,
      1785200140,
      1785200148,
      1785200200,
      1785200245,
      1785200268,
      1785200306,
      1785200328,
      1785200366,
      1785200389,
      1785200426,
      1785200441,
      1785200449,
      1785200501,
      1785200546,
      1785200581,
      1785200606,
      1785200621,
      1785200666,
      1785200726,
      1785200741,
      1785200761,
      1785200801,
      1785200861,
      1785200881,
      1785200921,
      1785200953,
      1785200967,
      1785200981,
      1785201027,
      1785201074,
      1785201102,
      1785201134,
      1785201162,
      1785201207,
      1785201266,
      1785201326,
      1785201342,
      1785201386,
      1785201462,
      1785201506,
      1785201522,
      1785201566,
      1785201582,
      1785201626,
      1785201642,
      1785201686,
      1785201702,
      1785201763,
      1785201807,
      1785201883,
      1785201927,
      1785201943,
      1785201987,
      1785202003,
      1785202063,
      1785202123,
      1785202167,
      1785202183,
      1785202227,
      1785202243,
      1785202287,
      1785202304,
      1785202347,
      1785202364,
      1785202407,
      1785202424,
      1785202468,
      1785202484,
      1785202528,
      1785202544,
      1785202588,
      1785202601,
      1785202648,
      1785202661,
      1785202708,
      1785202721,
      1785202768,
      1785202781,
      1785202828,
      1785202842,
      1785202888,
      1785202902,
      1785202948,
      1785202962,
      1785203008,
      1785203022,
      1785203068,
      1785203082,
      1785203128,
      1785203142,
      1785203249,
      1785203262,
      1785203322,
      1785203369,
      1785203382,
      1785203429,
      1785203443,
      1785203489,
      1785203503,
      1785203549,
      1785203563,
      1785203623,
      1785203669,
      1785203683,
      1785203729,
      1785203743,
      1785203789,
      1785203803,
      1785203849,
      1785203863,
      1785203970,
      1785204030,
      1785204270,
      1785204330,
      1785204390,
      1785204450,
      1785204570,
      1785204630,
      1785204690,
      1785204750,
      1785204811,
      1785204871,
      1785204931,
      1785204991,
      1785205051,
      1785205111,
      1785205171,
      1785205231,
      1785205291,
      1785205351,
      1785205411,
      1785205471,
      1785205531,
      1785205591,
      1785205652,
      1785205712,
      1785205767,
      1785205827,
      1785205887,
      1785205947,
      1785206001,
      1785206067,
      1785206084,
      1785206122,
      1785206144,
      1785206182,
      1785206204,
      1785206248,
      1785206264,
      1785206302,
      1785206324,
      1785206362,
      1785206384,
      1785206428,
      1785206444,
      1785206482,
      1785206488,
      1785206504,
      1785206542,
      1785206565,
      1785206608,
      1785206625,
      1785206668,
      1785206685,
      1785206722,
      1785206728,
      1785206745,
      1785206782,
      1785206805,
      1785206848,
      1785206865,
      1785206903,
      1785206925,
      1785206963,
      1785206969,
      1785206985,
      1785207029,
      1785207045,
      1785207089,
      1785207143,
      1785207149,
      1785207209,
      1785207263,
      1785207329,
      1785207389,
      1785207443,
      1785207449,
      1785207503,
      1785207509,
      1785207563,
      1785207569,
      1785207629,
      1785207690,
      1785207744,
      1785207750,
      1785207804,
      1785207810,
      1785207864,
      1785207870,
      1785207924,
      1785207984,
      1785208044,
      1785208050,
      1785208110,
      1785208164,
      1785208170,
      1785208224,
      1785208230,
      1785208290,
      1785208350,
      1785208404,
      1785208410,
      1785208471,
      1785208531,
      1785208591,
      1785208645,
      1785208651,
      1785208711,
      1785208771,
      1785208825,
      1785208831,
      1785208891,
      1785208945,
      1785208951,
      1785209005,
      1785209011,
      1785209071,
      1785209125,
      1785209131,
      1785209192,
      1785209252,
      1785209305,
      1785209312,
      1785209365,
      1785209372,
      1785209432,
      1785209492,
      1785209552,
      1785209612,
      1785209672,
      1785209732,
      1785209792,
      1785209852,
      1785209912,
      1785209973,
      1785210033,
      1785210093,
      1785210153,
      1785210213,
      1785210273,
      1785210333,
      1785210393,
      1785210453,
      1785210513,
      1785210573,
      1785210633,
      1785210694,
      1785210754,
      1785210814,
      1785210874,
      1785210934,
      1785210994,
      1785211054,
      1785211114,
      1785211174,
      1785211234,
      1785211294,
      1785211354,
      1785211414,
      1785211474,
      1785211535,
      1785211595,
      1785211655,
      1785211715,
      1785211775,
      1785211835,
      1785211895,
      1785211950,
      1785212010,
      1785212070,
      1785212130,
      1785212190,
      1785212250,
      1785212310,
      1785212371,
      1785212431,
      1785212491,
      1785212551,
      1785212611,
      1785212671,
      1785212731,
      1785212796,
      1785212851,
      1785212911,
      1785212971,
      1785213031,
      1785213091,
      1785213151,
      1785213211,
      1785213271,
      1785213331,
      1785213391,
      1785213452,
      1785213512,
      1785213572,
      1785213632,
      1785213692,
      1785213752,
      1785213812,
      1785213872,
      1785213932,
      1785213992,
      1785214052,
      1785214112,
      1785214172,
      1785214232,
      1785214243,
      1785214292,
      1785214303,
      1785214352,
      1785214369,
      1785214412,
      1785214429,
      1785214472,
      1785214489,
      1785214533,
      1785214549,
      1785214593,
      1785214609,
      1785214653,
      1785214670,
      1785214713,
      1785214724,
      1785214773,
      1785214784,
      1785214833,
      1785214844,
      1785214893,
      1785214909,
      1785214953,
      1785214969,
      1785215013,
      1785215029,
      1785215073,
      1785215090,
      1785215133,
      1785215149,
      1785215193,
      1785215209,
      1785215253,
      1785215270,
      1785215313,
      1785215330,
      1785215373,
      1785215390,
      1785215433,
      1785215456,
      1785215493,
      1785215510,
      1785215554,
      1785215570,
      1785215614,
      1785215636
    ],
    "wof:geomhash": "4e1e0e701f17bb7848de654c01766080",
    "wof:id": 2031991689,
    "wof:repo": "sfomuseum-data-flights-2026-07"
  },
  "bbox": [
    -122.35,
    37.42444444444444,
    -74.23333333333333,
    43.504444444444445
  ],
  "geometry": {"coordinates":[[-74.23333333333333,40.666666666666664],[-74.24972222222222,40.69888888888889],[-74.26666666666667,40.733333333333334],[-74.29944444444445,40.76305555555555],[-74.35805555555555,40.82055555555556],[-74.43166666666667,40.88944444444444],[-74.51833333333333,40.97083333333334],[-74.615,41.061388888888885],[-74.72583333333334,41.14888888888889],[-74.8611111111111,41.20861111111111],[-74.99055555555556,41.26444444444444],[-75.29277777777777,41.394444444444446],[-75.43972222222223,41.456944444444446],[-75.615,41.49611111111111],[-75.9525,41.51694444444444],[-76.13777777777779,41.52305555555555],[-76.31138888888889,41.56527777777777],[-76.29861111111111,41.56083333333333],[-76.45333333333333,41.62277777777778],[-76.59527777777777,41.68138888888889],[-76.60527777777777,41.68555555555555],[-76.73694444444445,41.739444444444445],[-76.85749999999999,41.788333333333334],[-76.9975,41.84527777777778],[-77.02666666666667,41.856944444444444],[-77.17055555555557,41.915277777777774],[-77.31305555555555,41.972500000000004],[-77.42833333333334,42.015277777777776],[-77.58055555555555,42.0575],[-77.73694444444445,42.099722222222226],[-77.89277777777778,42.141666666666666],[-78.04777777777778,42.183055555555555],[-78.20083333333334,42.22361111111111],[-78.35638888888889,42.263888888888886],[-78.5125,42.301944444444445],[-78.66361111111112,42.33916666666667],[-78.81277777777777,42.37583333333333],[-78.95944444444444,42.41166666666666],[-79.10722222222222,42.448055555555555],[-79.25444444444445,42.48361111111111],[-79.40027777777779,42.51888888888889],[-79.54777777777778,42.55444444444444],[-79.69611111111111,42.58972222222222],[-79.84666666666666,42.614444444444445],[-80.02638888888889,42.62222222222222],[-80.18416666666667,42.62916666666667],[-80.3411111111111,42.635555555555555],[-80.49777777777778,42.641666666666666],[-80.65527777777778,42.64722222222222],[-80.80833333333334,42.652499999999996],[-80.96416666666667,42.6575],[-81.11916666666666,42.66222222222222],[-81.2725,42.668055555555554],[-81.4238888888889,42.684999999999995],[-81.57666666666667,42.7025],[-81.73138888888889,42.72],[-81.89750000000001,42.73861111111111],[-82.05333333333333,42.755833333333335],[-82.20916666666668,42.772777777777776],[-82.67305555555556,42.82555555555556],[-82.82777777777777,42.84722222222222],[-82.98083333333334,42.8675],[-83.13361111111112,42.88777777777778],[-83.17333333333333,42.893055555555556],[-83.32694444444444,42.91222222222222],[-83.44250000000001,42.92222222222222],[-83.45194444444445,42.92333333333333],[-83.48444444444445,42.92583333333333],[-83.60638888888889,42.93666666666666],[-83.74305555555556,42.94833333333333],[-83.79388888888889,42.95277777777778],[-83.9,42.961666666666666],[-83.95166666666667,42.96611111111111],[-84.05416666666666,42.973888888888894],[-84.10944444444443,42.97527777777778],[-84.21361111111112,42.980000000000004],[-84.23555555555555,42.98111111111111],[-84.2675,42.98305555555556],[-84.39333333333335,42.98972222222222],[-84.5225,42.99611111111111],[-84.62055555555555,43.00083333333333],[-84.685,43.00388888888889],[-84.71805555555555,43.00527777777778],[-84.84555555555555,43.01111111111111],[-85.00861111111111,43.01861111111111],[-85.04055555555556,43.019999999999996],[-85.10749999999999,43.022777777777776],[-85.20361111111112,43.026944444444446],[-85.36555555555555,43.03388888888889],[-85.43111111111112,43.03666666666666],[-85.52805555555555,43.040277777777774],[-85.6261111111111,43.044444444444444],[-85.65555555555557,43.04555555555555],[-85.68861111111111,43.04666666666667],[-85.81916666666666,43.05166666666666],[-85.95,43.05638888888888],[-86.0363888888889,43.059444444444445],[-86.13305555555554,43.06305555555555],[-86.1975,43.065],[-86.32833333333333,43.06944444444445],[-86.4625,43.073888888888895],[-86.66027777777778,43.080000000000005],[-86.69222222222223,43.08083333333334],[-86.82722222222222,43.084722222222226],[-87.02388888888889,43.09],[-87.15722222222223,43.093611111111116],[-87.18944444444445,43.09444444444445],[-87.32277777777777,43.09777777777778],[-87.35583333333332,43.09861111111111],[-87.48222222222222,43.10138888888889],[-87.51,43.10194444444445],[-87.64666666666668,43.105000000000004],[-87.67666666666668,43.105555555555554],[-87.84388888888888,43.10916666666667],[-87.98111111111112,43.111666666666665],[-88.17944444444444,43.11527777777778],[-88.31666666666666,43.117222222222225],[-88.3461111111111,43.117777777777775],[-88.47777777777777,43.11833333333333],[-88.51222222222222,43.120555555555555],[-88.67888888888889,43.12305555555555],[-88.8436111111111,43.125277777777775],[-88.97500000000001,43.126111111111115],[-89.00916666666667,43.12722222222222],[-89.13916666666667,43.12833333333333],[-89.17166666666667,43.12916666666667],[-89.30305555555556,43.12916666666667],[-89.33638888888889,43.13055555555555],[-89.4675,43.13111111111111],[-89.5,43.13194444444444],[-89.63583333333334,43.132777777777775],[-89.66555555555556,43.132777777777775],[-89.80138888888888,43.13361111111111],[-89.82888888888888,43.13361111111111],[-89.96555555555555,43.134166666666665],[-89.99527777777777,43.134166666666665],[-90.13,43.13444444444444],[-90.15916666666668,43.13472222222222],[-90.27666666666667,43.13472222222222],[-90.34222222222222,43.13472222222222],[-90.44,43.13444444444444],[-90.50444444444445,43.13444444444444],[-90.60527777777777,43.134166666666665],[-90.66944444444445,43.134166666666665],[-90.77,43.13361111111111],[-90.83583333333333,43.13361111111111],[-90.96694444444445,43.132777777777775],[-91.00027777777778,43.1325],[-91.13222222222221,43.13166666666667],[-91.16222222222223,43.13138888888889],[-91.29472222222222,43.13027777777778],[-91.32777777777777,43.13],[-91.46027777777778,43.12888888888889],[-91.4925,43.12861111111111],[-91.62527777777777,43.12694444444445],[-91.65583333333333,43.126666666666665],[-91.95444444444445,43.12277777777778],[-91.98444444444445,43.1225],[-92.14777777777779,43.11972222222222],[-92.28222222222222,43.1175],[-92.31388888888888,43.117222222222225],[-92.41277777777778,43.11527777777778],[-92.47777777777777,43.11416666666667],[-92.60777777777777,43.111666666666665],[-92.64,43.11083333333333],[-92.77388888888889,43.10805555555556],[-92.80388888888889,43.1075],[-92.97,43.103611111111114],[-93.10222222222221,43.10055555555556],[-93.13583333333334,43.099722222222226],[-93.26888888888888,43.09638888888889],[-93.30083333333333,43.09527777777778],[-93.43472222222222,43.086111111111116],[-93.46611111111112,43.08361111111111],[-93.60111111111111,43.07222222222222],[-93.63527777777779,43.06916666666667],[-93.93694444444445,43.04333333333333],[-94.10472222222222,43.02833333333333],[-94.7761111111111,42.9675],[-94.94166666666668,42.974722222222226],[-95.10305555555556,42.98888888888889],[-95.26638888888888,43.00388888888889],[-95.59166666666667,43.03333333333333],[-95.75555555555556,43.047777777777775],[-95.92083333333333,43.06194444444444],[-96.08527777777778,43.07666666666667],[-96.25055555555555,43.09583333333334],[-96.41194444444444,43.11611111111111],[-96.57555555555555,43.13638888888889],[-96.73722222222223,43.15611111111111],[-96.89861111111112,43.175555555555555],[-97.06166666666667,43.19472222222222],[-97.22472222222223,43.21388888888889],[-97.3875,43.2325],[-97.55194444444444,43.25111111111111],[-97.71611111111112,43.269444444444446],[-97.87944444444443,43.2875],[-98.04444444444444,43.30555555555555],[-98.21111111111111,43.32361111111111],[-98.37527777777777,43.340833333333336],[-98.54027777777777,43.35805555555556],[-98.7038888888889,43.375],[-98.84472222222222,43.38916666666667],[-99.00805555555556,43.406666666666666],[-99.17361111111111,43.42194444444444],[-99.33944444444444,43.437777777777775],[-99.47638888888889,43.45111111111111],[-99.67527777777778,43.469722222222224],[-99.67694444444444,43.47027777777778],[-99.81361111111111,43.48305555555556],[-99.88138888888888,43.48916666666667],[-99.98166666666667,43.49777777777778],[-100.05027777777778,43.500277777777775],[-100.18305555555555,43.50111111111111],[-100.2213888888889,43.501666666666665],[-100.32333333333332,43.50222222222222],[-100.3913888888889,43.50277777777778],[-100.49305555555556,43.50333333333333],[-100.56222222222222,43.50361111111111],[-100.6725,43.50138888888889],[-100.73194444444445,43.50388888888889],[-100.83527777777778,43.50416666666667],[-100.84416666666667,43.50222222222222],[-100.90222222222222,43.50416666666667],[-101.0075,43.504444444444445],[-101.0761111111111,43.50416666666667],[-101.21972222222223,43.499722222222225],[-101.24833333333333,43.50416666666667],[-101.3913888888889,43.50055555555556],[-101.42,43.50361111111111],[-101.5213888888889,43.503055555555555],[-101.56,43.49861111111111],[-101.58805555555556,43.50277777777778],[-101.68972222222223,43.50222222222222],[-101.75888888888889,43.501666666666665],[-101.89861111111112,43.49583333333334],[-101.92861111111111,43.50055555555556],[-102.02888888888889,43.49194444444444],[-102.09583333333333,43.477222222222224],[-102.20111111111112,43.452222222222225],[-102.23111111111112,43.43944444444444],[-102.25861111111111,43.43833333333333],[-102.39250000000001,43.39972222222222],[-102.42416666666666,43.39833333333333],[-102.55555555555556,43.35777777777778],[-102.69055555555556,43.33361111111111],[-102.72055555555556,43.319722222222225],[-102.88333333333334,43.28138888888889],[-103.0175,43.253055555555555],[-103.21111111111111,43.202222222222225],[-103.37277777777777,43.16138888888889],[-103.50333333333333,43.13111111111111],[-103.53527777777778,43.12111111111111],[-103.66527777777779,43.09],[-103.69694444444445,43.08166666666667],[-103.82583333333334,43.04888888888889],[-103.85527777777777,43.04111111111111],[-104.015,43],[-104.17444444444445,42.95861111111111],[-104.30666666666666,42.924166666666665],[-104.33388888888888,42.9175],[-104.46416666666667,42.8825],[-104.49472222222222,42.87638888888889],[-104.62277777777777,42.84055555555556],[-104.65555555555557,42.83555555555556],[-104.81361111111111,42.78972222222222],[-104.97027777777778,42.7475],[-105.12944444444443,42.70444444444445],[-105.12805555555555,42.70472222222222],[-105.28527777777778,42.66166666666666],[-105.44472222222223,42.61833333333333],[-105.44472222222223,42.61694444444444],[-105.60388888888889,42.574444444444445],[-105.60388888888889,42.57333333333334],[-105.76555555555555,42.52972222222222],[-105.92527777777778,42.485],[-106.08222222222221,42.44083333333333],[-106.08472222222221,42.44027777777777],[-106.245,42.394999999999996],[-106.4038888888889,42.349722222222226],[-106.56361111111111,42.303888888888885],[-106.70694444444445,42.2625],[-106.74194444444444,42.2525],[-106.89888888888889,42.206944444444446],[-107.06027777777777,42.15972222222222],[-107.18611111111112,42.12277777777778],[-107.21666666666667,42.11388888888889],[-107.37527777777777,42.066944444444445],[-107.50083333333333,42.02972222222222],[-107.53444444444445,42.019444444444446],[-107.65861111111111,41.9825],[-107.68972222222223,41.973055555555554],[-107.84694444444445,41.925555555555555],[-107.97333333333333,41.88722222222222],[-108.0038888888889,41.878055555555555],[-108.16083333333334,41.83027777777778],[-108.32,41.78138888888889],[-108.44333333333334,41.743611111111115],[-108.47722222222222,41.73305555555556],[-108.60166666666666,41.69444444444444],[-108.63444444444445,41.68416666666666],[-108.78972222222222,41.63583333333333],[-108.94527777777778,41.58694444444445],[-109.09888888888888,41.538333333333334],[-109.24805555555555,41.490833333333335],[-109.40416666666667,41.441111111111105],[-109.55916666666667,41.39138888888889],[-109.71611111111112,41.34055555555556],[-109.86999999999999,41.29055555555556],[-110.025,41.24],[-110.18055555555556,41.18888888888888],[-110.33527777777778,41.1375],[-110.49138888888889,41.08555555555556],[-110.64833333333334,41.03333333333333],[-110.80722222222222,40.97972222222222],[-110.96333333333334,40.926944444444445],[-111.11972222222222,40.87388888888889],[-111.27472222222222,40.82083333333334],[-111.45444444444445,40.75888888888889],[-111.61277777777777,40.70416666666667],[-111.76916666666666,40.64972222222222],[-111.92694444444444,40.594722222222224],[-112.07166666666666,40.54388888888889],[-112.22638888888889,40.48888888888889],[-112.38111111111111,40.43388888888889],[-112.53694444444444,40.37833333333333],[-112.69277777777778,40.32222222222222],[-112.84638888888888,40.266666666666666],[-112.99777777777778,40.211666666666666],[-113.14555555555556,40.157777777777774],[-113.29555555555555,40.10277777777778],[-113.44222222222223,40.04861111111111],[-113.59222222222222,39.99305555555556],[-113.73972222222223,39.93805555555555],[-113.88861111111112,39.882222222222225],[-114.03944444444444,39.82555555555556],[-114.18722222222223,39.76972222222222],[-114.33694444444444,39.71277777777778],[-114.48388888888888,39.656666666666666],[-114.63444444444445,39.59861111111111],[-114.78611111111111,39.54],[-114.91222222222223,39.45611111111111],[-115.02916666666667,39.36027777777778],[-115.14472222222223,39.265],[-115.25833333333334,39.17027777777778],[-115.37249999999999,39.07333333333334],[-115.48277777777778,38.97805555555556],[-115.59194444444444,38.88305555555556],[-115.70416666666667,38.79194444444444],[-115.81388888888888,38.698611111111106],[-115.92666666666668,38.60194444444445],[-116.03833333333333,38.50888888888889],[-116.14944444444446,38.415277777777774],[-116.25861111111111,38.32194444444445],[-116.38611111111112,38.245],[-116.54777777777778,38.22027777777778],[-116.7088888888889,38.198611111111106],[-116.87055555555555,38.17611111111111],[-117.03166666666667,38.15361111111111],[-117.17555555555556,38.13305555555556],[-117.33472222222221,38.11027777777778],[-117.49166666666667,38.087500000000006],[-117.65,38.06472222222222],[-117.80749999999999,38.04138888888889],[-117.96694444444445,38.01777777777777],[-118.12555555555555,37.99388888888889],[-118.28277777777778,37.97],[-118.44055555555556,37.94583333333333],[-118.59833333333333,37.92166666666667],[-118.75472222222223,37.897777777777776],[-118.915,37.87861111111111],[-119.0736111111111,37.86055555555556],[-119.23333333333333,37.841944444444444],[-119.39083333333333,37.82333333333334],[-119.545,37.805],[-119.70055555555555,37.78638888888889],[-119.85972222222222,37.76694444444444],[-120.01222222222222,37.748333333333335],[-120.16083333333334,37.730000000000004],[-120.29777777777778,37.71277777777778],[-120.42916666666667,37.69611111111111],[-120.55749999999999,37.68111111111111],[-120.6,37.68333333333333],[-120.68777777777778,37.66611111111111],[-120.71666666666667,37.666666666666664],[-120.81555555555555,37.65083333333333],[-120.86666666666666,37.65],[-120.94194444444445,37.635555555555555],[-120.98333333333333,37.63333333333333],[-121.06277777777777,37.61972222222222],[-121.1,37.61666666666667],[-121.17777777777778,37.60416666666667],[-121.21666666666667,37.6],[-121.28805555555556,37.589444444444446],[-121.33333333333333,37.583333333333336],[-121.39805555555556,37.577222222222225],[-121.43333333333334,37.56666666666667],[-121.50611111111111,37.56472222222222],[-121.53333333333333,37.56666666666667],[-121.6,37.55361111111111],[-121.61666666666666,37.55],[-121.68138888888889,37.57611111111112],[-121.7,37.583333333333336],[-121.76138888888889,37.60416666666667],[-121.78333333333333,37.6],[-121.80833333333334,37.5625],[-121.8,37.53333333333333],[-121.80305555555556,37.49638888888889],[-121.81666666666666,37.46666666666667],[-121.83666666666666,37.4375],[-121.86666666666666,37.43333333333333],[-121.91250000000001,37.42444444444444],[-121.93333333333334,37.43333333333333],[-121.97944444444444,37.45388888888889],[-122,37.46666666666667],[-122.0363888888889,37.47833333333333],[-122.05,37.483333333333334],[-122.0911111111111,37.50138888888889],[-122.11666666666666,37.516666666666666],[-122.14111111111112,37.5225],[-122.16666666666667,37.53333333333333],[-122.1888888888889,37.54277777777778],[-122.21666666666667,37.55],[-122.23472222222222,37.56194444444444],[-122.25,37.56666666666667],[-122.27916666666667,37.58111111111111],[-122.3,37.583333333333336],[-122.32138888888889,37.59861111111111],[-122.35,37.6]],"type":"LineString"}
}
