{
  "id": 2032035033,
  "type": "Feature",
  "properties": {
    "geom:area": 0,
    "geom:bbox": "-122.350000,37.433333,-95.885278,41.314444",
    "geom:latitude": 39.544201939059526,
    "geom:longitude": -109.25810874108095,
    "src:alt_label": "swim-path",
    "src:geom": "swim",
    "swim:altitudes": [
      "023",
      "035",
      "045",
      "057",
      "073",
      "117",
      "156",
      "174",
      "207",
      "218",
      "234",
      "244",
      "266",
      "274",
      "283",
      "290",
      "297",
      "303",
      "309",
      "314",
      "319",
      "326",
      "340C",
      "340C",
      "340C",
      "340C",
      "340C",
      "340C",
      "340C",
      "340C",
      "340C",
      "340C",
      "340C",
      "340C",
      "341C",
      "340C",
      "340C",
      "340C",
      "340C",
      "340C",
      "340C",
      "340C",
      "340C",
      "340C",
      "340C",
      "340C",
      "340C",
      "340C",
      "340C",
      "340C",
      "340C",
      "340C",
      "340C",
      "340C",
      "340C",
      "340C",
      "340C",
      "340C",
      "340C",
      "340C",
      "340C",
      "340C",
      "340C",
      "340C",
      "340C",
      "340C",
      "340C",
      "340C",
      "340C",
      "340C",
      "340C",
      "340C",
      "340C",
      "340C",
      "340C",
      "340C",
      "340C",
      "340C",
      "340C",
      "340C",
      "340C",
      "340C",
      "340C",
      "340C",
      "340C",
      "340C",
      "340C",
      "340C",
      "340C",
      "340C",
      "340C",
      "340C",
      "340C",
      "340C",
      "340C",
      "340C",
      "340C",
      "340C",
      "340C",
      "340C",
      "340C",
      "340C",
      "340C",
      "340C",
      "340C",
      "340C",
      "340C",
      "340C",
      "340C",
      "340C",
      "340C",
      "340C",
      "340C",
      "340C",
      "340C",
      "340C",
      "340C",
      "340C",
      "340C",
      "340C",
      "340C",
      "340C",
      "340C",
      "340C",
      "340C",
      "340C",
      "340C",
      "340C",
      "340C",
      "340C",
      "340C",
      "340C",
      "340C",
      "341C",
      "340C",
      "340C",
      "340C",
      "340C",
      "340C",
      "340C",
      "340C",
      "340C",
      "340C",
      "340C",
      "340C",
      "340C",
      "340C",
      "340C",
      "340C",
      "340C",
      "340C",
      "340C",
      "340C",
      "340C",
      "340C",
      "340C",
      "340C",
      "340C",
      "340C",
      "340C",
      "340C",
      "340C",
      "340C",
      "340C",
      "340C",
      "340C",
      "340C",
      "340C",
      "340C",
      "340C",
      "340C",
      "340C",
      "340C",
      "340C",
      "340C",
      "340C",
      "340C",
      "340C",
      "340C",
      "340C",
      "340C",
      "340C",
      "340C",
      "340C",
      "340C",
      "340C",
      "340C",
      "340",
      "340",
      "320",
      "284",
      "268",
      "262",
      "243",
      "224",
      "210",
      "205",
      "192",
      "187",
      "169",
      "155",
      "143",
      "137",
      "128",
      "122",
      "114",
      "111",
      "110",
      "110",
      "107",
      "099",
      "099",
      "091",
      "090",
      "080",
      "079",
      "070",
      "067",
      "060",
      "053",
      "043",
      "028",
      "019",
      "011",
      "003"
    ],
    "swim:geom": "path",
    "swim:speeds": [
      162,
      238,
      254,
      284,
      280,
      315,
      343,
      355,
      367,
      382,
      383,
      389,
      397,
      405,
      406,
      410,
      420,
      425,
      432,
      439,
      446,
      447,
      429,
      429,
      428,
      428,
      429,
      429,
      429,
      430,
      431,
      431,
      431,
      433,
      434,
      435,
      434,
      435,
      433,
      432,
      435,
      431,
      435,
      431,
      434,
      434,
      433,
      434,
      434,
      434,
      435,
      432,
      434,
      432,
      434,
      431,
      434,
      431,
      434,
      434,
      430,
      433,
      428,
      427,
      427,
      426,
      427,
      427,
      426,
      428,
      429,
      428,
      427,
      418,
      413,
      413,
      420,
      421,
      425,
      426,
      424,
      424,
      424,
      423,
      424,
      423,
      424,
      423,
      425,
      425,
      425,
      425,
      425,
      424,
      425,
      425,
      422,
      421,
      419,
      419,
      417,
      417,
      416,
      415,
      414,
      414,
      413,
      412,
      412,
      411,
      411,
      410,
      410,
      409,
      409,
      408,
      408,
      408,
      407,
      407,
      407,
      406,
      406,
      406,
      407,
      407,
      408,
      408,
      408,
      409,
      410,
      412,
      416,
      418,
      418,
      417,
      416,
      415,
      415,
      415,
      414,
      414,
      413,
      415,
      416,
      416,
      416,
      415,
      415,
      414,
      415,
      416,
      417,
      418,
      426,
      430,
      426,
      430,
      434,
      431,
      435,
      434,
      434,
      434,
      434,
      435,
      435,
      435,
      436,
      413,
      412,
      411,
      411,
      411,
      411,
      411,
      411,
      412,
      413,
      414,
      414,
      426,
      406,
      401,
      400,
      399,
      398,
      397,
      397,
      401,
      415,
      414,
      407,
      400,
      386,
      380,
      372,
      375,
      374,
      361,
      335,
      317,
      313,
      313,
      305,
      305,
      290,
      266,
      250,
      254,
      250,
      251,
      249,
      247,
      253,
      239,
      241,
      235,
      238,
      205,
      192,
      178,
      179,
      143,
      141
    ],
    "swim:timestamps": [
      1785416023,
      1785416083,
      1785416119,
      1785416143,
      1785416179,
      1785416299,
      1785416420,
      1785416480,
      1785416600,
      1785416660,
      1785416720,
      1785416780,
      1785416900,
      1785416956,
      1785417016,
      1785417076,
      1785417136,
      1785417197,
      1785417257,
      1785417317,
      1785417377,
      1785417437,
      1785417621,
      1785417797,
      1785417857,
      1785417922,
      1785417978,
      1785418038,
      1785418098,
      1785418158,
      1785418218,
      1785418278,
      1785418338,
      1785418398,
      1785418458,
      1785418508,
      1785418518,
      1785418568,
      1785418578,
      1785418638,
      1785418688,
      1785418699,
      1785418749,
      1785418759,
      1785418809,
      1785418869,
      1785418879,
      1785418939,
      1785418989,
      1785418999,
      1785419049,
      1785419119,
      1785419169,
      1785419179,
      1785419229,
      1785419239,
      1785419289,
      1785419299,
      1785419349,
      1785419409,
      1785419419,
      1785419470,
      1785419480,
      1785419540,
      1785419590,
      1785419600,
      1785419660,
      1785419720,
      1785419770,
      1785419780,
      1785419900,
      1785419950,
      1785419960,
      1785420020,
      1785420080,
      1785420130,
      1785420140,
      1785420191,
      1785420201,
      1785420251,
      1785420261,
      1785420321,
      1785420371,
      1785420381,
      1785420431,
      1785420441,
      1785420491,
      1785420501,
      1785420561,
      1785420611,
      1785420671,
      1785420681,
      1785420731,
      1785420741,
      1785420791,
      1785420851,
      1785420861,
      1785420921,
      1785420972,
      1785420982,
      1785421032,
      1785421042,
      1785421092,
      1785421102,
      1785421152,
      1785421162,
      1785421222,
      1785421272,
      1785421282,
      1785421332,
      1785421342,
      1785421392,
      1785421402,
      1785421452,
      1785421462,
      1785421512,
      1785421522,
      1785421572,
      1785421582,
      1785421632,
      1785421642,
      1785421703,
      1785421753,
      1785421763,
      1785421823,
      1785421873,
      1785421883,
      1785421943,
      1785421993,
      1785422063,
      1785422123,
      1785422173,
      1785422233,
      1785422293,
      1785422353,
      1785422414,
      1785422474,
      1785422534,
      1785422594,
      1785422654,
      1785422714,
      1785422774,
      1785422834,
      1785423014,
      1785423074,
      1785423135,
      1785423195,
      1785423255,
      1785423315,
      1785423375,
      1785423495,
      1785423555,
      1785423615,
      1785423735,
      1785423855,
      1785423916,
      1785423970,
      1785424030,
      1785424036,
      1785424150,
      1785424216,
      1785424270,
      1785424276,
      1785424336,
      1785424396,
      1785424451,
      1785424511,
      1785424571,
      1785424637,
      1785424697,
      1785424751,
      1785424817,
      1785424871,
      1785424877,
      1785424931,
      1785424991,
      1785425057,
      1785425117,
      1785425172,
      1785425292,
      1785425352,
      1785425472,
      1785425592,
      1785425712,
      1785425772,
      1785425832,
      1785425893,
      1785425953,
      1785426013,
      1785426070,
      1785426148,
      1785426193,
      1785426209,
      1785426269,
      1785426329,
      1785426373,
      1785426389,
      1785426433,
      1785426449,
      1785426509,
      1785426569,
      1785426614,
      1785426629,
      1785426674,
      1785426689,
      1785426734,
      1785426748,
      1785426794,
      1785426809,
      1785426854,
      1785426914,
      1785426923,
      1785426974,
      1785426983,
      1785427103,
      1785427163,
      1785427214,
      1785427224,
      1785427275,
      1785427344,
      1785427395,
      1785427463,
      1785427524,
      1785427584,
      1785427643
    ],
    "wof:geomhash": "86547160f7e3a18f1e9a816a6753a62b",
    "wof:id": 2032035033,
    "wof:repo": "sfomuseum-data-flights-2026-07"
  },
  "bbox": [
    -122.35,
    37.43333333333333,
    -95.88527777777779,
    41.31444444444444
  ],
  "geometry": {"coordinates":[[-95.88527777777779,41.28],[-95.9075,41.23111111111111],[-95.94694444444445,41.22944444444445],[-96.00416666666666,41.233333333333334],[-96.05166666666666,41.23777777777778],[-96.26916666666666,41.2525],[-96.51972222222223,41.269444444444446],[-96.64944444444446,41.278055555555554],[-96.91722222222222,41.29527777777778],[-97.0586111111111,41.30416666666667],[-97.19944444444445,41.312777777777775],[-97.34277777777777,41.31444444444444],[-97.62138888888889,41.25277777777778],[-97.75555555555556,41.222500000000004],[-97.90083333333334,41.18944444444444],[-98.04583333333333,41.156388888888884],[-98.19277777777778,41.1225],[-98.34416666666667,41.087500000000006],[-98.49666666666667,41.051944444444445],[-98.64916666666667,41.01638888888889],[-98.80583333333333,40.97916666666667],[-98.96277777777777,40.94194444444444],[-99.42527777777778,40.830555555555556],[-99.87194444444444,40.72083333333334],[-100.01833333333333,40.68444444444444],[-100.17,40.646388888888886],[-100.31972222222223,40.60861111111111],[-100.46805555555555,40.571111111111115],[-100.61861111111111,40.532777777777774],[-100.76916666666666,40.49388888888889],[-100.92194444444445,40.46027777777778],[-101.07888888888888,40.45055555555556],[-101.23833333333333,40.44611111111111],[-101.39555555555556,40.44166666666666],[-101.55388888888889,40.43694444444444],[-101.68138888888889,40.42972222222222],[-101.71194444444444,40.43194444444444],[-101.8386111111111,40.425],[-101.86999999999999,40.426944444444445],[-102.02722222222222,40.42166666666667],[-102.15111111111112,40.415277777777774],[-102.18361111111112,40.41611111111111],[-102.30833333333334,40.40861111111111],[-102.33999999999999,40.410555555555554],[-102.46444444444445,40.40361111111111],[-102.62333333333332,40.39833333333333],[-102.6563888888889,40.39833333333333],[-102.79472222222222,40.39277777777778],[-102.93916666666667,40.38472222222222],[-102.95166666666667,40.38611111111111],[-103.09777777777778,40.3775],[-103.265,40.3725],[-103.40944444444445,40.36361111111111],[-103.42111111111112,40.36527777777778],[-103.56555555555555,40.35777777777778],[-103.5761111111111,40.35805555555556],[-103.72166666666666,40.349722222222226],[-103.73388888888888,40.35027777777778],[-103.87833333333333,40.34138888888889],[-104.03472222222221,40.33388888888889],[-104.04416666666667,40.334722222222226],[-104.18861111111111,40.32555555555556],[-104.19694444444445,40.32666666666667],[-104.34888888888888,40.318333333333335],[-104.49388888888889,40.309999999999995],[-104.5025,40.309999999999995],[-104.68805555555556,40.29944444444444],[-104.84138888888889,40.29055555555556],[-104.95972222222223,40.28333333333333],[-104.99638888888889,40.28138888888889],[-105.30749999999999,40.26222222222222],[-105.4263888888889,40.25416666666667],[-105.45972222222223,40.2525],[-105.61,40.24277777777778],[-105.75777777777778,40.23305555555556],[-105.87527777777777,40.22361111111111],[-105.90777777777778,40.223055555555554],[-106.03277777777778,40.21416666666667],[-106.06277777777777,40.21222222222222],[-106.18583333333333,40.2025],[-106.21583333333334,40.20138888888889],[-106.36888888888888,40.190555555555555],[-106.49138888888889,40.18111111111111],[-106.52111111111111,40.17944444444444],[-106.64333333333335,40.170833333333334],[-106.66888888888889,40.16833333333333],[-106.79527777777777,40.159166666666664],[-106.82249999999999,40.15694444444444],[-106.97555555555556,40.144999999999996],[-107.10388888888889,40.13472222222222],[-107.25555555555556,40.12277777777778],[-107.2863888888889,40.120555555555555],[-107.40833333333335,40.11083333333333],[-107.43972222222223,40.108333333333334],[-107.56027777777777,40.09861111111111],[-107.71166666666667,40.086666666666666],[-107.7425,40.08305555555556],[-107.89305555555556,40.07055555555556],[-108.01138888888889,40.05472222222222],[-108.0411111111111,40.050555555555555],[-108.15722222222223,40.03333333333333],[-108.18805555555556,40.028888888888886],[-108.30611111111111,40.01138888888889],[-108.33277777777778,40.0075],[-108.44916666666667,39.99],[-108.47916666666667,39.98527777777778],[-108.62333333333332,39.96361111111111],[-108.74055555555556,39.94583333333333],[-108.76722222222222,39.94166666666666],[-108.88333333333334,39.92388888888889],[-108.91027777777778,39.91972222222222],[-109.02555555555556,39.901666666666664],[-109.05472222222222,39.89694444444444],[-109.16861111111112,39.879444444444445],[-109.19638888888889,39.875],[-109.31138888888889,39.85666666666667],[-109.33999999999999,39.852222222222224],[-109.45444444444445,39.83388888888889],[-109.4825,39.82944444444445],[-109.59638888888888,39.81111111111111],[-109.62472222222222,39.806666666666665],[-109.76861111111111,39.78333333333333],[-109.88305555555554,39.764722222222225],[-109.91250000000001,39.75972222222222],[-110.05444444444444,39.73638888888889],[-110.1713888888889,39.716944444444444],[-110.19722222222222,39.712500000000006],[-110.3425,39.68833333333333],[-110.4588888888889,39.66861111111111],[-110.63083333333333,39.63944444444444],[-110.77361111111111,39.615],[-110.92111111111112,39.589444444444446],[-111.06638888888888,39.564166666666665],[-111.21444444444445,39.538333333333334],[-111.3611111111111,39.51222222222222],[-111.50694444444444,39.486111111111114],[-111.65083333333334,39.46027777777778],[-111.79555555555555,39.43388888888889],[-111.94111111111111,39.4075],[-112.08527777777778,39.380833333333335],[-112.22944444444444,39.35416666666667],[-112.34777777777778,39.33222222222223],[-112.49166666666667,39.305],[-112.91805555555555,39.20916666666667],[-113.08833333333332,39.169999999999995],[-113.2325,39.136944444444445],[-113.37305555555555,39.10416666666667],[-113.51472222222222,39.07138888888889],[-113.65472222222223,39.038333333333334],[-113.76722222222222,39.011944444444445],[-114.07888888888888,38.9375],[-114.21972222222223,38.90361111111111],[-114.36222222222221,38.869166666666665],[-114.64527777777778,38.8],[-114.93277777777779,38.735],[-115.08083333333333,38.70527777777778],[-115.20111111111112,38.68083333333333],[-115.35222222222221,38.650277777777774],[-115.37972222222221,38.64472222222222],[-115.65,38.589444444444446],[-115.83222222222221,38.551111111111105],[-115.95111111111112,38.52611111111111],[-115.97944444444444,38.519999999999996],[-116.12805555555555,38.48861111111111],[-116.2761111111111,38.45722222222223],[-116.39694444444446,38.43138888888889],[-116.5625,38.39555555555555],[-116.71083333333334,38.36361111111111],[-116.85749999999999,38.331388888888895],[-117,38.30027777777777],[-117.14111111111112,38.26916666666666],[-117.28777777777778,38.23638888888889],[-117.42166666666667,38.20638888888889],[-117.42666666666668,38.20527777777778],[-117.56083333333333,38.175],[-117.70194444444445,38.143055555555556],[-117.83638888888889,38.112500000000004],[-117.9786111111111,38.07972222222222],[-118.10388888888889,38.05083333333333],[-118.40111111111112,37.98166666666667],[-118.5375,37.94499999999999],[-118.74027777777778,37.77861111111111],[-118.98416666666667,37.736111111111114],[-119.29166666666667,37.72944444444445],[-119.43194444444445,37.72638888888889],[-119.57333333333332,37.72277777777778],[-119.71027777777778,37.71944444444445],[-119.84972222222221,37.715833333333336],[-119.99111111111111,37.71194444444445],[-120.13333333333334,37.71666666666667],[-120.31666666666666,37.7],[-120.42,37.6975],[-120.45,37.7],[-120.6,37.68333333333333],[-120.73333333333333,37.666666666666664],[-120.83111111111111,37.649166666666666],[-120.86666666666666,37.65],[-120.95972222222223,37.63361111111111],[-121,37.63333333333333],[-121.11666666666666,37.61666666666667],[-121.25,37.6],[-121.315,37.586666666666666],[-121.35,37.583333333333336],[-121.4213888888889,37.57472222222223],[-121.46666666666667,37.56666666666667],[-121.52694444444444,37.56222222222222],[-121.56666666666666,37.56666666666667],[-121.62444444444444,37.550555555555555],[-121.65,37.55],[-121.69777777777779,37.58222222222223],[-121.75861111111111,37.63138888888889],[-121.78333333333333,37.63333333333333],[-121.82916666666667,37.61805555555556],[-121.83333333333333,37.6],[-121.78333333333333,37.46666666666667],[-121.86666666666666,37.43333333333333],[-121.91888888888889,37.43416666666666],[-121.93333333333334,37.43333333333333],[-121.99305555555556,37.461111111111116],[-122.08333333333333,37.5],[-122.12444444444444,37.51555555555556],[-122.2,37.55],[-122.25,37.56666666666667],[-122.3,37.583333333333336],[-122.35,37.6]],"type":"LineString"}
}
