{
  "id": 2032047559,
  "type": "Feature",
  "properties": {
    "geom:area": 0,
    "geom:bbox": "-122.353450,37.437630,-121.286160,37.609600",
    "geom:latitude": 37.5245589491114,
    "geom:longitude": -121.82705941627157,
    "src:alt_label": "swim-approach",
    "src:geom": "swim",
    "swim:elevations": [
      4156,
      3937,
      3614,
      3542,
      3474,
      3143,
      3124,
      3046,
      3011,
      2871,
      2620,
      2436,
      2382,
      2276,
      2137,
      2134,
      2134,
      2100,
      1980,
      1829,
      1784,
      1762,
      1510,
      1290,
      1259,
      955,
      844,
      730,
      667,
      465,
      334,
      245,
      193,
      33
    ],
    "swim:geom": "approach",
    "swim:timestamps": [
      1785497901,
      1785497925,
      1785497962,
      1785497973,
      1785497983,
      1785498027,
      1785498031,
      1785498050,
      1785498073,
      1785498105,
      1785498140,
      1785498175,
      1785498208,
      1785498223,
      1785498245,
      1785498273,
      1785498303,
      1785498332,
      1785498372,
      1785498418,
      1785498425,
      1785498428,
      1785498454,
      1785498508,
      1785498512,
      1785498568,
      1785498593,
      1785498617,
      1785498632,
      1785498682,
      1785498717,
      1785498738,
      1785498756,
      1785498794
    ],
    "wof:geomhash": "4a1a680b1cbdfd0b3cb575be8515e156",
    "wof:id": 2032047559,
    "wof:repo": "sfomuseum-data-flights-2026-07"
  },
  "bbox": [
    -122.35345,
    37.43763,
    -121.28616,
    37.6096
  ],
  "geometry": {"coordinates":[[-121.28616,37.58967],[-121.33109,37.58464],[-121.4011,37.57709],[-121.42179,37.57466],[-121.43945,37.57257],[-121.51705,37.56358],[-121.52383,37.56279],[-121.55526,37.55912],[-121.58968,37.55498],[-121.63541,37.548],[-121.67604,37.52663],[-121.71512,37.50422],[-121.75057,37.48356],[-121.76628,37.47444],[-121.79218,37.46195],[-121.82661,37.45424],[-121.8658,37.44562],[-121.90233,37.43763],[-121.95443,37.4419],[-122.00768,37.46368],[-122.01536,37.46718],[-122.01889,37.46877],[-122.0479,37.48093],[-122.10528,37.50515],[-122.10926,37.50679],[-122.16521,37.53046],[-122.18853,37.54028],[-122.21095,37.54976],[-122.22412,37.55531],[-122.26609,37.57303],[-122.29389,37.58464],[-122.31041,37.59161],[-122.32452,37.59744],[-122.35345,37.6096]],"type":"LineString"}
}
