{
  "id": 2032046133,
  "type": "Feature",
  "properties": {
    "geom:area": 0,
    "geom:bbox": "-122.358470,37.446010,-121.263420,37.650850",
    "geom:latitude": 37.55278275268734,
    "geom:longitude": -121.82307788231876,
    "src:alt_label": "swim-approach",
    "src:geom": "swim",
    "swim:elevations": [
      4374,
      3762,
      3689,
      3627,
      3627,
      3658,
      3658,
      3516,
      3412,
      3315,
      3168,
      3070,
      2961,
      2778,
      2773,
      2740,
      2744,
      2653,
      2492,
      2443,
      2438,
      2438,
      2438,
      2372,
      2321,
      2208,
      2130,
      2134,
      2134,
      2127,
      1951,
      1864,
      1829,
      1829,
      1822,
      1685,
      1381,
      1253,
      1033,
      914,
      815,
      616,
      488,
      366,
      220,
      139,
      69,
      0
    ],
    "swim:geom": "approach",
    "swim:timestamps": [
      1785534378,
      1785534453,
      1785534474,
      1785534508,
      1785534530,
      1785534556,
      1785534580,
      1785534627,
      1785534646,
      1785534679,
      1785534707,
      1785534731,
      1785534772,
      1785534807,
      1785534810,
      1785534823,
      1785534837,
      1785534867,
      1785534898,
      1785534912,
      1785534946,
      1785534975,
      1785534994,
      1785535010,
      1785535021,
      1785535045,
      1785535065,
      1785535083,
      1785535124,
      1785535135,
      1785535159,
      1785535168,
      1785535198,
      1785535204,
      1785535216,
      1785535240,
      1785535283,
      1785535300,
      1785535346,
      1785535368,
      1785535391,
      1785535436,
      1785535463,
      1785535493,
      1785535529,
      1785535553,
      1785535571,
      1785535585
    ],
    "wof:geomhash": "2c065b6072b2ceb70e1abe3f2e6ef81a",
    "wof:id": 2032046133,
    "wof:repo": "sfomuseum-data-flights-2026-07"
  },
  "bbox": [
    -122.35847,
    37.44601,
    -121.26342,
    37.65085
  ],
  "geometry": {"coordinates":[[-121.26342,37.5931],[-121.41593,37.57547],[-121.45672,37.5708],[-121.51982,37.56343],[-121.55554,37.55924],[-121.59708,37.55682],[-121.6313,37.56776],[-121.69589,37.59241],[-121.71981,37.60339],[-121.75584,37.6322],[-121.79016,37.65085],[-121.82415,37.65071],[-121.88445,37.64706],[-121.92328,37.625],[-121.92454,37.62178],[-121.92464,37.60622],[-121.91544,37.59199],[-121.87814,37.57453],[-121.83651,37.56034],[-121.81868,37.5543],[-121.77274,37.53872],[-121.74847,37.5141],[-121.75184,37.49384],[-121.76115,37.47664],[-121.76948,37.4663],[-121.79914,37.45583],[-121.82654,37.45371],[-121.85221,37.45184],[-121.90781,37.44741],[-121.92234,37.44631],[-121.95337,37.44601],[-121.96443,37.44892],[-121.99834,37.46205],[-122.00527,37.46502],[-122.01997,37.47122],[-122.04687,37.48272],[-122.09475,37.50289],[-122.11421,37.51123],[-122.16161,37.53123],[-122.18335,37.54037],[-122.2042,37.54914],[-122.24469,37.56626],[-122.26838,37.57625],[-122.29157,37.58594],[-122.31861,37.59724],[-122.33548,37.60449],[-122.34844,37.60992],[-122.35847,37.6144]],"type":"LineString"}
}
