{
  "id": 2032023279,
  "type": "Feature",
  "properties": {
    "geom:area": 0,
    "geom:bbox": "-122.389444,33.649444,-84.145000,38.454444",
    "geom:latitude": 36.78478208330635,
    "geom:longitude": -103.12304791953872,
    "src:alt_label": "swim-path",
    "src:geom": "swim",
    "swim:altitudes": [
      "007",
      "004",
      "031",
      "040",
      "054",
      "076",
      "096",
      "108",
      "118",
      "136",
      "154",
      "168",
      "184",
      "196",
      "208",
      "220",
      "230",
      "239",
      "241",
      "247",
      "250",
      "250",
      "250",
      "255",
      "258",
      "262",
      "265",
      "270",
      "273",
      "279",
      "283",
      "290",
      "294",
      "301",
      "305",
      "311",
      "315",
      "319",
      "323",
      "329C",
      "330C",
      "330C",
      "330C",
      "330C",
      "330C",
      "330C",
      "330C",
      "330C",
      "330C",
      "330C",
      "330C",
      "330C",
      "330C",
      "330C",
      "330C",
      "331C",
      "331C",
      "330C",
      "330C",
      "330C",
      "330C",
      "330C",
      "330C",
      "330C",
      "330C",
      "330C",
      "330C",
      "330C",
      "330C",
      "330C",
      "330C",
      "330C",
      "330C",
      "330C",
      "330C",
      "330C",
      "331C",
      "330C",
      "330C",
      "330C",
      "330C",
      "330C",
      "331C",
      "330C",
      "330C",
      "330C",
      "330C",
      "330C",
      "330C",
      "330C",
      "330C",
      "330C",
      "330C",
      "330C",
      "330C",
      "330C",
      "330C",
      "330C",
      "330C",
      "330C",
      "331C",
      "330C",
      "330C",
      "330C",
      "330C",
      "330C",
      "330C",
      "330C",
      "330C",
      "330C",
      "330C",
      "330C",
      "330C",
      "330C",
      "330C",
      "330C",
      "330C",
      "330C",
      "330C",
      "330C",
      "330C",
      "330C",
      "330C",
      "330C",
      "330C",
      "330C",
      "330C",
      "330C",
      "330C",
      "330C",
      "331C",
      "330C",
      "330C",
      "330C",
      "330C",
      "330C",
      "330C",
      "330C",
      "330C",
      "330C",
      "330C",
      "331C",
      "330C",
      "330C",
      "330C",
      "330C",
      "330C",
      "330C",
      "330C",
      "331C",
      "331C",
      "331C",
      "331C",
      "330C",
      "330C",
      "330C",
      "330C",
      "330C",
      "330C",
      "330C",
      "330C",
      "330C",
      "330C",
      "330C",
      "330C",
      "331C",
      "330C",
      "330C",
      "330C",
      "330C",
      "330C",
      "330C",
      "330C",
      "330C",
      "330C",
      "330C",
      "330C",
      "330C",
      "330C",
      "330C",
      "330C",
      "330C",
      "330C",
      "330C",
      "330C",
      "330C",
      "330C",
      "330C",
      "330C",
      "330C",
      "331C",
      "331C",
      "330C",
      "330C",
      "330C",
      "330C",
      "330C",
      "330C",
      "330C",
      "330C",
      "330C",
      "330C",
      "330C",
      "330C",
      "330C",
      "330C",
      "330C",
      "330C",
      "330C",
      "330C",
      "330C",
      "330C",
      "330C",
      "330C",
      "330C",
      "330C",
      "330C",
      "330C",
      "330C",
      "330C",
      "330C",
      "330C",
      "330C",
      "330C",
      "330C",
      "330C",
      "330C",
      "330C",
      "330C",
      "330C",
      "330C",
      "330C",
      "330C",
      "330C",
      "330C",
      "330C",
      "330C",
      "330C",
      "330C",
      "330C",
      "330C",
      "330C",
      "330C",
      "330C",
      "330C",
      "330C",
      "330C",
      "330C",
      "330C",
      "330C",
      "330C",
      "330C",
      "330C",
      "330C",
      "330C",
      "330C",
      "330C",
      "330C",
      "330C",
      "330C",
      "330C",
      "330C",
      "330C",
      "330C",
      "330C",
      "330C",
      "330C",
      "330C",
      "330C",
      "330C",
      "330C",
      "330C",
      "330C",
      "330C",
      "330C",
      "330C",
      "330C",
      "330C",
      "330C",
      "330C",
      "330C",
      "330C",
      "330C",
      "330C",
      "330C",
      "330C",
      "330C",
      "330C",
      "330C",
      "330C",
      "330C",
      "330C",
      "330C",
      "330C",
      "330C",
      "330C",
      "330C",
      "330C",
      "330C",
      "330C",
      "330C",
      "330C",
      "330C",
      "330C",
      "330C",
      "330C",
      "330C",
      "330C",
      "330C",
      "330C",
      "330C",
      "330C",
      "330C",
      "330C",
      "330C",
      "330C",
      "330C",
      "330C",
      "330C",
      "330C",
      "330C",
      "330C",
      "330C",
      "330C",
      "330C",
      "330C",
      "330C",
      "330C",
      "330C",
      "330",
      "330",
      "330",
      "330",
      "330",
      "330",
      "330",
      "330",
      "329",
      "323",
      "313",
      "292",
      "278",
      "259",
      "251",
      "224",
      "208",
      "198",
      "189",
      "172",
      "166",
      "144",
      "140",
      "130",
      "130",
      "130",
      "129",
      "113",
      "109",
      "097",
      "084",
      "083",
      "072",
      "069",
      "057",
      "051",
      "041",
      "040",
      "039",
      "038",
      "029",
      "027",
      "019",
      "017",
      "013"
    ],
    "swim:geom": "path",
    "swim:speeds": [
      162,
      163,
      167,
      222,
      260,
      277,
      294,
      329,
      375,
      389,
      398,
      414,
      422,
      434,
      444,
      451,
      459,
      470,
      502,
      479,
      486,
      484,
      486,
      488,
      487,
      495,
      493,
      500,
      498,
      504,
      506,
      504,
      506,
      503,
      505,
      501,
      501,
      500,
      501,
      498,
      500,
      496,
      496,
      497,
      496,
      496,
      495,
      496,
      495,
      495,
      495,
      495,
      496,
      497,
      497,
      498,
      497,
      497,
      496,
      496,
      496,
      496,
      496,
      496,
      496,
      497,
      497,
      497,
      497,
      497,
      496,
      496,
      494,
      494,
      493,
      493,
      493,
      492,
      490,
      490,
      490,
      491,
      492,
      492,
      492,
      491,
      491,
      490,
      489,
      489,
      488,
      488,
      488,
      487,
      487,
      488,
      487,
      488,
      488,
      489,
      488,
      489,
      489,
      489,
      487,
      487,
      486,
      485,
      484,
      484,
      484,
      484,
      484,
      484,
      483,
      483,
      483,
      483,
      483,
      482,
      482,
      481,
      481,
      481,
      481,
      481,
      481,
      481,
      482,
      482,
      483,
      483,
      483,
      483,
      483,
      484,
      485,
      486,
      485,
      475,
      470,
      468,
      466,
      464,
      463,
      463,
      464,
      478,
      478,
      477,
      477,
      472,
      474,
      470,
      471,
      469,
      469,
      468,
      469,
      469,
      469,
      470,
      471,
      471,
      472,
      472,
      472,
      472,
      472,
      472,
      472,
      473,
      473,
      474,
      474,
      474,
      474,
      474,
      474,
      473,
      473,
      472,
      471,
      470,
      470,
      472,
      473,
      475,
      477,
      480,
      483,
      486,
      487,
      487,
      488,
      487,
      487,
      486,
      486,
      485,
      485,
      484,
      484,
      484,
      484,
      484,
      484,
      484,
      484,
      484,
      485,
      485,
      487,
      487,
      488,
      487,
      484,
      482,
      481,
      482,
      482,
      483,
      483,
      483,
      482,
      482,
      481,
      480,
      480,
      480,
      480,
      480,
      481,
      477,
      481,
      478,
      482,
      479,
      483,
      480,
      484,
      481,
      484,
      485,
      484,
      485,
      485,
      485,
      486,
      486,
      486,
      486,
      486,
      486,
      486,
      486,
      486,
      486,
      486,
      485,
      485,
      484,
      484,
      483,
      483,
      483,
      483,
      483,
      483,
      484,
      484,
      485,
      485,
      486,
      486,
      486,
      486,
      486,
      486,
      486,
      484,
      483,
      483,
      482,
      485,
      487,
      487,
      486,
      485,
      486,
      488,
      489,
      491,
      491,
      494,
      489,
      493,
      489,
      488,
      487,
      488,
      488,
      489,
      490,
      490,
      488,
      488,
      491,
      490,
      491,
      489,
      492,
      495,
      494,
      491,
      492,
      491,
      491,
      491,
      491,
      492,
      493,
      493,
      493,
      493,
      488,
      487,
      486,
      485,
      483,
      484,
      485,
      485,
      484,
      484,
      484,
      484,
      484,
      485,
      486,
      487,
      491,
      494,
      494,
      477,
      470,
      461,
      453,
      450,
      442,
      439,
      363,
      328,
      285,
      279,
      281,
      280,
      278,
      273,
      264,
      261,
      258,
      251,
      248,
      237,
      239,
      225,
      228,
      224,
      212,
      204,
      163,
      152,
      153
    ],
    "swim:timestamps": [
      1785395124,
      1785395130,
      1785395190,
      1785395250,
      1785395310,
      1785395370,
      1785395430,
      1785395490,
      1785395550,
      1785395610,
      1785395670,
      1785395730,
      1785395790,
      1785395850,
      1785395910,
      1785395970,
      1785396031,
      1785396091,
      1785396114,
      1785396151,
      1785396174,
      1785396211,
      1785396234,
      1785396271,
      1785396295,
      1785396331,
      1785396355,
      1785396391,
      1785396415,
      1785396451,
      1785396475,
      1785396511,
      1785396535,
      1785396571,
      1785396595,
      1785396631,
      1785396655,
      1785396691,
      1785396715,
      1785396751,
      1785396775,
      1785396811,
      1785396871,
      1785396895,
      1785396931,
      1785396955,
      1785396991,
      1785397015,
      1785397051,
      1785397075,
      1785397111,
      1785397135,
      1785397171,
      1785397195,
      1785397231,
      1785397255,
      1785397291,
      1785397315,
      1785397351,
      1785397375,
      1785397411,
      1785397435,
      1785397471,
      1785397495,
      1785397531,
      1785397555,
      1785397591,
      1785397615,
      1785397651,
      1785397676,
      1785397711,
      1785397736,
      1785397796,
      1785397856,
      1785397916,
      1785397976,
      1785398036,
      1785398096,
      1785398156,
      1785398216,
      1785398276,
      1785398336,
      1785398396,
      1785398456,
      1785398516,
      1785398576,
      1785398636,
      1785398696,
      1785398756,
      1785398816,
      1785398876,
      1785398936,
      1785398996,
      1785399056,
      1785399117,
      1785399138,
      1785399177,
      1785399198,
      1785399237,
      1785399258,
      1785399297,
      1785399318,
      1785399357,
      1785399378,
      1785399417,
      1785399438,
      1785399477,
      1785399498,
      1785399537,
      1785399558,
      1785399597,
      1785399618,
      1785399657,
      1785399678,
      1785399717,
      1785399738,
      1785399777,
      1785399799,
      1785399837,
      1785399859,
      1785399897,
      1785399919,
      1785399957,
      1785399979,
      1785400017,
      1785400039,
      1785400077,
      1785400099,
      1785400137,
      1785400159,
      1785400197,
      1785400219,
      1785400279,
      1785400339,
      1785400399,
      1785400459,
      1785400519,
      1785400579,
      1785400639,
      1785400699,
      1785400759,
      1785400819,
      1785400879,
      1785400939,
      1785400999,
      1785401059,
      1785401119,
      1785401179,
      1785401239,
      1785401299,
      1785401359,
      1785401395,
      1785401419,
      1785401455,
      1785401479,
      1785401515,
      1785401539,
      1785401578,
      1785401599,
      1785401637,
      1785401659,
      1785401695,
      1785401719,
      1785401756,
      1785401779,
      1785401816,
      1785401840,
      1785401875,
      1785401900,
      1785401935,
      1785401960,
      1785402020,
      1785402057,
      1785402080,
      1785402117,
      1785402140,
      1785402175,
      1785402200,
      1785402237,
      1785402260,
      1785402298,
      1785402355,
      1785402418,
      1785402478,
      1785402538,
      1785402598,
      1785402655,
      1785402715,
      1785402775,
      1785402836,
      1785402904,
      1785402957,
      1785402967,
      1785403017,
      1785403025,
      1785403078,
      1785403085,
      1785403136,
      1785403145,
      1785403196,
      1785403206,
      1785403258,
      1785403267,
      1785403317,
      1785403376,
      1785403387,
      1785403438,
      1785403447,
      1785403496,
      1785403507,
      1785403557,
      1785403565,
      1785403625,
      1785403676,
      1785403736,
      1785403806,
      1785403865,
      1785403925,
      1785403985,
      1785404036,
      1785404098,
      1785404105,
      1785404156,
      1785404167,
      1785404225,
      1785404285,
      1785404345,
      1785404405,
      1785404465,
      1785404525,
      1785404585,
      1785404647,
      1785404767,
      1785404785,
      1785404827,
      1785404845,
      1785404885,
      1785404905,
      1785404947,
      1785404965,
      1785405007,
      1785405025,
      1785405085,
      1785405125,
      1785405145,
      1785405186,
      1785405205,
      1785405249,
      1785405307,
      1785405325,
      1785405366,
      1785405386,
      1785405426,
      1785405446,
      1785405486,
      1785405506,
      1785405546,
      1785405626,
      1785405667,
      1785405726,
      1785405746,
      1785405788,
      1785405806,
      1785405847,
      1785405866,
      1785405909,
      1785405926,
      1785405967,
      1785405986,
      1785406027,
      1785406046,
      1785406106,
      1785406146,
      1785406166,
      1785406206,
      1785406226,
      1785406266,
      1785406286,
      1785406326,
      1785406346,
      1785406406,
      1785406446,
      1785406466,
      1785406526,
      1785406586,
      1785406646,
      1785406706,
      1785406766,
      1785406826,
      1785406886,
      1785406946,
      1785407006,
      1785407066,
      1785407126,
      1785407192,
      1785407246,
      1785407252,
      1785407307,
      1785407367,
      1785407427,
      1785407487,
      1785407547,
      1785407607,
      1785407667,
      1785407727,
      1785407733,
      1785407793,
      1785407847,
      1785407853,
      1785407907,
      1785407913,
      1785407973,
      1785408033,
      1785408093,
      1785408147,
      1785408153,
      1785408207,
      1785408213,
      1785408267,
      1785408327,
      1785408334,
      1785408387,
      1785408394,
      1785408447,
      1785408454,
      1785408507,
      1785408514,
      1785408567,
      1785408574,
      1785408634,
      1785408694,
      1785408748,
      1785408754,
      1785408814,
      1785408868,
      1785408886,
      1785408928,
      1785408946,
      1785408988,
      1785409006,
      1785409048,
      1785409067,
      1785409108,
      1785409127,
      1785409187,
      1785409217,
      1785409247,
      1785409259,
      1785409307,
      1785409313,
      1785409367,
      1785409433,
      1785409547,
      1785409607,
      1785409673,
      1785409728,
      1785409788,
      1785409794,
      1785409848,
      1785409908,
      1785409914,
      1785409968,
      1785409980,
      1785410028,
      1785410046,
      1785410088,
      1785410100,
      1785410148,
      1785410160,
      1785410208,
      1785410220,
      1785410268,
      1785410286,
      1785410328
    ],
    "wof:geomhash": "3bd6e8f64300aae67d0c4bb7bfe25e7a",
    "wof:id": 2032023279,
    "wof:repo": "sfomuseum-data-flights-2026-07"
  },
  "bbox": [
    -122.38944444444445,
    33.64944444444444,
    -84.14500000000001,
    38.45444444444445
  ],
  "geometry": {"coordinates":[[-122.38333333333334,37.63333333333333],[-122.38388888888889,37.6225],[-122.38944444444445,37.66111111111111],[-122.35111111111111,37.70777777777778],[-122.35277777777777,37.77388888888889],[-122.3761111111111,37.84777777777778],[-122.29444444444444,37.884166666666665],[-122.18416666666667,37.894999999999996],[-122.05777777777777,37.906666666666666],[-121.92055555555557,37.919444444444444],[-121.76194444444444,37.93388888888889],[-121.61722222222221,37.94694444444444],[-121.47,37.959722222222226],[-121.31805555555555,37.973055555555554],[-121.16361111111112,37.986111111111114],[-121.00861111111111,38.00611111111111],[-120.85027777777778,38.03055555555555],[-120.68805555555556,38.055277777777775],[-120.62638888888888,38.06305555555555],[-120.52166666666666,38.080555555555556],[-120.45972222222223,38.088055555555556],[-120.35388888888889,38.105555555555554],[-120.29166666666667,38.11361111111111],[-120.18611111111112,38.13055555555555],[-120.12083333333332,38.13805555555555],[-120.01194444444444,38.15611111111111],[-119.94805555555556,38.16444444444444],[-119.83777777777777,38.18138888888889],[-119.77277777777778,38.18888888888888],[-119.66333333333334,38.20638888888889],[-119.59666666666666,38.21361111111111],[-119.48694444444445,38.231388888888894],[-119.42305555555556,38.23916666666667],[-119.32027777777778,38.255],[-119.25111111111111,38.263888888888886],[-119.14611111111111,38.27916666666667],[-119.07916666666667,38.2875],[-118.97416666666666,38.30277777777778],[-118.90527777777778,38.30972222222222],[-118.80194444444444,38.31722222222223],[-118.73166666666667,38.321111111111115],[-118.62583333333333,38.32472222222223],[-118.45416666666667,38.330000000000005],[-118.38722222222223,38.331944444444446],[-118.27972222222222,38.335],[-118.21083333333334,38.336666666666666],[-118.10583333333332,38.339444444444446],[-118.03805555555556,38.34138888888889],[-117.93111111111112,38.34388888888889],[-117.86472222222221,38.345555555555556],[-117.75694444444444,38.34805555555556],[-117.68916666666667,38.349444444444444],[-117.58055555555555,38.35194444444445],[-117.51361111111112,38.35333333333333],[-117.40527777777778,38.355555555555554],[-117.33777777777777,38.356944444444444],[-117.23277777777778,38.35888888888889],[-117.16333333333334,38.36],[-117.05611111111111,38.36194444444445],[-116.98916666666666,38.363055555555555],[-116.88055555555555,38.36472222222223],[-116.81388888888888,38.365833333333335],[-116.70666666666666,38.367222222222225],[-116.62444444444444,38.36833333333333],[-116.53055555555555,38.36944444444445],[-116.44833333333334,38.370555555555555],[-116.34138888888889,38.37166666666667],[-116.27333333333333,38.3725],[-116.1675,38.373333333333335],[-116.09694444444445,38.37416666666667],[-115.99083333333333,38.375],[-115.9238888888889,38.37555555555556],[-115.75,38.376666666666665],[-115.57388888888889,38.3775],[-115.39888888888889,38.378055555555555],[-115.23222222222222,38.37833333333333],[-115.05666666666666,38.37861111111111],[-114.88472222222222,38.37833333333333],[-114.71194444444444,38.378055555555555],[-114.53972222222222,38.37722222222222],[-114.36638888888888,38.37638888888889],[-114.19,38.375277777777775],[-114.01611111111112,38.37388888888889],[-113.84222222222222,38.371944444444445],[-113.66666666666667,38.37],[-113.4925,38.36805555555556],[-113.32111111111111,38.36555555555556],[-113.14777777777779,38.36277777777778],[-112.97333333333333,38.36194444444445],[-112.80083333333333,38.3675],[-112.62666666666667,38.37305555555555],[-112.45444444444445,38.37833333333333],[-112.28083333333333,38.38333333333333],[-112.11055555555555,38.38805555555555],[-111.93694444444445,38.3925],[-111.86166666666666,38.39416666666666],[-111.76361111111112,38.39666666666667],[-111.68944444444445,38.39833333333333],[-111.59222222222222,38.400555555555556],[-111.51777777777778,38.40222222222222],[-111.41916666666667,38.40416666666667],[-111.34444444444443,38.405833333333334],[-111.24444444444444,38.407777777777774],[-111.17333333333333,38.409166666666664],[-111.07333333333332,38.41083333333333],[-111.00111111111111,38.41222222222222],[-110.90222222222222,38.413888888888884],[-110.84861111111111,38.414722222222224],[-110.74388888888889,38.41638888888889],[-110.67805555555556,38.41722222222222],[-110.57444444444444,38.419999999999995],[-110.50777777777778,38.42166666666667],[-110.40222222222222,38.42388888888889],[-110.33694444444444,38.425555555555555],[-110.23444444444445,38.42777777777778],[-110.16666666666667,38.42916666666667],[-110.06194444444444,38.43138888888889],[-109.99638888888889,38.43277777777777],[-109.89361111111111,38.43444444444444],[-109.82555555555555,38.43583333333333],[-109.72222222222223,38.4375],[-109.65666666666667,38.43861111111111],[-109.55416666666666,38.44027777777777],[-109.4888888888889,38.441111111111105],[-109.38555555555556,38.44277777777778],[-109.31722222222221,38.44361111111111],[-109.21472222222222,38.44499999999999],[-109.14694444444446,38.44583333333333],[-109.04472222222222,38.44694444444444],[-108.97666666666667,38.44777777777777],[-108.8736111111111,38.448611111111106],[-108.80833333333334,38.44944444444444],[-108.6388888888889,38.450833333333335],[-108.46694444444445,38.45194444444445],[-108.29722222222222,38.45305555555556],[-108.12527777777777,38.453611111111115],[-107.95361111111112,38.45416666666667],[-107.78138888888888,38.45416666666667],[-107.61083333333333,38.45444444444445],[-107.44638888888889,38.43222222222222],[-107.30583333333333,38.36333333333334],[-107.1675,38.294444444444444],[-107.0286111111111,38.225],[-106.89027777777778,38.15555555555555],[-106.75555555555556,38.08694444444445],[-106.61944444444444,38.018055555555556],[-106.46972222222223,37.94166666666666],[-106.32972222222222,37.87],[-106.18861111111111,37.7975],[-106.05,37.726111111111116],[-105.90944444444445,37.653055555555554],[-105.83361111111111,37.61388888888889],[-105.7725,37.581944444444446],[-105.69027777777778,37.538888888888884],[-105.635,37.51],[-105.55361111111111,37.467222222222226],[-105.49972222222222,37.43888888888888],[-105.41833333333334,37.39611111111111],[-105.36333333333333,37.367222222222225],[-105.28138888888888,37.323888888888895],[-105.22722222222222,37.294999999999995],[-105.14555555555556,37.25194444444445],[-105.09055555555555,37.222500000000004],[-105.01,37.17944444444444],[-104.95583333333333,37.150555555555556],[-104.87222222222222,37.10611111111111],[-104.82,37.07777777777778],[-104.73777777777778,37.03388888888889],[-104.68305555555555,37.00416666666667],[-104.60249999999999,36.96083333333333],[-104.54777777777778,36.93111111111111],[-104.41416666666667,36.85888888888889],[-104.33111111111111,36.81361111111111],[-104.27694444444444,36.784166666666664],[-104.19694444444445,36.74055555555556],[-104.14277777777778,36.71083333333333],[-104.06194444444444,36.66638888888889],[-104.00833333333334,36.636944444444445],[-103.92750000000001,36.5925],[-103.87305555555555,36.5625],[-103.79305555555555,36.51833333333333],[-103.65944444444445,36.44444444444444],[-103.5261111111111,36.37],[-103.39166666666668,36.29527777777778],[-103.26055555555556,36.22138888888889],[-103.12527777777777,36.14527777777778],[-102.99388888888889,36.071111111111115],[-102.8561111111111,35.99277777777778],[-102.71388888888889,35.911944444444444],[-102.58055555555555,35.83555555555556],[-102.41666666666667,35.74861111111111],[-102.28166666666667,35.73416666666667],[-102.25083333333333,35.736666666666665],[-102.11472222222221,35.74805555555556],[-102.08472222222221,35.75083333333333],[-101.95111111111112,35.7625],[-101.9175,35.765277777777776],[-101.78388888888888,35.778888888888886],[-101.75194444444445,35.7825],[-101.62083333333332,35.7975],[-101.58972222222222,35.80083333333333],[-101.45472222222223,35.816111111111105],[-101.42277777777778,35.81805555555556],[-101.29027777777777,35.82666666666667],[-101.1236111111111,35.83861111111111],[-101.1261111111111,35.83861111111111],[-100.95861111111111,35.85027777777778],[-100.96111111111111,35.85],[-100.80194444444444,35.86083333333333],[-100.79416666666667,35.86138888888889],[-100.63527777777779,35.87166666666667],[-100.62722222222222,35.87222222222222],[-100.46194444444444,35.88305555555556],[-100.30083333333333,35.893055555555556],[-100.13527777777779,35.903055555555554],[-99.94222222222223,35.914722222222224],[-99.77638888888889,35.92472222222222],[-99.61222222222221,35.93416666666666],[-99.44916666666667,35.94305555555555],[-99.31361111111111,35.95055555555556],[-99.1388888888889,35.96],[-99.1275,35.96055555555556],[-98.97333333333333,35.968333333333334],[-98.96194444444444,35.96888888888889],[-98.79833333333333,35.977222222222224],[-98.63666666666667,35.985],[-98.47333333333333,35.99277777777778],[-98.30722222222222,36.00055555555556],[-98.14305555555556,36.007777777777775],[-97.97666666666667,36.015],[-97.81166666666667,36.02194444444444],[-97.64583333333334,36.028888888888886],[-97.31444444444445,36.041666666666664],[-97.27555555555556,36.04111111111111],[-97.1463888888889,36.047777777777775],[-97.11027777777777,36.04805555555556],[-96.98194444444445,36.05361111111111],[-96.94388888888889,36.053888888888885],[-96.81527777777778,36.05916666666666],[-96.77805555555555,36.059999999999995],[-96.64500000000001,36.06472222222222],[-96.61166666666666,36.065555555555555],[-96.44638888888889,36.07083333333334],[-96.31333333333333,36.07472222222223],[-96.28138888888888,36.07555555555556],[-96.1463888888889,36.07944444444445],[-96.11527777777778,36.08027777777778],[-95.98138888888889,36.08388888888889],[-95.81416666666667,36.088055555555556],[-95.78166666666667,36.08888888888889],[-95.64805555555556,36.091944444444444],[-95.61638888888888,36.09277777777778],[-95.48166666666667,36.09583333333334],[-95.41861111111112,36.09722222222222],[-95.31555555555555,36.099444444444444],[-95.25277777777778,36.100833333333334],[-95.14861111111112,36.10277777777778],[-94.91777777777779,36.106944444444444],[-94.81944444444444,36.10861111111111],[-94.65277777777779,36.11138888888889],[-94.61888888888888,36.11194444444445],[-94.48805555555556,36.11361111111111],[-94.45416666666667,36.11416666666667],[-94.32222222222222,36.115833333333335],[-94.28777777777778,36.11611111111111],[-94.15527777777778,36.117777777777775],[-94.12055555555555,36.11805555555556],[-93.98944444444444,36.11944444444445],[-93.955,36.11972222222222],[-93.82166666666666,36.12083333333334],[-93.78972222222222,36.12111111111111],[-93.62194444444444,36.12222222222222],[-93.48527777777778,36.12305555555555],[-93.45361111111112,36.123333333333335],[-93.31777777777778,36.12388888888889],[-93.28583333333333,36.12416666666667],[-93.15166666666667,36.12444444444444],[-93.11777777777777,36.124722222222225],[-92.98222222222222,36.124722222222225],[-92.95,36.124722222222225],[-92.78611111111111,36.125],[-92.65,36.124722222222225],[-92.62055555555555,36.124722222222225],[-92.45305555555557,36.1225],[-92.2925,36.08722222222222],[-92.13138888888888,36.04277777777778],[-91.97472222222223,35.99888888888889],[-91.81722222222221,35.95472222222222],[-91.6613888888889,35.910555555555554],[-91.50333333333333,35.86555555555556],[-91.34388888888888,35.82],[-91.185,35.774166666666666],[-91.02472222222222,35.72777777777778],[-90.86666666666666,35.68194444444444],[-90.68805555555556,35.62777777777778],[-90.55138888888888,35.58916666666667],[-90.53083333333333,35.58305555555556],[-90.3963888888889,35.54333333333333],[-90.23944444444444,35.49666666666667],[-90.0825,35.44972222222222],[-89.92611111111111,35.402499999999996],[-89.77111111111111,35.355555555555554],[-89.6125,35.3075],[-89.45444444444445,35.259166666666665],[-89.29888888888888,35.21138888888889],[-89.28472222222221,35.20777777777778],[-89.12916666666666,35.15861111111111],[-88.98472222222222,35.11388888888889],[-88.97305555555556,35.10944444444445],[-88.8286111111111,35.065],[-88.81805555555555,35.0625],[-88.66111111111111,35.0125],[-88.50555555555556,34.96333333333334],[-88.34916666666666,34.91361111111111],[-88.22500000000001,34.87388888888889],[-88.19416666666667,34.86416666666667],[-88.06972222222223,34.82416666666667],[-88.0411111111111,34.815],[-87.91694444444445,34.775],[-87.76055555555556,34.724444444444444],[-87.73027777777779,34.714444444444446],[-87.60527777777777,34.67388888888889],[-87.57222222222222,34.66305555555555],[-87.44583333333334,34.62416666666667],[-87.41444444444446,34.61694444444444],[-87.28277777777778,34.59583333333334],[-87.25055555555555,34.590833333333336],[-87.1236111111111,34.57194444444445],[-87.09166666666667,34.56722222222223],[-86.93277777777779,34.541666666666664],[-86.77444444444444,34.50138888888889],[-86.64805555555556,34.468611111111116],[-86.61861111111111,34.46083333333333],[-86.46472222222222,34.42027777777778],[-86.33888888888889,34.38722222222222],[-86.31055555555555,34.37972222222222],[-86.18333333333334,34.34583333333334],[-86.12194444444444,34.32944444444445],[-86.02805555555555,34.305277777777775],[-85.96555555555555,34.28916666666667],[-85.87138888888889,34.264722222222225],[-85.8086111111111,34.248333333333335],[-85.71388888888889,34.22361111111111],[-85.66388888888889,34.21055555555556],[-85.51305555555555,34.170833333333334],[-85.41666666666667,34.15],[-85.365,34.13138888888889],[-85.31666666666666,34.11666666666667],[-85.22055555555556,34.094166666666666],[-85.18333333333334,34.083333333333336],[-85.08166666666666,34.05777777777777],[-84.96666666666667,33.96666666666667],[-84.83583333333333,33.8425],[-84.77305555555556,33.781666666666666],[-84.68333333333334,33.733333333333334],[-84.61083333333333,33.733333333333334],[-84.51916666666666,33.73305555555556],[-84.5,33.733333333333334],[-84.41166666666668,33.73305555555556],[-84.32555555555555,33.733333333333334],[-84.31666666666666,33.733333333333334],[-84.24,33.733333333333334],[-84.21666666666667,33.733333333333334],[-84.16111111111111,33.723055555555554],[-84.15,33.7],[-84.14500000000001,33.66166666666666],[-84.16666666666667,33.65],[-84.2175,33.64944444444444],[-84.23333333333333,33.65],[-84.28888888888889,33.64944444444444],[-84.3,33.65],[-84.35055555555554,33.64944444444444],[-84.36666666666666,33.65],[-84.39083333333333,33.64944444444444]],"type":"LineString"}
}
