{
  "id": 2032019691,
  "type": "Feature",
  "properties": {
    "geom:area": 0,
    "geom:bbox": "-122.343611,37.294722,-77.349444,38.454167",
    "geom:latitude": 38.080246891999266,
    "geom:longitude": -99.91784946836799,
    "src:alt_label": "swim-path",
    "src:geom": "swim",
    "swim:altitudes": [
      "021",
      "039",
      "088",
      "106",
      "116",
      "130",
      "145",
      "160",
      "173",
      "187",
      "196",
      "208",
      "236",
      "245",
      "252",
      "260",
      "266",
      "272",
      "283",
      "291",
      "298",
      "304",
      "313",
      "318",
      "326",
      "332",
      "336",
      "340C",
      "340C",
      "340C",
      "340C",
      "340C",
      "340C",
      "340C",
      "340",
      "345",
      "352",
      "355",
      "357",
      "360C",
      "360C",
      "360C",
      "360C",
      "360C",
      "360C",
      "360C",
      "360C",
      "360C",
      "360C",
      "360C",
      "360C",
      "360C",
      "360C",
      "360C",
      "360C",
      "360C",
      "360C",
      "360C",
      "360C",
      "360C",
      "360C",
      "360C",
      "360C",
      "360C",
      "360C",
      "360C",
      "360C",
      "360C",
      "360C",
      "360C",
      "360C",
      "360C",
      "360C",
      "360C",
      "360C",
      "360C",
      "360C",
      "360C",
      "360C",
      "360C",
      "360C",
      "360C",
      "360C",
      "360C",
      "360C",
      "360C",
      "360C",
      "360C",
      "360C",
      "360C",
      "360C",
      "360C",
      "360C",
      "360C",
      "360C",
      "360C",
      "360C",
      "360C",
      "360C",
      "360C",
      "360C",
      "360C",
      "360C",
      "360C",
      "360C",
      "360C",
      "360C",
      "360C",
      "360C",
      "360C",
      "360C",
      "360C",
      "360C",
      "360C",
      "360C",
      "360C",
      "360C",
      "360C",
      "360C",
      "360C",
      "360C",
      "360C",
      "360C",
      "360C",
      "360C",
      "360C",
      "360C",
      "360C",
      "360C",
      "360C",
      "360C",
      "360C",
      "360C",
      "360C",
      "360C",
      "360C",
      "360C",
      "360C",
      "360C",
      "360C",
      "360C",
      "360C",
      "360C",
      "360C",
      "360C",
      "360C",
      "360C",
      "360C",
      "360C",
      "360C",
      "360C",
      "360C",
      "360C",
      "360C",
      "360C",
      "360C",
      "360C",
      "360C",
      "360C",
      "360C",
      "360C",
      "360C",
      "360C",
      "360C",
      "360C",
      "360C",
      "360C",
      "360C",
      "360C",
      "360C",
      "360C",
      "360C",
      "360C",
      "360C",
      "360C",
      "360C",
      "360C",
      "360C",
      "360C",
      "360C",
      "360C",
      "360C",
      "360C",
      "360C",
      "360C",
      "360C",
      "360C",
      "360C",
      "360C",
      "360C",
      "360C",
      "360C",
      "360C",
      "360C",
      "360C",
      "360C",
      "360C",
      "360C",
      "360C",
      "360C",
      "360C",
      "360C",
      "360C",
      "360C",
      "360C",
      "360C",
      "360C",
      "360C",
      "360C",
      "360C",
      "360C",
      "360C",
      "360C",
      "360C",
      "360C",
      "360C",
      "360C",
      "360C",
      "360C",
      "360C",
      "360C",
      "360C",
      "365",
      "368",
      "373",
      "378C",
      "380C",
      "380C",
      "380C",
      "380C",
      "380C",
      "380C",
      "380C",
      "380C",
      "380C",
      "380C",
      "380C",
      "380C",
      "380C",
      "380C",
      "380C",
      "380C",
      "380C",
      "380C",
      "380C",
      "380C",
      "380C",
      "380C",
      "380C",
      "380C",
      "380C",
      "380C",
      "380C",
      "380C",
      "380C",
      "380C",
      "380C",
      "380C",
      "380C",
      "380C",
      "380C",
      "380C",
      "380C",
      "380C",
      "380C",
      "380C",
      "380C",
      "380C",
      "380C",
      "380C",
      "380C",
      "380C",
      "380C",
      "380C",
      "380C",
      "380C",
      "380C",
      "380C",
      "380C",
      "380C",
      "380C",
      "380C",
      "380C",
      "380C",
      "380C",
      "380C",
      "380C",
      "380C",
      "380C",
      "380C",
      "380C",
      "380C",
      "380C",
      "380C",
      "380C",
      "380C",
      "380C",
      "380C",
      "380C",
      "380C",
      "380C",
      "380C",
      "380C",
      "380C",
      "380C",
      "380C",
      "380C",
      "380C",
      "380C",
      "380C",
      "380C",
      "380C",
      "380C",
      "380C",
      "380C",
      "380C",
      "380C",
      "380C",
      "380C",
      "380C",
      "380C",
      "380C",
      "380C",
      "380C",
      "380C",
      "380C",
      "377",
      "365",
      "348",
      "331",
      "275",
      "261",
      "249",
      "219",
      "199",
      "182",
      "176",
      "157",
      "152",
      "130",
      "111",
      "098",
      "090",
      "090",
      "082",
      "073",
      "072",
      "053",
      "050",
      "042",
      "040",
      "030",
      "027",
      "020",
      "018",
      "012",
      "003"
    ],
    "swim:geom": "path",
    "swim:speeds": [
      191,
      267,
      273,
      285,
      325,
      342,
      350,
      351,
      359,
      355,
      358,
      362,
      380,
      380,
      381,
      389,
      397,
      404,
      405,
      409,
      411,
      417,
      417,
      417,
      417,
      416,
      415,
      416,
      415,
      412,
      413,
      414,
      415,
      416,
      416,
      418,
      414,
      409,
      409,
      410,
      408,
      404,
      403,
      402,
      404,
      411,
      412,
      412,
      411,
      412,
      412,
      412,
      411,
      411,
      410,
      406,
      410,
      404,
      407,
      405,
      407,
      408,
      407,
      409,
      410,
      410,
      410,
      410,
      410,
      410,
      410,
      408,
      409,
      407,
      406,
      406,
      406,
      408,
      414,
      410,
      414,
      411,
      414,
      413,
      411,
      412,
      410,
      407,
      408,
      405,
      407,
      407,
      406,
      407,
      409,
      410,
      411,
      411,
      411,
      411,
      412,
      412,
      412,
      412,
      413,
      412,
      413,
      414,
      415,
      418,
      418,
      419,
      418,
      415,
      413,
      411,
      409,
      409,
      410,
      412,
      412,
      413,
      413,
      414,
      415,
      416,
      416,
      417,
      417,
      418,
      419,
      419,
      419,
      419,
      419,
      420,
      420,
      420,
      418,
      421,
      421,
      418,
      418,
      423,
      425,
      425,
      425,
      424,
      423,
      423,
      423,
      424,
      422,
      421,
      421,
      422,
      424,
      423,
      422,
      423,
      424,
      425,
      425,
      426,
      426,
      426,
      427,
      427,
      429,
      426,
      427,
      429,
      431,
      431,
      431,
      431,
      431,
      433,
      434,
      435,
      435,
      434,
      434,
      432,
      431,
      429,
      429,
      429,
      430,
      430,
      431,
      435,
      434,
      434,
      433,
      433,
      431,
      431,
      433,
      433,
      434,
      434,
      433,
      433,
      433,
      434,
      434,
      434,
      433,
      432,
      432,
      439,
      439,
      435,
      435,
      437,
      438,
      440,
      440,
      439,
      441,
      442,
      441,
      440,
      440,
      440,
      440,
      437,
      439,
      439,
      438,
      438,
      436,
      437,
      432,
      433,
      432,
      428,
      430,
      430,
      433,
      432,
      431,
      426,
      425,
      422,
      420,
      419,
      421,
      425,
      424,
      424,
      423,
      424,
      427,
      427,
      425,
      424,
      425,
      424,
      422,
      423,
      423,
      421,
      421,
      421,
      422,
      419,
      419,
      420,
      420,
      419,
      418,
      416,
      416,
      419,
      418,
      419,
      419,
      419,
      420,
      418,
      416,
      418,
      417,
      418,
      416,
      415,
      418,
      416,
      417,
      418,
      418,
      419,
      415,
      410,
      410,
      409,
      404,
      403,
      406,
      406,
      406,
      405,
      401,
      403,
      402,
      399,
      394,
      394,
      396,
      396,
      397,
      397,
      398,
      399,
      399,
      401,
      403,
      398,
      400,
      406,
      406,
      407,
      408,
      408,
      407,
      413,
      412,
      417,
      411,
      395,
      386,
      377,
      377,
      370,
      372,
      364,
      367,
      341,
      308,
      283,
      248,
      258,
      252,
      243,
      243,
      238,
      236,
      237,
      235,
      208,
      205,
      185,
      183,
      142,
      136
    ],
    "swim:timestamps": [
      1785329228,
      1785329288,
      1785329409,
      1785329469,
      1785329529,
      1785329589,
      1785329649,
      1785329709,
      1785329769,
      1785329828,
      1785329889,
      1785329949,
      1785330129,
      1785330189,
      1785330249,
      1785330309,
      1785330369,
      1785330429,
      1785330489,
      1785330547,
      1785330608,
      1785330668,
      1785330728,
      1785330790,
      1785330848,
      1785330908,
      1785330970,
      1785331030,
      1785331088,
      1785331269,
      1785331389,
      1785331449,
      1785331511,
      1785331571,
      1785331631,
      1785331691,
      1785331751,
      1785331811,
      1785331871,
      1785331931,
      1785331992,
      1785332052,
      1785332112,
      1785332172,
      1785332232,
      1785332292,
      1785332352,
      1785332412,
      1785332532,
      1785332546,
      1785332592,
      1785332606,
      1785332652,
      1785332713,
      1785332726,
      1785332773,
      1785332786,
      1785332833,
      1785332846,
      1785332893,
      1785332907,
      1785332953,
      1785332967,
      1785333013,
      1785333027,
      1785333073,
      1785333087,
      1785333133,
      1785333147,
      1785333193,
      1785333207,
      1785333253,
      1785333267,
      1785333327,
      1785333374,
      1785333387,
      1785333434,
      1785333494,
      1785333507,
      1785333554,
      1785333567,
      1785333614,
      1785333628,
      1785333688,
      1785333734,
      1785333748,
      1785333808,
      1785333854,
      1785333868,
      1785333914,
      1785333928,
      1785333988,
      1785334035,
      1785334048,
      1785334108,
      1785334155,
      1785334168,
      1785334215,
      1785334228,
      1785334275,
      1785334288,
      1785334335,
      1785334349,
      1785334395,
      1785334409,
      1785334455,
      1785334469,
      1785334515,
      1785334529,
      1785334589,
      1785334649,
      1785334709,
      1785334769,
      1785334829,
      1785334889,
      1785334949,
      1785335010,
      1785335070,
      1785335130,
      1785335190,
      1785335250,
      1785335310,
      1785335370,
      1785335442,
      1785335502,
      1785335562,
      1785335622,
      1785335682,
      1785335743,
      1785335803,
      1785335863,
      1785335923,
      1785335983,
      1785336043,
      1785336103,
      1785336163,
      1785336223,
      1785336283,
      1785336343,
      1785336404,
      1785336476,
      1785336536,
      1785336596,
      1785336656,
      1785336716,
      1785336776,
      1785336836,
      1785336896,
      1785336956,
      1785337016,
      1785337077,
      1785337137,
      1785337257,
      1785337317,
      1785337377,
      1785337437,
      1785337497,
      1785337557,
      1785337617,
      1785337677,
      1785337738,
      1785337798,
      1785337858,
      1785337918,
      1785337978,
      1785338038,
      1785338098,
      1785338158,
      1785338177,
      1785338218,
      1785338278,
      1785338339,
      1785338399,
      1785338459,
      1785338477,
      1785338519,
      1785338579,
      1785338639,
      1785338658,
      1785338730,
      1785338759,
      1785338790,
      1785338850,
      1785338879,
      1785338910,
      1785338939,
      1785338970,
      1785339030,
      1785339060,
      1785339090,
      1785339120,
      1785339180,
      1785339210,
      1785339271,
      1785339300,
      1785339331,
      1785339360,
      1785339391,
      1785339451,
      1785339480,
      1785339511,
      1785339540,
      1785339600,
      1785339631,
      1785339660,
      1785339751,
      1785339781,
      1785339811,
      1785339871,
      1785339931,
      1785339992,
      1785340052,
      1785340112,
      1785340232,
      1785340304,
      1785340364,
      1785340424,
      1785340484,
      1785340544,
      1785340604,
      1785340845,
      1785340905,
      1785341025,
      1785341085,
      1785341145,
      1785341205,
      1785341265,
      1785341325,
      1785341385,
      1785341445,
      1785341506,
      1785341566,
      1785341626,
      1785341686,
      1785341746,
      1785341806,
      1785341866,
      1785341926,
      1785341986,
      1785342046,
      1785342106,
      1785342166,
      1785342227,
      1785342287,
      1785342347,
      1785342467,
      1785342527,
      1785342587,
      1785342647,
      1785342707,
      1785342767,
      1785342827,
      1785342887,
      1785342948,
      1785343008,
      1785343068,
      1785343128,
      1785343188,
      1785343248,
      1785343308,
      1785343368,
      1785343428,
      1785343488,
      1785343548,
      1785343608,
      1785343668,
      1785343729,
      1785343789,
      1785343849,
      1785343909,
      1785343969,
      1785344029,
      1785344089,
      1785344149,
      1785344209,
      1785344269,
      1785344329,
      1785344389,
      1785344450,
      1785344510,
      1785344570,
      1785344690,
      1785344750,
      1785344765,
      1785344810,
      1785344825,
      1785344870,
      1785344930,
      1785344945,
      1785344990,
      1785345050,
      1785345065,
      1785345110,
      1785345125,
      1785345185,
      1785345231,
      1785345245,
      1785345305,
      1785345365,
      1785345411,
      1785345471,
      1785345486,
      1785345531,
      1785345546,
      1785345606,
      1785345651,
      1785345666,
      1785345726,
      1785345771,
      1785345786,
      1785345846,
      1785345891,
      1785345952,
      1785345966,
      1785346012,
      1785346026,
      1785346072,
      1785346086,
      1785346132,
      1785346207,
      1785346267,
      1785346447,
      1785346507,
      1785346567,
      1785346627,
      1785346687,
      1785346747,
      1785346807,
      1785346867,
      1785346928,
      1785347108,
      1785347168,
      1785347212,
      1785347348,
      1785347408,
      1785347453,
      1785347468,
      1785347513,
      1785347528,
      1785347588,
      1785347649,
      1785347698,
      1785347758,
      1785347818,
      1785347889,
      1785347939,
      1785347949,
      1785348054,
      1785348069,
      1785348113,
      1785348129,
      1785348173,
      1785348189,
      1785348234,
      1785348249,
      1785348293,
      1785348370
    ],
    "wof:geomhash": "b94ca65e3127fd842059b0cf9c3452e6",
    "wof:id": 2032019691,
    "wof:repo": "sfomuseum-data-flights-2026-07"
  },
  "bbox": [
    -122.3436111111111,
    37.29472222222222,
    -77.34944444444444,
    38.45416666666667
  ],
  "geometry": {"coordinates":[[-77.34944444444444,37.53472222222222],[-77.43416666666667,37.5175],[-77.62027777777777,37.47166666666667],[-77.71305555555556,37.4475],[-77.81805555555555,37.41972222222222],[-77.93305555555555,37.388888888888886],[-78.04805555555555,37.35805555555556],[-78.16416666666667,37.32666666666667],[-78.28333333333333,37.29472222222222],[-78.38944444444445,37.330555555555556],[-78.47722222222222,37.40138888888889],[-78.56777777777778,37.473888888888894],[-78.93444444444445,37.564166666666665],[-79.06555555555555,37.57944444444445],[-79.19888888888889,37.59305555555556],[-79.345,37.60888888888889],[-79.46888888888888,37.621944444444445],[-79.60722222222222,37.63638888888889],[-79.74388888888889,37.650555555555556],[-79.88722222222223,37.665277777777774],[-80.03027777777778,37.67972222222222],[-80.17527777777778,37.69416666666666],[-80.32055555555556,37.708333333333336],[-80.49305555555556,37.72527777777778],[-80.61083333333333,37.73638888888889],[-80.75333333333333,37.75],[-80.92722222222223,37.76611111111111],[-81.07277777777777,37.77972222222222],[-81.215,37.7925],[-81.64416666666668,37.83027777777778],[-81.93416666666667,37.855000000000004],[-82.08055555555555,37.867222222222225],[-82.21333333333334,37.878055555555555],[-82.35916666666667,37.89],[-82.50416666666666,37.90138888888889],[-82.65055555555556,37.91277777777778],[-82.79444444444444,37.92388888888889],[-82.93277777777779,37.93444444444444],[-83.07638888888889,37.945277777777775],[-83.21944444444445,37.95583333333334],[-83.36027777777777,37.965833333333336],[-83.50166666666667,37.975833333333334],[-83.64027777777778,37.98555555555556],[-83.78,37.99527777777778],[-83.92222222222223,38.00472222222222],[-84.06833333333333,38.01444444444444],[-84.21138888888889,38.02361111111111],[-84.35472222222222,38.032777777777774],[-84.64222222222223,38.050555555555555],[-84.68555555555555,38.05583333333333],[-84.81722222222221,38.06111111111111],[-84.83083333333333,38.06444444444444],[-84.95972222222223,38.06944444444445],[-85.10305555555556,38.0775],[-85.11888888888888,38.07944444444445],[-85.23333333333333,38.084722222222226],[-85.26166666666667,38.08777777777778],[-85.37388888888889,38.0925],[-85.40277777777779,38.095555555555556],[-85.51916666666666,38.10027777777778],[-85.54555555555555,38.10277777777778],[-85.66305555555556,38.10611111111111],[-85.69055555555556,38.10777777777778],[-85.80944444444444,38.11027777777778],[-85.83694444444444,38.11027777777778],[-85.95305555555557,38.114444444444445],[-85.98166666666667,38.114444444444445],[-86.09694444444445,38.118611111111115],[-86.12583333333333,38.11833333333333],[-86.24277777777777,38.1225],[-86.2713888888889,38.12277777777778],[-86.3863888888889,38.126111111111115],[-86.41361111111112,38.12638888888889],[-86.55694444444444,38.12916666666667],[-86.6738888888889,38.132777777777775],[-86.69972222222222,38.1325],[-86.81805555555555,38.13583333333333],[-86.96444444444445,38.13861111111111],[-86.99638888888889,38.13916666666667],[-87.11222222222221,38.14138888888889],[-87.14111111111112,38.14194444444444],[-87.23222222222222,38.14361111111111],[-87.29083333333332,38.144444444444446],[-87.43861111111111,38.14694444444444],[-87.52416666666666,38.14833333333333],[-87.55083333333333,38.14861111111111],[-87.69666666666667,38.150555555555556],[-87.8111111111111,38.15222222222222],[-87.84222222222222,38.152499999999996],[-87.95555555555556,38.153888888888886],[-87.98277777777778,38.15416666666667],[-88.1275,38.15555555555555],[-88.24222222222222,38.156666666666666],[-88.27194444444444,38.15694444444444],[-88.41916666666667,38.158055555555556],[-88.53611111111111,38.15888888888889],[-88.56333333333333,38.15888888888889],[-88.67666666666668,38.15972222222222],[-88.71138888888889,38.15972222222222],[-88.82388888888889,38.16027777777778],[-88.85638888888889,38.16027777777778],[-88.9713888888889,38.16083333333333],[-89.00333333333333,38.16083333333333],[-89.11916666666666,38.16111111111111],[-89.14777777777779,38.16111111111111],[-89.26527777777778,38.16111111111111],[-89.29583333333333,38.16111111111111],[-89.41333333333334,38.16111111111111],[-89.4375,38.16083333333333],[-89.61277777777777,38.160555555555554],[-89.73361111111112,38.16],[-89.91027777777778,38.159444444444446],[-90.02722222222222,38.15861111111111],[-90.19083333333333,38.1575],[-90.33666666666666,38.15611111111111],[-90.48055555555555,38.15472222222222],[-90.62305555555555,38.15333333333333],[-90.76888888888888,38.15138888888889],[-90.91194444444444,38.14972222222222],[-91.06,38.1475],[-91.20527777777778,38.144999999999996],[-91.35111111111111,38.1425],[-91.49777777777778,38.14],[-91.64361111111111,38.136944444444445],[-91.81972222222223,38.13333333333333],[-91.96472222222222,38.13],[-92.11388888888888,38.126666666666665],[-92.26055555555556,38.12305555555555],[-92.4,38.11944444444445],[-92.54555555555555,38.11527777777778],[-92.69305555555556,38.111111111111114],[-92.83777777777777,38.106944444444444],[-92.98555555555555,38.102222222222224],[-93.13333333333334,38.097500000000004],[-93.28,38.09277777777778],[-93.42833333333334,38.087500000000006],[-93.57888888888888,38.08638888888889],[-93.72555555555556,38.088055555555556],[-93.87222222222222,38.08972222222222],[-94.01944444444445,38.09111111111111],[-94.18444444444445,38.09277777777778],[-94.36,38.094166666666666],[-94.50722222222223,38.095],[-94.65527777777778,38.09583333333334],[-94.80722222222222,38.09638888888889],[-94.95722222222223,38.096944444444446],[-95.10472222222222,38.09722222222222],[-95.25694444444444,38.09722222222222],[-95.405,38.096944444444446],[-95.55333333333333,38.09666666666667],[-95.7025,38.096111111111114],[-95.85249999999999,38.095555555555556],[-96.15111111111112,38.093333333333334],[-96.29805555555555,38.092222222222226],[-96.44805555555556,38.090833333333336],[-96.5961111111111,38.08916666666667],[-96.74444444444444,38.08722222222222],[-96.89527777777778,38.08527777777778],[-97.04416666666667,38.08305555555556],[-97.19222222222223,38.080555555555556],[-97.34222222222222,38.07777777777778],[-97.49027777777778,38.07527777777778],[-97.63138888888888,38.07222222222222],[-97.78138888888888,38.06916666666667],[-97.93361111111112,38.06583333333333],[-98.08444444444444,38.06222222222222],[-98.22694444444444,38.058611111111105],[-98.37527777777777,38.05472222222222],[-98.44305555555556,38.05166666666666],[-98.52444444444444,38.050555555555555],[-98.67305555555556,38.046388888888885],[-98.82527777777777,38.04194444444444],[-98.97694444444444,38.036944444444444],[-99.12944444444443,38.03194444444444],[-99.20444444444445,38.026944444444446],[-99.28027777777778,38.026944444444446],[-99.43194444444445,38.02166666666667],[-99.615,38.015],[-99.65722222222223,38.013333333333335],[-99.80805555555555,38.0075],[-99.92,38.003055555555555],[-99.99305555555556,38.000277777777775],[-100.1463888888889,38.001666666666665],[-100.22444444444444,38.00194444444445],[-100.29444444444444,38.00222222222222],[-100.37527777777777,38.00277777777778],[-100.44500000000001,38.003055555555555],[-100.59833333333333,38.00361111111111],[-100.67527777777778,38.00361111111111],[-100.74777777777778,38.00388888888889],[-100.82777777777777,38.00416666666667],[-100.9675,38.00416666666667],[-101.0363888888889,38.00416666666667],[-101.1888888888889,38.00388888888889],[-101.27194444444444,38.00388888888889],[-101.33694444444444,38.00361111111111],[-101.42361111111111,38.00333333333333],[-101.49,38.003055555555555],[-101.64277777777778,38.0025],[-101.72777777777777,38.00194444444445],[-101.82694444444444,38.00138888888889],[-101.8775,38.00083333333333],[-102.02833333333334,38.00361111111111],[-102.12916666666666,38.015277777777776],[-102.1825,38.021388888888886],[-102.42916666666667,38.04944444444444],[-102.48166666666667,38.055277777777775],[-102.58027777777778,38.066111111111105],[-102.73194444444445,38.08305555555556],[-102.88222222222221,38.099444444444444],[-103.03083333333333,38.11555555555556],[-103.1863888888889,38.132222222222225],[-103.33694444444444,38.14805555555556],[-103.63972222222223,38.17944444444444],[-103.81972222222223,38.19777777777777],[-103.97277777777778,38.213055555555556],[-104.1261111111111,38.22833333333333],[-104.28055555555555,38.24333333333333],[-104.43333333333334,38.257777777777775],[-104.58583333333333,38.2725],[-105.20361111111112,38.32888888888889],[-105.35777777777777,38.342222222222226],[-105.68138888888889,38.37],[-105.80555555555556,38.37972222222222],[-105.97583333333334,38.39472222222222],[-106.115,38.403888888888886],[-106.26805555555555,38.41222222222222],[-106.43833333333333,38.42111111111111],[-106.57583333333334,38.42805555555555],[-106.72916666666667,38.43666666666666],[-106.88333333333334,38.44472222222222],[-107.03777777777778,38.45194444444445],[-107.22277777777778,38.45277777777778],[-107.34638888888888,38.452222222222225],[-107.52833333333334,38.45388888888889],[-107.65083333333334,38.45305555555556],[-107.83611111111111,38.45416666666667],[-107.9863888888889,38.45388888888889],[-108.10749999999999,38.45277777777778],[-108.25972222222222,38.4525],[-108.44500000000001,38.45194444444445],[-108.59888888888888,38.45111111111111],[-108.72055555555556,38.45],[-108.87027777777777,38.448611111111106],[-109.02055555555556,38.44694444444444],[-109.31833333333333,38.44333333333333],[-109.46638888888889,38.44138888888889],[-109.61416666666666,38.439166666666665],[-109.76333333333334,38.43666666666666],[-109.91611111111112,38.43388888888889],[-110.06611111111111,38.43111111111111],[-110.21527777777779,38.42916666666667],[-110.36472222222221,38.42722222222222],[-110.51611111111112,38.42472222222222],[-110.66777777777779,38.4225],[-110.81861111111111,38.419999999999995],[-110.98027777777779,38.41694444444444],[-111.12805555555555,38.413888888888884],[-111.27805555555555,38.41083333333333],[-111.42916666666667,38.4075],[-111.57666666666667,38.403888888888886],[-111.72666666666667,38.400277777777774],[-111.87555555555555,38.396388888888886],[-112.02388888888889,38.39222222222222],[-112.17027777777778,38.38805555555555],[-112.31944444444444,38.38361111111111],[-112.46861111111112,38.37888888888889],[-112.61277777777777,38.37416666666667],[-112.76055555555556,38.369166666666665],[-112.91027777777778,38.36416666666667],[-113.05583333333333,38.359722222222224],[-113.20305555555557,38.35888888888889],[-113.34972222222221,38.35722222222223],[-113.4961111111111,38.355555555555554],[-113.64194444444445,38.353611111111114],[-113.78999999999999,38.35166666666667],[-113.96472222222222,38.348888888888894],[-114.11333333333333,38.34666666666667],[-114.26083333333334,38.34388888888889],[-114.41027777777778,38.34111111111111],[-114.55833333333334,38.338055555555556],[-114.85305555555556,38.331388888888895],[-114.99722222222222,38.32916666666667],[-115.03,38.328611111111115],[-115.1463888888889,38.330555555555556],[-115.17777777777778,38.33166666666667],[-115.29222222222222,38.331388888888895],[-115.41555555555556,38.33222222222223],[-115.47,38.3325],[-115.56027777777777,38.33277777777778],[-115.70833333333334,38.333333333333336],[-115.7675,38.333333333333336],[-115.85666666666665,38.33361111111111],[-115.91527777777779,38.33361111111111],[-116.0625,38.33361111111111],[-116.17611111111111,38.33361111111111],[-116.20805555555556,38.33361111111111],[-116.35,38.328611111111115],[-116.48722222222223,38.29861111111111],[-116.59527777777777,38.274166666666666],[-116.73388888888888,38.24277777777778],[-116.76444444444445,38.23583333333333],[-116.87194444444444,38.21138888888889],[-116.90194444444445,38.20444444444445],[-117.03583333333333,38.17361111111111],[-117.14250000000001,38.149166666666666],[-117.16194444444444,38.144444444444446],[-117.295,38.11361111111111],[-117.40916666666668,38.087500000000006],[-117.43055555555556,38.0825],[-117.57666666666667,38.04861111111111],[-117.67583333333334,38.025277777777774],[-117.80555555555556,37.999722222222225],[-117.84666666666666,37.995555555555555],[-117.94666666666667,37.985],[-117.98611111111111,37.980555555555554],[-118.085,37.97],[-118.12805555555555,37.96555555555556],[-118.2286111111111,37.95472222222222],[-118.39416666666668,37.93666666666666],[-118.53555555555555,37.92111111111111],[-118.95916666666668,37.87361111111111],[-119.10138888888888,37.85722222222223],[-119.24222222222222,37.840833333333336],[-119.38527777777779,37.823888888888895],[-119.52527777777777,37.8075],[-119.66777777777779,37.790277777777774],[-119.8111111111111,37.77305555555555],[-119.95444444444445,37.75527777777778],[-120.10027777777778,37.73722222222222],[-120.535,37.68388888888889],[-120.67527777777778,37.6675],[-120.78333333333333,37.65],[-121.0675,37.61888888888889],[-121.20361111111112,37.60055555555556],[-121.3,37.583333333333336],[-121.33166666666666,37.584722222222226],[-121.43333333333334,37.56666666666667],[-121.45611111111111,37.57055555555556],[-121.5761111111111,37.55638888888888],[-121.68694444444445,37.53861111111111],[-121.76666666666667,37.55],[-121.86666666666666,37.56666666666667],[-121.86666666666666,37.516666666666666],[-121.82055555555556,37.466944444444444],[-121.9,37.46666666666667],[-121.90138888888889,37.45888888888889],[-122.05,37.483333333333334],[-122.0586111111111,37.48777777777778],[-122.11666666666666,37.516666666666666],[-122.13277777777778,37.51861111111111],[-122.18333333333334,37.53333333333333],[-122.20027777777779,37.5475],[-122.25,37.56666666666667],[-122.255,37.57055555555556],[-122.28333333333333,37.583333333333336],[-122.3436111111111,37.60777777777778]],"type":"LineString"}
}
