{
  "id": 2032054115,
  "type": "Feature",
  "properties": {
    "date:cessation_lower": "2026-07-31",
    "date:cessation_upper": "2026-07-31",
    "date:inception_lower": "2026-07-31",
    "date:inception_upper": "2026-07-31",
    "edtf:cessation": "2026-07-31T23:29:40Z",
    "edtf:inception": "2026-07-31T22:23:00Z",
    "flysfo:actual_timestamp": -1,
    "flysfo:airline": "UA",
    "flysfo:base_airline": "",
    "flysfo:base_flight_number": "4559",
    "flysfo:date": "2026-07-31",
    "flysfo:estimated_timestamp": 1785533700,
    "flysfo:event": "D",
    "flysfo:flight_number": "UA1147",
    "flysfo:gate": "E11",
    "flysfo:journey": "SFO-SAN",
    "flysfo:scheduled_timestamp": 1785532800,
    "flysfo:timestamp": 1785533700,
    "geom:area": 0,
    "geom:bbox": "-122.370943,32.733534,-117.185927,37.617990",
    "geom:latitude": 35.175762,
    "geom:longitude": -119.778435,
    "iata:airline": "UA",
    "iata:base_airline": "",
    "icao:aircraft": "B738",
    "icao:airline": "UAL",
    "icao:base_airline": "ACA",
    "lbl:latitude": 37.619367,
    "lbl:longitude": -122.38387,
    "sfomuseum:aircraft_id": 1159289871,
    "sfomuseum:airline_id": 1159285413,
    "sfomuseum:arrival_id": 102528997,
    "sfomuseum:base_flight_id": "20260731-D-ACA-4559",
    "sfomuseum:departure_id": 102527513,
    "sfomuseum:flight_id": "20260731-D-UAL-1147",
    "sfomuseum:flight_number": [
      "UAL1147",
      "UA1147"
    ],
    "sfomuseum:placetype": "flight",
    "src:geom": "flysfo",
    "src:geom_alt": [
      "swim-path",
      "swim-takeoff"
    ],
    "swim:tail_number": "N78509",
    "wof:belongsto": [
      1947304067,
      102527513,
      1947304511,
      102191575,
      85633793,
      102087579,
      85922583,
      554784711,
      85688637,
      1947304527,
      1947304447,
      102085387
    ],
    "wof:concordances": {
      "swim:flight_ref": "153382230"
    },
    "wof:country": "US",
    "wof:created": 1785601083,
    "wof:geomhash": "25f5345529d944df781e36098260a435",
    "wof:hierarchy": [
      {
        "building_id": 1947304067,
        "campus_id": 102527513,
        "concourse_id": 1947304511,
        "continent_id": 102191575,
        "country_id": 85633793,
        "county_id": 102087579,
        "custom_id": 2032054115,
        "flight_id": 2032054115,
        "locality_id": 85922583,
        "postalcode_id": 554784711,
        "region_id": 85688637,
        "venue_id": 1947304527,
        "wing_id": 1947304447
      },
      {
        "building_id": 1947304067,
        "campus_id": 102527513,
        "concourse_id": 1947304511,
        "continent_id": 102191575,
        "country_id": 85633793,
        "county_id": 102085387,
        "custom_id": 2032054115,
        "flight_id": 2032054115,
        "region_id": 85688637,
        "venue_id": 1947304527,
        "wing_id": 1947304447
      }
    ],
    "wof:id": 2032054115,
    "wof:involves": [
      1159283597,
      1159289871,
      102528997,
      102527513,
      1159285413,
      1947304527
    ],
    "wof:lastmodified": 1785601301,
    "wof:name": "UA1147 (SFO-SAN)",
    "wof:parent_id": 1947304527,
    "wof:placetype": "custom",
    "wof:placetype_alt": [
      "flight"
    ],
    "wof:repo": "sfomuseum-data-flights-2026-07",
    "wof:superseded_by": [],
    "wof:supersedes": []
  },
  "bbox": [
    -122.370943,
    32.733534,
    -117.185927,
    37.61799
  ],
  "geometry": {"coordinates":[[-122.370943,37.61799],[-117.185927,32.733534]],"type":"MultiPoint"}
}
