{
  "id": 2031942407,
  "type": "Feature",
  "properties": {
    "geom:area": 0,
    "geom:bbox": "-122.326944,37.491944,-88.016667,41.966667",
    "geom:latitude": 40.01821665386176,
    "geom:longitude": -105.21653949894007,
    "src:alt_label": "swim-path",
    "src:geom": "swim",
    "swim:altitudes": [
      "031",
      "050",
      "074",
      "098",
      "112",
      "130",
      "150",
      "168",
      "182",
      "196",
      "210",
      "223",
      "235",
      "245",
      "255",
      "254",
      "265",
      "273",
      "280",
      "285",
      "296",
      "295",
      "304",
      "311",
      "311",
      "320C",
      "320C",
      "320C",
      "320C",
      "320C",
      "320C",
      "320C",
      "320C",
      "320C",
      "320C",
      "320C",
      "320C",
      "320C",
      "320C",
      "320",
      "326",
      "330",
      "330",
      "330",
      "330",
      "330",
      "330",
      "330",
      "330",
      "330",
      "330",
      "330",
      "330",
      "330",
      "330",
      "330",
      "330",
      "340C",
      "340C",
      "340C",
      "340C",
      "340C",
      "340C",
      "340C",
      "340C",
      "340C",
      "340C",
      "340C",
      "340C",
      "340C",
      "340C",
      "340C",
      "340C",
      "340C",
      "340C",
      "340C",
      "340C",
      "340C",
      "340C",
      "340C",
      "340C",
      "340C",
      "340C",
      "340C",
      "340C",
      "340C",
      "340C",
      "340C",
      "340C",
      "340C",
      "340C",
      "340C",
      "340C",
      "340C",
      "340C",
      "340C",
      "340C",
      "340C",
      "340C",
      "340C",
      "340C",
      "340C",
      "340C",
      "340C",
      "340C",
      "340C",
      "340C",
      "340C",
      "340C",
      "340C",
      "340C",
      "340C",
      "340C",
      "340C",
      "340C",
      "340C",
      "340C",
      "340C",
      "340C",
      "340C",
      "340C",
      "340C",
      "340C",
      "340C",
      "340C",
      "340C",
      "340C",
      "340C",
      "340C",
      "340C",
      "340C",
      "340C",
      "340C",
      "340C",
      "340C",
      "340C",
      "340C",
      "340C",
      "340C",
      "340C",
      "340C",
      "340C",
      "340C",
      "340C",
      "340C",
      "340C",
      "340C",
      "340C",
      "340C",
      "340C",
      "340C",
      "340C",
      "340C",
      "340C",
      "340C",
      "340C",
      "340C",
      "340C",
      "340C",
      "340C",
      "340C",
      "340C",
      "340C",
      "340C",
      "340C",
      "340C",
      "340C",
      "340C",
      "340C",
      "340C",
      "340C",
      "340C",
      "340C",
      "340C",
      "340C",
      "340C",
      "340C",
      "340C",
      "340C",
      "340C",
      "340C",
      "340C",
      "340C",
      "340C",
      "340C",
      "340C",
      "340C",
      "340C",
      "340C",
      "340C",
      "340C",
      "340C",
      "340C",
      "340C",
      "340C",
      "340C",
      "340C",
      "340C",
      "340C",
      "340C",
      "340C",
      "340C",
      "340C",
      "340C",
      "340C",
      "340C",
      "340C",
      "340C",
      "340C",
      "340C",
      "340C",
      "340C",
      "340C",
      "340C",
      "340C",
      "340C",
      "340C",
      "340C",
      "340C",
      "340C",
      "340C",
      "340C",
      "340C",
      "340C",
      "340C",
      "340C",
      "340C",
      "340C",
      "340C",
      "340C",
      "340C",
      "340C",
      "340C",
      "340C",
      "340C",
      "340C",
      "340C",
      "340C",
      "340C",
      "340C",
      "340C",
      "340C",
      "340C",
      "340C",
      "340C",
      "326",
      "315",
      "293",
      "271",
      "263",
      "238",
      "230",
      "222",
      "210",
      "200",
      "189",
      "181",
      "173",
      "158",
      "151",
      "142",
      "138",
      "131",
      "124",
      "112",
      "105",
      "093",
      "088",
      "080",
      "081C",
      "071",
      "068",
      "061",
      "052",
      "050",
      "042",
      "040",
      "031",
      "024",
      "009",
      "007"
    ],
    "swim:geom": "path",
    "swim:speeds": [
      233,
      268,
      273,
      284,
      321,
      344,
      349,
      356,
      362,
      366,
      373,
      377,
      382,
      394,
      395,
      394,
      394,
      394,
      409,
      403,
      419,
      414,
      419,
      420,
      419,
      420,
      420,
      419,
      420,
      420,
      422,
      423,
      425,
      425,
      427,
      427,
      425,
      424,
      424,
      424,
      426,
      427,
      427,
      427,
      426,
      426,
      426,
      426,
      426,
      426,
      426,
      426,
      426,
      426,
      427,
      426,
      425,
      424,
      424,
      425,
      425,
      425,
      425,
      426,
      429,
      426,
      429,
      428,
      427,
      428,
      428,
      428,
      429,
      429,
      429,
      430,
      430,
      430,
      430,
      431,
      431,
      432,
      431,
      434,
      434,
      433,
      432,
      429,
      428,
      427,
      425,
      425,
      426,
      427,
      425,
      428,
      428,
      427,
      429,
      429,
      428,
      430,
      430,
      428,
      430,
      428,
      429,
      430,
      429,
      429,
      429,
      426,
      429,
      424,
      429,
      423,
      428,
      425,
      428,
      427,
      427,
      431,
      432,
      434,
      434,
      429,
      429,
      431,
      427,
      431,
      431,
      432,
      432,
      433,
      432,
      433,
      432,
      435,
      437,
      436,
      435,
      434,
      435,
      434,
      433,
      434,
      433,
      433,
      433,
      433,
      433,
      433,
      434,
      433,
      435,
      437,
      436,
      437,
      436,
      436,
      436,
      436,
      434,
      435,
      434,
      433,
      434,
      433,
      433,
      433,
      433,
      433,
      432,
      431,
      431,
      431,
      431,
      432,
      432,
      432,
      433,
      433,
      434,
      434,
      434,
      434,
      434,
      435,
      435,
      435,
      435,
      435,
      435,
      434,
      434,
      433,
      432,
      433,
      434,
      434,
      432,
      432,
      434,
      436,
      436,
      436,
      436,
      435,
      435,
      434,
      434,
      434,
      437,
      435,
      436,
      437,
      442,
      439,
      441,
      440,
      439,
      439,
      440,
      441,
      441,
      442,
      441,
      441,
      440,
      439,
      439,
      439,
      439,
      441,
      441,
      441,
      440,
      440,
      440,
      439,
      438,
      437,
      437,
      435,
      434,
      435,
      437,
      433,
      429,
      423,
      412,
      399,
      388,
      381,
      373,
      375,
      369,
      371,
      363,
      366,
      338,
      325,
      304,
      302,
      294,
      295,
      289,
      291,
      278,
      269,
      254,
      251,
      235,
      232,
      233,
      219,
      213,
      189,
      163,
      141,
      144
    ],
    "swim:timestamps": [
      1784843774,
      1784843859,
      1784843919,
      1784843979,
      1784844039,
      1784844096,
      1784844156,
      1784844217,
      1784844277,
      1784844337,
      1784844397,
      1784844457,
      1784844517,
      1784844585,
      1784844637,
      1784844645,
      1784844705,
      1784844765,
      1784844818,
      1784844885,
      1784844938,
      1784844945,
      1784845005,
      1784845058,
      1784845065,
      1784845125,
      1784845185,
      1784845246,
      1784845298,
      1784845366,
      1784845419,
      1784845486,
      1784845539,
      1784845546,
      1784845606,
      1784845719,
      1784845786,
      1784845839,
      1784845846,
      1784845906,
      1784845967,
      1784846027,
      1784846087,
      1784846147,
      1784846207,
      1784846260,
      1784846320,
      1784846339,
      1784846399,
      1784846440,
      1784846459,
      1784846519,
      1784846579,
      1784846639,
      1784846700,
      1784846760,
      1784846820,
      1784847000,
      1784847060,
      1784847240,
      1784847300,
      1784847360,
      1784847421,
      1784847541,
      1784847622,
      1784847661,
      1784847682,
      1784847742,
      1784847781,
      1784847802,
      1784847862,
      1784847901,
      1784847922,
      1784847961,
      1784847982,
      1784848042,
      1784848081,
      1784848141,
      1784848163,
      1784848223,
      1784848262,
      1784848283,
      1784848322,
      1784848463,
      1784848523,
      1784848583,
      1784848643,
      1784848763,
      1784848824,
      1784848884,
      1784848944,
      1784849004,
      1784849064,
      1784849124,
      1784849136,
      1784849184,
      1784849244,
      1784849257,
      1784849304,
      1784849364,
      1784849377,
      1784849424,
      1784849484,
      1784849497,
      1784849545,
      1784849557,
      1784849617,
      1784849665,
      1784849677,
      1784849725,
      1784849737,
      1784849785,
      1784849797,
      1784849845,
      1784849857,
      1784849905,
      1784849977,
      1784850025,
      1784850038,
      1784850085,
      1784850098,
      1784850145,
      1784850205,
      1784850218,
      1784850278,
      1784850326,
      1784850398,
      1784850446,
      1784850458,
      1784850506,
      1784850566,
      1784850626,
      1784850638,
      1784850686,
      1784850698,
      1784850746,
      1784850759,
      1784850806,
      1784850866,
      1784850926,
      1784850939,
      1784850987,
      1784850999,
      1784851047,
      1784851059,
      1784851107,
      1784851119,
      1784851167,
      1784851179,
      1784851227,
      1784851239,
      1784851299,
      1784851347,
      1784851359,
      1784851407,
      1784851467,
      1784851479,
      1784851527,
      1784851540,
      1784851600,
      1784851647,
      1784851660,
      1784851708,
      1784851720,
      1784851780,
      1784851828,
      1784851840,
      1784851888,
      1784851960,
      1784852020,
      1784852080,
      1784852128,
      1784852140,
      1784852188,
      1784852248,
      1784852308,
      1784852321,
      1784852381,
      1784852428,
      1784852441,
      1784852501,
      1784852561,
      1784852621,
      1784852669,
      1784852729,
      1784852741,
      1784852789,
      1784852801,
      1784852861,
      1784852921,
      1784852981,
      1784853102,
      1784853162,
      1784853222,
      1784853342,
      1784853402,
      1784853462,
      1784853522,
      1784853642,
      1784853702,
      1784853762,
      1784853823,
      1784853883,
      1784853943,
      1784854063,
      1784854123,
      1784854183,
      1784854243,
      1784854303,
      1784854363,
      1784854483,
      1784854543,
      1784854553,
      1784854604,
      1784854664,
      1784854733,
      1784854793,
      1784854844,
      1784854853,
      1784854913,
      1784854973,
      1784855024,
      1784855084,
      1784855144,
      1784855154,
      1784855214,
      1784855274,
      1784855334,
      1784855385,
      1784855454,
      1784855514,
      1784855574,
      1784855625,
      1784855694,
      1784855745,
      1784855814,
      1784855875,
      1784855935,
      1784855995,
      1784856055,
      1784856115,
      1784856175,
      1784856235,
      1784856355,
      1784856415,
      1784856535,
      1784856595,
      1784856655,
      1784856716,
      1784856736,
      1784856802,
      1784856836,
      1784856857,
      1784856896,
      1784856923,
      1784856956,
      1784856977,
      1784857016,
      1784857043,
      1784857076,
      1784857103,
      1784857136,
      1784857157,
      1784857196,
      1784857217,
      1784857256,
      1784857278,
      1784857316,
      1784857343,
      1784857376,
      1784857409,
      1784857436,
      1784857496,
      1784857529,
      1784857557,
      1784857583,
      1784857617,
      1784857677,
      1784857710,
      1784857824,
      1784857857
    ],
    "wof:geomhash": "7f91eeaf963c67fdd6d75120d7620785",
    "wof:id": 2031942407,
    "wof:repo": "sfomuseum-data-flights-2026-07"
  },
  "bbox": [
    -122.32694444444444,
    37.49194444444444,
    -88.01666666666667,
    41.96666666666667
  ],
  "geometry": {"coordinates":[[-88.01666666666667,41.96666666666667],[-88.15138888888889,41.959722222222226],[-88.25305555555556,41.9525],[-88.35888888888888,41.945277777777775],[-88.4725,41.93722222222222],[-88.59972222222221,41.92833333333333],[-88.73111111111112,41.91888888888889],[-88.86694444444444,41.91138888888889],[-89,41.907222222222224],[-89.13777777777779,41.902499999999996],[-89.27555555555556,41.89361111111111],[-89.41472222222222,41.88027777777778],[-89.55749999999999,41.86638888888889],[-89.70333333333333,41.85305555555556],[-89.84777777777778,41.83694444444445],[-89.84833333333333,41.837500000000006],[-89.99416666666667,41.82027777777778],[-90.1413888888889,41.80583333333333],[-90.30361111111111,41.788888888888884],[-90.41333333333334,41.77722222222222],[-90.60972222222222,41.755833333333335],[-90.60194444444444,41.75611111111111],[-90.7575,41.73888888888889],[-90.91111111111111,41.722500000000004],[-90.91166666666668,41.72138888888889],[-91.09388888888888,41.70166666666667],[-91.19083333333333,41.69027777777777],[-91.37527777777777,41.66861111111111],[-91.53027777777778,41.65083333333333],[-91.68444444444445,41.63166666666667],[-91.84027777777777,41.61361111111111],[-92.0125,41.5925],[-92.15472222222223,41.575],[-92.16972222222223,41.57333333333334],[-92.32555555555555,41.553888888888885],[-92.62277777777777,41.51916666666666],[-92.7911111111111,41.519999999999996],[-92.91472222222222,41.52027777777778],[-92.94861111111112,41.52027777777778],[-93.10305555555556,41.52055555555555],[-93.26194444444444,41.52027777777778],[-93.42083333333333,41.519999999999996],[-93.57638888888889,41.51972222222222],[-93.73361111111112,41.51888888888889],[-93.89361111111111,41.51777777777777],[-94.01694444444445,41.51694444444444],[-94.17472222222223,41.51583333333333],[-94.23833333333333,41.515],[-94.35666666666665,41.513888888888886],[-94.51944444444445,41.511944444444445],[-94.51166666666667,41.511944444444445],[-94.70055555555555,41.50972222222222],[-94.85833333333333,41.5075],[-94.98611111111111,41.50555555555555],[-95.17527777777778,41.50222222222222],[-95.33055555555555,41.49944444444444],[-95.48666666666666,41.49638888888889],[-95.93333333333334,41.47361111111111],[-96.12027777777777,41.461666666666666],[-96.60111111111111,41.42944444444444],[-96.75666666666666,41.41861111111111],[-96.91333333333334,41.4075],[-97.06861111111111,41.39611111111111],[-97.38055555555555,41.37277777777778],[-97.58999999999999,41.35416666666667],[-97.69416666666667,41.34861111111111],[-97.74111111111111,41.344722222222224],[-97.90333333333334,41.33166666666667],[-98.0075,41.32333333333334],[-98.06277777777777,41.31861111111112],[-98.21805555555555,41.30583333333333],[-98.32194444444444,41.29722222222222],[-98.3761111111111,41.2925],[-98.4775,41.28388888888889],[-98.5325,41.279444444444444],[-98.69111111111111,41.26555555555556],[-98.79333333333334,41.256388888888885],[-98.94777777777779,41.230000000000004],[-99.00166666666667,41.21888888888889],[-99.15361111111112,41.18722222222222],[-99.25333333333333,41.16638888888889],[-99.3086111111111,41.15472222222222],[-99.40777777777778,41.13388888888889],[-99.76805555555555,41.05722222222222],[-99.92111111111112,41.024166666666666],[-100.07388888888889,40.99111111111111],[-100.22583333333334,40.95805555555556],[-100.52833333333334,40.89138888888889],[-100.67750000000001,40.85805555555556],[-100.84138888888889,40.82138888888889],[-100.99,40.78777777777778],[-101.13277777777778,40.74],[-101.27194444444444,40.68944444444444],[-101.41416666666667,40.63972222222222],[-101.4413888888889,40.628055555555555],[-101.55583333333333,40.59111111111111],[-101.70027777777779,40.541666666666664],[-101.72722222222222,40.530277777777776],[-101.84277777777777,40.49333333333333],[-101.9863888888889,40.443888888888885],[-102.01388888888889,40.43333333333333],[-102.12805555555555,40.39555555555555],[-102.27027777777778,40.34722222222222],[-102.30138888888888,40.33444444444444],[-102.41361111111112,40.30027777777777],[-102.44555555555556,40.28777777777778],[-102.58944444444444,40.24305555555556],[-102.70333333333333,40.20888888888889],[-102.73388888888888,40.198055555555555],[-102.83527777777778,40.16777777777777],[-102.87944444444443,40.15277777777778],[-102.97555555555556,40.12444444444444],[-103.02194444444444,40.10888888888889],[-103.11888888888888,40.07944444444445],[-103.16361111111112,40.06444444444444],[-103.25972222222222,40.03527777777778],[-103.44916666666667,39.97666666666667],[-103.54472222222222,39.946666666666665],[-103.59277777777777,39.93138888888889],[-103.68916666666667,39.90138888888889],[-103.73444444444445,39.88722222222222],[-103.83749999999999,39.86222222222222],[-103.99111111111111,39.84444444444445],[-104.04166666666667,39.83861111111111],[-104.19666666666667,39.82222222222222],[-104.29694444444445,39.81305555555555],[-104.49472222222222,39.791666666666664],[-104.60083333333333,39.785],[-104.65027777777779,39.781666666666666],[-104.78361111111111,39.77833333333333],[-104.93777777777778,39.77055555555555],[-105.0936111111111,39.7625],[-105.12194444444444,39.76027777777778],[-105.24722222222222,39.75472222222222],[-105.2786111111111,39.7525],[-105.40222222222222,39.746944444444445],[-105.43472222222222,39.744166666666665],[-105.56055555555555,39.739444444444445],[-105.71694444444445,39.733333333333334],[-105.87249999999999,39.72638888888889],[-105.90555555555557,39.72361111111111],[-106.0286111111111,39.718611111111116],[-106.06,39.71666666666667],[-106.18527777777778,39.70333333333333],[-106.215,39.7],[-106.33805555555556,39.68111111111111],[-106.36861111111111,39.67666666666666],[-106.4888888888889,39.653888888888886],[-106.52027777777778,39.64694444444444],[-106.64,39.62416666666667],[-106.67083333333333,39.61888888888889],[-106.8261111111111,39.61888888888889],[-106.95111111111112,39.615],[-106.98277777777778,39.61416666666667],[-107.10916666666667,39.609722222222224],[-107.2675,39.60416666666667],[-107.29833333333333,39.60277777777778],[-107.42277777777778,39.59861111111111],[-107.455,39.597500000000004],[-107.61166666666666,39.59111111111111],[-107.7175,39.587500000000006],[-107.76777777777778,39.58444444444444],[-107.8736111111111,39.581388888888895],[-107.92194444444445,39.57944444444445],[-108.07944444444443,39.57277777777778],[-108.18694444444445,39.568333333333335],[-108.23333333333333,39.56638888888889],[-108.34416666666667,39.561388888888885],[-108.54777777777778,39.55222222222222],[-108.70416666666667,39.544999999999995],[-108.86416666666666,39.53722222222222],[-108.95805555555556,39.532777777777774],[-108.99111111111111,39.53111111111111],[-109.11527777777778,39.52472222222222],[-109.26888888888888,39.51694444444444],[-109.42444444444445,39.50861111111111],[-109.4563888888889,39.50694444444444],[-109.60972222222222,39.498333333333335],[-109.735,39.49138888888889],[-109.76527777777778,39.48972222222222],[-109.9225,39.48083333333334],[-110.07555555555555,39.471944444444446],[-110.23222222222222,39.462500000000006],[-110.35583333333332,39.455000000000005],[-110.50944444444444,39.445277777777775],[-110.54138888888889,39.44333333333333],[-110.66611111111112,39.43555555555555],[-110.69638888888889,39.43333333333333],[-110.8536111111111,39.42333333333333],[-111.00944444444444,39.41277777777778],[-111.19527777777778,39.4],[-111.50527777777778,39.37833333333333],[-111.65916666666668,39.367222222222225],[-111.81527777777778,39.35611111111111],[-112.12416666666665,39.336111111111116],[-112.27666666666667,39.3275],[-112.4075,39.32],[-112.56222222222222,39.31111111111111],[-112.87083333333332,39.293055555555554],[-113.02388888888889,39.285555555555554],[-113.17861111111111,39.277499999999996],[-113.36416666666666,39.26888888888889],[-113.51777777777778,39.26138888888889],[-113.67611111111111,39.253055555555555],[-113.985,39.23388888888889],[-114.14166666666668,39.22222222222222],[-114.29277777777777,39.19583333333333],[-114.43944444444445,39.16083333333333],[-114.58722222222222,39.12444444444444],[-114.73361111111112,39.086666666666666],[-115.02805555555555,39.01083333333333],[-115.17444444444445,38.97222222222222],[-115.17500000000001,38.971944444444446],[-115.31972222222223,38.9325],[-115.4575,38.894999999999996],[-115.61749999999999,38.85277777777778],[-115.79083333333332,38.82027777777778],[-115.91166666666668,38.811388888888885],[-115.94277777777778,38.805],[-116.08888888888889,38.76166666666666],[-116.23333333333333,38.716944444444444],[-116.34833333333333,38.68083333333333],[-116.49472222222222,38.635],[-116.64055555555557,38.589444444444446],[-116.67083333333333,38.580000000000005],[-116.81416666666667,38.53472222222222],[-116.96000000000001,38.48833333333334],[-117.10305555555556,38.44277777777778],[-117.21611111111112,38.406666666666666],[-117.39027777777778,38.35027777777778],[-117.52888888888889,38.30555555555555],[-117.66916666666667,38.26],[-117.78305555555555,38.22277777777778],[-117.95944444444444,38.17055555555555],[-118.07944444444443,38.14888888888889],[-118.26277777777777,38.11527777777778],[-118.41333333333334,38.087500000000006],[-118.56416666666667,38.059444444444445],[-118.71305555555556,38.03138888888889],[-118.86416666666666,38.00277777777778],[-119.01305555555555,37.974444444444444],[-119.17750000000001,37.94305555555555],[-119.32416666666666,37.91444444444444],[-119.62277777777777,37.85611111111111],[-119.76972222222223,37.82694444444445],[-120.06805555555555,37.76722222222222],[-120.21777777777778,37.73694444444445],[-120.36361111111111,37.7075],[-120.51277777777777,37.68694444444444],[-120.56666666666666,37.68333333333333],[-120.71666666666667,37.666666666666664],[-120.79805555555555,37.65277777777778],[-120.85,37.65],[-120.93111111111112,37.636944444444445],[-120.98333333333333,37.63333333333333],[-121.06027777777777,37.62],[-121.1,37.61666666666667],[-121.16083333333334,37.60638888888889],[-121.25,37.6],[-121.29027777777777,37.58916666666667],[-121.36666666666666,37.583333333333336],[-121.41361111111112,37.575833333333335],[-121.46666666666667,37.56666666666667],[-121.51361111111112,37.56388888888888],[-121.56666666666666,37.55],[-121.61444444444444,37.551944444444445],[-121.66666666666667,37.53333333333333],[-121.71194444444444,37.53],[-121.76666666666667,37.516666666666666],[-121.80472222222222,37.507777777777775],[-121.86666666666666,37.5],[-121.89111111111112,37.49194444444444],[-121.97222222222223,37.49638888888889],[-122.03333333333333,37.5],[-122.05222222222221,37.50111111111111],[-122.1,37.5],[-122.1261111111111,37.51583333333333],[-122.18416666666667,37.54083333333333],[-122.21666666666667,37.55],[-122.31666666666666,37.6],[-122.32694444444444,37.600833333333334]],"type":"LineString"}
}
