{
  "id": 2032035445,
  "type": "Feature",
  "properties": {
    "geom:area": 0,
    "geom:bbox": "-123.478300,36.970880,-122.083110,37.611020",
    "geom:latitude": 37.297223044158,
    "geom:longitude": -122.68406289098388,
    "src:alt_label": "swim-approach",
    "src:geom": "swim",
    "swim:elevations": [
      6195,
      5830,
      5684,
      5431,
      5111,
      4950,
      4608,
      4195,
      3905,
      3819,
      3601,
      3226,
      3121,
      3048,
      3016,
      2989,
      2907,
      2832,
      2741,
      2733,
      2590,
      2497,
      2467,
      2344,
      2338,
      2228,
      2169,
      2056,
      1882,
      1652,
      1561,
      1459,
      1389,
      1220,
      1219,
      1219,
      1089,
      992,
      851,
      841,
      725,
      610,
      441,
      304,
      244,
      151,
      18
    ],
    "swim:geom": "approach",
    "swim:timestamps": [
      1785446439,
      1785446476,
      1785446490,
      1785446515,
      1785446546,
      1785446561,
      1785446595,
      1785446634,
      1785446663,
      1785446672,
      1785446693,
      1785446726,
      1785446735,
      1785446777,
      1785446815,
      1785446825,
      1785446854,
      1785446876,
      1785446906,
      1785446913,
      1785446956,
      1785446992,
      1785447002,
      1785447052,
      1785447055,
      1785447083,
      1785447095,
      1785447120,
      1785447161,
      1785447208,
      1785447223,
      1785447242,
      1785447252,
      1785447295,
      1785447323,
      1785447345,
      1785447386,
      1785447412,
      1785447446,
      1785447450,
      1785447483,
      1785447514,
      1785447560,
      1785447598,
      1785447616,
      1785447638,
      1785447672
    ],
    "wof:geomhash": "cc8bfc456dcaae01d18e978992796881",
    "wof:id": 2032035445,
    "wof:repo": "sfomuseum-data-flights-2026-07"
  },
  "bbox": [
    -123.4783,
    36.97088,
    -122.08311,
    37.61102
  ],
  "geometry": {"coordinates":[[-123.4783,36.97088],[-123.40093,37.00776],[-123.37026,37.02136],[-123.31924,37.04542],[-123.25395,37.07587],[-123.22525,37.08944],[-123.15561,37.1221],[-123.07928,37.15747],[-123.02196,37.18421],[-123.00463,37.19232],[-122.96594,37.21027],[-122.90169,37.23976],[-122.88457,37.24763],[-122.8024,37.27165],[-122.73769,37.28704],[-122.71992,37.29117],[-122.673,37.30208],[-122.63772,37.31031],[-122.59425,37.32048],[-122.58397,37.32288],[-122.52257,37.33708],[-122.4734,37.34833],[-122.45928,37.35158],[-122.38887,37.36779],[-122.3847,37.36871],[-122.34658,37.37746],[-122.33004,37.38129],[-122.29482,37.38934],[-122.23918,37.40208],[-122.17612,37.41649],[-122.15501,37.42139],[-122.12982,37.42725],[-122.11666,37.43049],[-122.08436,37.4649],[-122.08311,37.48859],[-122.10059,37.50132],[-122.13599,37.51841],[-122.15834,37.52768],[-122.18528,37.53873],[-122.18928,37.5404],[-122.21512,37.5513],[-122.23897,37.5615],[-122.27384,37.57627],[-122.30185,37.58785],[-122.31517,37.59353],[-122.3318,37.60062],[-122.35669,37.61102]],"type":"LineString"}
}
