{
  "id": 2031941091,
  "type": "Feature",
  "properties": {
    "geom:area": 0,
    "geom:bbox": "-122.357890,36.775870,-121.904520,37.611590",
    "geom:latitude": 37.26876489867461,
    "geom:longitude": -122.13069975569539,
    "src:alt_label": "swim-approach",
    "src:geom": "swim",
    "swim:elevations": [
      4905,
      4785,
      4511,
      4308,
      4039,
      3850,
      3786,
      3581,
      3530,
      3389,
      3263,
      3074,
      2897,
      2764,
      2740,
      2608,
      2533,
      2385,
      2102,
      1990,
      1852,
      1829,
      1834,
      1829,
      1829,
      1809,
      1743,
      1647,
      1558,
      1521,
      1477,
      1461,
      1415,
      1263,
      1219,
      1219,
      1121,
      918,
      867,
      824,
      790,
      792,
      787,
      703,
      513,
      518,
      432,
      339,
      246,
      239,
      59,
      0
    ],
    "swim:geom": "approach",
    "swim:timestamps": [
      1784841435,
      1784841451,
      1784841499,
      1784841524,
      1784841562,
      1784841587,
      1784841593,
      1784841623,
      1784841639,
      1784841678,
      1784841700,
      1784841730,
      1784841756,
      1784841778,
      1784841782,
      1784841800,
      1784841812,
      1784841832,
      1784841869,
      1784841884,
      1784841918,
      1784841937,
      1784841956,
      1784841979,
      1784842003,
      1784842043,
      1784842051,
      1784842065,
      1784842086,
      1784842095,
      1784842107,
      1784842113,
      1784842128,
      1784842157,
      1784842191,
      1784842212,
      1784842231,
      1784842265,
      1784842280,
      1784842292,
      1784842304,
      1784842342,
      1784842365,
      1784842389,
      1784842435,
      1784842438,
      1784842460,
      1784842493,
      1784842525,
      1784842532,
      1784842577,
      1784842590
    ],
    "wof:geomhash": "ce6e92ed84ebd8b5db2c409e5bbe416d",
    "wof:id": 2031941091,
    "wof:repo": "sfomuseum-data-flights-2026-07"
  },
  "bbox": [
    -122.35789,
    36.77587,
    -121.90452,
    37.61159
  ],
  "geometry": {"coordinates":[[-121.90452,36.77587],[-121.91117,36.8016],[-121.93179,36.87603],[-121.94223,36.91278],[-121.95976,36.96956],[-121.97323,37.00366],[-121.97691,37.01294],[-121.9932,37.05413],[-122.00171,37.07617],[-122.02055,37.12461],[-122.03632,37.14876],[-122.06793,37.17455],[-122.09491,37.1965],[-122.11676,37.21434],[-122.12038,37.21729],[-122.14116,37.23081],[-122.15482,37.2385],[-122.17763,37.25119],[-122.21953,37.27383],[-122.23823,37.2839],[-122.2768,37.30518],[-122.29791,37.31761],[-122.31203,37.33546],[-122.32307,37.35967],[-122.31405,37.38404],[-122.26257,37.39883],[-122.25007,37.4],[-122.23151,37.40171],[-122.20261,37.40409],[-122.19068,37.40518],[-122.17505,37.40669],[-122.16747,37.40745],[-122.14953,37.41017],[-122.1263,37.42918],[-122.10503,37.4547],[-122.09239,37.46959],[-122.09065,37.48457],[-122.11158,37.50595],[-122.12365,37.51229],[-122.13346,37.51681],[-122.14349,37.52118],[-122.17673,37.53528],[-122.19704,37.54386],[-122.21873,37.55299],[-122.25569,37.56859],[-122.25829,37.56967],[-122.27386,37.57623],[-122.29431,37.58484],[-122.31474,37.59338],[-122.31915,37.59531],[-122.34957,37.60802],[-122.35789,37.61159]],"type":"LineString"}
}
