{
  "id": 2031988161,
  "type": "Feature",
  "properties": {
    "geom:area": 0,
    "geom:bbox": "-122.300000,31.780833,-97.050000,37.700000",
    "geom:latitude": 34.183586341683146,
    "geom:longitude": -109.82690938848675,
    "src:alt_label": "swim-path",
    "src:geom": "swim",
    "swim:altitudes": [
      "020",
      "032",
      "036",
      "040",
      "063",
      "073",
      "084",
      "091",
      "105",
      "113",
      "120",
      "133",
      "145",
      "157",
      "168",
      "177",
      "205",
      "222",
      "229",
      "235",
      "249",
      "258",
      "264",
      "272",
      "287",
      "295",
      "303",
      "309",
      "316",
      "323",
      "325",
      "328",
      "330",
      "333",
      "336",
      "338C",
      "340C",
      "340C",
      "340C",
      "340C",
      "340C",
      "340C",
      "340C",
      "340C",
      "340C",
      "340C",
      "340C",
      "340C",
      "340C",
      "340C",
      "340C",
      "340C",
      "340C",
      "340C",
      "340C",
      "340C",
      "340C",
      "340C",
      "340C",
      "340C",
      "340C",
      "340C",
      "340C",
      "340C",
      "340C",
      "340C",
      "340C",
      "340C",
      "340C",
      "340C",
      "340C",
      "340C",
      "340C",
      "340C",
      "340C",
      "340C",
      "340C",
      "340C",
      "340C",
      "341C",
      "340C",
      "340C",
      "340C",
      "340C",
      "340C",
      "340C",
      "340C",
      "340C",
      "340C",
      "340C",
      "340C",
      "340C",
      "340C",
      "340C",
      "341C",
      "340C",
      "340C",
      "340C",
      "340C",
      "340C",
      "340C",
      "340C",
      "340C",
      "340C",
      "340C",
      "340C",
      "340C",
      "340C",
      "340C",
      "340C",
      "340C",
      "340C",
      "340C",
      "340C",
      "340C",
      "340C",
      "341C",
      "340C",
      "340C",
      "340C",
      "340C",
      "340C",
      "340C",
      "340C",
      "340C",
      "340C",
      "340C",
      "340C",
      "340C",
      "340C",
      "340C",
      "340C",
      "340C",
      "340C",
      "340C",
      "340C",
      "340C",
      "340C",
      "340C",
      "340C",
      "340C",
      "340C",
      "340C",
      "340C",
      "340C",
      "340C",
      "340C",
      "340C",
      "340C",
      "340C",
      "340C",
      "340C",
      "340C",
      "340C",
      "340C",
      "340C",
      "340C",
      "340C",
      "340C",
      "340C",
      "340C",
      "340C",
      "340C",
      "340C",
      "340C",
      "340C",
      "340C",
      "340C",
      "340C",
      "340C",
      "340C",
      "340C",
      "340C",
      "340C",
      "340C",
      "340C",
      "340C",
      "340C",
      "340C",
      "340C",
      "340C",
      "340C",
      "336",
      "327",
      "317",
      "307",
      "297",
      "292",
      "280",
      "277",
      "256",
      "239",
      "237",
      "220",
      "218",
      "203",
      "184",
      "167",
      "148",
      "127",
      "118",
      "118",
      "106",
      "102",
      "086",
      "078",
      "074",
      "066",
      "059",
      "055",
      "048",
      "046",
      "036",
      "023",
      "018",
      "010"
    ],
    "swim:geom": "path",
    "swim:speeds": [
      179,
      207,
      219,
      274,
      278,
      278,
      283,
      287,
      308,
      352,
      389,
      402,
      410,
      416,
      424,
      435,
      458,
      468,
      475,
      482,
      490,
      499,
      503,
      503,
      501,
      499,
      495,
      493,
      493,
      492,
      492,
      493,
      492,
      494,
      497,
      494,
      496,
      496,
      498,
      500,
      500,
      500,
      499,
      498,
      498,
      498,
      498,
      498,
      499,
      499,
      500,
      500,
      500,
      500,
      500,
      500,
      500,
      501,
      501,
      502,
      502,
      501,
      498,
      497,
      495,
      494,
      493,
      492,
      490,
      489,
      487,
      486,
      484,
      483,
      484,
      485,
      485,
      487,
      488,
      490,
      490,
      490,
      489,
      488,
      487,
      487,
      486,
      485,
      484,
      481,
      479,
      478,
      478,
      480,
      481,
      484,
      486,
      487,
      487,
      488,
      489,
      489,
      487,
      486,
      485,
      490,
      484,
      486,
      489,
      490,
      487,
      489,
      480,
      479,
      482,
      500,
      488,
      496,
      487,
      490,
      486,
      486,
      483,
      482,
      482,
      482,
      481,
      481,
      481,
      480,
      479,
      478,
      478,
      477,
      477,
      476,
      476,
      477,
      478,
      478,
      477,
      476,
      475,
      475,
      475,
      476,
      477,
      473,
      471,
      468,
      466,
      464,
      466,
      464,
      466,
      465,
      467,
      470,
      475,
      475,
      476,
      476,
      476,
      475,
      460,
      460,
      457,
      456,
      455,
      455,
      454,
      453,
      452,
      453,
      453,
      453,
      453,
      453,
      453,
      452,
      451,
      452,
      452,
      452,
      451,
      450,
      447,
      442,
      441,
      441,
      417,
      401,
      405,
      393,
      396,
      385,
      373,
      362,
      354,
      353,
      334,
      328,
      303,
      303,
      286,
      268,
      267,
      260,
      256,
      257,
      244,
      242,
      223,
      194,
      161,
      133
    ],
    "swim:timestamps": [
      1785191563,
      1785191623,
      1785191647,
      1785191683,
      1785191743,
      1785191767,
      1785191803,
      1785191827,
      1785191887,
      1785191947,
      1785192007,
      1785192067,
      1785192128,
      1785192188,
      1785192248,
      1785192308,
      1785192488,
      1785192608,
      1785192668,
      1785192728,
      1785192849,
      1785192969,
      1785193029,
      1785193089,
      1785193209,
      1785193269,
      1785193329,
      1785193389,
      1785193449,
      1785193509,
      1785193551,
      1785193570,
      1785193611,
      1785193642,
      1785193671,
      1785193702,
      1785193731,
      1785193762,
      1785193792,
      1785193822,
      1785193852,
      1785193912,
      1785193942,
      1785193972,
      1785194002,
      1785194032,
      1785194092,
      1785194122,
      1785194152,
      1785194182,
      1785194212,
      1785194242,
      1785194272,
      1785194303,
      1785194423,
      1785194452,
      1785194483,
      1785194513,
      1785194543,
      1785194573,
      1785194633,
      1785194693,
      1785194723,
      1785194753,
      1785194783,
      1785194813,
      1785194843,
      1785194873,
      1785194903,
      1785194933,
      1785194963,
      1785194993,
      1785195053,
      1785195084,
      1785195113,
      1785195174,
      1785195234,
      1785195294,
      1785195354,
      1785195414,
      1785195474,
      1785195534,
      1785195594,
      1785195654,
      1785195714,
      1785195774,
      1785195835,
      1785195895,
      1785195955,
      1785196015,
      1785196075,
      1785196135,
      1785196195,
      1785196255,
      1785196315,
      1785196375,
      1785196435,
      1785196496,
      1785196556,
      1785196616,
      1785196676,
      1785196736,
      1785196796,
      1785196856,
      1785196916,
      1785196989,
      1785197036,
      1785197169,
      1785197217,
      1785197277,
      1785197349,
      1785197410,
      1785197470,
      1785197530,
      1785197590,
      1785197650,
      1785197757,
      1785197770,
      1785197818,
      1785197830,
      1785197878,
      1785197950,
      1785197998,
      1785198058,
      1785198118,
      1785198131,
      1785198178,
      1785198191,
      1785198238,
      1785198311,
      1785198371,
      1785198418,
      1785198431,
      1785198478,
      1785198491,
      1785198551,
      1785198599,
      1785198732,
      1785198792,
      1785198852,
      1785199032,
      1785199092,
      1785199152,
      1785199212,
      1785199272,
      1785199332,
      1785199453,
      1785199573,
      1785199633,
      1785199693,
      1785199753,
      1785199768,
      1785199813,
      1785199828,
      1785199873,
      1785199888,
      1785199933,
      1785199993,
      1785200114,
      1785200129,
      1785200174,
      1785200189,
      1785200234,
      1785200249,
      1785200294,
      1785200309,
      1785200354,
      1785200369,
      1785200429,
      1785200474,
      1785200489,
      1785200609,
      1785200654,
      1785200669,
      1785200729,
      1785200774,
      1785200790,
      1785200835,
      1785200850,
      1785200910,
      1785200970,
      1785201030,
      1785201090,
      1785201150,
      1785201210,
      1785201270,
      1785201330,
      1785201353,
      1785201383,
      1785201390,
      1785201450,
      1785201503,
      1785201510,
      1785201563,
      1785201570,
      1785201631,
      1785201691,
      1785201751,
      1785201823,
      1785201883,
      1785201924,
      1785201943,
      1785201983,
      1785202003,
      1785202063,
      1785202098,
      1785202123,
      1785202183,
      1785202218,
      1785202243,
      1785202284,
      1785202303,
      1785202344,
      1785202423,
      1785202458,
      1785202519
    ],
    "wof:geomhash": "059a542d0a067dbd28fb8047121993c6",
    "wof:id": 2031988161,
    "wof:repo": "sfomuseum-data-flights-2026-07"
  },
  "bbox": [
    -122.3,
    31.780833333333334,
    -97.05,
    37.7
  ],
  "geometry": {"coordinates":[[-97.05,32.86666666666667],[-97.05,32.81666666666667],[-97.07166666666666,32.801111111111105],[-97.11666666666666,32.78333333333333],[-97.21666666666667,32.766666666666666],[-97.2475,32.768055555555556],[-97.3,32.75],[-97.34027777777777,32.75083333333333],[-97.43611111111112,32.73305555555556],[-97.53972222222222,32.71388888888889],[-97.66333333333334,32.69083333333333],[-97.79527777777777,32.67333333333333],[-97.92944444444444,32.66277777777778],[-98.06916666666666,32.651666666666664],[-98.20861111111111,32.64055555555556],[-98.35138888888888,32.62888888888889],[-98.79388888888889,32.591944444444444],[-99.10055555555554,32.56583333333333],[-99.25555555555556,32.551944444444445],[-99.41611111111112,32.540277777777774],[-99.74111111111111,32.52027777777778],[-100.04333333333334,32.50138888888889],[-100.21083333333334,32.49],[-100.37777777777777,32.478611111111114],[-100.7038888888889,32.448611111111106],[-100.86694444444444,32.43388888888889],[-101.02666666666667,32.41888888888889],[-101.18833333333333,32.403888888888886],[-101.33694444444444,32.38972222222222],[-101.52833333333334,32.37111111111111],[-101.62694444444443,32.36083333333333],[-101.6913888888889,32.35527777777778],[-101.78805555555556,32.34527777777778],[-101.88444444444445,32.33583333333333],[-101.95305555555557,32.32916666666667],[-102.04694444444445,32.31944444444445],[-102.11416666666666,32.312777777777775],[-102.21083333333334,32.30277777777778],[-102.27916666666667,32.295833333333334],[-102.3761111111111,32.285555555555554],[-102.44611111111111,32.27833333333333],[-102.61083333333333,32.26083333333333],[-102.67472222222223,32.25416666666667],[-102.77194444444444,32.243611111111115],[-102.83444444444444,32.23694444444445],[-102.935,32.225833333333334],[-103.09833333333333,32.20805555555556],[-103.16000000000001,32.20138888888889],[-103.25972222222222,32.19027777777777],[-103.32472222222222,32.183055555555555],[-103.42416666666666,32.17194444444444],[-103.48555555555555,32.165],[-103.56055555555555,32.156388888888884],[-103.64750000000001,32.146388888888886],[-103.97333333333333,32.10861111111111],[-104.04527777777777,32.1],[-104.10166666666666,32.093333333333334],[-104.21444444444445,32.080000000000005],[-104.29888888888888,32.07],[-104.3761111111111,32.06055555555555],[-104.53888888888889,32.04083333333333],[-104.7,32.01916666666666],[-104.7875,31.999444444444446],[-104.85638888888889,31.984166666666667],[-104.94166666666668,31.965],[-105.00916666666667,31.95],[-105.09583333333333,31.93027777777778],[-105.16277777777778,31.915277777777778],[-105.25111111111111,31.89527777777778],[-105.315,31.88111111111111],[-105.40333333333334,31.86138888888889],[-105.46638888888889,31.84722222222222],[-105.61999999999999,31.813333333333333],[-105.70777777777778,31.79361111111111],[-105.80111111111111,31.780833333333334],[-105.96083333333334,31.790555555555557],[-106.11833333333333,31.800555555555555],[-106.265,31.810555555555556],[-106.41083333333334,31.821944444444444],[-106.56916666666666,31.834166666666665],[-106.73083333333334,31.84583333333333],[-106.89,31.859166666666667],[-107.05055555555555,31.873055555555556],[-107.2088888888889,31.886666666666667],[-107.36638888888888,31.90111111111111],[-107.52694444444444,31.91583333333333],[-107.6863888888889,31.93027777777778],[-107.84305555555555,31.943333333333335],[-107.99888888888889,31.9575],[-108.1563888888889,31.972777777777775],[-108.31055555555555,31.99416666666667],[-108.48222222222222,32.02361111111111],[-108.63722222222223,32.050555555555555],[-108.79138888888889,32.0775],[-108.91611111111112,32.098888888888894],[-109.05444444444444,32.16083333333333],[-109.1725,32.25194444444445],[-109.2925,32.344722222222224],[-109.41166666666668,32.43666666666666],[-109.53055555555555,32.528055555555554],[-109.65,32.61972222222222],[-109.77055555555556,32.711666666666666],[-109.89,32.80277777777778],[-110.00805555555556,32.89222222222222],[-110.12833333333333,32.983333333333334],[-110.27361111111111,33.090833333333336],[-110.36527777777778,33.16166666666666],[-110.63,33.3675],[-110.73305555555555,33.436388888888885],[-110.8586111111111,33.529444444444444],[-111.02277777777778,33.654444444444444],[-111.14305555555556,33.74305555555556],[-111.265,33.831388888888895],[-111.38555555555556,33.91861111111111],[-111.5075,34.007222222222225],[-111.61722222222221,34.08638888888889],[-111.84805555555555,34.25194444444445],[-111.86305555555555,34.265277777777776],[-111.97555555555556,34.343333333333334],[-111.99694444444445,34.35888888888889],[-112.0975,34.43083333333333],[-112.23555555555555,34.52916666666667],[-112.34333333333333,34.60611111111111],[-112.45583333333333,34.68555555555555],[-112.58694444444444,34.76222222222222],[-112.61472222222221,34.778055555555554],[-112.72277777777778,34.83833333333334],[-112.75083333333333,34.85388888888889],[-112.85694444444444,34.91305555555555],[-113.02277777777778,35.00138888888889],[-113.16055555555556,35.073055555555555],[-113.26805555555555,35.12861111111111],[-113.29888888888888,35.144444444444446],[-113.4075,35.20055555555556],[-113.4363888888889,35.21555555555556],[-113.575,35.286944444444444],[-113.68388888888889,35.3425],[-113.98805555555556,35.49777777777778],[-114.12888888888888,35.56888888888889],[-114.26805555555555,35.638888888888886],[-114.69027777777778,35.85027777777778],[-114.83027777777778,35.919444444444444],[-114.96777777777778,35.987500000000004],[-115.10638888888889,36.05555555555555],[-115.24777777777778,36.125],[-115.3875,36.19305555555555],[-115.65361111111112,36.32222222222222],[-115.95083333333334,36.45388888888889],[-116.09194444444444,36.51583333333333],[-116.23305555555555,36.5775],[-116.37444444444444,36.63944444444444],[-116.40333333333334,36.651944444444446],[-116.51583333333333,36.700833333333335],[-116.54416666666667,36.713055555555556],[-116.6575,36.7625],[-116.68583333333333,36.776944444444446],[-116.7875,36.84166666666667],[-116.9,36.93944444444444],[-117.12055555555555,37.13805555555555],[-117.14277777777778,37.158055555555556],[-117.23083333333334,37.236666666666665],[-117.25277777777778,37.25611111111111],[-117.34416666666667,37.33527777777778],[-117.37083333333332,37.35111111111111],[-117.4925,37.38305555555556],[-117.52388888888889,37.386944444444445],[-117.65111111111112,37.40277777777778],[-117.68277777777779,37.406388888888884],[-117.84055555555555,37.425555555555555],[-117.96555555555555,37.44],[-117.9961111111111,37.44361111111111],[-118.30972222222222,37.480000000000004],[-118.42333333333333,37.49277777777778],[-118.4675,37.49777777777778],[-118.62333333333332,37.515277777777776],[-118.75027777777778,37.52916666666667],[-118.7825,37.532777777777774],[-118.90777777777778,37.546388888888885],[-118.94888888888889,37.55083333333333],[-119.10416666666666,37.5675],[-119.25972222222222,37.58416666666667],[-119.41666666666667,37.60055555555556],[-119.57694444444444,37.617222222222225],[-119.73305555555555,37.63305555555556],[-119.89083333333333,37.64888888888889],[-120.04805555555555,37.664722222222224],[-120.20111111111112,37.67944444444444],[-120.25,37.68333333333333],[-120.33333333333333,37.7],[-120.35555555555555,37.69472222222222],[-120.50166666666667,37.6875],[-120.63333333333334,37.666666666666664],[-120.64305555555556,37.67111111111111],[-120.76666666666667,37.65],[-120.77916666666667,37.655277777777776],[-120.88666666666667,37.64222222222222],[-121.01722222222222,37.62583333333333],[-121.1413888888889,37.60888888888889],[-121.2775,37.59027777777778],[-121.42305555555556,37.573888888888895],[-121.51666666666667,37.56666666666667],[-121.54194444444444,37.56027777777778],[-121.61666666666666,37.55],[-121.64611111111111,37.54555555555555],[-121.74277777777777,37.52222222222222],[-121.8,37.5],[-121.83222222222221,37.50055555555556],[-121.92083333333333,37.49333333333333],[-121.98333333333333,37.5],[-122.01083333333334,37.49861111111111],[-122.06666666666666,37.5],[-122.095,37.50472222222222],[-122.15,37.53333333333333],[-122.22666666666667,37.558611111111105],[-122.26666666666667,37.56666666666667],[-122.3,37.583333333333336]],"type":"LineString"}
}
