{
  "id": 2032024773,
  "type": "Feature",
  "properties": {
    "geom:area": 0,
    "geom:bbox": "-122.562910,36.729330,-122.360380,37.670230",
    "geom:latitude": 37.238708724809214,
    "geom:longitude": -122.51681401370217,
    "src:alt_label": "swim-takeoff",
    "src:geom": "swim",
    "swim:elevations": [
      213,
      852,
      917,
      1071,
      1257,
      1286,
      1885,
      2520,
      2658,
      2990,
      3180,
      3355,
      3416,
      3696,
      3876,
      4490,
      4630,
      5117,
      5155,
      5663,
      5848,
      5941,
      6115,
      6213,
      6419,
      6746
    ],
    "swim:geom": "takeoff",
    "swim:timestamps": [
      1785325415,
      1785325467,
      1785325471,
      1785325505,
      1785325526,
      1785325530,
      1785325570,
      1785325617,
      1785325628,
      1785325653,
      1785325673,
      1785325706,
      1785325719,
      1785325755,
      1785325771,
      1785325826,
      1785325840,
      1785325887,
      1785325891,
      1785325947,
      1785325970,
      1785325987,
      1785326013,
      1785326026,
      1785326051,
      1785326093
    ],
    "wof:geomhash": "743e6b59097483c5fd6e3f47318ff91f",
    "wof:id": 2032024773,
    "wof:repo": "sfomuseum-data-flights-2026-07"
  },
  "bbox": [
    -122.56291,
    36.72933,
    -122.36038,
    37.67023
  ],
  "geometry": {"coordinates":[[-122.39708,37.62808],[-122.44464,37.64879],[-122.4484,37.65045],[-122.48291,37.66582],[-122.51382,37.67023],[-122.51998,37.66956],[-122.55575,37.63211],[-122.55517,37.56972],[-122.5559,37.55541],[-122.55637,37.5202],[-122.5563,37.4925],[-122.55673,37.44192],[-122.55714,37.41904],[-122.5587,37.35502],[-122.55932,37.32758],[-122.56086,37.22618],[-122.56122,37.19844],[-122.56277,37.10955],[-122.56291,37.10188],[-122.55048,36.99468],[-122.52324,36.95303],[-122.50156,36.92344],[-122.46848,36.87802],[-122.45026,36.8529],[-122.41726,36.80746],[-122.36038,36.72933]],"type":"LineString"}
}
