{
  "id": 2031992705,
  "type": "Feature",
  "properties": {
    "geom:area": 0,
    "geom:bbox": "-122.766667,37.415278,-114.537500,50.078889",
    "geom:latitude": 43.70790709315234,
    "geom:longitude": -119.23594665111247,
    "src:alt_label": "swim-path",
    "src:geom": "swim",
    "swim:altitudes": [
      "284",
      "296",
      "305",
      "313",
      "322",
      "333",
      "342",
      "350",
      "356",
      "360C",
      "360C",
      "360C",
      "360C",
      "360C",
      "360C",
      "360C",
      "360C",
      "360C",
      "360C",
      "360C",
      "360C",
      "360C",
      "360C",
      "360C",
      "360C",
      "360C",
      "360C",
      "360C",
      "360C",
      "360C",
      "360C",
      "360C",
      "360C",
      "360C",
      "360C",
      "360C",
      "360C",
      "360",
      "352C",
      "350C",
      "350C",
      "350C",
      "350C",
      "350C",
      "350C",
      "350C",
      "350C",
      "350C",
      "350C",
      "350C",
      "350C",
      "350C",
      "350C",
      "350C",
      "350C",
      "350C",
      "350C",
      "350C",
      "350C",
      "350C",
      "350C",
      "350C",
      "350C",
      "350C",
      "350C",
      "350C",
      "350C",
      "350C",
      "350C",
      "350C",
      "350C",
      "350C",
      "350C",
      "350C",
      "350C",
      "350C",
      "350C",
      "350C",
      "350C",
      "350C",
      "350C",
      "350C",
      "350C",
      "350C",
      "350C",
      "350C",
      "350C",
      "350C",
      "350C",
      "350C",
      "350C",
      "350C",
      "350C",
      "350C",
      "350C",
      "350C",
      "350C",
      "350C",
      "350C",
      "350C",
      "350C",
      "350C",
      "350C",
      "350C",
      "350C",
      "350C",
      "350C",
      "350C",
      "350C",
      "350C",
      "350C",
      "350C",
      "350C",
      "350C",
      "350C",
      "350C",
      "350C",
      "350C",
      "350C",
      "350C",
      "350",
      "350",
      "350",
      "350",
      "350",
      "350",
      "350",
      "350",
      "336",
      "312",
      "285",
      "279",
      "258",
      "235",
      "218",
      "194",
      "192",
      "188",
      "186",
      "179",
      "176",
      "168",
      "161",
      "150",
      "145",
      "137",
      "131",
      "122",
      "115",
      "114",
      "111",
      "106",
      "102",
      "095",
      "090",
      "078",
      "071",
      "061",
      "055",
      "050",
      "042",
      "036",
      "030",
      "031",
      "027",
      "023",
      "019",
      "016",
      "012",
      "008",
      "006",
      "001"
    ],
    "swim:geom": "path",
    "swim:speeds": [
      413,
      420,
      423,
      432,
      437,
      438,
      438,
      438,
      439,
      441,
      441,
      440,
      438,
      434,
      433,
      431,
      432,
      434,
      434,
      434,
      435,
      437,
      438,
      439,
      439,
      438,
      436,
      434,
      433,
      432,
      431,
      430,
      428,
      428,
      427,
      426,
      424,
      423,
      423,
      426,
      427,
      428,
      428,
      428,
      427,
      426,
      425,
      426,
      426,
      426,
      426,
      424,
      422,
      420,
      419,
      420,
      421,
      422,
      422,
      422,
      420,
      418,
      417,
      416,
      414,
      415,
      412,
      415,
      409,
      407,
      409,
      406,
      407,
      407,
      406,
      407,
      407,
      407,
      407,
      407,
      407,
      408,
      408,
      408,
      407,
      407,
      407,
      407,
      407,
      406,
      406,
      406,
      405,
      406,
      406,
      405,
      404,
      404,
      403,
      402,
      398,
      398,
      396,
      395,
      395,
      394,
      394,
      395,
      395,
      395,
      396,
      395,
      395,
      395,
      395,
      394,
      394,
      394,
      393,
      393,
      393,
      394,
      395,
      396,
      397,
      398,
      399,
      401,
      401,
      408,
      406,
      404,
      403,
      399,
      390,
      386,
      365,
      339,
      322,
      301,
      285,
      280,
      278,
      279,
      276,
      271,
      262,
      264,
      261,
      257,
      267,
      266,
      261,
      259,
      252,
      254,
      243,
      242,
      238,
      234,
      217,
      193,
      182,
      183,
      183,
      158,
      149,
      142,
      132,
      135,
      137,
      137
    ],
    "swim:timestamps": [
      1785211904,
      1785211964,
      1785212024,
      1785212084,
      1785212144,
      1785212204,
      1785212264,
      1785212324,
      1785212384,
      1785212444,
      1785212505,
      1785212565,
      1785212625,
      1785212685,
      1785212745,
      1785212805,
      1785212865,
      1785212925,
      1785212985,
      1785213045,
      1785213105,
      1785213165,
      1785213225,
      1785213285,
      1785213345,
      1785213405,
      1785213525,
      1785213585,
      1785213645,
      1785213706,
      1785213766,
      1785213826,
      1785213886,
      1785213946,
      1785214006,
      1785214066,
      1785214126,
      1785214186,
      1785214246,
      1785214306,
      1785214366,
      1785214426,
      1785214486,
      1785214546,
      1785214606,
      1785214666,
      1785214726,
      1785214846,
      1785214906,
      1785214967,
      1785215027,
      1785215087,
      1785215147,
      1785215207,
      1785215267,
      1785215327,
      1785215387,
      1785215447,
      1785215507,
      1785215627,
      1785215687,
      1785215747,
      1785215807,
      1785215867,
      1785215927,
      1785215938,
      1785215987,
      1785215998,
      1785216047,
      1785216107,
      1785216118,
      1785216168,
      1785216178,
      1785216238,
      1785216288,
      1785216298,
      1785216348,
      1785216358,
      1785216418,
      1785216468,
      1785216478,
      1785216528,
      1785216538,
      1785216599,
      1785216648,
      1785216659,
      1785216708,
      1785216719,
      1785216768,
      1785216779,
      1785216828,
      1785216839,
      1785216888,
      1785216899,
      1785216948,
      1785216959,
      1785217008,
      1785217019,
      1785217068,
      1785217079,
      1785217128,
      1785217139,
      1785217199,
      1785217248,
      1785217259,
      1785217319,
      1785217379,
      1785217429,
      1785217439,
      1785217489,
      1785217499,
      1785217559,
      1785217609,
      1785217619,
      1785217669,
      1785217679,
      1785217729,
      1785217740,
      1785217800,
      1785217860,
      1785217920,
      1785217980,
      1785218040,
      1785218100,
      1785218160,
      1785218220,
      1785218280,
      1785218340,
      1785218400,
      1785218460,
      1785218520,
      1785218580,
      1785218640,
      1785218700,
      1785218745,
      1785218820,
      1785218836,
      1785218881,
      1785218896,
      1785218941,
      1785218956,
      1785219001,
      1785219016,
      1785219061,
      1785219076,
      1785219121,
      1785219136,
      1785219181,
      1785219196,
      1785219241,
      1785219251,
      1785219301,
      1785219311,
      1785219361,
      1785219371,
      1785219421,
      1785219437,
      1785219481,
      1785219490,
      1785219541,
      1785219601,
      1785219617,
      1785219677,
      1785219721,
      1785219737,
      1785219781,
      1785219797,
      1785219841,
      1785219863,
      1785219901,
      1785219911,
      1785219961
    ],
    "wof:geomhash": "b66785d1bc164972a060043c2ea74b59",
    "wof:id": 2031992705,
    "wof:repo": "sfomuseum-data-flights-2026-07"
  },
  "bbox": [
    -122.76666666666667,
    37.415277777777774,
    -114.5375,
    50.07888888888889
  ],
  "geometry": {"coordinates":[[-114.5375,50.07888888888889],[-114.59138888888889,49.96611111111111],[-114.67027777777778,49.86055555555556],[-114.76222222222222,49.757222222222225],[-114.85666666666665,49.65083333333333],[-114.94972222222222,49.54555555555555],[-115.04222222222222,49.44027777777777],[-115.13472222222222,49.334722222222226],[-115.22666666666667,49.22888888888889],[-115.31972222222223,49.12138888888889],[-115.41000000000001,49.016666666666666],[-115.50083333333333,48.91111111111111],[-115.58999999999999,48.80638888888888],[-115.67805555555556,48.70277777777778],[-115.76666666666667,48.59777777777778],[-115.85388888888889,48.49444444444445],[-115.9413888888889,48.38944444444444],[-116.04083333333332,48.269999999999996],[-116.12833333333333,48.164722222222224],[-116.21555555555555,48.05888888888889],[-116.30305555555556,47.952222222222225],[-116.39,47.846111111111114],[-116.47777777777777,47.73777777777778],[-116.56444444444445,47.63111111111111],[-116.65222222222222,47.52194444444444],[-116.73861111111111,47.413888888888884],[-116.9088888888889,47.20027777777778],[-116.99388888888889,47.09277777777778],[-117.07638888888889,46.98722222222222],[-117.15944444444445,46.88138888888889],[-117.24138888888889,46.776666666666664],[-117.32305555555556,46.67111111111111],[-117.40361111111112,46.566944444444445],[-117.46833333333333,46.48305555555556],[-117.56388888888888,46.35805555555556],[-117.64444444444445,46.2525],[-117.72333333333333,46.14888888888889],[-117.78555555555555,46.06638888888889],[-117.88,45.94138888888889],[-117.95861111111111,45.83638888888889],[-118.03722222222223,45.730555555555554],[-118.11444444444444,45.62694444444445],[-118.19333333333334,45.52027777777778],[-118.27111111111111,45.415],[-118.34833333333333,45.309444444444445],[-118.42500000000001,45.20444444444445],[-118.50194444444445,45.09916666666667],[-118.65472222222223,44.8875],[-118.73,44.782777777777774],[-118.80666666666666,44.67638888888889],[-118.86638888888888,44.5925],[-118.94027777777778,44.48777777777778],[-119.01388888888889,44.38361111111111],[-119.08888888888889,44.27861111111111],[-119.16222222222223,44.17583333333333],[-119.2363888888889,44.07083333333334],[-119.3111111111111,43.96555555555556],[-119.38444444444445,43.86138888888889],[-119.45805555555556,43.755833333333335],[-119.60444444444444,43.54555555555555],[-119.67555555555556,43.44277777777778],[-119.74777777777778,43.33833333333334],[-119.82083333333333,43.23222222222223],[-119.8913888888889,43.12861111111111],[-119.96027777777778,43.028055555555554],[-119.97638888888889,43.0075],[-120.03027777777778,42.925],[-120.04444444444444,42.90416666666667],[-120.09888888888888,42.82333333333334],[-120.16583333333334,42.723888888888894],[-120.18,42.70194444444445],[-120.23444444444445,42.621944444444445],[-120.24777777777778,42.6025],[-120.315,42.5],[-120.36999999999999,42.41888888888889],[-120.38333333333334,42.39833333333333],[-120.4375,42.3175],[-120.45194444444445,42.296388888888885],[-120.51805555555555,42.19472222222222],[-120.57277777777777,42.11277777777778],[-120.58527777777778,42.092222222222226],[-120.64,42.010555555555555],[-120.6538888888889,41.989444444444445],[-120.72055555555556,41.88777777777778],[-120.77305555555556,41.80694444444444],[-120.7863888888889,41.78638888888889],[-120.83916666666666,41.705000000000005],[-120.85277777777777,41.68444444444444],[-120.90527777777778,41.60333333333333],[-120.91888888888889,41.58222222222223],[-120.97083333333333,41.50138888888889],[-120.98444444444445,41.48027777777778],[-121.03583333333333,41.400555555555556],[-121.05,41.37833333333333],[-121.10194444444444,41.297777777777775],[-121.115,41.277499999999996],[-121.16666666666667,41.19638888888888],[-121.18027777777779,41.17472222222222],[-121.23027777777779,41.09638888888889],[-121.24388888888889,41.07472222222223],[-121.29444444444444,40.995555555555555],[-121.30611111111111,40.97694444444445],[-121.36777777777777,40.87888888888889],[-121.41888888888889,40.79805555555556],[-121.43138888888889,40.778055555555554],[-121.49388888888889,40.67861111111111],[-121.55499999999999,40.58083333333334],[-121.60472222222222,40.50138888888889],[-121.61638888888888,40.48277777777778],[-121.66666666666667,40.401944444444446],[-121.67888888888889,40.382222222222225],[-121.74027777777778,40.282222222222224],[-121.78972222222222,40.20333333333333],[-121.80194444444444,40.18333333333333],[-121.85166666666666,40.1025],[-121.86305555555555,40.08388888888889],[-121.91250000000001,40.003055555555555],[-121.92527777777778,39.98222222222223],[-121.9863888888889,39.882222222222225],[-122.04694444444445,39.783055555555556],[-122.10694444444444,39.68333333333333],[-122.16777777777779,39.58444444444444],[-122.22777777777777,39.48416666666667],[-122.27972222222222,39.39805555555556],[-122.34083333333332,39.29666666666667],[-122.40027777777779,39.19694444444444],[-122.46027777777778,39.09583333333334],[-122.52111111111111,38.99388888888889],[-122.57833333333333,38.8925],[-122.6111111111111,38.78138888888889],[-122.64805555555556,38.65222222222222],[-122.67833333333334,38.54333333333333],[-122.70833333333334,38.43527777777778],[-122.73916666666666,38.32666666666667],[-122.76666666666667,38.25],[-122.73555555555555,38.115833333333335],[-122.73333333333333,38.083333333333336],[-122.70916666666668,38.0225],[-122.7,38],[-122.68527777777778,37.94027777777777],[-122.68333333333334,37.916666666666664],[-122.64611111111111,37.87361111111111],[-122.61666666666666,37.85],[-122.58444444444444,37.815555555555555],[-122.56666666666666,37.8],[-122.52388888888889,37.75861111111111],[-122.5,37.733333333333334],[-122.46472222222222,37.70277777777778],[-122.45,37.68333333333333],[-122.40694444444445,37.64833333333333],[-122.38333333333334,37.63333333333333],[-122.35583333333332,37.586666666666666],[-122.35,37.56666666666667],[-122.31611111111111,37.5225],[-122.3,37.5],[-122.27777777777777,37.459722222222226],[-122.25,37.43333333333333],[-122.20833333333334,37.42444444444444],[-122.18333333333334,37.416666666666664],[-122.13166666666666,37.415277777777774],[-122.09472222222222,37.468333333333334],[-122.1,37.483333333333334],[-122.15,37.516666666666666],[-122.1763888888889,37.5375],[-122.2,37.55],[-122.22888888888889,37.559444444444445],[-122.25,37.56666666666667],[-122.27333333333333,37.57833333333333],[-122.3,37.583333333333336],[-122.31472222222222,37.59583333333334],[-122.33333333333333,37.6],[-122.35666666666665,37.61333333333334]],"type":"LineString"}
}
