{
  "id": 2032050835,
  "type": "Feature",
  "properties": {
    "geom:area": 0,
    "geom:bbox": "-122.383333,32.282778,-97.050000,38.516944",
    "geom:latitude": 36.002830635680695,
    "geom:longitude": -109.10408181718658,
    "src:alt_label": "swim-path",
    "src:geom": "swim",
    "swim:altitudes": [
      "004",
      "019",
      "023",
      "026",
      "036",
      "055",
      "070",
      "088",
      "102",
      "108",
      "115",
      "125",
      "137",
      "150",
      "166",
      "180",
      "190",
      "199",
      "208",
      "217",
      "227",
      "235",
      "243",
      "247",
      "251",
      "255",
      "258",
      "262",
      "266",
      "270",
      "272",
      "276",
      "278",
      "282",
      "286",
      "292",
      "295",
      "300",
      "302",
      "308",
      "310",
      "314",
      "317",
      "320",
      "322",
      "326",
      "328C",
      "330C",
      "330C",
      "330C",
      "330C",
      "330C",
      "330C",
      "330C",
      "330C",
      "330C",
      "330C",
      "330C",
      "330C",
      "330C",
      "330C",
      "330C",
      "330C",
      "330C",
      "330C",
      "330C",
      "330C",
      "330C",
      "330C",
      "330C",
      "330C",
      "330C",
      "330C",
      "330C",
      "330C",
      "330C",
      "330C",
      "330C",
      "330C",
      "330C",
      "330C",
      "330C",
      "330C",
      "330C",
      "330C",
      "330C",
      "330C",
      "330C",
      "331C",
      "331C",
      "330C",
      "330C",
      "330C",
      "330C",
      "330C",
      "330C",
      "330C",
      "330C",
      "330C",
      "330C",
      "330C",
      "330C",
      "330C",
      "330C",
      "330C",
      "330C",
      "330C",
      "330C",
      "330C",
      "330C",
      "330C",
      "330C",
      "330C",
      "330C",
      "330C",
      "330C",
      "330C",
      "330C",
      "330C",
      "330C",
      "330C",
      "330C",
      "330C",
      "330C",
      "330C",
      "330C",
      "331C",
      "330C",
      "330C",
      "330C",
      "330C",
      "330C",
      "330C",
      "330C",
      "330C",
      "330C",
      "329C",
      "330C",
      "331C",
      "331C",
      "330C",
      "330C",
      "330C",
      "330C",
      "330C",
      "330C",
      "330C",
      "330C",
      "330C",
      "330C",
      "330C",
      "331C",
      "330C",
      "330C",
      "330C",
      "330C",
      "330C",
      "330C",
      "330C",
      "330C",
      "330C",
      "330C",
      "330C",
      "330C",
      "330C",
      "330C",
      "330C",
      "330C",
      "330C",
      "330C",
      "330C",
      "330C",
      "330C",
      "330C",
      "330C",
      "330C",
      "330C",
      "330C",
      "330C",
      "330C",
      "330C",
      "330C",
      "330C",
      "330C",
      "330C",
      "330C",
      "331C",
      "331C",
      "330C",
      "330C",
      "330C",
      "330C",
      "330C",
      "330C",
      "330C",
      "330C",
      "330C",
      "330C",
      "330C",
      "331C",
      "330C",
      "330C",
      "330C",
      "330C",
      "330C",
      "330C",
      "330C",
      "330C",
      "330C",
      "330C",
      "330C",
      "330C",
      "330C",
      "328",
      "319",
      "309",
      "302",
      "290",
      "280",
      "270",
      "261",
      "252",
      "242",
      "232",
      "229",
      "221",
      "216",
      "211",
      "204",
      "194",
      "179",
      "170",
      "165",
      "158",
      "153",
      "147",
      "142",
      "136",
      "132",
      "127",
      "123",
      "120",
      "117",
      "112",
      "107",
      "101",
      "093",
      "078",
      "071",
      "060",
      "052",
      "044",
      "040",
      "038",
      "034",
      "031",
      "030",
      "030",
      "030",
      "030",
      "026",
      "023",
      "018",
      "015",
      "011",
      "008",
      "005"
    ],
    "swim:geom": "path",
    "swim:speeds": [
      155,
      205,
      221,
      265,
      272,
      276,
      293,
      297,
      303,
      339,
      374,
      391,
      399,
      404,
      407,
      404,
      404,
      412,
      418,
      422,
      425,
      428,
      435,
      435,
      439,
      441,
      445,
      447,
      452,
      455,
      460,
      458,
      466,
      469,
      470,
      472,
      470,
      470,
      470,
      470,
      470,
      470,
      470,
      470,
      470,
      471,
      471,
      472,
      475,
      485,
      485,
      485,
      486,
      486,
      487,
      487,
      487,
      487,
      488,
      488,
      488,
      488,
      488,
      489,
      489,
      489,
      489,
      490,
      490,
      490,
      490,
      490,
      491,
      491,
      491,
      491,
      492,
      492,
      492,
      491,
      490,
      489,
      487,
      487,
      488,
      493,
      490,
      492,
      492,
      494,
      493,
      494,
      495,
      494,
      494,
      494,
      494,
      494,
      494,
      494,
      493,
      492,
      492,
      492,
      492,
      492,
      493,
      493,
      495,
      496,
      496,
      497,
      497,
      496,
      496,
      496,
      496,
      495,
      494,
      493,
      493,
      492,
      492,
      493,
      494,
      495,
      496,
      494,
      494,
      493,
      493,
      493,
      491,
      489,
      486,
      485,
      484,
      484,
      485,
      485,
      484,
      482,
      480,
      478,
      477,
      476,
      475,
      474,
      474,
      475,
      476,
      476,
      476,
      475,
      476,
      475,
      475,
      475,
      476,
      477,
      477,
      478,
      479,
      480,
      480,
      482,
      482,
      484,
      484,
      486,
      486,
      487,
      487,
      487,
      486,
      486,
      485,
      485,
      486,
      485,
      486,
      486,
      486,
      486,
      484,
      484,
      483,
      482,
      479,
      478,
      474,
      470,
      469,
      470,
      468,
      466,
      465,
      465,
      466,
      466,
      466,
      464,
      463,
      464,
      465,
      466,
      467,
      467,
      466,
      466,
      466,
      467,
      468,
      468,
      468,
      469,
      469,
      472,
      467,
      459,
      455,
      455,
      450,
      441,
      434,
      434,
      430,
      429,
      420,
      422,
      376,
      359,
      361,
      352,
      343,
      325,
      317,
      302,
      296,
      287,
      290,
      285,
      277,
      247,
      246,
      237,
      232,
      227,
      233,
      244,
      242,
      245,
      243,
      253,
      242,
      223,
      208,
      196,
      198,
      185,
      178,
      172,
      160,
      149,
      151,
      148,
      140
    ],
    "swim:timestamps": [
      1785526234,
      1785526301,
      1785526335,
      1785526361,
      1785526395,
      1785526455,
      1785526515,
      1785526575,
      1785526635,
      1785526695,
      1785526755,
      1785526815,
      1785526876,
      1785526936,
      1785527008,
      1785527068,
      1785527128,
      1785527188,
      1785527248,
      1785527308,
      1785527368,
      1785527428,
      1785527488,
      1785527521,
      1785527548,
      1785527581,
      1785527609,
      1785527641,
      1785527669,
      1785527701,
      1785527729,
      1785527761,
      1785527789,
      1785527821,
      1785527849,
      1785527881,
      1785527909,
      1785527941,
      1785527969,
      1785528002,
      1785528029,
      1785528062,
      1785528089,
      1785528122,
      1785528149,
      1785528194,
      1785528209,
      1785528254,
      1785528270,
      1785528330,
      1785528374,
      1785528390,
      1785528434,
      1785528450,
      1785528494,
      1785528510,
      1785528554,
      1785528570,
      1785528630,
      1785528674,
      1785528690,
      1785528734,
      1785528750,
      1785528795,
      1785528822,
      1785528855,
      1785528882,
      1785528915,
      1785528975,
      1785529035,
      1785529095,
      1785529155,
      1785529275,
      1785529335,
      1785529395,
      1785529455,
      1785529516,
      1785529576,
      1785529636,
      1785529696,
      1785529756,
      1785529816,
      1785529876,
      1785529936,
      1785529996,
      1785530005,
      1785530056,
      1785530065,
      1785530116,
      1785530125,
      1785530176,
      1785530236,
      1785530245,
      1785530297,
      1785530305,
      1785530365,
      1785530417,
      1785530425,
      1785530477,
      1785530485,
      1785530537,
      1785530597,
      1785530605,
      1785530657,
      1785530665,
      1785530725,
      1785530777,
      1785530786,
      1785530846,
      1785530897,
      1785530906,
      1785530957,
      1785530966,
      1785531018,
      1785531026,
      1785531078,
      1785531086,
      1785531138,
      1785531146,
      1785531198,
      1785531206,
      1785531266,
      1785531326,
      1785531386,
      1785531446,
      1785531507,
      1785531567,
      1785531629,
      1785531687,
      1785531747,
      1785531807,
      1785531869,
      1785531927,
      1785531987,
      1785532047,
      1785532110,
      1785532167,
      1785532228,
      1785532288,
      1785532350,
      1785532410,
      1785532470,
      1785532530,
      1785532591,
      1785532651,
      1785532711,
      1785532771,
      1785532828,
      1785532888,
      1785532948,
      1785533008,
      1785533068,
      1785533128,
      1785533175,
      1785533189,
      1785533235,
      1785533249,
      1785533295,
      1785533309,
      1785533355,
      1785533369,
      1785533415,
      1785533429,
      1785533475,
      1785533489,
      1785533535,
      1785533549,
      1785533595,
      1785533609,
      1785533655,
      1785533669,
      1785533729,
      1785533775,
      1785533789,
      1785533836,
      1785533850,
      1785533896,
      1785533910,
      1785533956,
      1785533970,
      1785534016,
      1785534030,
      1785534076,
      1785534090,
      1785534136,
      1785534150,
      1785534196,
      1785534210,
      1785534256,
      1785534270,
      1785534316,
      1785534376,
      1785534436,
      1785534557,
      1785534617,
      1785534677,
      1785534737,
      1785534797,
      1785534857,
      1785534917,
      1785534977,
      1785535037,
      1785535097,
      1785535157,
      1785535278,
      1785535338,
      1785535398,
      1785535458,
      1785535518,
      1785535578,
      1785535638,
      1785535698,
      1785535758,
      1785535818,
      1785535878,
      1785535938,
      1785535998,
      1785536059,
      1785536119,
      1785536179,
      1785536239,
      1785536299,
      1785536359,
      1785536419,
      1785536429,
      1785536479,
      1785536507,
      1785536539,
      1785536567,
      1785536599,
      1785536659,
      1785536693,
      1785536720,
      1785536754,
      1785536780,
      1785536813,
      1785536840,
      1785536873,
      1785536900,
      1785536933,
      1785536960,
      1785536993,
      1785537020,
      1785537053,
      1785537080,
      1785537108,
      1785537140,
      1785537179,
      1785537200,
      1785537228,
      1785537260,
      1785537294,
      1785537320,
      1785537354,
      1785537380,
      1785537408,
      1785537441,
      1785537468,
      1785537501,
      1785537528,
      1785537561,
      1785537582,
      1785537621,
      1785537642,
      1785537681,
      1785537708,
      1785537741
    ],
    "wof:geomhash": "d452cff6b2800951dc131eda5b69f253",
    "wof:id": 2032050835,
    "wof:repo": "sfomuseum-data-flights-2026-07"
  },
  "bbox": [
    -122.38333333333334,
    32.282777777777774,
    -97.05,
    38.51694444444444
  ],
  "geometry": {"coordinates":[[-122.38333333333334,37.61666666666667],[-122.38333333333334,37.666666666666664],[-122.34138888888889,37.67361111111111],[-122.3,37.68333333333333],[-122.25666666666666,37.70277777777778],[-122.16888888888889,37.735],[-122.10138888888888,37.79416666666666],[-121.99972222222222,37.81722222222223],[-121.89694444444446,37.837500000000006],[-121.78527777777778,37.85944444444445],[-121.6588888888889,37.884166666666665],[-121.52444444444444,37.91027777777778],[-121.38666666666667,37.93694444444444],[-121.24805555555555,37.96333333333334],[-121.10944444444443,37.98972222222222],[-120.94361111111111,38.01583333333333],[-120.80444444444444,38.03722222222222],[-120.66166666666668,38.05888888888889],[-120.51722222222222,38.08083333333334],[-120.36916666666666,38.10305555555556],[-120.22083333333333,38.125277777777775],[-120.07194444444444,38.14722222222222],[-119.92055555555557,38.169444444444444],[-119.85499999999999,38.176944444444445],[-119.76888888888888,38.191111111111105],[-119.70194444444445,38.19972222222222],[-119.61472222222221,38.21333333333334],[-119.54583333333333,38.22166666666667],[-119.45527777777778,38.23583333333333],[-119.35472222222222,38.24861111111111],[-119.29055555555556,38.25888888888889],[-119.19444444444444,38.27111111111111],[-119.12944444444443,38.28138888888889],[-119.03111111111112,38.29333333333333],[-118.96527777777779,38.303888888888885],[-118.86638888888888,38.316111111111105],[-118.80277777777778,38.325833333333335],[-118.70555555555556,38.33861111111111],[-118.64,38.34777777777778],[-118.54277777777777,38.36083333333333],[-118.4775,38.369166666666665],[-118.37916666666666,38.382222222222225],[-118.31416666666667,38.39083333333333],[-118.22416666666666,38.402499999999996],[-118.14861111111112,38.41222222222222],[-118.02638888888889,38.42805555555555],[-117.98972222222223,38.43277777777777],[-117.85916666666667,38.44944444444444],[-117.82388888888889,38.45388888888889],[-117.65138888888889,38.47555555555556],[-117.51527777777778,38.4925],[-117.48138888888889,38.49666666666667],[-117.34305555555555,38.513333333333335],[-117.30722222222222,38.51638888888889],[-117.16833333333334,38.51694444444444],[-117.13166666666666,38.51583333333333],[-116.99472222222222,38.51166666666666],[-116.95777777777778,38.510555555555555],[-116.78472222222221,38.50527777777778],[-116.64472222222223,38.50055555555556],[-116.6086111111111,38.49944444444444],[-116.47277777777778,38.49472222222222],[-116.43555555555555,38.493611111111115],[-116.29777777777778,38.48833333333334],[-116.26055555555556,38.48722222222222],[-116.12527777777777,38.48222222222223],[-116.05361111111111,38.47944444444445],[-115.95083333333334,38.47527777777778],[-115.77555555555556,38.468333333333334],[-115.60277777777777,38.46083333333333],[-115.43,38.453611111111115],[-115.26222222222222,38.44611111111111],[-114.91555555555556,38.42972222222222],[-114.74388888888889,38.42111111111111],[-114.57,38.41222222222222],[-114.39527777777778,38.40277777777778],[-114.22583333333334,38.374722222222225],[-114.06,38.33555555555556],[-113.89166666666668,38.295833333333334],[-113.72694444444444,38.25666666666667],[-113.56055555555555,38.21666666666667],[-113.39750000000001,38.17722222222222],[-113.23222222222222,38.136944444444445],[-113.06861111111111,38.096944444444446],[-112.90194444444445,38.05555555555555],[-112.90166666666667,38.05555555555555],[-112.73611111111111,38.01416666666667],[-112.73611111111111,38.01444444444444],[-112.5675,37.97222222222222],[-112.5675,37.97222222222222],[-112.40194444444445,37.93055555555555],[-112.23472222222222,37.88805555555555],[-112.23472222222222,37.88805555555555],[-112.06861111111111,37.845555555555556],[-112.06861111111111,37.845555555555556],[-111.9038888888889,37.80638888888888],[-111.73555555555555,37.768055555555556],[-111.73555555555555,37.768055555555556],[-111.56833333333333,37.72972222222222],[-111.57083333333333,37.73027777777778],[-111.40277777777779,37.69138888888889],[-111.23944444444444,37.65361111111111],[-111.23944444444444,37.65361111111111],[-111.07222222222222,37.614444444444445],[-111.07222222222222,37.614444444444445],[-110.90777777777778,37.575833333333335],[-110.7425,37.53666666666666],[-110.7425,37.53638888888889],[-110.575,37.49638888888889],[-110.41000000000001,37.456944444444446],[-110.4038888888889,37.45527777777778],[-110.24388888888889,37.416666666666664],[-110.23833333333333,37.415277777777774],[-110.07888888888888,37.37638888888889],[-110.0736111111111,37.375],[-109.91416666666667,37.33583333333333],[-109.90805555555556,37.33444444444444],[-109.74944444444445,37.29527777777778],[-109.74416666666667,37.29388888888889],[-109.58694444444444,37.25472222222222],[-109.58083333333333,37.25333333333333],[-109.41666666666667,37.21222222222222],[-109.25222222222222,37.17055555555555],[-109.08944444444444,37.129444444444445],[-108.92361111111111,37.08694444444445],[-108.76777777777778,37.03111111111111],[-108.63277777777778,36.942499999999995],[-108.50722222222223,36.85888888888889],[-108.36916666666666,36.76638888888889],[-108.23722222222223,36.677499999999995],[-108.10749999999999,36.59],[-107.97694444444444,36.501666666666665],[-107.84583333333333,36.41222222222222],[-107.71861111111112,36.32527777777778],[-107.58999999999999,36.23694444444445],[-107.46388888888889,36.15],[-107.33805555555556,36.06333333333333],[-107.21138888888889,35.975],[-107.08472222222221,35.886944444444445],[-106.95861111111111,35.79888888888889],[-106.83277777777778,35.71083333333333],[-106.70944444444444,35.62388888888889],[-106.58527777777778,35.53611111111111],[-106.46361111111112,35.44972222222222],[-106.34083333333332,35.361666666666665],[-106.2225,35.26972222222222],[-106.10749999999999,35.17583333333333],[-105.99027777777778,35.07972222222222],[-105.88416666666667,34.99388888888889],[-105.74555555555555,34.92361111111111],[-105.58611111111111,34.89333333333333],[-105.42611111111111,34.88194444444444],[-105.26611111111112,34.87027777777778],[-105.14416666666668,34.86333333333334],[-105.10444444444444,34.85861111111111],[-105.01777777777778,34.852222222222224],[-104.94638888888889,34.846944444444446],[-104.825,34.838055555555556],[-104.78694444444444,34.835],[-104.66555555555556,34.82],[-104.62888888888888,34.81222222222222],[-104.50888888888889,34.78666666666666],[-104.4725,34.77916666666667],[-104.35166666666666,34.75472222222222],[-104.31527777777778,34.7475],[-104.19166666666668,34.72222222222222],[-104.15777777777778,34.71527777777778],[-104.03333333333333,34.69027777777777],[-104.00138888888888,34.68388888888889],[-103.87388888888889,34.65833333333333],[-103.83999999999999,34.651666666666664],[-103.68138888888889,34.61888888888889],[-103.55694444444444,34.58861111111111],[-103.52444444444444,34.580555555555556],[-103.39944444444446,34.55083333333333],[-103.36805555555554,34.54333333333333],[-103.24388888888889,34.51361111111111],[-103.21111111111111,34.50555555555555],[-103.08777777777777,34.47666666666667],[-103.05416666666666,34.46888888888889],[-102.93083333333334,34.44027777777777],[-102.89888888888889,34.4325],[-102.79138888888889,34.3725],[-102.7713888888889,34.35027777777778],[-102.70972222222223,34.25972222222222],[-102.69277777777778,34.234722222222224],[-102.64611111111111,34.165277777777774],[-102.61083333333333,34.11277777777778],[-102.55361111111111,34.026666666666664],[-102.53444444444445,33.99777777777778],[-102.47361111111111,33.906388888888884],[-102.39750000000001,33.79138888888889],[-102.32249999999999,33.67805555555555],[-102.17083333333333,33.447222222222216],[-102.09666666666666,33.33388888888889],[-102.0225,33.22027777777778],[-101.94888888888889,33.10722222222223],[-101.8736111111111,32.99166666666667],[-101.79916666666666,32.87638888888889],[-101.72500000000001,32.76166666666666],[-101.65222222222222,32.64805555555556],[-101.5786111111111,32.53388888888889],[-101.48972222222223,32.42972222222222],[-101.35222222222221,32.37833333333333],[-101.07444444444444,32.36055555555556],[-100.92222222222223,32.35055555555556],[-100.76777777777778,32.34055555555556],[-100.58583333333333,32.328611111111115],[-100.43472222222222,32.318333333333335],[-100.2825,32.30777777777777],[-100.13027777777778,32.29722222222222],[-99.97972222222222,32.28638888888889],[-99.82555555555555,32.282777777777774],[-99.67361111111111,32.29083333333333],[-99.5213888888889,32.29888888888889],[-99.36611111111111,32.306666666666665],[-99.24416666666667,32.312777777777775],[-99.05805555555555,32.32166666666667],[-98.9038888888889,32.32916666666667],[-98.75472222222223,32.33583333333333],[-98.62027777777777,32.341944444444444],[-98.47194444444445,32.348888888888894],[-98.32444444444444,32.35527777777778],[-98.18027777777779,32.361111111111114],[-98.13333333333334,32.36666666666667],[-98.02361111111111,32.3675],[-97.95,32.36666666666667],[-97.88388888888889,32.37277777777778],[-97.81666666666666,32.38333333333333],[-97.74583333333334,32.37833333333333],[-97.61861111111111,32.39333333333333],[-97.56666666666666,32.43333333333333],[-97.53416666666666,32.46277777777778],[-97.48333333333333,32.5],[-97.4538888888889,32.532777777777774],[-97.41666666666667,32.56666666666667],[-97.38027777777778,32.596944444444446],[-97.33333333333333,32.63333333333333],[-97.3111111111111,32.657222222222224],[-97.26666666666667,32.68333333333333],[-97.24583333333334,32.71416666666667],[-97.2,32.75],[-97.18166666666667,32.769999999999996],[-97.16666666666667,32.81666666666667],[-97.16666666666667,32.83694444444445],[-97.16666666666667,32.86666666666667],[-97.16611111111112,32.90277777777778],[-97.16666666666667,32.95],[-97.16527777777779,32.96638888888889],[-97.16666666666667,33],[-97.16444444444446,33.03388888888889],[-97.16666666666667,33.083333333333336],[-97.16361111111112,33.10277777777778],[-97.15,33.15],[-97.12527777777777,33.15416666666667],[-97.08333333333333,33.15],[-97.06527777777778,33.13305555555556],[-97.05,33.1],[-97.05388888888889,33.080000000000005],[-97.05,33.05],[-97.05416666666666,33.03],[-97.05,33.016666666666666],[-97.05444444444444,32.983333333333334],[-97.05,32.96666666666667],[-97.05472222222222,32.942499999999995],[-97.05,32.916666666666664],[-97.05472222222222,32.901666666666664]],"type":"LineString"}
}
