{
  "id": 2031967897,
  "type": "Feature",
  "properties": {
    "geom:area": 0,
    "geom:bbox": "-122.410278,37.638333,-93.252222,45.000000",
    "geom:latitude": 42.417627862560316,
    "geom:longitude": -108.22366798875387,
    "src:alt_label": "swim-path",
    "src:geom": "swim",
    "swim:altitudes": [
      "019",
      "035",
      "052",
      "075",
      "097",
      "110",
      "125",
      "145",
      "165",
      "182",
      "202",
      "219",
      "233",
      "247",
      "257",
      "268",
      "279",
      "289",
      "300",
      "311",
      "320",
      "323",
      "330",
      "332",
      "335",
      "336",
      "341",
      "345",
      "350C",
      "350C",
      "350C",
      "350C",
      "350C",
      "350C",
      "350C",
      "350C",
      "350C",
      "350C",
      "350C",
      "350C",
      "350C",
      "350C",
      "350C",
      "350C",
      "350C",
      "350C",
      "350C",
      "350C",
      "350C",
      "350C",
      "350C",
      "350C",
      "350C",
      "350C",
      "350C",
      "350C",
      "350C",
      "350C",
      "350C",
      "350C",
      "350C",
      "350C",
      "350C",
      "350C",
      "350C",
      "350C",
      "350C",
      "350C",
      "350C",
      "350C",
      "350C",
      "350C",
      "350C",
      "350C",
      "350C",
      "350C",
      "350C",
      "350C",
      "350C",
      "350C",
      "350C",
      "350C",
      "350C",
      "350C",
      "350C",
      "350C",
      "350C",
      "350C",
      "350C",
      "350C",
      "350C",
      "350C",
      "350C",
      "350C",
      "350C",
      "350C",
      "350C",
      "350C",
      "350C",
      "350C",
      "350C",
      "350C",
      "350C",
      "350C",
      "350C",
      "350C",
      "350C",
      "350C",
      "350C",
      "350C",
      "350C",
      "350C",
      "350C",
      "350C",
      "350C",
      "350C",
      "350C",
      "350C",
      "350C",
      "350C",
      "350C",
      "350C",
      "350C",
      "350C",
      "350C",
      "350C",
      "350C",
      "350C",
      "350C",
      "350C",
      "350C",
      "350C",
      "350C",
      "350C",
      "350C",
      "350C",
      "350C",
      "350C",
      "350C",
      "350C",
      "350C",
      "350C",
      "350C",
      "350C",
      "350C",
      "350C",
      "350C",
      "350C",
      "350C",
      "350C",
      "350C",
      "350C",
      "350C",
      "350C",
      "350C",
      "350C",
      "350C",
      "350C",
      "350C",
      "350C",
      "350C",
      "350C",
      "350C",
      "350C",
      "350C",
      "350C",
      "350C",
      "350C",
      "350C",
      "350C",
      "350C",
      "350C",
      "350C",
      "350C",
      "350C",
      "350C",
      "350C",
      "350C",
      "350C",
      "350C",
      "350",
      "343",
      "324",
      "314",
      "297",
      "270",
      "246",
      "222",
      "199",
      "174",
      "153",
      "151",
      "143",
      "136",
      "125",
      "118",
      "107",
      "103",
      "100",
      "097",
      "085",
      "078",
      "073",
      "067",
      "061",
      "055",
      "046",
      "040",
      "041",
      "039",
      "032",
      "029",
      "022",
      "018",
      "012"
    ],
    "swim:geom": "path",
    "swim:speeds": [
      174,
      221,
      275,
      283,
      302,
      344,
      384,
      396,
      407,
      424,
      434,
      445,
      457,
      463,
      473,
      487,
      495,
      503,
      506,
      508,
      507,
      508,
      508,
      509,
      508,
      518,
      519,
      522,
      520,
      522,
      521,
      520,
      519,
      519,
      519,
      518,
      520,
      518,
      518,
      516,
      516,
      515,
      514,
      513,
      513,
      512,
      512,
      511,
      511,
      511,
      511,
      511,
      510,
      509,
      509,
      508,
      508,
      507,
      507,
      506,
      505,
      505,
      505,
      504,
      505,
      505,
      505,
      505,
      505,
      505,
      504,
      503,
      503,
      503,
      504,
      505,
      506,
      507,
      507,
      508,
      508,
      508,
      508,
      509,
      509,
      510,
      511,
      512,
      513,
      514,
      514,
      514,
      512,
      510,
      509,
      509,
      513,
      514,
      514,
      513,
      512,
      513,
      513,
      513,
      512,
      510,
      508,
      507,
      508,
      509,
      510,
      509,
      508,
      507,
      507,
      507,
      507,
      507,
      508,
      508,
      508,
      508,
      509,
      508,
      507,
      507,
      507,
      508,
      508,
      509,
      508,
      508,
      509,
      509,
      510,
      509,
      509,
      508,
      506,
      506,
      506,
      510,
      513,
      513,
      515,
      515,
      516,
      518,
      518,
      519,
      519,
      521,
      521,
      522,
      522,
      523,
      523,
      523,
      522,
      522,
      522,
      523,
      524,
      525,
      524,
      524,
      524,
      524,
      523,
      522,
      520,
      518,
      517,
      518,
      518,
      521,
      526,
      527,
      527,
      527,
      527,
      526,
      534,
      537,
      537,
      529,
      492,
      468,
      460,
      449,
      432,
      397,
      390,
      381,
      380,
      371,
      371,
      350,
      329,
      297,
      282,
      282,
      274,
      274,
      239,
      229,
      245,
      253,
      226,
      220,
      223,
      219,
      196,
      177,
      158
    ],
    "swim:timestamps": [
      1784966853,
      1784966913,
      1784966973,
      1784967033,
      1784967093,
      1784967153,
      1784967213,
      1784967273,
      1784967333,
      1784967393,
      1784967453,
      1784967513,
      1784967573,
      1784967633,
      1784967693,
      1784967753,
      1784967813,
      1784967873,
      1784967933,
      1784967993,
      1784968031,
      1784968053,
      1784968091,
      1784968113,
      1784968151,
      1784968173,
      1784968211,
      1784968233,
      1784968271,
      1784968293,
      1784968331,
      1784968353,
      1784968391,
      1784968413,
      1784968451,
      1784968473,
      1784968511,
      1784968533,
      1784968571,
      1784968593,
      1784968631,
      1784968653,
      1784968691,
      1784968713,
      1784968751,
      1784968773,
      1784968811,
      1784968833,
      1784968871,
      1784968893,
      1784968931,
      1784968953,
      1784968991,
      1784969013,
      1784969051,
      1784969073,
      1784969111,
      1784969133,
      1784969171,
      1784969194,
      1784969231,
      1784969254,
      1784969291,
      1784969314,
      1784969351,
      1784969411,
      1784969434,
      1784969471,
      1784969531,
      1784969592,
      1784969652,
      1784969712,
      1784969772,
      1784969832,
      1784969892,
      1784969952,
      1784970012,
      1784970072,
      1784970192,
      1784970252,
      1784970312,
      1784970372,
      1784970432,
      1784970492,
      1784970552,
      1784970612,
      1784970672,
      1784970732,
      1784970792,
      1784970852,
      1784970912,
      1784970972,
      1784971032,
      1784971092,
      1784971152,
      1784971212,
      1784971332,
      1784971392,
      1784971452,
      1784971512,
      1784971572,
      1784971632,
      1784971692,
      1784971752,
      1784971812,
      1784971872,
      1784971932,
      1784971992,
      1784972052,
      1784972112,
      1784972173,
      1784972232,
      1784972293,
      1784972353,
      1784972412,
      1784972473,
      1784972533,
      1784972592,
      1784972653,
      1784972713,
      1784972772,
      1784972832,
      1784972893,
      1784972953,
      1784973013,
      1784973073,
      1784973133,
      1784973193,
      1784973253,
      1784973313,
      1784973373,
      1784973433,
      1784973493,
      1784973553,
      1784973613,
      1784973673,
      1784973733,
      1784973793,
      1784973853,
      1784973913,
      1784973973,
      1784974033,
      1784974075,
      1784974093,
      1784974135,
      1784974153,
      1784974213,
      1784974255,
      1784974273,
      1784974315,
      1784974333,
      1784974375,
      1784974393,
      1784974435,
      1784974453,
      1784974496,
      1784974513,
      1784974556,
      1784974573,
      1784974616,
      1784974676,
      1784974736,
      1784974796,
      1784974856,
      1784974916,
      1784974976,
      1784975036,
      1784975096,
      1784975156,
      1784975216,
      1784975276,
      1784975336,
      1784975396,
      1784975456,
      1784975516,
      1784975576,
      1784975636,
      1784975696,
      1784975756,
      1784975816,
      1784975876,
      1784975936,
      1784976056,
      1784976116,
      1784976177,
      1784976237,
      1784976297,
      1784976357,
      1784976417,
      1784976477,
      1784976537,
      1784976563,
      1784976597,
      1784976611,
      1784976657,
      1784976671,
      1784976717,
      1784976731,
      1784976777,
      1784976791,
      1784976851,
      1784976897,
      1784976911,
      1784976957,
      1784977017,
      1784977031,
      1784977077,
      1784977091,
      1784977137,
      1784977151,
      1784977197,
      1784977205,
      1784977257,
      1784977265,
      1784977317
    ],
    "wof:geomhash": "d2a40d809c8eac8f9ec64b9b31a6c065",
    "wof:id": 2031967897,
    "wof:repo": "sfomuseum-data-flights-2026-07"
  },
  "bbox": [
    -122.41027777777778,
    37.638333333333335,
    -93.25222222222222,
    45
  ],
  "geometry": {"coordinates":[[-122.41027777777778,37.638333333333335],[-122.3736111111111,37.68388888888889],[-122.3386111111111,37.749722222222225],[-122.3761111111111,37.82277777777778],[-122.385,37.905],[-122.325,37.97694444444445],[-122.21861111111112,38.041666666666664],[-122.10888888888888,38.10916666666667],[-121.99333333333334,38.17833333333333],[-121.87555555555555,38.24944444444444],[-121.74166666666667,38.330000000000005],[-121.615,38.405833333333334],[-121.48555555555555,38.48361111111111],[-121.35416666666666,38.56444444444444],[-121.24194444444444,38.632777777777775],[-121.10055555555554,38.718611111111116],[-120.96111111111111,38.80305555555555],[-120.8175,38.88916666666667],[-120.6738888888889,38.97361111111111],[-120.53027777777778,39.059444444444445],[-120.43277777777779,39.117777777777775],[-120.38444444444445,39.146388888888886],[-120.28777777777778,39.20277777777778],[-120.24027777777778,39.23166666666667],[-120.1413888888889,39.28861111111111],[-120.08027777777778,39.32527777777778],[-119.99055555555556,39.376666666666665],[-119.92861111111111,39.413888888888884],[-119.84083333333332,39.46527777777778],[-119.78027777777778,39.50055555555556],[-119.69027777777778,39.55277777777778],[-119.62916666666666,39.587500000000006],[-119.54166666666667,39.638333333333335],[-119.47777777777777,39.67472222222222],[-119.39083333333333,39.725],[-119.32972222222222,39.76],[-119.23944444444444,39.811388888888885],[-119.17805555555556,39.84638888888889],[-119.08805555555556,39.89722222222222],[-119.02361111111111,39.92944444444444],[-118.93361111111112,39.975],[-118.86666666666666,40.005],[-118.77083333333333,40.045833333333334],[-118.70416666666667,40.07416666666667],[-118.60749999999999,40.11527777777778],[-118.575,40.12916666666667],[-118.44888888888889,40.18222222222222],[-118.41111111111111,40.198055555555555],[-118.28555555555555,40.25083333333333],[-118.24722222222222,40.26722222222222],[-118.12277777777777,40.31888888888889],[-118.08305555555555,40.33222222222223],[-117.95083333333334,40.375277777777775],[-117.88055555555555,40.39833333333333],[-117.78138888888888,40.43],[-117.71111111111111,40.452222222222225],[-117.60972222222222,40.484722222222224],[-117.57333333333332,40.49638888888889],[-117.4388888888889,40.54],[-117.40444444444445,40.55083333333333],[-117.26972222222223,40.594166666666666],[-117.23388888888888,40.605555555555554],[-117.09777777777778,40.64861111111111],[-117.06194444444444,40.66],[-116.92722222222223,40.7025],[-116.7875,40.74611111111111],[-116.715,40.76888888888889],[-116.61388888888888,40.80027777777777],[-116.44166666666668,40.85333333333333],[-116.27027777777778,40.905833333333334],[-116.09805555555555,40.958333333333336],[-115.92805555555556,41.00972222222222],[-115.75777777777778,41.06111111111111],[-115.58361111111111,41.11333333333334],[-115.41194444444444,41.16416666666667],[-115.23972222222223,41.215],[-115.06277777777777,41.26694444444444],[-114.88833333333334,41.31777777777778],[-114.53777777777778,41.41861111111111],[-114.3625,41.46888888888889],[-114.18861111111111,41.518055555555556],[-114.01083333333334,41.56805555555556],[-113.83611111111111,41.61694444444444],[-113.65944444444445,41.66583333333333],[-113.4825,41.71472222222223],[-113.30222222222221,41.76416666666667],[-113.12166666666666,41.81305555555555],[-112.94277777777778,41.86138888888889],[-112.7675,41.90833333333333],[-112.58138888888888,41.95777777777778],[-112.40111111111112,42.00527777777778],[-112.22055555555556,42.052499999999995],[-112.04055555555556,42.099444444444444],[-111.86138888888888,42.14555555555555],[-111.68222222222222,42.19138888888889],[-111.50027777777778,42.237500000000004],[-111.135,42.32972222222222],[-110.95277777777778,42.374722222222225],[-110.76833333333333,42.42027777777778],[-110.58666666666666,42.464444444444446],[-110.40277777777779,42.50888888888889],[-110.21972222222223,42.55305555555555],[-110.03611111111111,42.59444444444445],[-109.8475,42.6325],[-109.66361111111112,42.66972222222222],[-109.47694444444444,42.706944444444446],[-109.29333333333334,42.74305555555556],[-109.10638888888889,42.77972222222222],[-108.92083333333333,42.81583333333333],[-108.73333333333333,42.85138888888889],[-108.54638888888888,42.88722222222222],[-108.3611111111111,42.92194444444444],[-108.15666666666667,42.96],[-107.97194444444445,42.99583333333334],[-107.80333333333333,43.028888888888886],[-107.60305555555556,43.06722222222223],[-107.41472222222222,43.10333333333333],[-107.22944444444444,43.13805555555555],[-107.04305555555555,43.172777777777775],[-106.84722222222221,43.20888888888889],[-106.66000000000001,43.24166666666667],[-106.47027777777778,43.27472222222222],[-106.31944444444444,43.30083333333333],[-106.13138888888888,43.33277777777778],[-105.94500000000001,43.36416666666667],[-105.75222222222222,43.396388888888886],[-105.56472222222222,43.42722222222222],[-105.3761111111111,43.45805555555556],[-105.18527777777778,43.48888888888889],[-104.99583333333334,43.51888888888889],[-104.80472222222222,43.549166666666665],[-104.615,43.57888888888889],[-104.42222222222223,43.60861111111111],[-104.22916666666667,43.63777777777778],[-104.03888888888889,43.66638888888889],[-103.84638888888888,43.69499999999999],[-103.65583333333333,43.723055555555554],[-103.46611111111112,43.75083333333333],[-103.27555555555556,43.778055555555554],[-103.08472222222221,43.805],[-102.89416666666668,43.83166666666667],[-102.69916666666667,43.858333333333334],[-102.54777777777778,43.87916666666667],[-102.5025,43.88527777777778],[-102.35388888888889,43.905],[-102.31138888888889,43.910555555555554],[-102.11916666666666,43.93611111111111],[-101.95944444444444,43.956944444444446],[-101.92055555555557,43.96222222222222],[-101.76305555555555,43.9825],[-101.7238888888889,43.987500000000004],[-101.56555555555555,44.0075],[-101.52666666666667,44.0125],[-101.36777777777777,44.03194444444444],[-101.3286111111111,44.03638888888889],[-101.17027777777778,44.05361111111111],[-101.12722222222222,44.05833333333333],[-100.9713888888889,44.075],[-100.92972222222222,44.07972222222222],[-100.7725,44.09638888888889],[-100.57472222222222,44.117222222222225],[-100.3736111111111,44.138333333333335],[-100.17333333333333,44.15861111111111],[-99.9738888888889,44.178888888888885],[-99.775,44.19833333333333],[-99.57527777777777,44.2175],[-99.3761111111111,44.23638888888889],[-99.17583333333334,44.25472222222222],[-98.9775,44.27333333333333],[-98.7786111111111,44.29083333333333],[-98.58027777777778,44.308055555555555],[-98.38277777777778,44.32527777777778],[-98.15305555555557,44.344166666666666],[-97.99388888888889,44.35722222222223],[-97.79444444444444,44.373333333333335],[-97.59166666666667,44.38916666666667],[-97.38916666666667,44.405],[-97.18361111111112,44.42055555555555],[-96.98111111111112,44.43527777777778],[-96.775,44.44972222222222],[-96.57,44.46416666666667],[-96.36555555555555,44.47805555555556],[-95.94972222222222,44.49055555555556],[-95.7375,44.48166666666667],[-95.5275,44.472500000000004],[-95.3236111111111,44.46388888888889],[-95.12638888888888,44.47138888888889],[-94.95361111111112,44.51138888888889],[-94.78416666666666,44.55027777777777],[-94.61916666666666,44.588055555555556],[-94.46833333333333,44.6225],[-94.36666666666666,44.65],[-94.31833333333333,44.656388888888884],[-94.26666666666667,44.666666666666664],[-94.17861111111111,44.687777777777775],[-94.11666666666666,44.7],[-94.04222222222222,44.718333333333334],[-93.98333333333333,44.733333333333334],[-93.91305555555556,44.74722222222222],[-93.86666666666666,44.766666666666666],[-93.8,44.81666666666667],[-93.75305555555556,44.85861111111111],[-93.71666666666667,44.88333333333333],[-93.68055555555556,44.91555555555556],[-93.61638888888888,44.96611111111111],[-93.6,44.983333333333334],[-93.53999999999999,44.99666666666667],[-93.5,45],[-93.45083333333334,44.98083333333334],[-93.41666666666667,44.96666666666667],[-93.37666666666667,44.94972222222222],[-93.35,44.93333333333333],[-93.30777777777777,44.919444444444444],[-93.28333333333333,44.916666666666664],[-93.25222222222222,44.89527777777778]],"type":"LineString"}
}
