{
  "id": 2031964017,
  "type": "Feature",
  "properties": {
    "geom:area": 0,
    "geom:bbox": "-123.474030,37.148220,-122.117680,37.610290",
    "geom:latitude": 37.325948723058175,
    "geom:longitude": -122.6742778193305,
    "src:alt_label": "swim-approach",
    "src:geom": "swim",
    "swim:elevations": [
      4907,
      4667,
      4621,
      4355,
      4165,
      3946,
      3794,
      3663,
      3455,
      3319,
      3136,
      3078,
      3048,
      3048,
      3048,
      3017,
      3006,
      2896,
      2896,
      2813,
      2766,
      2643,
      2463,
      2438,
      2250,
      2134,
      2134,
      2134,
      2099,
      2011,
      1925,
      1732,
      1409,
      1384,
      1232,
      764,
      691,
      464,
      368,
      190,
      149,
      57
    ],
    "swim:geom": "approach",
    "swim:timestamps": [
      1784991446,
      1784991477,
      1784991484,
      1784991518,
      1784991544,
      1784991575,
      1784991596,
      1784991615,
      1784991645,
      1784991662,
      1784991695,
      1784991733,
      1784991777,
      1784991781,
      1784991816,
      1784991858,
      1784991862,
      1784991891,
      1784991901,
      1784991942,
      1784991962,
      1784991993,
      1784992038,
      1784992067,
      1784992102,
      1784992132,
      1784992147,
      1784992164,
      1784992192,
      1784992216,
      1784992230,
      1784992270,
      1784992345,
      1784992353,
      1784992384,
      1784992434,
      1784992444,
      1784992479,
      1784992503,
      1784992549,
      1784992566,
      1784992592
    ],
    "wof:geomhash": "7a962d02276c90cefd29ee1d921b3674",
    "wof:id": 2031964017,
    "wof:repo": "sfomuseum-data-flights-2026-07"
  },
  "bbox": [
    -123.47403,
    37.14822,
    -122.11768,
    37.61029
  ],
  "geometry": {"coordinates":[[-123.47403,37.14822],[-123.4077,37.16025],[-123.3924,37.16303],[-123.32049,37.17608],[-123.26491,37.18608],[-123.20013,37.19774],[-123.15724,37.20547],[-123.11803,37.21243],[-123.05628,37.22346],[-123.02218,37.22952],[-122.95332,37.24187],[-122.87934,37.25499],[-122.79976,37.27265],[-122.79306,37.27421],[-122.73151,37.28857],[-122.65532,37.30632],[-122.64761,37.30813],[-122.595,37.3204],[-122.5795,37.32395],[-122.51087,37.33988],[-122.47974,37.34702],[-122.43297,37.35785],[-122.36715,37.37296],[-122.32562,37.38131],[-122.27497,37.37582],[-122.23176,37.36884],[-122.2106,37.36536],[-122.18695,37.36164],[-122.14794,37.36443],[-122.12709,37.38537],[-122.11877,37.39965],[-122.11768,37.44128],[-122.15644,37.50759],[-122.16037,37.51443],[-122.17839,37.53703],[-122.22813,37.55919],[-122.23774,37.56325],[-122.27063,37.57723],[-122.29027,37.58545],[-122.32212,37.59888],[-122.33291,37.60338],[-122.34941,37.61029]],"type":"LineString"}
}
