{
  "id": 2031942535,
  "type": "Feature",
  "properties": {
    "geom:area": 0,
    "geom:bbox": "-122.362960,37.491560,-121.268710,37.615850",
    "geom:latitude": 37.542171037573155,
    "geom:longitude": -121.82291206303528,
    "src:alt_label": "swim-approach",
    "src:geom": "swim",
    "swim:elevations": [
      4532,
      4258,
      4108,
      3719,
      3505,
      3476,
      3413,
      3291,
      3008,
      2688,
      2511,
      2486,
      2437,
      2380,
      2317,
      2132,
      1969,
      1754,
      1472,
      1435,
      1372,
      1226,
      1030,
      890,
      739,
      588,
      574,
      455,
      395,
      271,
      170,
      64,
      0
    ],
    "swim:geom": "approach",
    "swim:timestamps": [
      1784847347,
      1784847380,
      1784847398,
      1784847443,
      1784847468,
      1784847472,
      1784847487,
      1784847517,
      1784847558,
      1784847582,
      1784847602,
      1784847605,
      1784847638,
      1784847653,
      1784847662,
      1784847698,
      1784847732,
      1784847771,
      1784847807,
      1784847819,
      1784847834,
      1784847855,
      1784847896,
      1784847926,
      1784847956,
      1784847988,
      1784847991,
      1784848022,
      1784848040,
      1784848075,
      1784848105,
      1784848132,
      1784848150
    ],
    "wof:geomhash": "47fd3cd3648a7b66fa0e4a5d8ae0c0f7",
    "wof:id": 2031942535,
    "wof:repo": "sfomuseum-data-flights-2026-07"
  },
  "bbox": [
    -122.36296,
    37.49156,
    -121.26871,
    37.61585
  ],
  "geometry": {"coordinates":[[-121.26871,37.59168],[-121.33585,37.58383],[-121.3721,37.57978],[-121.46203,37.56946],[-121.5104,37.56378],[-121.51815,37.56286],[-121.54617,37.55963],[-121.59925,37.55355],[-121.66674,37.54048],[-121.70589,37.5312],[-121.73764,37.52359],[-121.74242,37.52243],[-121.79307,37.51016],[-121.81544,37.50478],[-121.82893,37.50154],[-121.88171,37.49156],[-121.93348,37.49407],[-121.99151,37.49723],[-122.04442,37.50038],[-122.06104,37.50132],[-122.08138,37.50253],[-122.10732,37.50846],[-122.15548,37.52867],[-122.1882,37.54239],[-122.21882,37.55537],[-122.24896,37.56803],[-122.25159,37.56913],[-122.2766,37.57972],[-122.28899,37.58486],[-122.31207,37.59458],[-122.33195,37.60294],[-122.3505,37.61074],[-122.36296,37.61585]],"type":"LineString"}
}
