{
  "id": 2032054099,
  "type": "Feature",
  "properties": {
    "geom:area": 0,
    "geom:bbox": "-122.396960,37.622250,-121.269590,37.961650",
    "geom:latitude": 37.82987660805029,
    "geom:longitude": -121.85576994553614,
    "src:alt_label": "swim-takeoff",
    "src:geom": "swim",
    "swim:elevations": [
      152,
      244,
      650,
      839,
      1037,
      1135,
      1337,
      1699,
      1968,
      2425,
      2607,
      3162,
      3227,
      3447,
      3646,
      3941,
      4113,
      4484,
      4623,
      5095,
      5350,
      5771
    ],
    "swim:geom": "takeoff",
    "swim:timestamps": [
      1785487572,
      1785487579,
      1785487610,
      1785487634,
      1785487670,
      1785487692,
      1785487734,
      1785487761,
      1785487781,
      1785487818,
      1785487836,
      1785487886,
      1785487908,
      1785487946,
      1785487969,
      1785487997,
      1785488017,
      1785488066,
      1785488081,
      1785488135,
      1785488174,
      1785488233
    ],
    "wof:geomhash": "f5b1df64e9e83086db0e8c09ed9f4ab4",
    "wof:id": 2032054099,
    "wof:repo": "sfomuseum-data-flights-2026-07"
  },
  "bbox": [
    -122.39696,
    37.62225,
    -121.26959,
    37.96165
  ],
  "geometry": {"coordinates":[[-122.38372,37.62225],[-122.38919,37.62444],[-122.39696,37.64438],[-122.37868,37.65639],[-122.3437,37.66834],[-122.31924,37.6775],[-122.26457,37.69898],[-122.22476,37.71415],[-122.1941,37.7281],[-122.14046,37.75584],[-122.11513,37.76928],[-122.03971,37.80803],[-122.00317,37.82535],[-121.92465,37.84104],[-121.87616,37.85053],[-121.81542,37.86148],[-121.77121,37.86962],[-121.6618,37.88997],[-121.62759,37.89627],[-121.50355,37.91912],[-121.41118,37.93595],[-121.26959,37.96165]],"type":"LineString"}
}
