{
  "id": 2032006039,
  "type": "Feature",
  "properties": {
    "geom:area": 0,
    "geom:bbox": "-122.786860,37.393330,-122.125490,38.355060",
    "geom:latitude": 37.76022438666496,
    "geom:longitude": -122.46222923714069,
    "src:alt_label": "swim-approach",
    "src:geom": "swim",
    "swim:elevations": [
      7012,
      6867,
      6300,
      6008,
      5478,
      5109,
      4906,
      4728,
      4362,
      4192,
      3827,
      3423,
      3353,
      3353,
      3353,
      3266,
      2988,
      2770,
      1623,
      1372,
      1222,
      951,
      893,
      715,
      660,
      481,
      426,
      233,
      202,
      87,
      25
    ],
    "swim:geom": "approach",
    "swim:timestamps": [
      1785244646,
      1785244653,
      1785244708,
      1785244736,
      1785244789,
      1785244828,
      1785244847,
      1785244865,
      1785244907,
      1785244924,
      1785244964,
      1785245036,
      1785245091,
      1785245133,
      1785245166,
      1785245202,
      1785245241,
      1785245278,
      1785245481,
      1785245515,
      1785245540,
      1785245576,
      1785245648,
      1785245691,
      1785245704,
      1785245751,
      1785245763,
      1785245819,
      1785245828,
      1785245864,
      1785245883
    ],
    "wof:geomhash": "5eb84b22ea98d57e43eb316dcc087237",
    "wof:id": 2032006039,
    "wof:repo": "sfomuseum-data-flights-2026-07"
  },
  "bbox": [
    -122.78686,
    37.39333,
    -122.12549,
    38.35506
  ],
  "geometry": {"coordinates":[[-122.78686,38.35506],[-122.78478,38.34145],[-122.77046,38.24482],[-122.75917,38.19611],[-122.73304,38.10618],[-122.71435,38.0415],[-122.7054,38.01055],[-122.69724,37.98251],[-122.67798,37.91616],[-122.66445,37.89271],[-122.61334,37.84319],[-122.52856,37.76289],[-122.47081,37.70849],[-122.43018,37.67038],[-122.39835,37.64037],[-122.36645,37.60694],[-122.34165,37.5645],[-122.31755,37.52508],[-122.12903,37.39333],[-122.12549,37.42095],[-122.13493,37.44217],[-122.14754,37.47302],[-122.17606,37.53245],[-122.21556,37.55168],[-122.22715,37.55662],[-122.26644,37.5731],[-122.27507,37.57677],[-122.31366,37.59291],[-122.31998,37.5956],[-122.34345,37.60546],[-122.35637,37.61088]],"type":"LineString"}
}
