{
  "id": 2032004593,
  "type": "Feature",
  "properties": {
    "date:cessation_lower": "2026-07-28",
    "date:cessation_upper": "2026-07-28",
    "date:inception_lower": "2026-07-28",
    "date:inception_upper": "2026-07-28",
    "edtf:cessation": "2026-07-28T12:22:54-07:00",
    "edtf:inception": "2026-07-28T20:22:00Z",
    "flysfo:actual_timestamp": -1,
    "flysfo:airline": "DL",
    "flysfo:base_airline": "",
    "flysfo:base_flight_number": "6800",
    "flysfo:date": "2026-07-28",
    "flysfo:estimated_timestamp": 1785292320,
    "flysfo:event": "A",
    "flysfo:flight_number": "DL679",
    "flysfo:gate": "C9",
    "flysfo:journey": "JFK-SFO",
    "flysfo:scheduled_timestamp": 1785288240,
    "flysfo:timestamp": 1785292320,
    "geom:area": 0,
    "geom:bbox": "-122.370943,37.617990,-73.787845,40.643286",
    "geom:latitude": 39.130638000000005,
    "geom:longitude": -98.07939400000001,
    "iata:airline": "DL",
    "iata:base_airline": "",
    "icao:aircraft": "B763",
    "icao:airline": "DAL",
    "icao:base_airline": "KLM",
    "lbl:latitude": 37.61799,
    "lbl:longitude": -122.370943,
    "sfomuseum:aircraft_id": 1159289965,
    "sfomuseum:airline_id": 1159284261,
    "sfomuseum:arrival_id": 102527513,
    "sfomuseum:base_flight_id": "20260728-A-KLM-6800",
    "sfomuseum:departure_id": 102534365,
    "sfomuseum:flight_id": "20260728-A-DAL-679",
    "sfomuseum:flight_number": [
      "DAL679",
      "DL679"
    ],
    "sfomuseum:placetype": "flight",
    "src:geom": "flysfo",
    "src:geom_alt": [
      "swim-path",
      "swim-approach"
    ],
    "swim:tail_number": "N172DZ",
    "wof:belongsto": [
      1763588121,
      102527513,
      1763588233,
      102191575,
      85633793,
      102087579,
      85922583,
      554784711,
      85688637,
      1763588251,
      1763588123,
      102085387
    ],
    "wof:concordances": {
      "swim:flight_ref": "153088424"
    },
    "wof:country": "US",
    "wof:created": 1785341156,
    "wof:geomhash": "ba4d31d1826c6198b5ffa8fdb1249c5d",
    "wof:hierarchy": [
      {
        "building_id": 1763588121,
        "campus_id": 102527513,
        "concourse_id": 1763588233,
        "continent_id": 102191575,
        "country_id": 85633793,
        "county_id": 102087579,
        "custom_id": 2032004593,
        "flight_id": 2032004593,
        "locality_id": 85922583,
        "postalcode_id": 554784711,
        "region_id": 85688637,
        "venue_id": 1763588251,
        "wing_id": 1763588123
      },
      {
        "building_id": 1763588121,
        "campus_id": 102527513,
        "concourse_id": 1763588233,
        "continent_id": 102191575,
        "country_id": 85633793,
        "county_id": 102085387,
        "custom_id": 2032004593,
        "flight_id": 2032004593,
        "region_id": 85688637,
        "venue_id": 1763588251,
        "wing_id": 1763588123
      }
    ],
    "wof:id": 2032004593,
    "wof:involves": [
      1159284613,
      1159289965,
      102527513,
      102534365,
      1159284261,
      1763588251
    ],
    "wof:lastmodified": 1785341997,
    "wof:name": "DL679 (JFK-SFO)",
    "wof:parent_id": 1763588251,
    "wof:placetype": "custom",
    "wof:placetype_alt": [
      "flight"
    ],
    "wof:repo": "sfomuseum-data-flights-2026-07",
    "wof:superseded_by": [],
    "wof:supersedes": []
  },
  "bbox": [
    -122.370943,
    37.61799,
    -73.787845,
    40.643286
  ],
  "geometry": {"coordinates":[[-73.787845,40.643286],[-122.370943,37.61799]],"type":"MultiPoint"}
}
