{
  "id": 2031943469,
  "type": "Feature",
  "properties": {
    "geom:area": 0,
    "geom:bbox": "-122.398870,37.623440,-121.261840,37.974600",
    "geom:latitude": 37.87336208176736,
    "geom:longitude": -121.8913359073868,
    "src:alt_label": "swim-takeoff",
    "src:geom": "swim",
    "swim:elevations": [
      122,
      183,
      368,
      532,
      637,
      672,
      694,
      1287,
      1493,
      1754,
      2035,
      2175,
      2287,
      2313,
      2606,
      2699,
      2834,
      2905,
      3154,
      3174,
      3263,
      3329,
      3495,
      3690,
      4125,
      4186,
      4651,
      4877,
      5022,
      5124,
      5173
    ],
    "swim:geom": "takeoff",
    "swim:timestamps": [
      1784797738,
      1784797741,
      1784797755,
      1784797788,
      1784797824,
      1784797832,
      1784797835,
      1784797886,
      1784797911,
      1784797930,
      1784797959,
      1784797974,
      1784797992,
      1784797999,
      1784798032,
      1784798043,
      1784798064,
      1784798075,
      1784798118,
      1784798123,
      1784798149,
      1784798167,
      1784798214,
      1784798238,
      1784798295,
      1784798310,
      1784798362,
      1784798416,
      1784798440,
      1784798455,
      1784798465
    ],
    "wof:geomhash": "7174aad146a938b69ddfdfc53185bcc7",
    "wof:id": 2031943469,
    "wof:repo": "sfomuseum-data-flights-2026-07"
  },
  "bbox": [
    -122.39887,
    37.62344,
    -121.26184,
    37.9746
  ],
  "geometry": {"coordinates":[[-122.38631,37.62344],[-122.38886,37.62456],[-122.39887,37.63109],[-122.39428,37.65509],[-122.35195,37.67021],[-122.34086,37.67372],[-122.33661,37.6751],[-122.28167,37.71509],[-122.27749,37.7463],[-122.2748,37.77134],[-122.27062,37.80865],[-122.26866,37.82803],[-122.25948,37.85],[-122.25251,37.85687],[-122.2001,37.87139],[-122.18026,37.87329],[-122.14368,37.87711],[-122.12378,37.87941],[-122.04626,37.88823],[-122.0351,37.88953],[-121.98402,37.89527],[-121.94691,37.89949],[-121.84462,37.91104],[-121.79071,37.91705],[-121.66157,37.93141],[-121.62859,37.935],[-121.508,37.9482],[-121.3802,37.96185],[-121.32225,37.96814],[-121.28483,37.97213],[-121.26184,37.9746]],"type":"LineString"}
}
