{
  "id": 2032053793,
  "type": "Feature",
  "properties": {
    "geom:area": 0,
    "geom:bbox": "-122.396111,32.851111,-96.775833,38.518889",
    "geom:latitude": 36.58763830592187,
    "geom:longitude": -109.13584905003786,
    "src:alt_label": "swim-path",
    "src:geom": "swim",
    "swim:altitudes": [
      "005",
      "015",
      "029",
      "032",
      "078",
      "147",
      "170",
      "192",
      "212",
      "230",
      "252",
      "283",
      "298",
      "311",
      "328",
      "341",
      "358",
      "370C",
      "370C",
      "370C",
      "370C",
      "370C",
      "370C",
      "370C",
      "370C",
      "370C",
      "370C",
      "370C",
      "370C",
      "370C",
      "370",
      "370",
      "380",
      "389C",
      "390C",
      "390C",
      "390C",
      "390C",
      "390C",
      "390C",
      "390C",
      "390C",
      "390C",
      "390C",
      "390C",
      "390C",
      "390C",
      "390C",
      "390C",
      "390C",
      "390C",
      "390C",
      "390C",
      "390C",
      "390C",
      "390C",
      "390C",
      "390C",
      "390C",
      "390C",
      "390C",
      "390C",
      "390C",
      "390C",
      "390C",
      "390C",
      "390C",
      "390C",
      "390C",
      "390C",
      "390C",
      "390C",
      "390C",
      "390C",
      "390C",
      "390C",
      "390C",
      "390C",
      "390C",
      "390C",
      "390C",
      "390C",
      "390C",
      "390C",
      "390C",
      "390C",
      "390C",
      "390C",
      "390C",
      "390C",
      "390C",
      "390C",
      "390C",
      "390C",
      "390C",
      "390C",
      "390C",
      "390C",
      "390C",
      "390C",
      "390C",
      "390C",
      "390C",
      "390C",
      "390C",
      "390C",
      "390C",
      "390C",
      "390C",
      "390C",
      "390C",
      "390C",
      "390C",
      "390C",
      "390C",
      "390C",
      "390C",
      "390C",
      "390C",
      "390C",
      "390C",
      "390C",
      "390C",
      "390C",
      "390C",
      "390C",
      "390C",
      "390C",
      "390C",
      "390C",
      "390C",
      "390C",
      "390C",
      "390C",
      "390C",
      "390C",
      "390C",
      "390C",
      "390C",
      "390C",
      "390C",
      "390C",
      "390C",
      "390C",
      "390C",
      "390C",
      "390C",
      "390C",
      "390C",
      "390C",
      "390C",
      "390C",
      "390C",
      "390C",
      "390C",
      "390C",
      "390C",
      "390C",
      "390C",
      "390C",
      "390C",
      "390C",
      "390C",
      "390C",
      "390C",
      "390C",
      "390C",
      "390C",
      "390C",
      "390C",
      "390C",
      "390C",
      "390C",
      "390C",
      "390C",
      "390C",
      "390C",
      "390C",
      "390C",
      "390C",
      "390C",
      "390C",
      "390C",
      "390C",
      "390C",
      "390C",
      "390C",
      "390C",
      "390C",
      "390C",
      "390C",
      "390C",
      "390C",
      "390C",
      "390C",
      "390C",
      "390C",
      "390C",
      "390C",
      "390C",
      "390C",
      "390C",
      "390C",
      "390",
      "385",
      "379",
      "376",
      "370",
      "370",
      "370",
      "370",
      "370",
      "370",
      "370",
      "358",
      "340",
      "320",
      "297",
      "274",
      "251",
      "227",
      "205",
      "200",
      "166",
      "141",
      "130",
      "124",
      "111",
      "110",
      "107",
      "102",
      "096",
      "091",
      "080",
      "073",
      "067",
      "059",
      "053",
      "047",
      "040",
      "040",
      "040",
      "040",
      "040",
      "040",
      "040",
      "040",
      "040",
      "040",
      "037",
      "031",
      "029",
      "030",
      "023",
      "020",
      "020",
      "020",
      "016",
      "013",
      "011",
      "007",
      "004"
    ],
    "swim:geom": "path",
    "swim:speeds": [
      143,
      163,
      232,
      230,
      292,
      380,
      393,
      402,
      414,
      427,
      439,
      461,
      469,
      472,
      477,
      478,
      478,
      468,
      467,
      467,
      467,
      467,
      466,
      464,
      464,
      465,
      465,
      465,
      466,
      466,
      467,
      468,
      468,
      469,
      471,
      473,
      475,
      476,
      476,
      476,
      475,
      473,
      471,
      469,
      468,
      467,
      466,
      464,
      464,
      464,
      464,
      464,
      464,
      465,
      466,
      466,
      467,
      467,
      466,
      468,
      465,
      466,
      464,
      464,
      462,
      462,
      461,
      461,
      461,
      461,
      460,
      460,
      461,
      462,
      462,
      463,
      464,
      464,
      465,
      465,
      466,
      466,
      467,
      467,
      467,
      467,
      467,
      467,
      467,
      467,
      467,
      467,
      467,
      467,
      466,
      467,
      467,
      466,
      466,
      466,
      466,
      467,
      468,
      469,
      470,
      471,
      471,
      470,
      470,
      468,
      467,
      466,
      466,
      465,
      465,
      465,
      465,
      466,
      466,
      464,
      462,
      460,
      458,
      457,
      457,
      459,
      461,
      463,
      464,
      463,
      463,
      462,
      462,
      461,
      461,
      462,
      462,
      463,
      463,
      464,
      464,
      466,
      466,
      467,
      468,
      468,
      468,
      468,
      467,
      468,
      468,
      468,
      467,
      467,
      462,
      457,
      454,
      452,
      450,
      450,
      451,
      456,
      456,
      458,
      456,
      458,
      457,
      460,
      457,
      462,
      461,
      463,
      462,
      464,
      462,
      468,
      470,
      471,
      476,
      474,
      476,
      475,
      477,
      476,
      477,
      476,
      477,
      477,
      477,
      476,
      476,
      475,
      475,
      474,
      473,
      472,
      471,
      471,
      471,
      471,
      471,
      471,
      471,
      471,
      471,
      472,
      475,
      477,
      478,
      478,
      478,
      478,
      477,
      476,
      474,
      466,
      472,
      473,
      472,
      457,
      438,
      421,
      405,
      394,
      395,
      368,
      364,
      337,
      304,
      295,
      286,
      288,
      287,
      298,
      306,
      304,
      304,
      302,
      294,
      295,
      288,
      289,
      286,
      266,
      261,
      263,
      261,
      262,
      259,
      261,
      261,
      256,
      232,
      210,
      197,
      172,
      162,
      153,
      135,
      138,
      136,
      137
    ],
    "swim:timestamps": [
      1785539240,
      1785539277,
      1785539318,
      1785539337,
      1785539457,
      1785539638,
      1785539698,
      1785539758,
      1785539818,
      1785539878,
      1785539938,
      1785540058,
      1785540118,
      1785540174,
      1785540238,
      1785540294,
      1785540354,
      1785540414,
      1785540474,
      1785540534,
      1785540594,
      1785540654,
      1785540714,
      1785540775,
      1785540895,
      1785540955,
      1785541019,
      1785541075,
      1785541135,
      1785541200,
      1785541255,
      1785541315,
      1785541380,
      1785541435,
      1785541496,
      1785541556,
      1785541616,
      1785541676,
      1785541736,
      1785541796,
      1785541856,
      1785541916,
      1785541976,
      1785542036,
      1785542097,
      1785542156,
      1785542216,
      1785542277,
      1785542337,
      1785542397,
      1785542457,
      1785542517,
      1785542578,
      1785542637,
      1785542698,
      1785542757,
      1785542818,
      1785542878,
      1785542938,
      1785542958,
      1785542998,
      1785543018,
      1785543058,
      1785543078,
      1785543118,
      1785543138,
      1785543178,
      1785543198,
      1785543239,
      1785543258,
      1785543318,
      1785543358,
      1785543378,
      1785543419,
      1785543438,
      1785543479,
      1785543490,
      1785543499,
      1785543539,
      1785543550,
      1785543559,
      1785543610,
      1785543619,
      1785543659,
      1785543670,
      1785543679,
      1785543719,
      1785543730,
      1785543739,
      1785543779,
      1785543791,
      1785543799,
      1785543851,
      1785543859,
      1785543911,
      1785543919,
      1785543981,
      1785544041,
      1785544101,
      1785544159,
      1785544220,
      1785544280,
      1785544340,
      1785544400,
      1785544460,
      1785544520,
      1785544580,
      1785544640,
      1785544700,
      1785544760,
      1785544820,
      1785544880,
      1785544941,
      1785545001,
      1785545061,
      1785545121,
      1785545181,
      1785545241,
      1785545301,
      1785545363,
      1785545423,
      1785545483,
      1785545543,
      1785545603,
      1785545663,
      1785545723,
      1785545784,
      1785545844,
      1785545904,
      1785545964,
      1785545986,
      1785546024,
      1785546046,
      1785546084,
      1785546106,
      1785546144,
      1785546166,
      1785546204,
      1785546226,
      1785546264,
      1785546286,
      1785546324,
      1785546346,
      1785546384,
      1785546406,
      1785546432,
      1785546467,
      1785546493,
      1785546527,
      1785546553,
      1785546587,
      1785546613,
      1785546647,
      1785546673,
      1785546733,
      1785546793,
      1785546854,
      1785546914,
      1785546971,
      1785547031,
      1785547091,
      1785547151,
      1785547174,
      1785547211,
      1785547234,
      1785547271,
      1785547294,
      1785547331,
      1785547354,
      1785547391,
      1785547414,
      1785547451,
      1785547475,
      1785547512,
      1785547535,
      1785547572,
      1785547595,
      1785547632,
      1785547655,
      1785547692,
      1785547715,
      1785547752,
      1785547775,
      1785547812,
      1785547835,
      1785547872,
      1785547895,
      1785547932,
      1785547955,
      1785547992,
      1785548015,
      1785548052,
      1785548075,
      1785548113,
      1785548135,
      1785548173,
      1785548196,
      1785548233,
      1785548256,
      1785548293,
      1785548316,
      1785548353,
      1785548376,
      1785548413,
      1785548436,
      1785548473,
      1785548496,
      1785548533,
      1785548556,
      1785548593,
      1785548616,
      1785548676,
      1785548736,
      1785548796,
      1785548856,
      1785548917,
      1785548977,
      1785549037,
      1785549097,
      1785549157,
      1785549217,
      1785549277,
      1785549337,
      1785549397,
      1785549438,
      1785549487,
      1785549517,
      1785549577,
      1785549606,
      1785549638,
      1785549666,
      1785549698,
      1785549721,
      1785549758,
      1785549786,
      1785549818,
      1785549847,
      1785549878,
      1785549901,
      1785549938,
      1785549961,
      1785549998,
      1785550021,
      1785550058,
      1785550087,
      1785550118,
      1785550141,
      1785550178,
      1785550201,
      1785550238,
      1785550261,
      1785550298,
      1785550321,
      1785550359,
      1785550387,
      1785550419,
      1785550447,
      1785550479,
      1785550507,
      1785550539,
      1785550567,
      1785550599
    ],
    "wof:geomhash": "25843cb5c9e0147d1e458e1bb7358b6d",
    "wof:id": 2032053793,
    "wof:repo": "sfomuseum-data-flights-2026-07"
  },
  "bbox": [
    -122.39611111111111,
    32.85111111111111,
    -96.77583333333334,
    38.51888888888889
  ],
  "geometry": {"coordinates":[[-122.38333333333334,37.61666666666667],[-122.39611111111111,37.63916666666667],[-122.35,37.666666666666664],[-122.335,37.671388888888885],[-122.16333333333334,37.74444444444445],[-121.83472222222221,37.85777777777778],[-121.7,37.882777777777775],[-121.56277777777777,37.908055555555556],[-121.4225,37.93333333333333],[-121.27638888888889,37.96],[-121.0961111111111,37.9925],[-120.78277777777778,38.04055555555556],[-120.61888888888888,38.065555555555555],[-120.4786111111111,38.08583333333333],[-120.29027777777777,38.115],[-120.1463888888889,38.13472222222222],[-119.98277777777778,38.159166666666664],[-119.82194444444444,38.181666666666665],[-119.65972222222223,38.205000000000005],[-119.49861111111112,38.22805555555556],[-119.33666666666666,38.251666666666665],[-119.17555555555556,38.27361111111111],[-119.01472222222222,38.29611111111111],[-118.85472222222222,38.318333333333335],[-118.53472222222221,38.36222222222222],[-118.37194444444444,38.38361111111111],[-118.1763888888889,38.409166666666664],[-118.04694444444445,38.42583333333333],[-117.88055555555555,38.447222222222216],[-117.715,38.46805555555556],[-117.55388888888889,38.488055555555555],[-117.38777777777779,38.50861111111111],[-117.22,38.51888888888889],[-117.05222222222221,38.51416666666667],[-116.88305555555554,38.50888888888889],[-116.71361111111112,38.50333333333333],[-116.54277777777777,38.4975],[-116.37388888888889,38.49166666666667],[-116.20583333333333,38.48583333333333],[-116.03583333333333,38.47916666666667],[-115.86805555555554,38.47166666666667],[-115.69944444444445,38.46416666666667],[-115.53472222222221,38.45777777777778],[-115.37027777777777,38.45055555555556],[-115.21861111111112,38.443888888888885],[-115.05555555555556,38.43583333333333],[-114.90055555555556,38.399166666666666],[-114.745,38.35388888888889],[-114.59305555555555,38.30916666666666],[-114.43833333333333,38.263333333333335],[-114.2911111111111,38.21],[-114.14305555555556,38.152499999999996],[-113.99666666666667,38.095],[-113.85138888888888,38.0375],[-113.70416666666667,37.97944444444445],[-113.55694444444444,37.920833333333334],[-113.41000000000001,37.86222222222222],[-113.26444444444445,37.80361111111111],[-113.11722222222221,37.74444444444445],[-113.06166666666667,37.721944444444446],[-112.97333333333333,37.686388888888885],[-112.915,37.66222222222222],[-112.82166666666666,37.62416666666667],[-112.76361111111112,37.60055555555556],[-112.67361111111111,37.56361111111111],[-112.61694444444444,37.54055555555556],[-112.53055555555555,37.505],[-112.47527777777778,37.481944444444444],[-112.38722222222223,37.44583333333333],[-112.33166666666666,37.422777777777775],[-112.19027777777778,37.36416666666667],[-112.10472222222222,37.32833333333333],[-112.04805555555555,37.30472222222222],[-111.96027777777778,37.268055555555556],[-111.90277777777779,37.24388888888889],[-111.81611111111111,37.2075],[-111.78805555555556,37.19583333333333],[-111.76027777777777,37.18388888888889],[-111.67277777777778,37.14694444444444],[-111.64666666666668,37.13583333333333],[-111.61583333333333,37.12277777777778],[-111.50083333333333,37.073888888888895],[-111.4725,37.06194444444444],[-111.38666666666667,37.025277777777774],[-111.35722222222222,37.01277777777778],[-111.32888888888888,37.00055555555556],[-111.24166666666667,36.96333333333334],[-111.21555555555555,36.95194444444445],[-111.1863888888889,36.93944444444444],[-111.10027777777778,36.902499999999996],[-111.07277777777777,36.89055555555556],[-111.04388888888889,36.878055555555555],[-110.92972222222222,36.828611111111115],[-110.90166666666667,36.81666666666667],[-110.78888888888889,36.76777777777777],[-110.76083333333334,36.75555555555555],[-110.61944444444444,36.693888888888885],[-110.47611111111111,36.630833333333335],[-110.33694444444444,36.569722222222225],[-110.19555555555556,36.507222222222225],[-110.05416666666666,36.44472222222222],[-109.91305555555556,36.38194444444444],[-109.77222222222223,36.31861111111112],[-109.63111111111111,36.25527777777778],[-109.48944444444444,36.19138888888889],[-109.34972222222221,36.128055555555555],[-109.20861111111111,36.06388888888888],[-109.07083333333333,36.00083333333333],[-108.93305555555555,35.937777777777775],[-108.78472222222221,35.91416666666667],[-108.63166666666666,35.936388888888885],[-108.47472222222223,35.958333333333336],[-108.31944444444444,35.98027777777778],[-108.16444444444446,36.001666666666665],[-108.00638888888889,36.02361111111111],[-107.84944444444444,36.044999999999995],[-107.69305555555556,36.06583333333333],[-107.53444444444445,36.086666666666666],[-107.37805555555555,36.10722222222223],[-107.22,36.128055555555555],[-107.06555555555555,36.14805555555556],[-106.91000000000001,36.16777777777777],[-106.75527777777778,36.1875],[-106.59888888888888,36.206944444444446],[-106.4225,36.23527777777778],[-106.28388888888888,36.281666666666666],[-106.13194444444444,36.333333333333336],[-105.98277777777778,36.38388888888889],[-105.83055555555555,36.43583333333333],[-105.6913888888889,36.48222222222223],[-105.65222222222222,36.495],[-105.54333333333334,36.530833333333334],[-105.505,36.54333333333333],[-105.4025,36.577222222222225],[-105.3586111111111,36.59166666666667],[-105.25222222222222,36.62722222222222],[-105.20916666666668,36.64138888888889],[-105.10499999999999,36.67583333333333],[-105.05694444444444,36.69166666666666],[-104.97194444444445,36.72],[-104.90666666666667,36.74],[-104.80444444444444,36.76972222222222],[-104.72944444444444,36.791666666666664],[-104.64527777777778,36.80472222222222],[-104.56916666666666,36.809999999999995],[-104.51722222222222,36.806666666666665],[-104.41666666666667,36.77638888888889],[-104.35944444444443,36.75083333333333],[-104.27555555555556,36.714444444444446],[-104.21888888888888,36.689722222222215],[-104.135,36.65277777777778],[-104.08472222222221,36.63027777777778],[-103.995,36.59055555555556],[-103.94388888888889,36.5675],[-103.80472222222222,36.505],[-103.66722222222222,36.44333333333333],[-103.53166666666667,36.382222222222225],[-103.3963888888889,36.321111111111115],[-103.2611111111111,36.25972222222222],[-103.12888888888888,36.19888888888889],[-102.99277777777777,36.13666666666666],[-102.86999999999999,36.080000000000005],[-102.81416666666667,36.05555555555555],[-102.73111111111112,36.01583333333333],[-102.67777777777778,35.99194444444444],[-102.59638888888888,35.95333333333333],[-102.54027777777777,35.92833333333333],[-102.45777777777778,35.88916666666667],[-102.40472222222223,35.86472222222223],[-102.31888888888888,35.824444444444445],[-102.26555555555555,35.80027777777777],[-102.18194444444445,35.76],[-102.1275,35.73583333333333],[-102.04472222222222,35.695277777777775],[-101.99027777777778,35.67111111111111],[-101.90527777777778,35.62916666666667],[-101.83361111111111,35.59527777777778],[-101.76527777777778,35.5625],[-101.70833333333334,35.535555555555554],[-101.6111111111111,35.48888888888889],[-101.56555555555555,35.467222222222226],[-101.48111111111112,35.42666666666666],[-101.42416666666666,35.39944444444444],[-101.34444444444443,35.36055555555556],[-101.28305555555555,35.33111111111111],[-101.19722222222222,35.29],[-101.1413888888889,35.26277777777778],[-101.05749999999999,35.22222222222222],[-101.00333333333333,35.19583333333333],[-100.91916666666667,35.15472222222222],[-100.86416666666666,35.12777777777778],[-100.78083333333333,35.08694444444445],[-100.72500000000001,35.05972222222222],[-100.64222222222223,35.01861111111111],[-100.59638888888888,34.99611111111111],[-100.50694444444444,34.952222222222225],[-100.46027777777778,34.92916666666667],[-100.37138888888889,34.88527777777778],[-100.32472222222222,34.86194444444445],[-100.24055555555556,34.82],[-100.18138888888889,34.79055555555556],[-100.10583333333332,34.7525],[-100.05222222222221,34.725833333333334],[-99.97,34.68444444444444],[-99.91694444444445,34.657777777777774],[-99.83277777777778,34.615833333333335],[-99.77888888888889,34.58888888888889],[-99.69472222222223,34.54611111111111],[-99.64055555555557,34.51888888888889],[-99.55527777777777,34.47555555555556],[-99.505,34.44972222222222],[-99.36749999999999,34.38027777777778],[-99.2238888888889,34.31305555555555],[-99.08805555555556,34.248333333333335],[-98.95333333333333,34.18333333333333],[-98.81833333333333,34.1175],[-98.6888888888889,34.05472222222222],[-98.55166666666666,33.98833333333334],[-98.41694444444445,33.92194444444444],[-98.27527777777777,33.87],[-98.115,33.83444444444444],[-97.97333333333333,33.8],[-97.85083333333333,33.76416666666667],[-97.74972222222222,33.68722222222222],[-97.68333333333334,33.63333333333333],[-97.61666666666666,33.56666666666667],[-97.57305555555556,33.53777777777778],[-97.49027777777778,33.47],[-97.45,33.45],[-97.39666666666668,33.448055555555555],[-97.35,33.45],[-97.30222222222221,33.44444444444444],[-97.26666666666667,33.45],[-97.2038888888889,33.44083333333333],[-97.15,33.43333333333333],[-97.10749999999999,33.43194444444444],[-97.05,33.416666666666664],[-97.01055555555556,33.40972222222222],[-96.96666666666667,33.4],[-96.91638888888889,33.39],[-96.86666666666666,33.38333333333333],[-96.82222222222222,33.371944444444445],[-96.78333333333333,33.36666666666667],[-96.77583333333334,33.32083333333334],[-96.78333333333333,33.28333333333333],[-96.795,33.24888888888889],[-96.8,33.21666666666667],[-96.81388888888888,33.17805555555555],[-96.81666666666666,33.15],[-96.8325,33.106944444444444],[-96.83333333333333,33.083333333333336],[-96.85944444444443,33.03972222222222],[-96.88333333333334,33.016666666666666],[-96.91305555555556,32.99583333333334],[-96.91666666666667,32.96666666666667],[-96.91944444444445,32.943888888888885],[-96.91666666666667,32.916666666666664],[-96.91055555555556,32.90361111111111],[-96.9,32.88333333333333],[-96.88166666666666,32.87888888888889],[-96.86666666666666,32.86666666666667],[-96.84972222222221,32.85111111111111]],"type":"LineString"}
}
