{
  "id": 2031977987,
  "type": "Feature",
  "properties": {
    "geom:area": 0,
    "geom:bbox": "-123.496630,36.965500,-122.099470,37.608630",
    "geom:latitude": 37.271132737949785,
    "geom:longitude": -122.68006648794776,
    "src:alt_label": "swim-approach",
    "src:geom": "swim",
    "swim:elevations": [
      5941,
      5655,
      5578,
      5551,
      5304,
      5133,
      5072,
      4905,
      4537,
      4215,
      4041,
      3771,
      3577,
      3325,
      3090,
      3064,
      3049,
      3048,
      3048,
      3048,
      3048,
      3048,
      3019,
      2984,
      2743,
      2743,
      2632,
      2441,
      2347,
      2259,
      2214,
      1980,
      1829,
      1829,
      1829,
      1829,
      1829,
      1829,
      1717,
      1618,
      1473,
      1219,
      1219,
      1219,
      1219,
      1151,
      997,
      856,
      816,
      780,
      699,
      548,
      514,
      434,
      313,
      276,
      176,
      66,
      58
    ],
    "swim:geom": "approach",
    "swim:timestamps": [
      1785092573,
      1785092606,
      1785092612,
      1785092617,
      1785092652,
      1785092671,
      1785092676,
      1785092695,
      1785092739,
      1785092779,
      1785092801,
      1785092835,
      1785092860,
      1785092888,
      1785092914,
      1785092917,
      1785092929,
      1785092979,
      1785092986,
      1785093024,
      1785093040,
      1785093066,
      1785093099,
      1785093111,
      1785093178,
      1785093181,
      1785093206,
      1785093238,
      1785093252,
      1785093265,
      1785093275,
      1785093315,
      1785093355,
      1785093363,
      1785093414,
      1785093431,
      1785093446,
      1785093465,
      1785093508,
      1785093525,
      1785093550,
      1785093597,
      1785093600,
      1785093627,
      1785093633,
      1785093672,
      1785093710,
      1785093737,
      1785093747,
      1785093752,
      1785093768,
      1785093800,
      1785093811,
      1785093826,
      1785093863,
      1785093871,
      1785093902,
      1785093928,
      1785093934
    ],
    "wof:geomhash": "dc7dc2b8589bbd8f4c19aba4c8673c21",
    "wof:id": 2031977987,
    "wof:repo": "sfomuseum-data-flights-2026-07"
  },
  "bbox": [
    -123.49663,
    36.9655,
    -122.09947,
    37.60863
  ],
  "geometry": {"coordinates":[[-123.49663,36.9655],[-123.43159,36.99556],[-123.42025,37.00081],[-123.41028,37.00526],[-123.34403,37.03667],[-123.30768,37.05359],[-123.29724,37.05844],[-123.26219,37.0745],[-123.18135,37.11173],[-123.11111,37.14404],[-123.07416,37.16105],[-123.01406,37.18862],[-122.97207,37.20794],[-122.92412,37.23001],[-122.88022,37.24981],[-122.87505,37.25194],[-122.85426,37.25898],[-122.77053,37.27923],[-122.75927,37.28184],[-122.69756,37.27794],[-122.67295,37.27002],[-122.63377,37.25735],[-122.58176,37.24043],[-122.56508,37.23497],[-122.48018,37.19648],[-122.47582,37.19698],[-122.44687,37.21322],[-122.44752,37.24749],[-122.46038,37.25899],[-122.47091,37.27005],[-122.47451,37.28038],[-122.44436,37.3147],[-122.39294,37.33246],[-122.38223,37.33481],[-122.31365,37.34988],[-122.29099,37.35487],[-122.27119,37.35922],[-122.24566,37.36504],[-122.18927,37.37791],[-122.16543,37.38341],[-122.13227,37.39092],[-122.09952,37.43143],[-122.09947,37.43452],[-122.10739,37.46128],[-122.10937,37.4672],[-122.13092,37.50339],[-122.16032,37.52838],[-122.18688,37.53951],[-122.19637,37.54354],[-122.20155,37.54575],[-122.2169,37.55223],[-122.24784,37.56529],[-122.25746,37.56926],[-122.27097,37.57507],[-122.29961,37.58708],[-122.30558,37.58967],[-122.32804,37.59885],[-122.34738,37.60709],[-122.35107,37.60863]],"type":"LineString"}
}
