{
  "id": 2032032671,
  "type": "Feature",
  "properties": {
    "geom:area": 0,
    "geom:bbox": "-122.360556,37.416667,-122.065556,37.614722",
    "geom:latitude": 37.50175312502095,
    "geom:longitude": -122.19513222638318,
    "src:alt_label": "swim-path",
    "src:geom": "swim",
    "swim:altitudes": [
      "087",
      "081",
      "076",
      "071",
      "066",
      "060",
      "054",
      "050",
      "049",
      "043",
      "039",
      "033",
      "026",
      "023",
      "017",
      "014",
      "010",
      "110"
    ],
    "swim:geom": "path",
    "swim:speeds": [
      248,
      249,
      247,
      247,
      242,
      244,
      244,
      243,
      228,
      233,
      224,
      227,
      213,
      196,
      160,
      155,
      147,
      142
    ],
    "swim:timestamps": [
      1785467645,
      1785467675,
      1785467706,
      1785467735,
      1785467766,
      1785467795,
      1785467826,
      1785467855,
      1785467886,
      1785467915,
      1785467946,
      1785467976,
      1785468012,
      1785468036,
      1785468072,
      1785468096,
      1785468132,
      1785468216
    ],
    "wof:geomhash": "55444f5ad8554f9397c2cbdf725cc5c9",
    "wof:id": 2032032671,
    "wof:repo": "sfomuseum-data-flights-2026-07"
  },
  "bbox": [
    -122.36055555555555,
    37.416666666666664,
    -122.06555555555555,
    37.61472222222223
  ],
  "geometry": {"coordinates":[[-122.3,37.516666666666666],[-122.28944444444444,37.48027777777778],[-122.25,37.46666666666667],[-122.21333333333334,37.44972222222222],[-122.16666666666667,37.43333333333333],[-122.1363888888889,37.42388888888889],[-122.08333333333333,37.416666666666664],[-122.06555555555555,37.439722222222215],[-122.06666666666666,37.46666666666667],[-122.095,37.49666666666667],[-122.13333333333334,37.516666666666666],[-122.1613888888889,37.530833333333334],[-122.2,37.55],[-122.22583333333334,37.55833333333333],[-122.26666666666667,37.56666666666667],[-122.27638888888889,37.57944444444445],[-122.3,37.6],[-122.36055555555555,37.61472222222223]],"type":"LineString"}
}
