{
  "id": 2032031389,
  "type": "Feature",
  "properties": {
    "geom:area": 0,
    "geom:bbox": "-122.350000,35.174167,-81.151667,38.243333",
    "geom:latitude": 36.540988605885964,
    "geom:longitude": -101.76707602475558,
    "src:alt_label": "swim-path",
    "src:geom": "swim",
    "swim:altitudes": [
      "053",
      "075",
      "104",
      "112",
      "121",
      "133",
      "158",
      "169",
      "178",
      "188",
      "207",
      "217",
      "233",
      "241",
      "247",
      "254",
      "262",
      "268",
      "279",
      "280",
      "282",
      "295",
      "296",
      "298",
      "299",
      "300",
      "300",
      "300",
      "301",
      "301",
      "300",
      "300",
      "300C",
      "300C",
      "300C",
      "300C",
      "300C",
      "300C",
      "301C",
      "300C",
      "300C",
      "299C",
      "300C",
      "300C",
      "300C",
      "300C",
      "300C",
      "300C",
      "300C",
      "300C",
      "300C",
      "300C",
      "300C",
      "300C",
      "300C",
      "300C",
      "300C",
      "300C",
      "300C",
      "300C",
      "300C",
      "300C",
      "300C",
      "300C",
      "300C",
      "300C",
      "300C",
      "300C",
      "300C",
      "300C",
      "300C",
      "300C",
      "300C",
      "300C",
      "300C",
      "300C",
      "300C",
      "300C",
      "300C",
      "300C",
      "300C",
      "300C",
      "300C",
      "300C",
      "300C",
      "300C",
      "300C",
      "300C",
      "300C",
      "300C",
      "300C",
      "300C",
      "300C",
      "300C",
      "300C",
      "300C",
      "300C",
      "300C",
      "300C",
      "300C",
      "300C",
      "300C",
      "300C",
      "300C",
      "300C",
      "300",
      "302",
      "308",
      "320C",
      "320C",
      "320C",
      "320C",
      "320C",
      "320C",
      "320C",
      "320C",
      "320C",
      "320C",
      "320C",
      "320C",
      "320C",
      "320C",
      "320C",
      "320C",
      "320C",
      "321C",
      "320C",
      "320C",
      "320C",
      "320C",
      "321C",
      "320C",
      "320C",
      "320C",
      "320C",
      "320C",
      "320C",
      "320C",
      "320C",
      "320",
      "321",
      "324",
      "330",
      "333",
      "337",
      "340C",
      "340C",
      "340C",
      "340C",
      "340C",
      "341C",
      "340C",
      "340C",
      "340C",
      "341C",
      "340C",
      "340C",
      "340C",
      "340C",
      "340C",
      "340C",
      "340C",
      "340C",
      "340C",
      "340C",
      "340C",
      "340C",
      "340C",
      "341C",
      "340C",
      "340C",
      "340C",
      "340C",
      "340C",
      "340C",
      "340C",
      "340C",
      "341C",
      "340C",
      "340C",
      "340C",
      "340C",
      "340C",
      "340C",
      "340C",
      "340C",
      "340C",
      "340C",
      "340C",
      "340C",
      "340C",
      "340C",
      "340C",
      "340C",
      "340C",
      "340C",
      "340C",
      "340C",
      "340C",
      "340C",
      "340C",
      "340C",
      "340C",
      "340C",
      "340C",
      "340C",
      "340C",
      "340C",
      "340C",
      "340C",
      "340C",
      "340C",
      "340C",
      "340C",
      "340C",
      "340C",
      "340C",
      "340C",
      "340C",
      "340C",
      "340C",
      "340C",
      "340C",
      "340C",
      "340C",
      "340C",
      "340C",
      "340C",
      "340C",
      "340C",
      "340C",
      "340C",
      "340C",
      "340C",
      "340C",
      "340C",
      "340C",
      "340C",
      "340C",
      "340C",
      "340C",
      "340C",
      "340C",
      "340C",
      "340C",
      "340C",
      "340C",
      "340C",
      "340C",
      "340C",
      "340C",
      "340C",
      "340C",
      "340C",
      "340C",
      "340C",
      "340C",
      "340C",
      "340C",
      "340C",
      "340C",
      "340C",
      "340C",
      "340C",
      "340C",
      "340C",
      "340C",
      "340C",
      "340C",
      "340C",
      "340C",
      "340C",
      "340C",
      "340",
      "333",
      "323",
      "318",
      "289",
      "270",
      "246",
      "225",
      "206",
      "185",
      "165",
      "147",
      "128",
      "112",
      "102",
      "087",
      "080",
      "070C",
      "059",
      "045",
      "035",
      "025",
      "009",
      "002"
    ],
    "swim:geom": "path",
    "swim:speeds": [
      279,
      276,
      291,
      328,
      356,
      362,
      375,
      382,
      387,
      394,
      403,
      406,
      415,
      418,
      423,
      427,
      429,
      431,
      424,
      429,
      425,
      419,
      416,
      415,
      415,
      416,
      418,
      422,
      427,
      427,
      429,
      430,
      431,
      433,
      434,
      435,
      436,
      437,
      437,
      435,
      434,
      432,
      431,
      431,
      432,
      434,
      436,
      438,
      440,
      441,
      442,
      443,
      447,
      449,
      450,
      450,
      450,
      450,
      451,
      451,
      452,
      452,
      454,
      454,
      455,
      455,
      455,
      455,
      455,
      453,
      453,
      452,
      453,
      453,
      452,
      451,
      451,
      451,
      452,
      453,
      453,
      453,
      453,
      452,
      452,
      453,
      454,
      454,
      455,
      454,
      456,
      455,
      456,
      456,
      456,
      458,
      458,
      460,
      459,
      460,
      456,
      456,
      454,
      453,
      452,
      452,
      452,
      454,
      454,
      454,
      453,
      451,
      450,
      450,
      450,
      450,
      449,
      448,
      447,
      447,
      446,
      444,
      445,
      445,
      448,
      453,
      453,
      450,
      450,
      450,
      453,
      449,
      447,
      446,
      444,
      443,
      446,
      443,
      445,
      443,
      444,
      443,
      444,
      444,
      445,
      446,
      446,
      447,
      446,
      448,
      452,
      454,
      454,
      449,
      449,
      448,
      448,
      447,
      447,
      447,
      447,
      446,
      447,
      446,
      447,
      447,
      449,
      448,
      450,
      450,
      449,
      449,
      447,
      449,
      444,
      444,
      445,
      445,
      444,
      443,
      442,
      442,
      442,
      442,
      440,
      438,
      437,
      435,
      434,
      432,
      431,
      429,
      430,
      432,
      433,
      433,
      433,
      433,
      434,
      435,
      436,
      436,
      435,
      434,
      433,
      432,
      432,
      432,
      432,
      432,
      431,
      431,
      431,
      430,
      429,
      428,
      427,
      427,
      426,
      419,
      426,
      419,
      426,
      420,
      427,
      421,
      428,
      423,
      428,
      427,
      428,
      428,
      428,
      428,
      428,
      428,
      427,
      427,
      427,
      426,
      426,
      425,
      425,
      423,
      421,
      419,
      418,
      416,
      414,
      413,
      412,
      414,
      414,
      415,
      415,
      416,
      415,
      415,
      415,
      416,
      415,
      416,
      415,
      415,
      415,
      415,
      415,
      415,
      416,
      416,
      417,
      417,
      417,
      416,
      415,
      416,
      422,
      428,
      415,
      402,
      391,
      378,
      373,
      354,
      348,
      350,
      339,
      312,
      297,
      283,
      274,
      272,
      257,
      221,
      181,
      146,
      130
    ],
    "swim:timestamps": [
      1785422887,
      1785422947,
      1785423067,
      1785423127,
      1785423187,
      1785423247,
      1785423367,
      1785423427,
      1785423487,
      1785423548,
      1785423668,
      1785423728,
      1785423848,
      1785423908,
      1785423968,
      1785424028,
      1785424088,
      1785424148,
      1785424208,
      1785424223,
      1785424269,
      1785424329,
      1785424343,
      1785424389,
      1785424403,
      1785424464,
      1785424524,
      1785424569,
      1785424629,
      1785424644,
      1785424689,
      1785424704,
      1785424764,
      1785424809,
      1785424824,
      1785424869,
      1785424884,
      1785424990,
      1785425004,
      1785425050,
      1785425064,
      1785425124,
      1785425170,
      1785425185,
      1785425245,
      1785425305,
      1785425365,
      1785425425,
      1785425485,
      1785425545,
      1785425605,
      1785425665,
      1785425725,
      1785425785,
      1785425845,
      1785425906,
      1785425966,
      1785426026,
      1785426086,
      1785426146,
      1785426206,
      1785426266,
      1785426326,
      1785426386,
      1785426446,
      1785426506,
      1785426566,
      1785426626,
      1785426687,
      1785426747,
      1785426807,
      1785426867,
      1785426927,
      1785426987,
      1785427047,
      1785427107,
      1785427167,
      1785427227,
      1785427287,
      1785427347,
      1785427408,
      1785427468,
      1785427528,
      1785427588,
      1785427648,
      1785427708,
      1785427748,
      1785427768,
      1785427828,
      1785427868,
      1785427888,
      1785427928,
      1785427948,
      1785428008,
      1785428128,
      1785428249,
      1785428288,
      1785428309,
      1785428409,
      1785428429,
      1785428549,
      1785428589,
      1785428669,
      1785428769,
      1785428789,
      1785428829,
      1785428849,
      1785428949,
      1785429190,
      1785429610,
      1785429670,
      1785429730,
      1785429791,
      1785429851,
      1785429911,
      1785429971,
      1785430031,
      1785430151,
      1785430211,
      1785430271,
      1785430331,
      1785430512,
      1785430572,
      1785430632,
      1785430753,
      1785430872,
      1785430992,
      1785431114,
      1785431174,
      1785431294,
      1785431474,
      1785431594,
      1785431655,
      1785431715,
      1785431835,
      1785431895,
      1785431904,
      1785431955,
      1785431964,
      1785432015,
      1785432024,
      1785432075,
      1785432145,
      1785432205,
      1785432265,
      1785432316,
      1785432325,
      1785432376,
      1785432385,
      1785432445,
      1785432505,
      1785432556,
      1785432625,
      1785432685,
      1785432745,
      1785432805,
      1785432866,
      1785432917,
      1785432926,
      1785432977,
      1785432986,
      1785433046,
      1785433106,
      1785433154,
      1785433166,
      1785433214,
      1785433226,
      1785433274,
      1785433286,
      1785433346,
      1785433394,
      1785433466,
      1785433526,
      1785433649,
      1785433707,
      1785433767,
      1785433827,
      1785433887,
      1785433947,
      1785434007,
      1785434067,
      1785434127,
      1785434247,
      1785434307,
      1785434368,
      1785434428,
      1785434488,
      1785434548,
      1785434608,
      1785434728,
      1785434788,
      1785434968,
      1785435028,
      1785435088,
      1785435149,
      1785435209,
      1785435269,
      1785435329,
      1785435389,
      1785435449,
      1785435511,
      1785435571,
      1785435631,
      1785435691,
      1785435751,
      1785435812,
      1785435872,
      1785435932,
      1785435992,
      1785436052,
      1785436112,
      1785436172,
      1785436232,
      1785436292,
      1785436352,
      1785436412,
      1785436472,
      1785436533,
      1785436593,
      1785436624,
      1785436653,
      1785436684,
      1785436713,
      1785436744,
      1785436773,
      1785436804,
      1785436833,
      1785436864,
      1785436893,
      1785436925,
      1785436953,
      1785436985,
      1785437013,
      1785437045,
      1785437073,
      1785437105,
      1785437133,
      1785437165,
      1785437193,
      1785437225,
      1785437253,
      1785437285,
      1785437314,
      1785437345,
      1785437374,
      1785437405,
      1785437434,
      1785437465,
      1785437494,
      1785437525,
      1785437554,
      1785437585,
      1785437614,
      1785437646,
      1785437674,
      1785437706,
      1785437734,
      1785437766,
      1785437794,
      1785437826,
      1785437854,
      1785437886,
      1785437914,
      1785437946,
      1785437974,
      1785438066,
      1785438126,
      1785438186,
      1785438246,
      1785438307,
      1785438367,
      1785438427,
      1785438487,
      1785438547,
      1785438607,
      1785438667,
      1785438727,
      1785438787,
      1785438847,
      1785438907,
      1785438967,
      1785439028,
      1785439088,
      1785439143,
      1785439203,
      1785439268,
      1785439323,
      1785439388,
      1785439448,
      1785439508,
      1785439568,
      1785439628,
      1785439688,
      1785439749,
      1785439809,
      1785439929,
      1785439984
    ],
    "wof:geomhash": "2d6a90924349518bde5e0633f82dd7a1",
    "wof:id": 2032031389,
    "wof:repo": "sfomuseum-data-flights-2026-07"
  },
  "bbox": [
    -122.35,
    35.174166666666665,
    -81.15166666666667,
    38.24333333333333
  ],
  "geometry": {"coordinates":[[-81.15166666666667,35.26166666666666],[-81.24305555555556,35.24888888888889],[-81.4325,35.21805555555556],[-81.53972222222222,35.200833333333335],[-81.65833333333335,35.184999999999995],[-81.78138888888888,35.1825],[-82.03555555555555,35.176944444444445],[-82.16444444444446,35.174166666666665],[-82.295,35.19277777777778],[-82.4238888888889,35.223055555555554],[-82.68833333333333,35.285],[-82.82055555555556,35.315555555555555],[-83.09527777777777,35.37916666666667],[-83.23416666666667,35.41083333333333],[-83.36555555555555,35.440555555555555],[-83.50666666666666,35.472500000000004],[-83.64916666666667,35.50416666666667],[-83.79138888888889,35.53583333333333],[-83.93083333333334,35.56666666666667],[-83.96027777777778,35.57277777777778],[-84.07277777777777,35.59777777777778],[-84.21111111111111,35.62777777777778],[-84.23916666666666,35.63388888888889],[-84.34888888888888,35.657777777777774],[-84.37666666666667,35.66361111111111],[-84.51361111111112,35.69333333333333],[-84.65361111111112,35.723333333333336],[-84.76527777777778,35.746944444444445],[-84.91083333333334,35.77777777777778],[-84.94194444444445,35.78444444444444],[-85.03,35.80277777777778],[-85.08944444444444,35.81527777777777],[-85.23416666666667,35.845555555555556],[-85.32166666666666,35.85777777777778],[-85.38333333333334,35.86527777777778],[-85.47166666666666,35.87583333333333],[-85.53055555555555,35.88305555555556],[-85.76833333333333,35.91083333333333],[-85.82777777777777,35.9175],[-85.93527777777778,35.92972222222222],[-85.97361111111111,35.93416666666666],[-86.11833333333333,35.95055555555556],[-86.2275,35.96277777777778],[-86.26555555555555,35.967222222222226],[-86.41250000000001,35.983333333333334],[-86.55972222222222,35.999722222222225],[-86.70916666666668,36.01583333333333],[-86.8475,36.030833333333334],[-86.99888888888889,36.04666666666667],[-87.14861111111112,36.0625],[-87.29888888888888,36.07805555555556],[-87.44944444444445,36.093333333333334],[-87.59194444444444,36.10194444444445],[-87.7461111111111,36.10583333333334],[-87.90277777777779,36.10944444444445],[-88.05583333333333,36.113055555555555],[-88.21166666666667,36.11638888888889],[-88.36611111111111,36.11944444444445],[-88.52194444444444,36.12222222222222],[-88.67750000000001,36.125277777777775],[-88.83555555555554,36.12777777777778],[-88.99111111111111,36.12722222222222],[-89.15027777777779,36.11138888888889],[-89.30611111111111,36.095555555555556],[-89.46305555555556,36.07916666666667],[-89.61972222222222,36.062777777777775],[-89.77583333333334,36.04611111111111],[-89.93277777777779,36.028888888888886],[-90.08666666666666,36.01222222222222],[-90.24194444444444,35.99472222222222],[-90.39472222222223,35.9775],[-90.5475,35.96027777777778],[-90.70444444444445,35.94222222222222],[-90.8475,35.925555555555555],[-91.00222222222222,35.9075],[-91.15416666666667,35.88944444444444],[-91.30388888888889,35.87138888888889],[-91.45805555555556,35.85277777777778],[-91.60916666666667,35.83416666666667],[-91.7625,35.816944444444445],[-91.91638888888889,35.80888888888889],[-92.07277777777777,35.8],[-92.24972222222222,35.78972222222222],[-92.40444444444445,35.78055555555555],[-92.55833333333334,35.771388888888886],[-92.68333333333334,35.763888888888886],[-92.80805555555555,35.756388888888885],[-92.83805555555556,35.75416666666667],[-92.99305555555556,35.744166666666665],[-93.12055555555555,35.73583333333333],[-93.15055555555556,35.73416666666667],[-93.27333333333333,35.726111111111116],[-93.30444444444444,35.723888888888894],[-93.46194444444444,35.71361111111111],[-93.77083333333333,35.69222222222222],[-94.08555555555554,35.669444444444444],[-94.21333333333334,35.66],[-94.245,35.657777777777774],[-94.52833333333334,35.63638888888889],[-94.55833333333334,35.63388888888889],[-94.86666666666666,35.609722222222224],[-94.96305555555556,35.60194444444445],[-95.17500000000001,35.58444444444444],[-95.42555555555556,35.56361111111111],[-95.48277777777778,35.558611111111105],[-95.57805555555555,35.550555555555555],[-95.63666666666667,35.54555555555555],[-95.89055555555557,35.52333333333333],[-96.51666666666667,35.46611111111111],[-97.60055555555554,35.364444444444445],[-97.75222222222222,35.37777777777778],[-97.90333333333334,35.397777777777776],[-98.05444444444444,35.41777777777777],[-98.205,35.4375],[-98.35749999999999,35.45722222222223],[-98.5075,35.47666666666667],[-98.64027777777778,35.49333333333333],[-98.94222222222223,35.53111111111111],[-99.09472222222222,35.55],[-99.24638888888889,35.56861111111112],[-99.39833333333334,35.586666666666666],[-99.85083333333333,35.64],[-100.00305555555556,35.6575],[-100.1538888888889,35.67444444444444],[-100.46083333333334,35.70888888888889],[-100.76916666666666,35.7425],[-101.06694444444445,35.77444444444444],[-101.36972222222222,35.80638888888888],[-101.51722222222222,35.83583333333333],[-101.81444444444445,35.89805555555556],[-102.26361111111112,35.990833333333335],[-102.56027777777777,36.05083333333333],[-102.70944444444444,36.08083333333334],[-102.85666666666665,36.11027777777778],[-103.15055555555556,36.168055555555554],[-103.3175,36.20055555555556],[-103.34444444444443,36.20583333333334],[-103.46472222222222,36.22916666666667],[-103.49333333333334,36.234722222222224],[-103.61222222222221,36.257777777777775],[-103.64083333333333,36.26305555555555],[-103.76166666666667,36.28611111111111],[-103.93777777777778,36.31944444444445],[-104.09083333333332,36.34805555555556],[-104.24055555555556,36.376111111111115],[-104.36194444444443,36.39861111111111],[-104.3888888888889,36.40361111111111],[-104.51194444444444,36.42611111111111],[-104.54138888888889,36.43138888888889],[-104.69277777777778,36.45916666666667],[-104.84472222222222,36.486666666666665],[-104.97111111111111,36.50555555555555],[-105.13111111111111,36.52861111111111],[-105.30888888888889,36.55361111111111],[-105.4588888888889,36.574444444444445],[-105.61166666666666,36.59583333333334],[-105.76527777777778,36.61694444444444],[-105.88472222222222,36.63333333333333],[-105.9175,36.63777777777778],[-106.03777777777778,36.653888888888886],[-106.075,36.65888888888889],[-106.21583333333334,36.67972222222222],[-106.36861111111111,36.70388888888889],[-106.48722222222223,36.72222222222222],[-106.52527777777777,36.72805555555556],[-106.64361111111111,36.74638888888889],[-106.68,36.751666666666665],[-106.79638888888888,36.769444444444446],[-106.83527777777778,36.775277777777774],[-106.985,36.797777777777775],[-107.1061111111111,36.81583333333333],[-107.26805555555555,36.84],[-107.41972222222223,36.86194444444445],[-107.73833333333333,36.90694444444444],[-107.87333333333332,36.92722222222222],[-108.02388888888889,36.94833333333333],[-108.19111111111111,36.97166666666667],[-108.34444444444443,36.99305555555556],[-108.49583333333334,37.01361111111111],[-108.64555555555556,37.034166666666664],[-108.79777777777778,37.05611111111111],[-108.94361111111111,37.092222222222226],[-109.22583333333334,37.163888888888884],[-109.37388888888889,37.20138888888889],[-109.53805555555556,37.2425],[-109.67527777777778,37.276666666666664],[-109.81805555555555,37.31222222222222],[-109.965,37.348333333333336],[-110.10944444444443,37.38388888888889],[-110.38305555555554,37.45027777777778],[-110.5286111111111,37.48527777777778],[-110.9575,37.587500000000006],[-111.10166666666666,37.62138888888889],[-111.24666666666667,37.655277777777776],[-111.39416666666668,37.689722222222215],[-111.53944444444444,37.723333333333336],[-111.68416666666667,37.75666666666667],[-111.83194444444445,37.790277777777774],[-111.97638888888889,37.823055555555555],[-112.12666666666667,37.85194444444445],[-112.30305555555556,37.88472222222222],[-112.45,37.91166666666666],[-112.59861111111111,37.93888888888888],[-112.74583333333334,37.96555555555556],[-112.89055555555557,37.99138888888889],[-113.03694444444444,38.01777777777777],[-113.18444444444445,38.04361111111111],[-113.33277777777778,38.069722222222225],[-113.48083333333334,38.095555555555556],[-113.6286111111111,38.12111111111111],[-113.77638888888889,38.146388888888886],[-113.92444444444445,38.17166666666667],[-114.07194444444444,38.19638888888888],[-114.21861111111112,38.221111111111114],[-114.36916666666666,38.24333333333333],[-114.51916666666666,38.242222222222225],[-114.66833333333334,38.23277777777778],[-114.81638888888888,38.223333333333336],[-114.96777777777778,38.213055555555556],[-115.05805555555555,38.20777777777778],[-115.11694444444444,38.20305555555556],[-115.2075,38.19777777777777],[-115.26583333333333,38.19277777777778],[-115.35666666666665,38.187777777777775],[-115.42055555555557,38.181666666666665],[-115.50666666666666,38.17638888888889],[-115.57249999999999,38.170833333333334],[-115.6575,38.16555555555556],[-115.7225,38.16],[-115.8111111111111,38.15416666666667],[-115.87166666666666,38.14888888888889],[-115.96194444444444,38.14194444444444],[-116.02166666666666,38.1375],[-116.11194444444443,38.13055555555555],[-116.17055555555557,38.126111111111115],[-116.26416666666667,38.118611111111115],[-116.32138888888889,38.11416666666667],[-116.4113888888889,38.106944444444444],[-116.47083333333333,38.102222222222224],[-116.56027777777777,38.095],[-116.61944444444444,38.09027777777778],[-116.70972222222223,38.08277777777778],[-116.76472222222222,38.07833333333333],[-116.85722222222222,38.07055555555556],[-116.91222222222223,38.066111111111105],[-117.00416666666666,38.05833333333333],[-117.05638888888889,38.053888888888885],[-117.13694444444445,38.04694444444444],[-117.19888888888889,38.041666666666664],[-117.27972222222222,38.03472222222222],[-117.34444444444443,38.028888888888886],[-117.42416666666666,38.02194444444444],[-117.48777777777778,38.01611111111111],[-117.58083333333333,38.00805555555556],[-117.63416666666667,38.003055555555555],[-117.72833333333334,37.99444444444445],[-117.80222222222221,37.98777777777778],[-117.87333333333332,37.981388888888894],[-117.94472222222223,37.974722222222226],[-118.01888888888888,37.967777777777776],[-118.0911111111111,37.96083333333333],[-118.15194444444445,37.95527777777778],[-118.23666666666666,37.947222222222216],[-118.2961111111111,37.94138888888889],[-118.35333333333332,37.93583333333333],[-118.58638888888889,37.913333333333334],[-118.73222222222222,37.89861111111111],[-118.88833333333334,37.88138888888889],[-119.03472222222221,37.86472222222223],[-119.17861111111111,37.84805555555556],[-119.32444444444444,37.83111111111111],[-119.4713888888889,37.81361111111111],[-119.61555555555555,37.796388888888885],[-119.75861111111111,37.77916666666667],[-119.90361111111112,37.76166666666666],[-120.04916666666666,37.743611111111115],[-120.19611111111111,37.72555555555556],[-120.34416666666667,37.70666666666667],[-120.46027777777778,37.692499999999995],[-120.60027777777778,37.67638888888889],[-120.74166666666667,37.65972222222222],[-120.86805555555554,37.644444444444446],[-120.99638888888889,37.62861111111111],[-121.13333333333334,37.61666666666667],[-121.25,37.6],[-121.38166666666666,37.57888888888889],[-121.48333333333333,37.56666666666667],[-121.61194444444443,37.551944444444445],[-121.71055555555556,37.53],[-121.80611111111111,37.507222222222225],[-121.89888888888889,37.4925],[-121.99416666666667,37.4975],[-122.08416666666666,37.50277777777778],[-122.15777777777778,37.529444444444444],[-122.21666666666667,37.55444444444444],[-122.31166666666667,37.59444444444445],[-122.35,37.61666666666667]],"type":"LineString"}
}
