{
  "id": 2031967379,
  "type": "Feature",
  "properties": {
    "geom:area": 0,
    "geom:bbox": "-122.400833,37.632222,-73.683333,42.760278",
    "geom:latitude": 41.66579025281505,
    "geom:longitude": -97.95969208763442,
    "src:alt_label": "swim-path",
    "src:geom": "swim",
    "swim:altitudes": [
      "008",
      "012",
      "026",
      "051",
      "071",
      "091",
      "106",
      "123",
      "141",
      "158",
      "175",
      "190",
      "203",
      "216",
      "230",
      "239",
      "250",
      "261",
      "271",
      "281",
      "289",
      "303",
      "309",
      "317",
      "323",
      "330C",
      "330C",
      "330C",
      "330C",
      "330C",
      "330C",
      "330C",
      "330C",
      "330C",
      "330C",
      "330C",
      "330C",
      "330C",
      "330C",
      "330C",
      "331",
      "335",
      "336",
      "343",
      "349C",
      "350C",
      "350C",
      "350C",
      "350C",
      "350C",
      "350C",
      "350C",
      "350C",
      "350C",
      "350C",
      "350C",
      "350C",
      "350C",
      "350C",
      "350C",
      "350C",
      "350C",
      "350C",
      "350C",
      "350C",
      "350C",
      "350C",
      "350C",
      "350C",
      "350C",
      "350C",
      "350C",
      "350C",
      "350C",
      "350C",
      "350C",
      "350C",
      "350C",
      "350C",
      "350C",
      "350C",
      "350C",
      "350C",
      "350C",
      "350C",
      "350C",
      "350C",
      "350C",
      "350C",
      "350C",
      "350C",
      "350C",
      "350C",
      "350C",
      "350C",
      "350C",
      "350C",
      "350C",
      "350C",
      "350C",
      "350C",
      "350C",
      "350C",
      "350C",
      "350C",
      "350C",
      "350C",
      "350C",
      "350C",
      "350C",
      "350C",
      "350C",
      "350C",
      "350C",
      "350C",
      "350C",
      "350C",
      "350C",
      "350C",
      "350C",
      "350C",
      "350C",
      "350C",
      "350C",
      "350C",
      "350C",
      "350C",
      "350C",
      "350C",
      "350C",
      "350C",
      "350C",
      "350C",
      "350C",
      "350C",
      "350C",
      "350C",
      "350C",
      "350C",
      "350C",
      "350C",
      "350C",
      "350C",
      "350C",
      "350C",
      "350C",
      "350C",
      "350C",
      "350C",
      "350C",
      "350C",
      "350C",
      "350C",
      "350C",
      "350C",
      "350C",
      "350C",
      "350C",
      "350C",
      "350C",
      "350C",
      "350C",
      "350C",
      "350C",
      "350C",
      "350C",
      "350C",
      "350C",
      "350C",
      "350C",
      "350C",
      "350C",
      "350C",
      "350C",
      "350C",
      "350C",
      "350C",
      "350C",
      "350C",
      "350C",
      "350C",
      "350C",
      "350C",
      "350C",
      "350C",
      "350C",
      "350C",
      "350C",
      "350C",
      "350C",
      "350C",
      "350C",
      "350C",
      "350C",
      "350C",
      "350C",
      "350C",
      "350C",
      "350C",
      "350C",
      "350C",
      "350C",
      "350C",
      "350C",
      "350C",
      "350C",
      "350C",
      "350C",
      "350C",
      "350C",
      "350C",
      "350C",
      "350C",
      "350C",
      "350C",
      "350C",
      "350C",
      "350C",
      "350C",
      "350C",
      "350C",
      "350C",
      "350C",
      "350C",
      "350C",
      "350C",
      "350C",
      "350C",
      "350C",
      "350C",
      "350C",
      "350C",
      "350C",
      "350C",
      "350C",
      "350C",
      "350C",
      "350C",
      "350C",
      "350C",
      "350C",
      "350C",
      "350C",
      "350C",
      "350C",
      "350C",
      "350C",
      "350C",
      "350C",
      "350C",
      "350C",
      "350C",
      "350C",
      "350C",
      "350C",
      "350C",
      "350C",
      "350C",
      "350C",
      "350C",
      "350C",
      "350C",
      "350C",
      "350C",
      "350C",
      "350C",
      "350C",
      "350C",
      "350C",
      "350C",
      "350C",
      "350C",
      "350C",
      "350C",
      "350C",
      "350C",
      "350C",
      "350C",
      "350C",
      "350C",
      "350C",
      "350C",
      "350C",
      "350C",
      "350C",
      "350C",
      "350C",
      "350C",
      "350C",
      "350C",
      "350C",
      "350C",
      "350C",
      "350C",
      "350C",
      "350C",
      "350C",
      "350C",
      "350C",
      "350C",
      "350C",
      "350C",
      "350C",
      "350C",
      "350",
      "350",
      "346",
      "332",
      "330",
      "330",
      "330",
      "330",
      "330",
      "330",
      "330",
      "330",
      "330",
      "330",
      "328",
      "317",
      "308",
      "270",
      "251",
      "231C",
      "229",
      "206",
      "190C",
      "190C",
      "190C",
      "190",
      "190C",
      "189",
      "174",
      "163",
      "145",
      "141",
      "130",
      "129",
      "115",
      "111",
      "096",
      "093",
      "079",
      "065",
      "057",
      "034",
      "030",
      "029",
      "025",
      "023",
      "020",
      "011",
      "010",
      "004"
    ],
    "swim:geom": "path",
    "swim:speeds": [
      164,
      163,
      252,
      264,
      288,
      303,
      334,
      356,
      364,
      371,
      383,
      395,
      405,
      412,
      419,
      429,
      441,
      453,
      453,
      461,
      467,
      487,
      494,
      494,
      501,
      505,
      505,
      506,
      507,
      514,
      510,
      510,
      512,
      515,
      516,
      516,
      516,
      512,
      512,
      511,
      508,
      509,
      510,
      509,
      509,
      513,
      513,
      515,
      517,
      517,
      517,
      512,
      511,
      513,
      516,
      517,
      517,
      517,
      518,
      519,
      509,
      505,
      504,
      504,
      504,
      504,
      504,
      506,
      505,
      505,
      506,
      506,
      506,
      504,
      503,
      504,
      506,
      508,
      513,
      513,
      512,
      511,
      511,
      510,
      510,
      508,
      509,
      508,
      508,
      507,
      507,
      506,
      505,
      504,
      503,
      502,
      503,
      502,
      503,
      504,
      505,
      506,
      508,
      509,
      511,
      513,
      514,
      513,
      512,
      511,
      508,
      507,
      506,
      506,
      507,
      506,
      505,
      505,
      506,
      509,
      511,
      511,
      509,
      506,
      504,
      507,
      497,
      504,
      493,
      498,
      491,
      495,
      492,
      495,
      492,
      495,
      492,
      489,
      490,
      489,
      488,
      488,
      488,
      488,
      488,
      488,
      487,
      487,
      487,
      488,
      488,
      488,
      490,
      495,
      497,
      498,
      497,
      496,
      489,
      488,
      488,
      489,
      490,
      491,
      493,
      494,
      496,
      497,
      499,
      499,
      500,
      500,
      500,
      501,
      501,
      501,
      502,
      502,
      502,
      501,
      500,
      500,
      499,
      498,
      498,
      497,
      496,
      496,
      495,
      495,
      495,
      497,
      497,
      498,
      499,
      500,
      501,
      503,
      504,
      504,
      505,
      505,
      505,
      504,
      504,
      503,
      502,
      502,
      502,
      502,
      503,
      503,
      503,
      504,
      504,
      503,
      504,
      503,
      503,
      504,
      503,
      504,
      502,
      501,
      501,
      500,
      498,
      497,
      495,
      494,
      493,
      491,
      489,
      483,
      488,
      489,
      489,
      490,
      491,
      491,
      491,
      490,
      489,
      489,
      488,
      489,
      489,
      489,
      489,
      487,
      487,
      486,
      487,
      487,
      488,
      490,
      491,
      487,
      492,
      492,
      492,
      492,
      493,
      492,
      493,
      492,
      494,
      493,
      496,
      494,
      498,
      499,
      501,
      504,
      505,
      503,
      502,
      502,
      501,
      500,
      500,
      500,
      500,
      500,
      500,
      500,
      499,
      500,
      498,
      496,
      494,
      493,
      491,
      491,
      489,
      488,
      488,
      488,
      488,
      487,
      487,
      486,
      486,
      485,
      485,
      484,
      484,
      486,
      486,
      486,
      486,
      486,
      486,
      486,
      486,
      486,
      487,
      487,
      487,
      484,
      478,
      449,
      438,
      428,
      418,
      411,
      399,
      403,
      404,
      387,
      361,
      355,
      343,
      336,
      327,
      322,
      317,
      310,
      308,
      301,
      297,
      291,
      292,
      288,
      256,
      198,
      179,
      180,
      179,
      182,
      180,
      154,
      147,
      148
    ],
    "swim:timestamps": [
      1785013346,
      1785013368,
      1785013428,
      1785013488,
      1785013548,
      1785013608,
      1785013668,
      1785013728,
      1785013789,
      1785013849,
      1785013909,
      1785013969,
      1785014029,
      1785014089,
      1785014149,
      1785014209,
      1785014269,
      1785014325,
      1785014385,
      1785014449,
      1785014505,
      1785014630,
      1785014690,
      1785014746,
      1785014810,
      1785014870,
      1785014926,
      1785014986,
      1785015050,
      1785015118,
      1785015178,
      1785015230,
      1785015238,
      1785015298,
      1785015351,
      1785015358,
      1785015418,
      1785015531,
      1785015539,
      1785015591,
      1785015659,
      1785015711,
      1785015719,
      1785015779,
      1785015839,
      1785015951,
      1785015959,
      1785016019,
      1785016079,
      1785016139,
      1785016260,
      1785016320,
      1785016380,
      1785016440,
      1785016500,
      1785016560,
      1785016620,
      1785016680,
      1785016740,
      1785016800,
      1785016860,
      1785016920,
      1785016981,
      1785017041,
      1785017101,
      1785017161,
      1785017221,
      1785017281,
      1785017401,
      1785017461,
      1785017533,
      1785017593,
      1785017653,
      1785017774,
      1785017834,
      1785017894,
      1785018014,
      1785018074,
      1785018254,
      1785018374,
      1785018425,
      1785018494,
      1785018509,
      1785018555,
      1785018569,
      1785018675,
      1785018689,
      1785018735,
      1785018749,
      1785018795,
      1785018810,
      1785018855,
      1785018870,
      1785018915,
      1785018930,
      1785018975,
      1785018990,
      1785019050,
      1785019107,
      1785019167,
      1785019227,
      1785019288,
      1785019348,
      1785019408,
      1785019468,
      1785019531,
      1785019591,
      1785019651,
      1785019711,
      1785019831,
      1785019891,
      1785019951,
      1785020011,
      1785020071,
      1785020131,
      1785020191,
      1785020251,
      1785020312,
      1785020372,
      1785020432,
      1785020492,
      1785020552,
      1785020612,
      1785020672,
      1785020732,
      1785020754,
      1785020792,
      1785020814,
      1785020852,
      1785020874,
      1785020912,
      1785020934,
      1785020972,
      1785020995,
      1785021033,
      1785021055,
      1785021093,
      1785021175,
      1785021213,
      1785021235,
      1785021333,
      1785021355,
      1785021393,
      1785021415,
      1785021475,
      1785021535,
      1785021573,
      1785021595,
      1785021633,
      1785021655,
      1785021693,
      1785021716,
      1785021776,
      1785021836,
      1785021896,
      1785021956,
      1785022016,
      1785022076,
      1785022136,
      1785022196,
      1785022256,
      1785022316,
      1785022376,
      1785022437,
      1785022497,
      1785022557,
      1785022617,
      1785022677,
      1785022737,
      1785022797,
      1785022857,
      1785022917,
      1785022977,
      1785023037,
      1785023097,
      1785023158,
      1785023198,
      1785023218,
      1785023278,
      1785023338,
      1785023379,
      1785023410,
      1785023439,
      1785023470,
      1785023499,
      1785023530,
      1785023590,
      1785023619,
      1785023650,
      1785023710,
      1785023739,
      1785023799,
      1785023830,
      1785023860,
      1785023891,
      1785023920,
      1785023951,
      1785024011,
      1785024040,
      1785024071,
      1785024100,
      1785024131,
      1785024160,
      1785024220,
      1785024251,
      1785024311,
      1785024340,
      1785024371,
      1785024431,
      1785024461,
      1785024491,
      1785024521,
      1785024551,
      1785024581,
      1785024612,
      1785024641,
      1785024672,
      1785024701,
      1785024761,
      1785024792,
      1785024821,
      1785024852,
      1785024881,
      1785024938,
      1785024998,
      1785025059,
      1785025119,
      1785025179,
      1785025239,
      1785025299,
      1785025359,
      1785025419,
      1785025479,
      1785025539,
      1785025599,
      1785025659,
      1785025719,
      1785025779,
      1785025840,
      1785025900,
      1785026020,
      1785026080,
      1785026140,
      1785026200,
      1785026260,
      1785026320,
      1785026380,
      1785026440,
      1785026501,
      1785026681,
      1785026741,
      1785026801,
      1785026861,
      1785026921,
      1785026981,
      1785027041,
      1785027101,
      1785027125,
      1785027161,
      1785027185,
      1785027221,
      1785027245,
      1785027281,
      1785027305,
      1785027341,
      1785027365,
      1785027401,
      1785027425,
      1785027462,
      1785027486,
      1785027522,
      1785027546,
      1785027582,
      1785027642,
      1785027666,
      1785027702,
      1785027726,
      1785027762,
      1785027786,
      1785027846,
      1785027882,
      1785027906,
      1785027942,
      1785027966,
      1785028002,
      1785028026,
      1785028062,
      1785028086,
      1785028122,
      1785028182,
      1785028242,
      1785028267,
      1785028302,
      1785028327,
      1785028387,
      1785028423,
      1785028447,
      1785028483,
      1785028507,
      1785028543,
      1785028567,
      1785028603,
      1785028627,
      1785028663,
      1785028687,
      1785028723,
      1785028747,
      1785028807,
      1785028843,
      1785028867,
      1785028927,
      1785028963,
      1785028987,
      1785029023,
      1785029048,
      1785029083,
      1785029108,
      1785029143,
      1785029168,
      1785029203,
      1785029228,
      1785029348,
      1785029408,
      1785029468,
      1785029528,
      1785029648,
      1785029768,
      1785029828,
      1785029888,
      1785029897,
      1785029949,
      1785029957,
      1785030017,
      1785030069,
      1785030129,
      1785030137,
      1785030189,
      1785030197,
      1785030249,
      1785030257,
      1785030309,
      1785030317,
      1785030369,
      1785030429,
      1785030489,
      1785030609,
      1785030669,
      1785030732,
      1785030789,
      1785030803,
      1785030850,
      1785030910,
      1785030917,
      1785030970
    ],
    "wof:geomhash": "01867da8b97680969f91ec6c9cbf951b",
    "wof:id": 2031967379,
    "wof:repo": "sfomuseum-data-flights-2026-07"
  },
  "bbox": [
    -122.40083333333334,
    37.632222222222225,
    -73.68333333333334,
    42.76027777777778
  ],
  "geometry": {"coordinates":[[-122.4,37.63333333333333],[-122.40083333333334,37.632222222222225],[-122.35666666666665,37.67305555555555],[-122.27,37.69888888888889],[-122.19,37.74333333333333],[-122.12888888888888,37.812777777777775],[-122.06277777777777,37.88527777777778],[-121.99027777777778,37.96527777777778],[-121.91583333333334,38.047777777777775],[-121.83749999999999,38.132222222222225],[-121.74583333333334,38.23361111111111],[-121.66444444444446,38.32194444444445],[-121.5786111111111,38.414722222222224],[-121.47027777777778,38.49166666666667],[-121.34805555555555,38.56388888888888],[-121.24388888888889,38.625],[-121.115,38.7],[-120.98777777777778,38.772777777777776],[-120.85722222222222,38.846111111111114],[-120.7238888888889,38.926944444444445],[-120.58972222222222,39.00138888888889],[-120.30833333333334,39.16444444444444],[-120.16583333333334,39.24527777777778],[-120.02444444444444,39.32472222222223],[-119.87638888888888,39.40861111111111],[-119.72694444444444,39.49166666666667],[-119.57138888888889,39.559999999999995],[-119.40444444444445,39.61805555555556],[-119.23527777777778,39.67722222222222],[-119.03388888888888,39.74638888888889],[-118.86305555555555,39.803888888888885],[-118.72416666666666,39.85111111111111],[-118.69277777777778,39.861666666666665],[-118.51916666666666,39.92027777777778],[-118.37888888888888,39.967777777777776],[-118.3475,39.97805555555556],[-118.17472222222223,40.035555555555554],[-117.86777777777777,40.13666666666666],[-117.83944444444444,40.145833333333336],[-117.69583333333334,40.19277777777778],[-117.50277777777778,40.25555555555555],[-117.36388888888888,40.30027777777777],[-117.32944444444443,40.311388888888885],[-117.16083333333334,40.36555555555556],[-116.98777777777778,40.42055555555555],[-116.65944444444445,40.52388888888889],[-116.66444444444446,40.5225],[-116.48694444444445,40.57805555555556],[-116.31222222222222,40.632222222222225],[-116.13972222222223,40.68555555555555],[-115.78194444444445,40.78972222222222],[-115.59972222222221,40.81166666666666],[-115.41361111111112,40.83416666666667],[-115.23305555555555,40.87222222222222],[-115.05388888888889,40.91833333333333],[-114.87222222222222,40.96527777777778],[-114.69388888888889,41.01305555555555],[-114.51833333333333,41.06583333333333],[-114.34166666666667,41.11944444444445],[-114.16277777777778,41.174166666666665],[-113.98027777777779,41.202222222222225],[-113.79583333333333,41.20888888888889],[-113.60749999999999,41.21527777777778],[-113.42527777777778,41.22083333333334],[-113.215,41.22777777777778],[-113.03138888888888,41.23361111111111],[-112.84333333333333,41.23916666666667],[-112.65916666666668,41.244166666666665],[-112.28416666666666,41.25333333333333],[-112.09944444444444,41.257777777777775],[-111.86999999999999,41.26277777777778],[-111.68166666666667,41.26638888888889],[-111.49361111111111,41.26916666666666],[-111.12249999999999,41.275277777777774],[-110.93444444444445,41.277499999999996],[-110.74972222222222,41.279444444444444],[-110.37805555555555,41.282222222222224],[-110.18833333333333,41.28333333333333],[-109.63166666666666,41.34027777777778],[-109.25916666666667,41.399166666666666],[-109.11861111111111,41.42111111111111],[-108.90722222222223,41.453611111111115],[-108.9075,41.453611111111115],[-108.7238888888889,41.48166666666667],[-108.6863888888889,41.48722222222222],[-108.35416666666666,41.536944444444444],[-108.31777777777778,41.5425],[-108.17222222222223,41.56388888888888],[-108.135,41.56916666666667],[-107.98861111111111,41.59055555555556],[-107.95166666666667,41.59583333333334],[-107.80638888888889,41.61666666666667],[-107.76972222222223,41.621944444444445],[-107.6211111111111,41.64277777777778],[-107.58527777777778,41.647777777777776],[-107.43972222222223,41.668055555555554],[-107.40333333333334,41.67305555555555],[-107.21972222222223,41.698611111111106],[-107.03722222222223,41.723333333333336],[-106.85027777777778,41.74861111111111],[-106.66555555555556,41.77361111111111],[-106.46833333333333,41.79944444444444],[-106.28305555555555,41.823055555555555],[-106.09888888888888,41.84638888888889],[-105.9075,41.87083333333334],[-105.72,41.89416666666666],[-105.52944444444444,41.91722222222222],[-105.34222222222222,41.94],[-105.15527777777778,41.96222222222222],[-104.78194444444445,42.005833333333335],[-104.59777777777778,42.026944444444446],[-104.41166666666668,42.047777777777775],[-104.23,42.06805555555556],[-104.00694444444444,42.091944444444444],[-103.82,42.11194444444445],[-103.63416666666667,42.13138888888889],[-103.44833333333334,42.15083333333333],[-103.25972222222222,42.17027777777778],[-103.07083333333333,42.175555555555555],[-102.88,42.174166666666665],[-102.68861111111111,42.170833333333334],[-102.49833333333333,42.1675],[-102.30805555555555,42.16416666666667],[-102.14333333333335,42.16611111111111],[-101.95805555555556,42.18694444444444],[-101.87444444444444,42.19361111111111],[-101.77222222222223,42.20611111111111],[-101.69166666666668,42.211666666666666],[-101.59138888888889,42.223333333333336],[-101.51083333333334,42.22916666666667],[-101.40777777777778,42.24111111111111],[-101.32972222222222,42.24638888888889],[-101.22527777777778,42.25833333333333],[-101.1463888888889,42.26416666666667],[-101.0436111111111,42.275277777777774],[-100.96277777777777,42.281666666666666],[-100.85944444444443,42.29222222222222],[-100.60444444444444,42.31527777777777],[-100.49305555555556,42.32527777777778],[-100.41888888888889,42.33166666666667],[-100.12916666666666,42.35638888888889],[-100.0611111111111,42.36194444444445],[-99.94722222222222,42.37166666666667],[-99.87638888888888,42.3775],[-99.69611111111111,42.39222222222222],[-99.49638888888889,42.408055555555556],[-99.40055555555556,42.41583333333333],[-99.31472222222222,42.422777777777775],[-99.21972222222223,42.43],[-99.13055555555555,42.43666666666666],[-99.03805555555556,42.44361111111111],[-98.94888888888889,42.45],[-98.765,42.46333333333334],[-98.5775,42.47694444444445],[-98.39222222222223,42.49],[-98.20694444444445,42.50222222222222],[-98.01861111111111,42.514722222222225],[-97.83305555555555,42.526944444444446],[-97.65083333333334,42.53861111111111],[-97.47055555555556,42.54944444444444],[-97.285,42.56083333333333],[-97.10249999999999,42.57138888888889],[-96.91611111111112,42.581944444444446],[-96.73222222222222,42.592222222222226],[-96.54472222222222,42.6025],[-96.35888888888888,42.61222222222222],[-96.17194444444445,42.62138888888889],[-95.98388888888888,42.63055555555555],[-95.79333333333334,42.63916666666667],[-95.60472222222222,42.647777777777776],[-95.41833333333334,42.655833333333334],[-95.22833333333334,42.66361111111111],[-95.04138888888889,42.671388888888885],[-94.85055555555554,42.678888888888885],[-94.66277777777778,42.68611111111111],[-94.5,42.69166666666666],[-94.38555555555556,42.695277777777775],[-94.30916666666667,42.69777777777777],[-94.12027777777777,42.703611111111115],[-93.9325,42.70944444444445],[-93.82083333333333,42.713055555555556],[-93.7088888888889,42.71638888888889],[-93.63472222222222,42.718333333333334],[-93.52055555555556,42.721111111111114],[-93.44888888888889,42.72277777777778],[-93.335,42.725833333333334],[-93.14888888888889,42.73027777777778],[-93.03833333333333,42.73277777777778],[-92.96305555555556,42.73444444444444],[-92.77583333333334,42.738055555555555],[-92.66333333333334,42.74027777777778],[-92.47666666666667,42.743611111111115],[-92.40055555555556,42.745],[-92.28861111111111,42.746944444444445],[-92.20972222222223,42.74805555555556],[-92.09666666666666,42.75],[-92.02083333333333,42.75111111111111],[-91.83222222222221,42.75333333333333],[-91.71833333333333,42.754444444444445],[-91.61333333333333,42.75527777777778],[-91.54416666666667,42.755833333333335],[-91.43027777777779,42.75666666666667],[-91.35416666666666,42.757222222222225],[-91.16416666666667,42.75861111111111],[-91.05,42.759166666666665],[-90.86166666666666,42.75972222222222],[-90.78583333333333,42.75972222222222],[-90.67305555555556,42.76],[-90.48472222222222,42.76027777777778],[-90.40944444444445,42.76],[-90.29277777777777,42.75972222222222],[-90.22027777777778,42.75944444444445],[-90.13055555555555,42.759166666666665],[-90.02777777777777,42.75888888888889],[-89.94055555555556,42.75888888888889],[-89.82305555555556,42.75805555555556],[-89.74972222222222,42.757777777777775],[-89.63472222222222,42.75694444444444],[-89.44583333333334,42.75527777777778],[-89.37083333333332,42.75416666666667],[-89.25694444444444,42.753055555555555],[-89.18277777777779,42.75138888888889],[-89.06972222222223,42.75083333333333],[-88.88277777777778,42.748333333333335],[-88.69388888888889,42.74583333333334],[-88.50611111111111,42.7425],[-88.32222222222222,42.73888888888889],[-88.135,42.73527777777778],[-87.94972222222222,42.731388888888894],[-87.76527777777778,42.72694444444445],[-87.58138888888888,42.72222222222222],[-87.3963888888889,42.717777777777776],[-87.20722222222223,42.71222222222222],[-87.04138888888889,42.70638888888889],[-86.84166666666667,42.70055555555556],[-86.6575,42.69416666666666],[-86.47416666666666,42.6875],[-86.29138888888889,42.681666666666665],[-86.11083333333333,42.675],[-85.92777777777778,42.66777777777777],[-85.56222222222222,42.652499999999996],[-85.37805555555555,42.64416666666666],[-85.19305555555556,42.63583333333333],[-85.01277777777777,42.62722222222222],[-84.83027777777778,42.617222222222225],[-84.64555555555556,42.60194444444445],[-84.45416666666667,42.586666666666666],[-84.27277777777778,42.57222222222222],[-84.09888888888888,42.558055555555555],[-83.53999999999999,42.51083333333333],[-83.35638888888889,42.49444444444445],[-83.16944444444445,42.4775],[-82.98611111111111,42.46083333333333],[-82.80527777777777,42.443888888888885],[-82.6236111111111,42.42638888888889],[-82.4375,42.40861111111111],[-82.25583333333333,42.39083333333333],[-82.1875,42.38027777777778],[-82.08916666666666,42.37416666666667],[-82.0025,42.36361111111111],[-81.90805555555556,42.35583333333334],[-81.82,42.345555555555556],[-81.7225,42.33638888888889],[-81.6375,42.32416666666667],[-81.54027777777777,42.316944444444445],[-81.45416666666667,42.30472222222222],[-81.35555555555555,42.29388888888889],[-81.27083333333333,42.28194444444444],[-81.17277777777778,42.26972222222222],[-81.08694444444444,42.256388888888885],[-80.98583333333333,42.24611111111111],[-80.90138888888889,42.23388888888889],[-80.79861111111111,42.221944444444446],[-80.61277777777777,42.19694444444444],[-80.52833333333334,42.18416666666666],[-80.42805555555556,42.1725],[-80.34472222222222,42.16027777777778],[-80.24222222222222,42.14722222222222],[-80.1613888888889,42.135],[-79.97777777777777,42.10916666666667],[-79.86583333333333,42.094722222222224],[-79.79472222222222,42.083333333333336],[-79.68277777777779,42.06861111111112],[-79.61055555555555,42.05833333333333],[-79.50166666666667,42.0425],[-79.42833333333334,42.03055555555555],[-79.31666666666666,42.01583333333333],[-79.245,42.005],[-79.13361111111112,41.98916666666667],[-78.95416666666667,41.96277777777778],[-78.77361111111111,41.93583333333333],[-78.70138888888889,41.92472222222222],[-78.59583333333333,41.90861111111111],[-78.52361111111111,41.8975],[-78.34805555555555,41.87083333333334],[-78.23722222222223,41.853611111111114],[-78.16861111111112,41.84277777777778],[-78.06055555555555,41.825833333333335],[-77.99583333333334,41.815555555555555],[-77.88166666666666,41.7975],[-77.82,41.7875],[-77.70694444444445,41.76972222222222],[-77.64277777777778,41.759166666666665],[-77.52916666666667,41.74055555555556],[-77.46777777777778,41.73083333333334],[-77.36333333333333,41.71388888888889],[-77.29472222222222,41.7025],[-77.12277777777777,41.67111111111111],[-77.01972222222223,41.643055555555556],[-76.95083333333334,41.62444444444444],[-76.78555555555555,41.57916666666667],[-76.66694444444445,41.54666666666667],[-76.59861111111111,41.52777777777778],[-76.49916666666667,41.500277777777775],[-76.42722222222223,41.480555555555554],[-76.35138888888888,41.45944444444445],[-76.28777777777778,41.44194444444444],[-76.18361111111112,41.41277777777778],[-76.11333333333333,41.393055555555556],[-76.01666666666667,41.365833333333335],[-75.94500000000001,41.34527777777778],[-75.63083333333333,41.253055555555555],[-75.48416666666667,41.20416666666667],[-75.33888888888889,41.155277777777776],[-75.18916666666667,41.10472222222222],[-74.91222222222223,41.010555555555555],[-74.61861111111111,40.96638888888889],[-74.47194444444445,40.94916666666666],[-74.32638888888889,40.931666666666665],[-74.3,40.93333333333333],[-74.1913888888889,40.915277777777774],[-74.16666666666667,40.916666666666664],[-74.05,40.86666666666667],[-73.96777777777778,40.831944444444446],[-73.86972222222222,40.78388888888889],[-73.85,40.766666666666666],[-73.77444444444444,40.736666666666665],[-73.75,40.733333333333334],[-73.71805555555555,40.66777777777777],[-73.71666666666667,40.65],[-73.68916666666667,40.580555555555556],[-73.68333333333334,40.56666666666667],[-73.69638888888889,40.50194444444445],[-73.75222222222222,40.439722222222215],[-73.84555555555555,40.43],[-73.99583333333334,40.44416666666666],[-73.98,40.49138888888889],[-73.95,40.53333333333333],[-73.92111111111112,40.580555555555556],[-73.91666666666667,40.583333333333336],[-73.8875,40.62166666666667],[-73.85333333333332,40.66027777777778],[-73.85,40.666666666666664],[-73.8025,40.663333333333334]],"type":"LineString"}
}
