{
  "id": 2032053367,
  "type": "Feature",
  "properties": {
    "geom:area": 0,
    "geom:bbox": "-119.287500,39.784167,-73.446111,45.141111",
    "geom:latitude": 42.997102118154075,
    "geom:longitude": -95.89577935144709,
    "src:alt_label": "swim-path",
    "src:geom": "swim",
    "swim:altitudes": [
      "311",
      "316",
      "319",
      "324",
      "325",
      "330C",
      "330C",
      "330C",
      "330C",
      "330C",
      "330C",
      "330C",
      "331C",
      "330C",
      "330C",
      "330C",
      "330C",
      "330C",
      "330C",
      "330C",
      "330C",
      "330C",
      "330C",
      "330C",
      "330C",
      "330C",
      "330C",
      "330C",
      "330C",
      "330C",
      "330C",
      "330C",
      "330C",
      "330C",
      "330C",
      "330C",
      "330C",
      "330C",
      "330C",
      "330C",
      "330C",
      "331C",
      "330C",
      "330C",
      "330C",
      "330C",
      "330C",
      "330C",
      "330C",
      "330C",
      "330C",
      "330C",
      "331C",
      "330C",
      "330C",
      "330C",
      "330C",
      "330C",
      "330C",
      "331C",
      "331C",
      "330C",
      "330C",
      "330C",
      "330C",
      "330C",
      "330C",
      "330C",
      "330C",
      "330C",
      "330C",
      "330C",
      "330C",
      "330C",
      "330C",
      "330C",
      "330C",
      "330C",
      "330C",
      "331",
      "340",
      "350C",
      "350C",
      "351C",
      "351C",
      "350C",
      "350C",
      "350C",
      "350C",
      "350C",
      "350C",
      "350C",
      "350C",
      "350C",
      "350C",
      "350C",
      "350C",
      "350C",
      "350C",
      "350C",
      "350C",
      "350C",
      "350C",
      "350C",
      "350C",
      "350C",
      "350C",
      "350C",
      "350C",
      "350C",
      "350C",
      "350C",
      "350C",
      "351C",
      "350C",
      "350C",
      "350C",
      "350C",
      "350C",
      "350C",
      "351C",
      "350C",
      "350C",
      "350C",
      "350C",
      "350C",
      "350C",
      "350C",
      "350C",
      "350C",
      "350C",
      "350C",
      "350C",
      "350C",
      "350C",
      "350C",
      "350C",
      "350C",
      "350C",
      "350C",
      "351C",
      "350C",
      "350C",
      "350C",
      "350C",
      "350C",
      "350C",
      "350C",
      "351C",
      "350C",
      "350C",
      "351C",
      "350C",
      "350C",
      "350C",
      "350C",
      "350C",
      "350C",
      "350C",
      "350C",
      "350C",
      "350C",
      "350C",
      "350C",
      "350C",
      "350C",
      "350C",
      "350C",
      "350C",
      "350C",
      "350C",
      "351C",
      "350C",
      "350C",
      "350C",
      "350C",
      "350C",
      "350C",
      "350C",
      "350C",
      "350C",
      "350C",
      "350C",
      "350C",
      "350C",
      "350C",
      "351C",
      "351C",
      "351C",
      "350C",
      "350C",
      "350C",
      "350C",
      "350C",
      "350C",
      "350C",
      "350C",
      "350C",
      "350C",
      "350C",
      "350C",
      "350C",
      "350C",
      "350C",
      "350C",
      "350C",
      "350C",
      "350C",
      "350C",
      "350C",
      "350C",
      "350C",
      "350C",
      "350C",
      "350C",
      "351C",
      "350C",
      "350C",
      "350C",
      "350C",
      "350C",
      "350C",
      "350C",
      "350C",
      "350C",
      "350C",
      "350C",
      "350C",
      "350C",
      "350C",
      "350C",
      "350C",
      "350C",
      "350C",
      "350C",
      "350C",
      "350C",
      "350C",
      "350C",
      "350C",
      "350C",
      "350C",
      "350C",
      "350C",
      "350C",
      "350C",
      "350C",
      "350C",
      "350C",
      "351C",
      "350C",
      "350C",
      "350C",
      "350C",
      "350C",
      "350C",
      "350C",
      "350C",
      "350C",
      "350",
      "351",
      "350",
      "350",
      "350",
      "350",
      "350",
      "350",
      "341",
      "319",
      "313",
      "286",
      "266",
      "244",
      "230",
      "230",
      "230",
      "230",
      "212",
      "202",
      "199",
      "194",
      "191",
      "186",
      "180",
      "170",
      "165",
      "150",
      "140",
      "134",
      "130",
      "130",
      "126",
      "113",
      "108",
      "097",
      "088",
      "073",
      "063",
      "052",
      "040",
      "040",
      "040",
      "040",
      "040",
      "040",
      "040",
      "040",
      "040",
      "031",
      "025",
      "021",
      "020",
      "014",
      "011",
      "006",
      "003"
    ],
    "swim:geom": "path",
    "swim:speeds": [
      506,
      509,
      506,
      508,
      506,
      507,
      505,
      506,
      505,
      504,
      505,
      505,
      505,
      504,
      504,
      500,
      500,
      499,
      499,
      499,
      500,
      499,
      500,
      500,
      500,
      501,
      501,
      502,
      501,
      500,
      499,
      499,
      498,
      497,
      497,
      497,
      497,
      497,
      497,
      497,
      497,
      496,
      494,
      492,
      490,
      488,
      486,
      486,
      486,
      487,
      488,
      489,
      489,
      484,
      482,
      480,
      478,
      477,
      479,
      480,
      481,
      480,
      478,
      476,
      474,
      475,
      475,
      475,
      476,
      476,
      476,
      475,
      474,
      474,
      474,
      474,
      477,
      488,
      487,
      482,
      475,
      469,
      469,
      471,
      473,
      471,
      466,
      466,
      469,
      471,
      472,
      473,
      474,
      475,
      473,
      475,
      474,
      474,
      474,
      474,
      473,
      470,
      470,
      468,
      467,
      466,
      465,
      464,
      464,
      464,
      465,
      465,
      465,
      466,
      465,
      463,
      460,
      459,
      460,
      461,
      462,
      460,
      458,
      457,
      456,
      456,
      455,
      454,
      453,
      453,
      455,
      456,
      457,
      456,
      455,
      454,
      452,
      450,
      449,
      450,
      451,
      450,
      448,
      447,
      446,
      446,
      449,
      456,
      461,
      466,
      472,
      477,
      473,
      472,
      471,
      469,
      467,
      466,
      467,
      468,
      469,
      469,
      468,
      468,
      469,
      470,
      471,
      470,
      469,
      468,
      465,
      467,
      467,
      469,
      470,
      472,
      474,
      477,
      478,
      479,
      480,
      481,
      484,
      486,
      487,
      488,
      489,
      489,
      490,
      489,
      482,
      478,
      477,
      478,
      478,
      478,
      479,
      479,
      479,
      479,
      479,
      478,
      478,
      477,
      477,
      476,
      475,
      474,
      474,
      474,
      475,
      475,
      477,
      480,
      480,
      482,
      484,
      508,
      510,
      512,
      516,
      517,
      516,
      517,
      517,
      516,
      516,
      516,
      515,
      514,
      512,
      512,
      511,
      508,
      503,
      504,
      501,
      501,
      500,
      499,
      499,
      498,
      497,
      497,
      496,
      496,
      498,
      497,
      499,
      498,
      499,
      498,
      497,
      498,
      497,
      497,
      497,
      497,
      497,
      498,
      498,
      498,
      498,
      497,
      498,
      498,
      498,
      497,
      492,
      492,
      492,
      491,
      471,
      445,
      444,
      447,
      448,
      442,
      423,
      392,
      358,
      344,
      346,
      340,
      334,
      330,
      323,
      320,
      313,
      315,
      312,
      313,
      305,
      297,
      299,
      290,
      290,
      288,
      288,
      281,
      278,
      277,
      278,
      277,
      271,
      272,
      273,
      267,
      234,
      220,
      215,
      194,
      174,
      154,
      153,
      154
    ],
    "swim:timestamps": [
      1785573019,
      1785573066,
      1785573079,
      1785573126,
      1785573139,
      1785573186,
      1785573199,
      1785573246,
      1785573319,
      1785573379,
      1785573439,
      1785573487,
      1785573499,
      1785573547,
      1785573559,
      1785573799,
      1785573847,
      1785573859,
      1785573907,
      1785573919,
      1785573967,
      1785573979,
      1785574027,
      1785574087,
      1785574147,
      1785574207,
      1785574267,
      1785574327,
      1785574387,
      1785574447,
      1785574507,
      1785574567,
      1785574627,
      1785574687,
      1785574747,
      1785574807,
      1785574867,
      1785574927,
      1785574987,
      1785575047,
      1785575107,
      1785575167,
      1785575227,
      1785575287,
      1785575347,
      1785575407,
      1785575468,
      1785575528,
      1785575588,
      1785575648,
      1785575708,
      1785575768,
      1785575828,
      1785575948,
      1785576008,
      1785576068,
      1785576128,
      1785576248,
      1785576308,
      1785576368,
      1785576428,
      1785576488,
      1785576548,
      1785576608,
      1785576668,
      1785576723,
      1785576783,
      1785576843,
      1785576903,
      1785576963,
      1785577023,
      1785577083,
      1785577148,
      1785577204,
      1785577508,
      1785577564,
      1785577624,
      1785577688,
      1785577744,
      1785577804,
      1785577864,
      1785577984,
      1785578044,
      1785578104,
      1785578164,
      1785578224,
      1785578284,
      1785578344,
      1785578464,
      1785578524,
      1785578584,
      1785578644,
      1785578704,
      1785578764,
      1785578779,
      1785578824,
      1785578839,
      1785578884,
      1785578899,
      1785578944,
      1785579004,
      1785579064,
      1785579079,
      1785579124,
      1785579139,
      1785579184,
      1785579199,
      1785579244,
      1785579260,
      1785579304,
      1785579320,
      1785579364,
      1785579380,
      1785579424,
      1785579500,
      1785579620,
      1785579800,
      1785579860,
      1785579920,
      1785579980,
      1785580040,
      1785580160,
      1785580220,
      1785580280,
      1785580340,
      1785580400,
      1785580460,
      1785580520,
      1785580580,
      1785580640,
      1785580760,
      1785580820,
      1785580880,
      1785580941,
      1785581001,
      1785581061,
      1785581121,
      1785581181,
      1785581241,
      1785581301,
      1785581421,
      1785581481,
      1785581541,
      1785581601,
      1785581661,
      1785581721,
      1785581781,
      1785581841,
      1785581901,
      1785581961,
      1785582021,
      1785582081,
      1785582201,
      1785582261,
      1785582321,
      1785582381,
      1785582441,
      1785582501,
      1785582561,
      1785582622,
      1785582682,
      1785582742,
      1785582802,
      1785582862,
      1785582922,
      1785582982,
      1785583042,
      1785583102,
      1785583162,
      1785583222,
      1785583342,
      1785583462,
      1785583642,
      1785583762,
      1785583822,
      1785583882,
      1785583942,
      1785584003,
      1785584063,
      1785584123,
      1785584183,
      1785584243,
      1785584363,
      1785584423,
      1785584443,
      1785584483,
      1785584503,
      1785584543,
      1785584563,
      1785584603,
      1785584623,
      1785584663,
      1785584683,
      1785584723,
      1785584743,
      1785584783,
      1785584864,
      1785584903,
      1785584924,
      1785584963,
      1785584984,
      1785585023,
      1785585044,
      1785585083,
      1785585104,
      1785585164,
      1785585224,
      1785585264,
      1785585284,
      1785585324,
      1785585344,
      1785585384,
      1785585405,
      1785585465,
      1785585504,
      1785585525,
      1785585586,
      1785585766,
      1785585826,
      1785585886,
      1785585958,
      1785586018,
      1785586066,
      1785586078,
      1785586138,
      1785586186,
      1785586247,
      1785586259,
      1785586307,
      1785586367,
      1785586379,
      1785586439,
      1785586499,
      1785586559,
      1785586619,
      1785586667,
      1785586739,
      1785586787,
      1785586799,
      1785586847,
      1785586859,
      1785586908,
      1785586920,
      1785586968,
      1785586980,
      1785587028,
      1785587040,
      1785587088,
      1785587160,
      1785587208,
      1785587220,
      1785587280,
      1785587328,
      1785587340,
      1785587400,
      1785587448,
      1785587508,
      1785587521,
      1785587568,
      1785587629,
      1785587641,
      1785587689,
      1785587701,
      1785587749,
      1785587761,
      1785587821,
      1785587869,
      1785587941,
      1785587989,
      1785588001,
      1785588061,
      1785588121,
      1785588182,
      1785588302,
      1785588362,
      1785588422,
      1785588482,
      1785588559,
      1785588602,
      1785588619,
      1785588662,
      1785588679,
      1785588722,
      1785588740,
      1785588782,
      1785588800,
      1785588860,
      1785588903,
      1785588926,
      1785588963,
      1785588986,
      1785589023,
      1785589083,
      1785589106,
      1785589143,
      1785589166,
      1785589203,
      1785589226,
      1785589263,
      1785589323,
      1785589346,
      1785589406,
      1785589443,
      1785589504,
      1785589526,
      1785589581,
      1785589624,
      1785589647,
      1785589706,
      1785589744,
      1785589766,
      1785589804,
      1785589864,
      1785589881,
      1785589924,
      1785589946
    ],
    "wof:geomhash": "15f3cb1b745e00a3ce63eaeaaf2434de",
    "wof:id": 2032053367,
    "wof:repo": "sfomuseum-data-flights-2026-07"
  },
  "bbox": [
    -119.2875,
    39.784166666666664,
    -73.44611111111111,
    45.14111111111111
  ],
  "geometry": {"coordinates":[[-119.2875,39.784166666666664],[-119.1725,39.849722222222226],[-119.13944444444445,39.868611111111115],[-119.02055555555556,39.93138888888889],[-118.98861111111111,39.947222222222216],[-118.86416666666666,40.006388888888885],[-118.83083333333333,40.02027777777778],[-118.70472222222223,40.073888888888895],[-118.5075,40.157777777777774],[-118.34805555555555,40.225],[-118.18583333333333,40.29277777777778],[-118.05638888888889,40.33305555555556],[-118.01527777777778,40.3425],[-117.88083333333333,40.370555555555555],[-117.8425,40.37888888888889],[-117.13722222222223,40.525555555555556],[-116.99444444444444,40.55472222222222],[-116.95694444444445,40.56222222222222],[-116.85333333333332,40.588055555555556],[-116.815,40.598888888888894],[-116.67972222222222,40.63583333333333],[-116.64111111111112,40.64611111111111],[-116.50777777777778,40.6875],[-116.34055555555555,40.74111111111111],[-116.16972222222223,40.79388888888889],[-116,40.84666666666667],[-115.82944444444443,40.89888888888889],[-115.65861111111111,40.95111111111111],[-115.48722222222223,41.00333333333333],[-115.31777777777778,41.05444444444444],[-115.14611111111111,41.10583333333334],[-114.97722222222222,41.15611111111111],[-114.80527777777777,41.206944444444446],[-114.62694444444443,41.25944444444445],[-114.45722222222223,41.30916666666666],[-114.28416666666666,41.35916666666667],[-114.11444444444444,41.408055555555556],[-113.94055555555556,41.45777777777778],[-113.76944444444445,41.50611111111111],[-113.59805555555555,41.55444444444444],[-113.42361111111111,41.603611111111114],[-113.2525,41.651111111111106],[-113.07916666666667,41.69888888888889],[-112.90944444444445,41.745555555555555],[-112.73916666666666,41.79194444444444],[-112.56833333333333,41.83777777777778],[-112.4,41.88333333333333],[-112.22833333333334,41.92944444444444],[-112.05555555555556,41.975],[-111.8825,42.020833333333336],[-111.71055555555556,42.065555555555555],[-111.5363888888889,42.11083333333333],[-111.365,42.15472222222222],[-111.0225,42.242222222222225],[-110.86999999999999,42.28055555555555],[-110.69861111111112,42.32333333333334],[-110.53138888888888,42.365],[-110.18944444444445,42.44888888888889],[-110.01888888888888,42.49027777777778],[-109.84583333333333,42.532222222222224],[-109.67194444444445,42.573888888888895],[-109.50027777777778,42.61472222222223],[-109.32888888888888,42.655277777777776],[-109.15944444444445,42.69499999999999],[-108.98833333333333,42.734722222222224],[-108.81666666666666,42.77444444444444],[-108.6438888888889,42.81444444444444],[-108.47805555555556,42.85138888888889],[-108.29861111111111,42.891666666666666],[-108.12777777777777,42.92972222222222],[-107.95555555555556,42.96805555555556],[-107.78361111111111,43.00555555555555],[-107.59638888888888,43.046388888888885],[-107.45861111111111,43.07611111111112],[-106.55166666666666,43.2675],[-106.41166666666668,43.29666666666667],[-106.23666666666666,43.33222222222223],[-106.05722222222222,43.368611111111115],[-105.87944444444443,43.40416666666667],[-105.70111111111112,43.43944444444444],[-105.52805555555555,43.47361111111111],[-105.18166666666667,43.54083333333333],[-105.0075,43.57416666666667],[-104.82833333333333,43.60805555555556],[-104.6525,43.64111111111111],[-104.4786111111111,43.67333333333333],[-104.30499999999999,43.705555555555556],[-104.13083333333333,43.737500000000004],[-103.77944444444444,43.80083333333333],[-103.60388888888889,43.83222222222223],[-103.42500000000001,43.86361111111111],[-103.24861111111112,43.894444444444446],[-103.07249999999999,43.92472222222222],[-102.89222222222223,43.955555555555556],[-102.8625,43.96055555555556],[-102.72083333333333,43.984722222222224],[-102.68472222222222,43.99055555555556],[-102.54027777777777,44.015],[-102.5075,44.02027777777778],[-102.36527777777778,44.04388888888889],[-102.18722222222223,44.073055555555555],[-102.01222222222222,44.10138888888889],[-101.97722222222222,44.106944444444444],[-101.83583333333333,44.12972222222222],[-101.80277777777778,44.135],[-101.66277777777778,44.157222222222224],[-101.62833333333333,44.16277777777778],[-101.48666666666666,44.184999999999995],[-101.45222222222222,44.190555555555555],[-101.31444444444445,44.211666666666666],[-101.27805555555555,44.217222222222226],[-101.1363888888889,44.23888888888889],[-101.10249999999999,44.244166666666665],[-100.96111111111111,44.26583333333333],[-100.75277777777778,44.29722222222222],[-100.40138888888889,44.34916666666667],[-99.845,44.428888888888885],[-99.67111111111112,44.45305555555556],[-99.49666666666667,44.477222222222224],[-99.32416666666666,44.50083333333333],[-99.14583333333334,44.525],[-98.79888888888888,44.57083333333334],[-98.62444444444444,44.593611111111116],[-98.44833333333334,44.61638888888889],[-98.28138888888888,44.6375],[-98.10472222222222,44.65972222222222],[-97.93194444444445,44.68083333333333],[-97.75611111111111,44.7025],[-97.58333333333333,44.723333333333336],[-97.40777777777778,44.744166666666665],[-97.05555555555556,44.785],[-96.88,44.805],[-96.70194444444445,44.825],[-96.52722222222222,44.84444444444445],[-96.34972222222221,44.86388888888889],[-96.17583333333334,44.8825],[-95.99888888888889,44.901111111111106],[-95.825,44.919444444444444],[-95.65194444444445,44.93722222222222],[-95.47611111111111,44.955000000000005],[-95.12583333333333,44.98972222222222],[-94.95222222222222,45.00611111111111],[-94.77694444444444,45.022777777777776],[-94.61083333333333,45.038333333333334],[-94.4388888888889,45.053888888888885],[-94.26333333333334,45.069722222222225],[-94.0886111111111,45.08555555555556],[-93.90833333333335,45.100833333333334],[-93.7275,45.11638888888889],[-93.54222222222222,45.13194444444444],[-93.35583333333332,45.14111111111111],[-93.16555555555556,45.126666666666665],[-92.83027777777778,45.095555555555556],[-92.64777777777779,45.07777777777778],[-92.46388888888889,45.05972222222222],[-92.28083333333333,45.041666666666664],[-92.10111111111111,45.02361111111111],[-91.92166666666667,45.005],[-91.73916666666666,44.986111111111114],[-91.55833333333334,44.966944444444444],[-91.37666666666667,44.9475],[-91.19583333333334,44.927499999999995],[-91.01444444444445,44.9075],[-90.83388888888888,44.88722222222222],[-90.64972222222222,44.865833333333335],[-90.46944444444445,44.845],[-90.28305555555555,44.823055555555555],[-90.10305555555556,44.80166666666666],[-89.92111111111112,44.77972222222222],[-89.74333333333334,44.757777777777775],[-89.3863888888889,44.713055555555556],[-89.0261111111111,44.666666666666664],[-88.48722222222223,44.59527777777778],[-88.13027777777778,44.541666666666664],[-87.95444444444445,44.50472222222222],[-87.75888888888889,44.46333333333334],[-87.59666666666666,44.428888888888885],[-87.42055555555557,44.39083333333333],[-87.24055555555556,44.35138888888889],[-87.04888888888888,44.309444444444445],[-86.87194444444444,44.27027777777778],[-86.69500000000001,44.23111111111111],[-86.34027777777777,44.15083333333333],[-86.16083333333334,44.11],[-86.12055555555555,44.10055555555556],[-85.9725,44.06638888888889],[-85.93805555555556,44.058611111111105],[-85.79083333333332,44.024166666666666],[-85.75666666666666,44.01611111111111],[-85.61444444444444,43.97944444444445],[-85.585,43.965833333333336],[-85.465,43.901111111111106],[-85.43611111111112,43.88611111111111],[-85.31638888888888,43.82333333333334],[-85.28722222222223,43.80833333333333],[-85.16611111111112,43.74388888888889],[-84.98972222222223,43.64972222222222],[-84.86972222222222,43.58527777777778],[-84.8425,43.57083333333334],[-84.75277777777778,43.52222222222222],[-84.69500000000001,43.49111111111111],[-84.60527777777777,43.44277777777778],[-84.54888888888888,43.41222222222222],[-84.4575,43.36222222222222],[-84.40361111111112,43.33305555555556],[-84.2575,43.253055555555555],[-84.10027777777778,43.16638888888889],[-84.025,43.125],[-83.95555555555556,43.086666666666666],[-83.8825,43.04611111111111],[-83.81305555555555,43.0075],[-83.73694444444445,42.965],[-83.66944444444445,42.927499999999995],[-83.5225,42.844722222222224],[-83.44833333333334,42.80305555555555],[-83.37555555555555,42.761944444444445],[-83.2286111111111,42.67861111111111],[-82.67583333333334,42.580555555555556],[-82.48666666666666,42.556666666666665],[-82.29388888888889,42.531666666666666],[-82.06777777777778,42.499722222222225],[-81.87555555555555,42.475],[-81.73861111111111,42.458333333333336],[-81.68527777777778,42.45],[-81.49527777777777,42.42333333333333],[-81.3561111111111,42.406388888888884],[-81.16444444444446,42.37972222222222],[-81.11361111111111,42.37166666666667],[-80.97638888888889,42.35333333333333],[-80.78583333333333,42.32611111111112],[-80.73722222222223,42.31777777777778],[-80.54805555555555,42.29111111111111],[-80.3625,42.26277777777778],[-80.17694444444444,42.236111111111114],[-79.99333333333334,42.2075],[-79.84444444444443,42.18694444444444],[-79.62694444444443,42.152499999999996],[-79.47805555555556,42.130833333333335],[-79.45444444444445,42.12694444444445],[-79.2975,42.102222222222224],[-79.26083333333334,42.09583333333334],[-79.11611111111111,42.07361111111111],[-79.08055555555555,42.066944444444445],[-78.93305555555555,42.044444444444444],[-78.89888888888889,42.0375],[-78.75138888888888,42.015],[-78.7325,42.011944444444445],[-78.57,41.98555555555556],[-78.37305555555555,41.95277777777778],[-78.20583333333333,41.925],[-78.19222222222223,41.9225],[-78.01472222222222,41.8925],[-77.88083333333333,41.86972222222222],[-77.83777777777777,41.861111111111114],[-77.6613888888889,41.81472222222222],[-77.53083333333333,41.780277777777776],[-77.35055555555554,41.73222222222223],[-77.2825,41.71388888888889],[-77.17666666666668,41.68527777777778],[-77.00333333333333,41.63861111111111],[-76.93666666666667,41.620555555555555],[-76.83333333333333,41.592222222222226],[-76.76194444444444,41.57277777777778],[-76.66083333333334,41.54527777777778],[-76.58722222222222,41.525],[-76.44666666666667,41.486111111111114],[-76.28805555555556,41.44194444444444],[-76.09222222222222,41.38722222222222],[-75.94638888888889,41.346111111111114],[-75.905,41.33444444444444],[-75.73777777777778,41.286944444444444],[-75.58388888888888,41.23694444444445],[-75.42444444444445,41.18416666666666],[-75.1125,41.07916666666667],[-74.97027777777778,41.03055555555555],[-74.80888888888889,40.98861111111111],[-74.64666666666668,40.97027777777778],[-74.43333333333334,40.95],[-74.32555555555555,40.931666666666665],[-74.28333333333333,40.93333333333333],[-74.18833333333333,40.915],[-74.15,40.916666666666664],[-74.07722222222222,40.879444444444445],[-74.06666666666666,40.85],[-74.04222222222222,40.78944444444444],[-74.03333333333333,40.766666666666666],[-74,40.666666666666664],[-73.98305555555555,40.613055555555555],[-73.96666666666667,40.583333333333336],[-73.95444444444445,40.529444444444444],[-73.95,40.5],[-73.91305555555556,40.44972222222222],[-73.85027777777778,40.38],[-73.83333333333333,40.35],[-73.78999999999999,40.31194444444444],[-73.76666666666667,40.28333333333333],[-73.7125,40.265277777777776],[-73.66666666666667,40.28333333333333],[-73.63555555555556,40.31305555555555],[-73.58805555555556,40.3825],[-73.56666666666666,40.416666666666664],[-73.51666666666667,40.483333333333334],[-73.49277777777777,40.51722222222222],[-73.44611111111111,40.584722222222226],[-73.45,40.61666666666667],[-73.46666666666667,40.68333333333333],[-73.47805555555556,40.73305555555556],[-73.5,40.766666666666666],[-73.58333333333333,40.8],[-73.61861111111111,40.7925],[-73.65,40.78333333333333],[-73.67,40.753055555555555],[-73.70416666666667,40.71],[-73.71666666666667,40.7],[-73.73277777777778,40.67361111111111],[-73.75,40.666666666666664]],"type":"LineString"}
}
