{
  "id": 2031943451,
  "type": "Feature",
  "properties": {
    "geom:area": 0,
    "geom:bbox": "-110.471111,34.904167,-80.946944,37.156944",
    "geom:latitude": 36.28229096885504,
    "geom:longitude": -95.40345211587912,
    "src:alt_label": "swim-path",
    "src:geom": "swim",
    "swim:altitudes": [
      "330C",
      "330C",
      "330C",
      "330C",
      "330C",
      "330C",
      "330C",
      "330C",
      "330C",
      "330C",
      "330C",
      "330C",
      "330C",
      "330C",
      "330C",
      "330C",
      "330C",
      "330C",
      "330C",
      "330C",
      "330C",
      "330C",
      "330C",
      "330C",
      "330C",
      "330C",
      "330C",
      "330C",
      "330C",
      "330C",
      "330C",
      "330C",
      "330C",
      "330C",
      "330C",
      "330C",
      "330C",
      "330C",
      "331C",
      "330C",
      "330C",
      "330C",
      "330C",
      "330C",
      "330C",
      "330C",
      "330C",
      "330C",
      "330C",
      "330C",
      "330C",
      "330C",
      "330C",
      "330C",
      "330C",
      "330C",
      "330C",
      "330C",
      "330C",
      "330C",
      "330C",
      "330C",
      "330C",
      "330C",
      "330C",
      "330C",
      "330C",
      "330C",
      "330C",
      "330C",
      "330C",
      "330C",
      "330C",
      "330C",
      "330C",
      "330C",
      "330C",
      "330C",
      "330C",
      "330C",
      "330C",
      "330C",
      "330C",
      "330C",
      "330C",
      "330C",
      "330C",
      "330C",
      "330C",
      "330C",
      "330C",
      "330C",
      "330C",
      "330C",
      "330C",
      "330C",
      "330C",
      "330C",
      "330C",
      "330C",
      "330C",
      "330C",
      "330C",
      "330C",
      "330C",
      "330C",
      "330C",
      "330C",
      "330C",
      "330C",
      "330C",
      "330C",
      "330C",
      "330C",
      "330C",
      "330C",
      "330C",
      "330C",
      "330C",
      "330C",
      "330C",
      "330C",
      "330C",
      "330C",
      "330C",
      "330C",
      "330C",
      "330C",
      "330C",
      "330C",
      "330C",
      "330C",
      "330C",
      "330C",
      "330C",
      "330C",
      "330C",
      "330C",
      "330C",
      "330C",
      "330C",
      "330C",
      "330C",
      "330C",
      "330C",
      "330C",
      "330C",
      "330C",
      "330C",
      "330C",
      "330C",
      "331C",
      "330C",
      "330C",
      "330C",
      "330C",
      "330C",
      "331C",
      "330C",
      "330C",
      "330",
      "329",
      "324",
      "311",
      "310",
      "310",
      "310",
      "310",
      "310",
      "308",
      "306",
      "300",
      "297",
      "291C",
      "290C",
      "290C",
      "290C",
      "290C",
      "290C",
      "290C",
      "290C",
      "290C",
      "290C",
      "290C",
      "290C",
      "290C",
      "290C",
      "290C",
      "290C",
      "290C",
      "290C",
      "290C",
      "290C",
      "290C",
      "290C",
      "290C",
      "290C",
      "290C",
      "290C",
      "290C",
      "290C",
      "290C",
      "290C",
      "290C",
      "290C",
      "290C",
      "290C",
      "290C",
      "290C",
      "286",
      "277",
      "267",
      "246",
      "235",
      "225",
      "216",
      "206",
      "195",
      "168",
      "163",
      "159",
      "149",
      "142",
      "135",
      "118",
      "105",
      "102",
      "100",
      "100",
      "099",
      "095",
      "087",
      "083",
      "075",
      "072",
      "062",
      "060",
      "052",
      "051",
      "050",
      "051",
      "050",
      "050",
      "048",
      "044",
      "032",
      "027",
      "021",
      "018",
      "013",
      "010",
      "008"
    ],
    "swim:geom": "path",
    "swim:speeds": [
      488,
      487,
      487,
      486,
      485,
      485,
      486,
      487,
      488,
      485,
      484,
      483,
      482,
      482,
      482,
      482,
      482,
      481,
      481,
      481,
      482,
      482,
      482,
      482,
      481,
      481,
      482,
      482,
      483,
      483,
      484,
      484,
      485,
      485,
      485,
      485,
      485,
      485,
      492,
      485,
      485,
      484,
      484,
      483,
      483,
      483,
      475,
      475,
      473,
      471,
      474,
      472,
      472,
      472,
      479,
      481,
      482,
      476,
      474,
      472,
      472,
      474,
      475,
      476,
      475,
      476,
      476,
      478,
      478,
      480,
      481,
      482,
      483,
      485,
      484,
      484,
      484,
      484,
      484,
      486,
      485,
      487,
      486,
      486,
      486,
      487,
      487,
      488,
      488,
      489,
      490,
      490,
      489,
      479,
      479,
      480,
      481,
      482,
      482,
      481,
      481,
      481,
      481,
      480,
      481,
      480,
      481,
      481,
      482,
      485,
      486,
      486,
      486,
      486,
      485,
      484,
      484,
      483,
      482,
      481,
      482,
      481,
      480,
      478,
      477,
      477,
      475,
      476,
      476,
      473,
      472,
      468,
      465,
      480,
      480,
      479,
      478,
      478,
      477,
      478,
      477,
      478,
      479,
      480,
      481,
      481,
      481,
      480,
      477,
      475,
      476,
      477,
      476,
      471,
      469,
      468,
      469,
      469,
      468,
      469,
      467,
      466,
      467,
      477,
      478,
      480,
      477,
      480,
      478,
      479,
      479,
      481,
      481,
      480,
      479,
      482,
      483,
      484,
      485,
      486,
      486,
      487,
      487,
      487,
      487,
      488,
      488,
      489,
      489,
      489,
      489,
      489,
      489,
      489,
      489,
      489,
      489,
      489,
      489,
      489,
      489,
      489,
      490,
      490,
      490,
      490,
      491,
      491,
      492,
      493,
      465,
      448,
      436,
      431,
      429,
      421,
      414,
      407,
      374,
      353,
      354,
      345,
      344,
      335,
      321,
      311,
      314,
      294,
      275,
      244,
      249,
      244,
      247,
      239,
      242,
      239,
      239,
      229,
      230,
      225,
      223,
      223,
      224,
      216,
      218,
      198,
      187,
      175,
      150,
      149,
      143,
      147
    ],
    "swim:timestamps": [
      1784846961,
      1784847021,
      1784847081,
      1784847142,
      1784847261,
      1784847322,
      1784847382,
      1784847442,
      1784847514,
      1784847634,
      1784847694,
      1784847754,
      1784847802,
      1784847814,
      1784847862,
      1784847923,
      1784847934,
      1784848055,
      1784848103,
      1784848175,
      1784848235,
      1784848295,
      1784848355,
      1784848403,
      1784848463,
      1784848475,
      1784848523,
      1784848535,
      1784848595,
      1784848655,
      1784848715,
      1784848764,
      1784848776,
      1784848824,
      1784848836,
      1784848884,
      1784848896,
      1784848956,
      1784848982,
      1784849016,
      1784849076,
      1784849124,
      1784849136,
      1784849163,
      1784849196,
      1784849223,
      1784849256,
      1784849283,
      1784849305,
      1784849343,
      1784849425,
      1784849464,
      1784849485,
      1784849545,
      1784849665,
      1784849725,
      1784849764,
      1784849824,
      1784849884,
      1784849902,
      1784849944,
      1784849963,
      1784850004,
      1784850023,
      1784850065,
      1784850083,
      1784850122,
      1784850143,
      1784850182,
      1784850203,
      1784850242,
      1784850263,
      1784850323,
      1784850362,
      1784850443,
      1784850482,
      1784850542,
      1784850563,
      1784850624,
      1784850662,
      1784850684,
      1784850783,
      1784850804,
      1784850843,
      1784850864,
      1784850903,
      1784850924,
      1784850963,
      1784850984,
      1784851023,
      1784851083,
      1784851203,
      1784851263,
      1784851384,
      1784851444,
      1784851504,
      1784851564,
      1784851624,
      1784851684,
      1784851783,
      1784851843,
      1784851864,
      1784851903,
      1784851924,
      1784851963,
      1784851984,
      1784852023,
      1784852083,
      1784852105,
      1784852143,
      1784852165,
      1784852225,
      1784852264,
      1784852324,
      1784852345,
      1784852405,
      1784852444,
      1784852468,
      1784852504,
      1784852528,
      1784852564,
      1784852624,
      1784852648,
      1784852708,
      1784852744,
      1784852768,
      1784852804,
      1784852828,
      1784852948,
      1784853009,
      1784853069,
      1784853129,
      1784853165,
      1784853309,
      1784853345,
      1784853369,
      1784853405,
      1784853429,
      1784853465,
      1784853489,
      1784853525,
      1784853585,
      1784853645,
      1784853706,
      1784853766,
      1784853826,
      1784853886,
      1784853946,
      1784854006,
      1784854066,
      1784854126,
      1784854186,
      1784854246,
      1784854306,
      1784854366,
      1784854453,
      1784854487,
      1784854547,
      1784854573,
      1784854607,
      1784854694,
      1784854727,
      1784854754,
      1784854787,
      1784854847,
      1784854874,
      1784854907,
      1784854934,
      1784854967,
      1784855027,
      1784855054,
      1784855087,
      1784855114,
      1784855148,
      1784855174,
      1784855208,
      1784855234,
      1784855268,
      1784855328,
      1784855415,
      1784855448,
      1784855475,
      1784855508,
      1784855535,
      1784855568,
      1784855628,
      1784855655,
      1784855688,
      1784855748,
      1784855775,
      1784855808,
      1784855868,
      1784855929,
      1784855956,
      1784856016,
      1784856049,
      1784856076,
      1784856109,
      1784856136,
      1784856169,
      1784856196,
      1784856229,
      1784856316,
      1784856376,
      1784856496,
      1784856556,
      1784856677,
      1784856737,
      1784856797,
      1784856857,
      1784856917,
      1784856989,
      1784857109,
      1784857169,
      1784857229,
      1784857289,
      1784857350,
      1784857410,
      1784857530,
      1784857553,
      1784857590,
      1784857613,
      1784857650,
      1784857673,
      1784857746,
      1784857806,
      1784857830,
      1784857854,
      1784857890,
      1784857920,
      1784857950,
      1784857981,
      1784858010,
      1784858041,
      1784858071,
      1784858101,
      1784858131,
      1784858161,
      1784858191,
      1784858227,
      1784858251,
      1784858276,
      1784858311,
      1784858336,
      1784858371,
      1784858431,
      1784858451,
      1784858491,
      1784858517,
      1784858551,
      1784858577,
      1784858611
    ],
    "wof:geomhash": "24ac2f5b85c86060010a5322b8addf12",
    "wof:id": 2031943451,
    "wof:repo": "sfomuseum-data-flights-2026-07"
  },
  "bbox": [
    -110.47111111111111,
    34.90416666666667,
    -80.94694444444445,
    37.15694444444444
  ],
  "geometry": {"coordinates":[[-110.47111111111111,37.15694444444444],[-110.30472222222222,37.14111111111111],[-110.13222222222221,37.12444444444444],[-109.97083333333333,37.10861111111111],[-109.63083333333333,37.074444444444445],[-109.46138888888889,37.05694444444444],[-109.29472222222222,37.03972222222222],[-109.12388888888889,37.02194444444444],[-108.95666666666666,37.00388888888889],[-108.58749999999999,36.96361111111111],[-108.4225,36.945277777777775],[-108.2575,36.92666666666666],[-108.12166666666666,36.91111111111111],[-108.08972222222222,36.9075],[-107.95833333333334,36.89222222222222],[-107.78999999999999,36.8725],[-107.75888888888889,36.86888888888889],[-107.42833333333334,36.82944444444445],[-107.29777777777778,36.81361111111111],[-107.09833333333333,36.78916666666667],[-106.93444444444445,36.76861111111111],[-106.77027777777778,36.74777777777778],[-106.60416666666666,36.72666666666667],[-106.47277777777778,36.71],[-106.30527777777777,36.68805555555555],[-106.26416666666667,36.68277777777777],[-106.13361111111112,36.66555555555556],[-106.09722222222221,36.660555555555554],[-105.92833333333334,36.63722222222222],[-105.78444444444445,36.6025],[-105.63027777777778,36.55222222222222],[-105.51611111111112,36.528888888888886],[-105.46861111111112,36.524166666666666],[-105.35027777777778,36.518055555555556],[-105.30194444444444,36.51555555555556],[-105.18166666666667,36.50888888888889],[-105.135,36.506388888888885],[-104.96944444444445,36.496944444444445],[-104.89361111111111,36.493611111111115],[-104.8,36.492222222222225],[-104.63444444444445,36.49305555555556],[-104.5125,36.49388888888889],[-104.46805555555555,36.494166666666665],[-104.3938888888889,36.494166666666665],[-104.30472222222222,36.49472222222222],[-104.2275,36.495555555555555],[-104.14055555555557,36.495],[-104.06555555555555,36.49527777777778],[-104.01944444444445,36.49527777777778],[-103.9038888888889,36.49472222222222],[-103.69166666666668,36.495],[-103.57722222222222,36.49611111111111],[-103.5275,36.49472222222222],[-103.36666666666666,36.49388888888889],[-103.0325,36.49194444444444],[-102.8475,36.49055555555556],[-102.75527777777778,36.48916666666667],[-102.59027777777777,36.48583333333333],[-102.43027777777779,36.46611111111111],[-102.36222222222221,36.47666666666667],[-102.26444444444445,36.4825],[-102.1975,36.4825],[-102.10333333333332,36.481388888888894],[-102.0325,36.480555555555554],[-101.93861111111111,36.47888888888889],[-101.86694444444444,36.47777777777778],[-101.77166666666666,36.476111111111116],[-101.70222222222222,36.474722222222226],[-101.60944444444443,36.473055555555554],[-101.53555555555555,36.47166666666667],[-101.44361111111111,36.469722222222224],[-101.37472222222222,36.468333333333334],[-101.20555555555556,36.46472222222223],[-101.10777777777777,36.462500000000006],[-100.87388888888889,36.45666666666667],[-100.77722222222222,36.45416666666667],[-100.61027777777777,36.44944444444444],[-100.54138888888889,36.44777777777777],[-100.37555555555555,36.44305555555555],[-100.27777777777777,36.44],[-100.20805555555556,36.43805555555555],[-99.94111111111111,36.42944444444444],[-99.87055555555555,36.426944444444445],[-99.77277777777778,36.42361111111111],[-99.70222222222222,36.42111111111111],[-99.6036111111111,36.41777777777777],[-99.53138888888888,36.415],[-99.43222222222222,36.41138888888889],[-99.36277777777777,36.40861111111111],[-99.2611111111111,36.40472222222222],[-99.08916666666666,36.39805555555556],[-98.74972222222222,36.38388888888889],[-98.58166666666666,36.37638888888889],[-98.24972222222222,36.361111111111114],[-98.08305555555555,36.35305555555556],[-97.91694444444445,36.345],[-97.74805555555555,36.34305555555556],[-97.60555555555555,36.34138888888889],[-97.43722222222223,36.33916666666667],[-97.15111111111112,36.333333333333336],[-96.98611111111111,36.330555555555556],[-96.94111111111111,36.33111111111111],[-96.82027777777778,36.32777777777778],[-96.77361111111111,36.32805555555556],[-96.65472222222223,36.325],[-96.58833333333332,36.32416666666667],[-96.49277777777777,36.32222222222222],[-96.3236111111111,36.318333333333335],[-96.25638888888889,36.31666666666667],[-96.15694444444445,36.31444444444444],[-96.08833333333332,36.312777777777775],[-95.92111111111112,36.30833333333333],[-95.82194444444444,36.30555555555555],[-95.65555555555557,36.30083333333333],[-95.60777777777777,36.29944444444444],[-95.43972222222223,36.294444444444444],[-95.33222222222221,36.29111111111111],[-95.27583333333334,36.28944444444444],[-95.165,36.285555555555554],[-95.10972222222222,36.28388888888889],[-95.00055555555555,36.28],[-94.83611111111111,36.27444444444444],[-94.77583333333334,36.27222222222222],[-94.60805555555555,36.26583333333333],[-94.50861111111111,36.261944444444445],[-94.44555555555556,36.25972222222222],[-94.34472222222222,36.255833333333335],[-94.28611111111111,36.25333333333333],[-93.965,36.24722222222222],[-93.80472222222222,36.2475],[-93.64277777777778,36.24777777777778],[-93.48361111111112,36.24777777777778],[-93.35194444444444,36.2475],[-92.98777777777778,36.24638888888889],[-92.85805555555555,36.24583333333334],[-92.82527777777777,36.245555555555555],[-92.69333333333334,36.24472222222222],[-92.66055555555556,36.24444444444445],[-92.5275,36.24333333333333],[-92.4961111111111,36.24305555555556],[-92.36388888888888,36.24194444444444],[-92.2,36.24],[-92.06833333333333,36.23861111111111],[-91.90166666666667,36.23638888888889],[-91.73444444444445,36.23388888888889],[-91.57027777777778,36.231388888888894],[-91.37333333333332,36.22805555555556],[-91.20722222222223,36.224722222222226],[-91.07805555555555,36.22222222222222],[-90.91388888888889,36.21888888888889],[-90.75083333333333,36.215],[-90.58555555555554,36.211111111111116],[-90.42111111111112,36.206944444444446],[-90.26083333333334,36.2025],[-90.10083333333333,36.198055555555555],[-89.8611111111111,36.19194444444444],[-89.77888888888889,36.18833333333333],[-89.58694444444444,36.18222222222222],[-89.53972222222222,36.18138888888889],[-89.42972222222222,36.176944444444445],[-89.20722222222223,36.17055555555555],[-89.11166666666666,36.165277777777774],[-89.06027777777777,36.164722222222224],[-88.95111111111112,36.16138888888889],[-88.79416666666667,36.19694444444444],[-88.74222222222222,36.21138888888889],[-88.63444444444445,36.21361111111111],[-88.57833333333333,36.20944444444445],[-88.46944444444445,36.2],[-88.30555555555556,36.18611111111111],[-88.25111111111111,36.18222222222222],[-88.13972222222223,36.17166666666667],[-88.08611111111111,36.168055555555554],[-87.9875,36.15833333333333],[-87.9225,36.152499999999996],[-87.82416666666666,36.14388888888889],[-87.75805555555556,36.13777777777778],[-87.6588888888889,36.12888888888889],[-87.49361111111111,36.11361111111111],[-87.26333333333334,36.091944444444444],[-87.16444444444446,36.0825],[-87.065,36.073055555555555],[-86.99888888888889,36.06666666666667],[-86.90305555555557,36.05722222222222],[-86.83583333333333,36.050555555555555],[-86.67111111111112,36.034166666666664],[-86.57444444444444,36.02472222222222],[-86.50555555555556,36.01777777777777],[-86.30944444444444,35.99777777777778],[-86.24444444444444,35.990833333333335],[-86.14166666666668,35.98027777777778],[-85.97638888888889,35.963055555555556],[-85.8111111111111,35.94555555555555],[-85.755,35.93944444444444],[-85.58749999999999,35.92111111111111],[-85.48944444444444,35.910555555555554],[-85.42333333333333,35.903055555555554],[-85.32194444444444,35.89194444444444],[-85.25527777777778,35.88444444444444],[-85.15666666666667,35.873333333333335],[-85.09027777777777,35.865833333333335],[-84.99194444444444,35.85472222222222],[-84.74111111111111,35.825833333333335],[-84.57527777777777,35.82],[-84.24138888888889,35.84305555555556],[-84.07472222222222,35.85444444444445],[-83.7388888888889,35.87638888888889],[-83.57166666666666,35.88722222222222],[-83.40194444444445,35.8775],[-83.23944444444444,35.84277777777778],[-83.09333333333333,35.81027777777778],[-82.94805555555556,35.77833333333333],[-82.63166666666666,35.70722222222223],[-82.4875,35.674166666666665],[-82.34888888888888,35.6425],[-82.21194444444444,35.61083333333333],[-82.0775,35.57944444444445],[-81.94972222222222,35.53527777777778],[-81.71000000000001,35.44833333333333],[-81.65222222222222,35.42833333333333],[-81.62027777777777,35.420833333333334],[-81.54305555555555,35.39861111111111],[-81.48833333333333,35.38361111111111],[-81.43361111111112,35.36638888888889],[-81.3086111111111,35.331388888888895],[-81.205,35.30305555555555],[-81.18138888888889,35.29611111111111],[-81.12777777777777,35.280277777777776],[-81.08916666666666,35.26833333333333],[-81.06944444444444,35.22666666666667],[-81.06777777777778,35.20388888888889],[-81.06305555555555,35.155833333333334],[-81.0611111111111,35.13583333333333],[-81.05694444444444,35.08916666666667],[-81.05527777777777,35.06916666666667],[-81.05111111111111,35.02472222222222],[-81.04944444444445,35.00333333333333],[-81.04527777777777,34.96027777777778],[-81.04416666666667,34.94027777777777],[-81.01277777777777,34.90416666666667],[-80.99666666666667,34.906666666666666],[-80.96222222222222,34.927499999999995],[-80.94972222222222,34.95194444444445],[-80.94694444444445,34.98777777777778],[-80.94916666666667,35.01138888888889],[-80.95416666666667,35.06888888888889],[-80.95805555555556,35.09583333333334],[-80.95944444444444,35.13],[-80.96194444444444,35.145833333333336],[-80.96277777777777,35.170833333333334],[-80.96472222222222,35.1875],[-80.96527777777779,35.20055555555556]],"type":"LineString"}
}
