{
  "id": 2031981395,
  "type": "Feature",
  "properties": {
    "geom:area": 0,
    "geom:bbox": "-125.889722,35.628056,-125.423056,35.921111",
    "geom:latitude": 35.77480038747421,
    "geom:longitude": -125.65652547556337,
    "src:alt_label": "swim-path",
    "src:geom": "swim",
    "swim:altitudes": [
      "330C",
      "330C",
      "330C",
      "330C",
      "330C"
    ],
    "swim:geom": "path",
    "swim:speeds": [
      433,
      432,
      432,
      432,
      432
    ],
    "swim:timestamps": [
      1785138988,
      1785139048,
      1785139108,
      1785139168,
      1785139228
    ],
    "wof:geomhash": "1ace3fd7e390e9258334cbc3e12ad3f4",
    "wof:id": 2031981395,
    "wof:repo": "sfomuseum-data-flights-2026-07"
  },
  "bbox": [
    -125.88972222222223,
    35.628055555555555,
    -125.42305555555556,
    35.92111111111111
  ],
  "geometry": {"coordinates":[[-125.42305555555556,35.92111111111111],[-125.53972222222222,35.84805555555556],[-125.65555555555557,35.775555555555556],[-125.7725,35.702222222222225],[-125.88972222222223,35.628055555555555]],"type":"LineString"}
}
