{
  "id": 2031946769,
  "type": "Feature",
  "properties": {
    "geom:area": 0,
    "geom:bbox": "-122.400000,35.366667,-74.133333,41.951944",
    "geom:latitude": 38.92901981550192,
    "geom:longitude": -96.52788701655277,
    "src:alt_label": "swim-path",
    "src:geom": "swim",
    "swim:altitudes": [
      "028",
      "044",
      "048",
      "064",
      "091",
      "107",
      "148",
      "168",
      "187",
      "237",
      "254",
      "282",
      "293",
      "305",
      "309",
      "330",
      "330",
      "330",
      "330",
      "330",
      "331",
      "347",
      "350C",
      "350C",
      "350C",
      "350C",
      "350C",
      "350C",
      "350C",
      "350C",
      "350C",
      "350C",
      "350C",
      "350C",
      "350C",
      "350C",
      "350C",
      "350C",
      "350C",
      "350C",
      "350C",
      "350C",
      "350C",
      "350C",
      "350C",
      "350C",
      "350C",
      "350C",
      "350C",
      "350C",
      "350C",
      "350C",
      "350C",
      "350C",
      "350C",
      "350C",
      "350C",
      "350C",
      "350C",
      "350C",
      "350C",
      "350C",
      "350C",
      "350C",
      "350C",
      "350C",
      "350C",
      "350C",
      "350C",
      "350C",
      "350C",
      "350C",
      "350C",
      "350C",
      "350C",
      "350C",
      "350C",
      "350C",
      "350C",
      "350C",
      "350C",
      "350C",
      "350C",
      "350C",
      "350C",
      "350C",
      "350C",
      "350C",
      "350C",
      "350C",
      "350C",
      "350C",
      "350C",
      "350C",
      "350C",
      "350C",
      "350C",
      "350C",
      "350C",
      "350C",
      "350C",
      "350C",
      "357",
      "369C",
      "370C",
      "370C",
      "370C",
      "370C",
      "370C",
      "370C",
      "370C",
      "370C",
      "370C",
      "370C",
      "370C",
      "370C",
      "370C",
      "370C",
      "370C",
      "370C",
      "370C",
      "370C",
      "370C",
      "370C",
      "370C",
      "370C",
      "370C",
      "370C",
      "370C",
      "370C",
      "370C",
      "370C",
      "370C",
      "370C",
      "370C",
      "370C",
      "370C",
      "370C",
      "370C",
      "370C",
      "370C",
      "370C",
      "370C",
      "370C",
      "370C",
      "370C",
      "370C",
      "370C",
      "370C",
      "370C",
      "370C",
      "370C",
      "370C",
      "370C",
      "370C",
      "370C",
      "370C",
      "370C",
      "370C",
      "370C",
      "370C",
      "370C",
      "370C",
      "370C",
      "370C",
      "370C",
      "370C",
      "370C",
      "370C",
      "370C",
      "370C",
      "370C",
      "370C",
      "370C",
      "370C",
      "370C",
      "370C",
      "370C",
      "370C",
      "370C",
      "370C",
      "370C",
      "370C",
      "370C",
      "370C",
      "370C",
      "370C",
      "370C",
      "370C",
      "370C",
      "370C",
      "370C",
      "370C",
      "370C",
      "370C",
      "370C",
      "370C",
      "370C",
      "370C",
      "370C",
      "370C",
      "370C",
      "370C",
      "370C",
      "370C",
      "370C",
      "370C",
      "370C",
      "370C",
      "370C",
      "370C",
      "370C",
      "370C",
      "370C",
      "370C",
      "370C",
      "370C",
      "370C",
      "370C",
      "370C",
      "370C",
      "370C",
      "370C",
      "370C",
      "370C",
      "370C",
      "370C",
      "370C",
      "370C",
      "370C",
      "370C",
      "370C",
      "370C",
      "370C",
      "370C",
      "370C",
      "370C",
      "370C",
      "370C",
      "370C",
      "370C",
      "370C",
      "370C",
      "370C",
      "370C",
      "370C",
      "370C",
      "370C",
      "370C",
      "370",
      "363",
      "352",
      "330C",
      "330C",
      "330C",
      "330C",
      "330C",
      "318",
      "308",
      "293",
      "269",
      "239",
      "187",
      "180",
      "180",
      "139",
      "103",
      "097",
      "076",
      "060",
      "060",
      "060",
      "046",
      "041",
      "031",
      "030",
      "030",
      "030",
      "030",
      "024",
      "020",
      "015",
      "011",
      "007",
      "004",
      "001",
      "021",
      "041",
      "047",
      "075",
      "120",
      "136",
      "151",
      "168",
      "205",
      "222",
      "238",
      "252",
      "265",
      "277",
      "289",
      "331",
      "340C",
      "340C",
      "340C",
      "340C",
      "340C",
      "340C",
      "340C",
      "340C",
      "340C",
      "340C",
      "340C",
      "340C",
      "340C",
      "340C",
      "340C",
      "340C",
      "340C",
      "340C",
      "340C",
      "340C",
      "340C",
      "340C",
      "340C",
      "340C",
      "340C",
      "340C",
      "340C",
      "340C",
      "340C",
      "340C",
      "340C",
      "340C",
      "340C",
      "340C",
      "340C",
      "340C",
      "340C",
      "340C",
      "340C",
      "340C",
      "340C",
      "340C",
      "340C",
      "340C",
      "340C",
      "340C",
      "340C",
      "340C",
      "340C",
      "340C",
      "340C",
      "340C",
      "340C",
      "340C",
      "340C",
      "340C",
      "340",
      "340",
      "340",
      "340",
      "341",
      "343",
      "346",
      "352",
      "355",
      "360C",
      "360C",
      "360C",
      "360C",
      "360C",
      "360C",
      "360C",
      "360C",
      "360C",
      "360C",
      "360C",
      "360C",
      "360C",
      "360C",
      "360C",
      "360C",
      "360C",
      "360C",
      "360C",
      "360C",
      "360C",
      "360C",
      "360C",
      "360C",
      "360C",
      "360C",
      "360C",
      "360C",
      "360C",
      "360C",
      "360C",
      "360C",
      "360C",
      "360C",
      "360C",
      "360C",
      "360C",
      "360C",
      "360C",
      "360C",
      "360C",
      "360C",
      "360C",
      "360C",
      "360C",
      "360C",
      "360C",
      "360C",
      "360C",
      "360C",
      "360C",
      "360C",
      "360C",
      "360C",
      "360C",
      "360C",
      "360C",
      "360C",
      "360C",
      "360C",
      "360C",
      "360C",
      "360C",
      "360C",
      "360C",
      "360C",
      "360C",
      "360C",
      "360C",
      "360C",
      "360C",
      "360C",
      "360C",
      "360C",
      "360C",
      "360C",
      "360C",
      "360C",
      "360C",
      "360C",
      "360C",
      "360C",
      "360C",
      "360C",
      "360C",
      "360C",
      "360C",
      "360C",
      "360C",
      "360C",
      "360C",
      "360C",
      "360C",
      "360C",
      "360C",
      "360C",
      "360C",
      "360C",
      "360C",
      "360C",
      "360C",
      "360C",
      "360C",
      "360C",
      "360C",
      "360C",
      "360C",
      "360C",
      "360C",
      "360C",
      "360C",
      "360C",
      "360C",
      "360C",
      "360C",
      "360C",
      "360C",
      "360C",
      "360C",
      "360C",
      "360C",
      "360C",
      "360C",
      "360C",
      "360C",
      "360C",
      "360C",
      "360C",
      "360C",
      "360C",
      "360C",
      "360C",
      "360C",
      "360C",
      "360C",
      "360C",
      "360C",
      "360C",
      "360C",
      "360C",
      "360C",
      "360C",
      "360C",
      "360C",
      "360C",
      "360C",
      "360C",
      "360C",
      "360C",
      "360C",
      "360C",
      "360C",
      "360C",
      "360C",
      "360C",
      "360C",
      "360C",
      "360C",
      "360C",
      "360C",
      "360C",
      "360C",
      "360",
      "360",
      "351",
      "333",
      "331",
      "322C",
      "320C",
      "320C",
      "320C",
      "320C",
      "320C",
      "320C",
      "320C",
      "320C",
      "320",
      "311",
      "301",
      "300",
      "293",
      "281",
      "271",
      "261",
      "251",
      "241",
      "240",
      "235",
      "225",
      "215",
      "205",
      "195",
      "185",
      "179",
      "174",
      "165",
      "127",
      "128",
      "114",
      "100",
      "090",
      "078",
      "070",
      "050",
      "039",
      "030",
      "028",
      "021"
    ],
    "swim:geom": "path",
    "swim:speeds": [
      189,
      224,
      244,
      279,
      289,
      336,
      378,
      395,
      407,
      455,
      461,
      480,
      478,
      493,
      500,
      499,
      500,
      500,
      500,
      500,
      501,
      489,
      487,
      485,
      483,
      484,
      483,
      483,
      482,
      480,
      479,
      480,
      479,
      479,
      480,
      480,
      482,
      482,
      482,
      482,
      482,
      482,
      482,
      482,
      483,
      484,
      485,
      485,
      487,
      488,
      489,
      491,
      492,
      493,
      493,
      493,
      493,
      493,
      494,
      494,
      494,
      495,
      495,
      495,
      496,
      495,
      495,
      494,
      494,
      493,
      493,
      492,
      492,
      492,
      492,
      492,
      492,
      493,
      493,
      494,
      494,
      494,
      494,
      494,
      494,
      494,
      494,
      494,
      494,
      495,
      495,
      495,
      495,
      495,
      495,
      496,
      496,
      496,
      496,
      497,
      497,
      497,
      495,
      495,
      497,
      497,
      495,
      493,
      492,
      491,
      490,
      489,
      490,
      490,
      489,
      488,
      487,
      486,
      486,
      487,
      487,
      488,
      489,
      489,
      489,
      489,
      488,
      488,
      488,
      487,
      487,
      487,
      486,
      484,
      483,
      483,
      486,
      486,
      489,
      489,
      489,
      489,
      489,
      491,
      491,
      492,
      493,
      494,
      494,
      494,
      494,
      494,
      495,
      496,
      497,
      498,
      499,
      499,
      501,
      506,
      505,
      502,
      504,
      505,
      504,
      505,
      506,
      506,
      506,
      507,
      506,
      506,
      505,
      505,
      504,
      504,
      503,
      502,
      502,
      500,
      500,
      499,
      499,
      499,
      499,
      499,
      499,
      499,
      500,
      499,
      499,
      499,
      501,
      499,
      502,
      502,
      503,
      504,
      504,
      508,
      509,
      509,
      509,
      509,
      509,
      509,
      509,
      509,
      507,
      508,
      508,
      507,
      506,
      507,
      506,
      507,
      506,
      505,
      507,
      508,
      509,
      509,
      514,
      516,
      518,
      517,
      519,
      518,
      518,
      533,
      544,
      541,
      540,
      537,
      536,
      541,
      536,
      537,
      536,
      537,
      534,
      536,
      532,
      531,
      530,
      529,
      528,
      528,
      528,
      530,
      529,
      528,
      529,
      530,
      532,
      534,
      536,
      537,
      536,
      535,
      517,
      508,
      492,
      473,
      473,
      447,
      334,
      304,
      283,
      276,
      278,
      277,
      273,
      266,
      264,
      249,
      221,
      194,
      187,
      184,
      184,
      179,
      156,
      152,
      148,
      150,
      214,
      254,
      260,
      270,
      280,
      291,
      326,
      351,
      365,
      374,
      379,
      385,
      392,
      397,
      400,
      405,
      400,
      398,
      397,
      396,
      395,
      394,
      394,
      394,
      394,
      395,
      397,
      397,
      398,
      402,
      404,
      405,
      407,
      408,
      409,
      409,
      409,
      410,
      413,
      408,
      407,
      408,
      408,
      409,
      410,
      412,
      414,
      415,
      416,
      418,
      418,
      419,
      419,
      421,
      424,
      426,
      427,
      429,
      431,
      435,
      435,
      435,
      435,
      440,
      434,
      436,
      436,
      436,
      437,
      437,
      439,
      441,
      440,
      441,
      440,
      440,
      440,
      449,
      450,
      451,
      450,
      450,
      450,
      449,
      449,
      449,
      449,
      449,
      448,
      448,
      448,
      448,
      449,
      451,
      453,
      454,
      455,
      455,
      456,
      456,
      457,
      457,
      457,
      455,
      448,
      445,
      445,
      444,
      443,
      442,
      445,
      447,
      449,
      451,
      454,
      451,
      444,
      443,
      442,
      444,
      443,
      442,
      441,
      442,
      443,
      444,
      445,
      449,
      452,
      454,
      455,
      454,
      449,
      440,
      439,
      440,
      443,
      442,
      443,
      443,
      444,
      446,
      447,
      445,
      445,
      445,
      445,
      445,
      445,
      445,
      445,
      444,
      444,
      445,
      445,
      445,
      447,
      453,
      455,
      456,
      459,
      459,
      458,
      457,
      457,
      456,
      455,
      455,
      456,
      458,
      458,
      456,
      455,
      454,
      453,
      453,
      453,
      453,
      453,
      453,
      452,
      451,
      451,
      450,
      449,
      449,
      452,
      451,
      451,
      451,
      452,
      451,
      450,
      454,
      456,
      457,
      458,
      458,
      458,
      459,
      458,
      457,
      457,
      456,
      456,
      457,
      455,
      457,
      460,
      458,
      456,
      456,
      454,
      454,
      454,
      455,
      455,
      455,
      455,
      453,
      452,
      450,
      448,
      446,
      446,
      445,
      444,
      443,
      443,
      444,
      444,
      446,
      445,
      447,
      447,
      448,
      448,
      449,
      448,
      447,
      440,
      446,
      445,
      443,
      445,
      444,
      436,
      436,
      440,
      441,
      440,
      441,
      442,
      443,
      444,
      443,
      442,
      440,
      440,
      439,
      439,
      435,
      431,
      420,
      414,
      410,
      407,
      403,
      401,
      400,
      391,
      383,
      381,
      380,
      371,
      373,
      371,
      307,
      312,
      302,
      301,
      292,
      281,
      284,
      210,
      200,
      172,
      163,
      164
    ],
    "swim:timestamps": [
      1784817311,
      1784817360,
      1784817371,
      1784817421,
      1784817481,
      1784817541,
      1784817661,
      1784817721,
      1784817781,
      1784817961,
      1784818021,
      1784818141,
      1784818195,
      1784818255,
      1784818262,
      1784818382,
      1784818436,
      1784818502,
      1784818556,
      1784818562,
      1784818682,
      1784818742,
      1784818796,
      1784818862,
      1784818922,
      1784818976,
      1784818982,
      1784819037,
      1784819097,
      1784819163,
      1784819223,
      1784819277,
      1784819283,
      1784819343,
      1784819397,
      1784819463,
      1784819517,
      1784819583,
      1784819637,
      1784819643,
      1784819697,
      1784819757,
      1784819818,
      1784819824,
      1784819878,
      1784819938,
      1784819998,
      1784820058,
      1784820118,
      1784820178,
      1784820238,
      1784820358,
      1784820418,
      1784820478,
      1784820539,
      1784820659,
      1784820719,
      1784820779,
      1784820839,
      1784820959,
      1784821019,
      1784821139,
      1784821199,
      1784821259,
      1784821414,
      1784821440,
      1784821534,
      1784821560,
      1784821620,
      1784821655,
      1784821715,
      1784821775,
      1784821835,
      1784821860,
      1784821895,
      1784821920,
      1784821955,
      1784822040,
      1784822075,
      1784822135,
      1784822161,
      1784822195,
      1784822255,
      1784822281,
      1784822315,
      1784822341,
      1784822401,
      1784822436,
      1784822461,
      1784822496,
      1784822521,
      1784822556,
      1784822581,
      1784822616,
      1784822641,
      1784822676,
      1784822736,
      1784822796,
      1784822856,
      1784822916,
      1784823036,
      1784823097,
      1784823217,
      1784823277,
      1784823337,
      1784823397,
      1784823457,
      1784823517,
      1784823577,
      1784823637,
      1784823697,
      1784823757,
      1784823818,
      1784823878,
      1784823938,
      1784823998,
      1784824058,
      1784824118,
      1784824238,
      1784824358,
      1784824418,
      1784824478,
      1784824539,
      1784824599,
      1784824659,
      1784824719,
      1784824779,
      1784824839,
      1784824899,
      1784824959,
      1784825019,
      1784825079,
      1784825139,
      1784825199,
      1784825260,
      1784825320,
      1784825440,
      1784825502,
      1784825620,
      1784825680,
      1784825740,
      1784825800,
      1784825863,
      1784825983,
      1784826043,
      1784826103,
      1784826223,
      1784826283,
      1784826343,
      1784826403,
      1784826464,
      1784826584,
      1784826644,
      1784826704,
      1784826764,
      1784826824,
      1784826884,
      1784826944,
      1784827004,
      1784827033,
      1784827093,
      1784827124,
      1784827153,
      1784827213,
      1784827245,
      1784827273,
      1784827305,
      1784827333,
      1784827365,
      1784827393,
      1784827485,
      1784827514,
      1784827545,
      1784827574,
      1784827634,
      1784827665,
      1784827694,
      1784827754,
      1784827785,
      1784827845,
      1784827874,
      1784827906,
      1784827934,
      1784828026,
      1784828055,
      1784828086,
      1784828115,
      1784828146,
      1784828175,
      1784828206,
      1784828266,
      1784828326,
      1784828355,
      1784828386,
      1784828415,
      1784828475,
      1784828716,
      1784828776,
      1784828836,
      1784829016,
      1784829076,
      1784829137,
      1784829197,
      1784829257,
      1784829317,
      1784829377,
      1784829557,
      1784829617,
      1784829657,
      1784829677,
      1784829738,
      1784829858,
      1784829918,
      1784829957,
      1784829978,
      1784830017,
      1784830137,
      1784830158,
      1784830197,
      1784830218,
      1784830257,
      1784830278,
      1784830318,
      1784830378,
      1784830438,
      1784830519,
      1784830558,
      1784830579,
      1784830618,
      1784830678,
      1784830738,
      1784830858,
      1784830918,
      1784830978,
      1784831039,
      1784831098,
      1784831159,
      1784831218,
      1784831279,
      1784831338,
      1784831459,
      1784831518,
      1784831578,
      1784831638,
      1784831699,
      1784831759,
      1784831820,
      1784831879,
      1784831939,
      1784832000,
      1784832059,
      1784832120,
      1784832239,
      1784832299,
      1784832360,
      1784832420,
      1784832481,
      1784832600,
      1784832661,
      1784832721,
      1784832840,
      1784832900,
      1784832960,
      1784833021,
      1784833081,
      1784833261,
      1784833381,
      1784833403,
      1784833463,
      1784833523,
      1784833561,
      1784833583,
      1784833682,
      1784833703,
      1784833802,
      1784833823,
      1784833862,
      1784833883,
      1784833922,
      1784833982,
      1784834003,
      1784834042,
      1784834064,
      1784834102,
      1784834124,
      1784834162,
      1784841709,
      1784841764,
      1784841782,
      1784841842,
      1784841962,
      1784842020,
      1784842081,
      1784842141,
      1784842261,
      1784842321,
      1784842381,
      1784842441,
      1784842501,
      1784842561,
      1784842622,
      1784842862,
      1784842922,
      1784842982,
      1784843042,
      1784843102,
      1784843162,
      1784843223,
      1784843295,
      1784843344,
      1784843355,
      1784843415,
      1784843524,
      1784843535,
      1784843584,
      1784843655,
      1784843715,
      1784843776,
      1784843836,
      1784843896,
      1784843956,
      1784844016,
      1784844076,
      1784844136,
      1784844256,
      1784844317,
      1784844377,
      1784844557,
      1784844617,
      1784844677,
      1784844737,
      1784844797,
      1784844857,
      1784844918,
      1784844978,
      1784845098,
      1784845158,
      1784845218,
      1784845338,
      1784845398,
      1784845522,
      1784845642,
      1784845702,
      1784845762,
      1784845822,
      1784845942,
      1784846002,
      1784846062,
      1784846119,
      1784846135,
      1784846180,
      1784846195,
      1784846255,
      1784846300,
      1784846315,
      1784846376,
      1784846436,
      1784846480,
      1784846496,
      1784846540,
      1784846556,
      1784846600,
      1784846616,
      1784846660,
      1784846676,
      1784846720,
      1784846736,
      1784846796,
      1784846856,
      1784846901,
      1784846961,
      1784846976,
      1784847021,
      1784847036,
      1784847081,
      1784847141,
      1784847157,
      1784847201,
      1784847261,
      1784847277,
      1784847337,
      1784847381,
      1784847397,
      1784847441,
      1784847457,
      1784847502,
      1784847577,
      1784847622,
      1784847637,
      1784847682,
      1784847757,
      1784847878,
      1784847922,
      1784847938,
      1784847998,
      1784848058,
      1784848178,
      1784848238,
      1784848298,
      1784848358,
      1784848539,
      1784848599,
      1784848839,
      1784848899,
      1784848959,
      1784849019,
      1784849079,
      1784849139,
      1784849199,
      1784849259,
      1784849380,
      1784849440,
      1784849500,
      1784849560,
      1784849620,
      1784849680,
      1784849740,
      1784849800,
      1784849860,
      1784849920,
      1784849980,
      1784850041,
      1784850069,
      1784850101,
      1784850161,
      1784850189,
      1784850221,
      1784850310,
      1784850341,
      1784850430,
      1784850461,
      1784850581,
      1784850610,
      1784850641,
      1784850670,
      1784850701,
      1784850730,
      1784850762,
      1784850822,
      1784850850,
      1784850882,
      1784850910,
      1784850942,
      1784851002,
      1784851062,
      1784851122,
      1784851211,
      1784851271,
      1784851451,
      1784851511,
      1784851571,
      1784851632,
      1784851692,
      1784851752,
      1784851812,
      1784851872,
      1784851932,
      1784852052,
      1784852112,
      1784852172,
      1784852292,
      1784852353,
      1784852413,
      1784852473,
      1784852523,
      1784852593,
      1784852703,
      1784852763,
      1784852773,
      1784852833,
      1784852883,
      1784852953,
      1784853304,
      1784853364,
      1784853424,
      1784853484,
      1784853544,
      1784853664,
      1784853784,
      1784853965,
      1784854025,
      1784854085,
      1784854145,
      1784854205,
      1784854265,
      1784854315,
      1784854505,
      1784854555,
      1784854566,
      1784854615,
      1784854626,
      1784854676,
      1784854736,
      1784854746,
      1784854796,
      1784854856,
      1784854866,
      1784854916,
      1784854976,
      1784855096,
      1784855106,
      1784855166,
      1784855216,
      1784855226,
      1784855336,
      1784855396,
      1784855457,
      1784855467,
      1784855517,
      1784855577,
      1784855587,
      1784855637,
      1784855707,
      1784855757,
      1784855767,
      1784855827,
      1784855888,
      1784855937,
      1784855948,
      1784855997,
      1784856057,
      1784856117,
      1784856178,
      1784856238,
      1784856358,
      1784856418,
      1784856425,
      1784856485,
      1784856545,
      1784856658,
      1784856665,
      1784856725,
      1784856838,
      1784856845,
      1784856905,
      1784856959,
      1784857026,
      1784857086,
      1784857139,
      1784857206,
      1784857266,
      1784857326,
      1784857379,
      1784857439,
      1784857499,
      1784857559,
      1784857566,
      1784857620,
      1784857687,
      1784857747,
      1784857807,
      1784857867,
      1784857927,
      1784857987,
      1784858047,
      1784858107,
      1784858167,
      1784858227,
      1784858288,
      1784858348,
      1784858370,
      1784858408,
      1784858468,
      1784858641,
      1784858648,
      1784858708,
      1784858768,
      1784858827,
      1784858887,
      1784858948,
      1784859069,
      1784859129,
      1784859189,
      1784859200,
      1784859249
    ],
    "wof:geomhash": "26832b7a220585274fd8f0b8ba6211e9",
    "wof:id": 2031946769,
    "wof:repo": "sfomuseum-data-flights-2026-07"
  },
  "bbox": [
    -122.4,
    35.36666666666667,
    -74.13333333333334,
    41.95194444444445
  ],
  "geometry": {"coordinates":[[-122.4,37.666666666666664],[-122.35277777777777,37.67444444444444],[-122.33333333333333,37.68333333333333],[-122.27472222222222,37.71055555555556],[-122.24833333333333,37.78861111111111],[-122.21000000000001,37.87027777777778],[-121.97055555555556,37.94444444444444],[-121.84166666666667,37.983333333333334],[-121.70805555555556,38.02055555555555],[-121.27472222222222,38.140277777777776],[-121.12305555555555,38.18194444444444],[-120.79777777777778,38.23972222222222],[-120.66555555555556,38.2575],[-120.4925,38.28111111111111],[-120.45472222222223,38.2875],[-120.10888888888888,38.334722222222226],[-119.93666666666667,38.35583333333334],[-119.76166666666667,38.38111111111111],[-119.5886111111111,38.40222222222222],[-119.58527777777778,38.40416666666667],[-119.23833333333333,38.44888888888889],[-119.0675,38.470555555555556],[-118.90083333333334,38.49],[-118.73027777777779,38.51222222222222],[-118.56555555555555,38.5325],[-118.39833333333334,38.552499999999995],[-118.39555555555556,38.55305555555555],[-118.23027777777779,38.572500000000005],[-118.05833333333334,38.59277777777778],[-117.88777777777779,38.612500000000004],[-117.72027777777778,38.63194444444444],[-117.55277777777778,38.65083333333333],[-117.55027777777778,38.651111111111106],[-117.37972222222221,38.669999999999995],[-117.21333333333334,38.69361111111111],[-117.04305555555555,38.722500000000004],[-116.87555555555555,38.75111111111111],[-116.7038888888889,38.77972222222222],[-116.53694444444444,38.8075],[-116.53694444444444,38.8075],[-116.36972222222222,38.835],[-116.20194444444445,38.86222222222222],[-116.03222222222222,38.88944444444444],[-116.03888888888889,38.88861111111111],[-115.86416666666666,38.91638888888889],[-115.72833333333334,38.937777777777775],[-115.5225,38.97],[-115.38722222222223,38.99111111111111],[-115.19333333333334,39.020833333333336],[-115.02444444444444,39.046388888888885],[-114.85055555555554,39.072500000000005],[-114.50527777777778,39.12361111111111],[-114.33222222222221,39.14888888888889],[-114.15722222222223,39.17388888888889],[-113.98527777777778,39.19833333333333],[-113.6363888888889,39.24722222222222],[-113.4625,39.27111111111111],[-113.28888888888889,39.29472222222222],[-113.11333333333333,39.32194444444445],[-112.76805555555555,39.37916666666667],[-112.59388888888888,39.40694444444444],[-112.25,39.461111111111116],[-112.07555555555555,39.48833333333334],[-111.90166666666667,39.52055555555555],[-111.45777777777778,39.612500000000004],[-111.3863888888889,39.62722222222222],[-111.11388888888888,39.6825],[-111.0425,39.69694444444444],[-110.87027777777777,39.731388888888894],[-110.76805555555555,39.751666666666665],[-110.59666666666666,39.78527777777778],[-110.42500000000001,39.81916666666667],[-110.25305555555556,39.8525],[-110.18333333333334,39.865833333333335],[-110.07972222222222,39.88583333333333],[-110.00916666666667,39.899166666666666],[-109.9063888888889,39.91888888888889],[-109.66305555555556,39.96472222222223],[-109.56138888888889,39.98388888888889],[-109.38611111111112,40.01611111111111],[-109.31527777777778,40.029444444444444],[-109.21000000000001,40.04861111111111],[-109.035,40.080555555555556],[-108.96444444444445,40.093333333333334],[-108.85805555555555,40.112500000000004],[-108.78666666666666,40.123333333333335],[-108.60944444444443,40.14833333333333],[-108.50333333333333,40.16361111111111],[-108.43222222222222,40.17388888888889],[-108.3386111111111,40.1875],[-108.25611111111111,40.19944444444444],[-108.14805555555556,40.21527777777778],[-108.0761111111111,40.22527777777778],[-107.98222222222222,40.23861111111111],[-107.89916666666667,40.250277777777775],[-107.80666666666666,40.263333333333335],[-107.63194444444444,40.2875],[-107.45555555555556,40.31166666666666],[-107.28138888888888,40.33527777777778],[-107.10055555555554,40.35944444444445],[-106.745,40.405833333333334],[-106.56805555555555,40.428888888888885],[-106.19361111111111,40.476111111111116],[-106.0213888888889,40.49666666666667],[-105.83944444444444,40.50833333333333],[-105.65861111111111,40.51694444444444],[-105.4786111111111,40.525555555555556],[-105.30055555555555,40.53361111111111],[-105.12027777777777,40.541666666666664],[-104.94416666666667,40.54944444444444],[-104.765,40.556666666666665],[-104.58388888888888,40.56388888888888],[-104.4075,40.57083333333334],[-104.22666666666667,40.57916666666667],[-104.05,40.59861111111111],[-103.87333333333332,40.61944444444445],[-103.6975,40.63972222222222],[-103.5213888888889,40.65972222222222],[-103.17166666666667,40.698611111111106],[-102.82222222222222,40.736111111111114],[-102.64666666666668,40.754444444444445],[-102.47,40.772777777777776],[-102.2911111111111,40.79111111111111],[-102.11527777777778,40.80888888888889],[-101.9363888888889,40.82666666666667],[-101.75888888888889,40.84388888888889],[-101.58111111111111,40.86083333333333],[-101.40361111111112,40.8775],[-101.22555555555556,40.89416666666666],[-101.04666666666667,40.91027777777778],[-100.86805555555554,40.92638888888889],[-100.68611111111112,40.94222222222222],[-100.50638888888889,40.93138888888889],[-100.365,40.9075],[-100.19361111111111,40.87833333333333],[-100.02,40.849722222222226],[-99.66805555555555,40.85333333333333],[-99.48777777777778,40.875],[-99.10083333333333,40.92166666666667],[-98.9238888888889,40.94277777777778],[-98.74916666666667,40.96333333333334],[-98.56944444444444,40.98416666666667],[-98.38361111111112,41.00527777777778],[-98.0275,41.044999999999995],[-97.84833333333333,41.06444444444444],[-97.67,41.08361111111111],[-97.31055555555555,41.12138888888889],[-97.12916666666666,41.14],[-96.94944444444445,41.15833333333333],[-96.77027777777778,41.17611111111111],[-96.58999999999999,41.19361111111111],[-96.2375,41.227222222222224],[-96.0586111111111,41.24388888888889],[-95.87388888888889,41.26083333333333],[-95.69444444444444,41.276944444444446],[-95.51583333333333,41.29222222222222],[-95.33361111111111,41.30777777777777],[-95.15111111111112,41.323055555555555],[-94.96777777777778,41.338055555555556],[-94.88722222222223,41.344722222222224],[-94.70083333333334,41.35944444444445],[-94.59694444444445,41.367777777777775],[-94.51444444444445,41.37416666666667],[-94.33027777777778,41.38805555555555],[-94.22722222222222,41.395833333333336],[-94.14333333333335,41.40222222222222],[-94.03055555555555,41.41027777777778],[-93.95611111111111,41.41583333333333],[-93.84222222222222,41.42388888888889],[-93.77055555555556,41.428888888888885],[-93.47277777777778,41.45583333333334],[-93.39833333333334,41.46194444444445],[-93.285,41.471944444444446],[-93.21222222222222,41.478611111111114],[-93.02944444444444,41.49611111111111],[-92.91555555555556,41.50694444444444],[-92.84666666666666,41.513333333333335],[-92.63555555555556,41.5325],[-92.5461111111111,41.54055555555556],[-92.36444444444444,41.55638888888888],[-92.27027777777778,41.56444444444444],[-92.17888888888889,41.572500000000005],[-92.08833333333332,41.580000000000005],[-91.81083333333333,41.602222222222224],[-91.72083333333333,41.61055555555556],[-91.64861111111112,41.61638888888889],[-91.53999999999999,41.625],[-91.46388888888889,41.63],[-91.35555555555555,41.63944444444444],[-91.28111111111112,41.64472222222222],[-91.13388888888889,41.655833333333334],[-90.91333333333334,41.672777777777775],[-90.80138888888888,41.68138888888889],[-90.72777777777777,41.68611111111111],[-90.61972222222222,41.69444444444444],[-90.42222222222223,41.708333333333336],[-89.67500000000001,41.757777777777775],[-89.49638888888889,41.76888888888889],[-89.31083333333333,41.780277777777776],[-88.745,41.812777777777775],[-88.55694444444444,41.82277777777778],[-88.36583333333333,41.83277777777778],[-88.17722222222223,41.842222222222226],[-87.98583333333333,41.85166666666667],[-87.7975,41.86055555555556],[-87.60805555555555,41.869166666666665],[-87.03861111111111,41.89333333333333],[-86.84833333333333,41.90083333333333],[-86.72583333333334,41.90555555555555],[-86.66166666666668,41.907777777777774],[-86.49555555555555,41.91361111111111],[-86.11833333333333,41.92611111111111],[-85.93222222222222,41.93194444444444],[-85.78,41.93666666666666],[-85.7425,41.9375],[-85.59083333333332,41.94166666666666],[-85.21305555555556,41.95138888888889],[-85.17111111111112,41.95194444444445],[-85.02277777777778,41.950833333333335],[-84.97972222222222,41.95027777777778],[-84.82694444444444,41.94916666666666],[-84.78999999999999,41.94916666666666],[-84.63388888888889,41.948055555555555],[-84.4786111111111,41.94694444444444],[-84.28527777777778,41.945277777777775],[-84.0175,41.942499999999995],[-83.86749999999999,41.940555555555555],[-83.82777777777777,41.94],[-83.67805555555556,41.93583333333333],[-83.48083333333334,41.92472222222222],[-83.27888888888889,41.913888888888884],[-82.88305555555554,41.89277777777778],[-82.68472222222222,41.88166666666667],[-82.48472222222222,41.87],[-82.28555555555555,41.858333333333334],[-82.09972222222221,41.84638888888889],[-81.8786111111111,41.83277777777778],[-81.70472222222223,41.82],[-81.47638888888889,41.80611111111111],[-81.30749999999999,41.79277777777778],[-80.88111111111111,41.763888888888886],[-80.71527777777779,41.750277777777775],[-80.51972222222223,41.736111111111114],[-80.32416666666666,41.72138888888889],[-80.09805555555555,41.70388888888889],[-79.93527777777778,41.689166666666665],[-79.70666666666666,41.67166666666667],[-79.5461111111111,41.657777777777774],[-79.35083333333333,41.64],[-79.15361111111112,41.62388888888889],[-78.95083333333334,41.60583333333334],[-78.76194444444444,41.58861111111111],[-78.36749999999999,41.55166666666666],[-78.17833333333334,41.53333333333333],[-77.9775,41.51361111111111],[-77.78111111111112,41.48722222222222],[-77.58361111111111,41.4575],[-77.19250000000001,41.400555555555556],[-77.00111111111111,41.3725],[-76.80749999999999,41.34277777777778],[-76.44805555555556,41.25111111111111],[-76.27555555555556,41.20444444444445],[-76.08,41.151111111111106],[-75.91222222222223,41.10527777777778],[-75.755,41.06166666666666],[-75.27805555555555,40.92805555555555],[-75.0025,40.85],[-74.96666666666667,40.833333333333336],[-74.86666666666666,40.8],[-74.78333333333333,40.75],[-74.73527777777778,40.727222222222224],[-74.7,40.71666666666667],[-74.57833333333333,40.63583333333333],[-74.55,40.61666666666667],[-74.42305555555556,40.54388888888889],[-74.38333333333334,40.53333333333333],[-74.3425,40.519999999999996],[-74.31666666666666,40.516666666666666],[-74.28055555555555,40.528055555555554],[-74.24305555555556,40.56888888888889],[-74.23333333333333,40.583333333333336],[-74.21416666666667,40.61472222222223],[-74.2,40.63333333333333],[-74.19,40.653055555555554],[-74.18333333333334,40.666666666666664],[-74.16888888888889,40.68611111111111],[-74.13333333333334,40.733333333333334],[-74.13333333333334,40.78333333333333],[-74.15611111111112,40.79555555555555],[-74.2525,40.783055555555556],[-74.44250000000001,40.8125],[-74.53583333333333,40.849722222222226],[-74.64027777777778,40.83722222222222],[-74.75583333333333,40.794999999999995],[-75,40.71],[-75.12166666666666,40.6625],[-75.23305555555555,40.611666666666665],[-75.35305555555556,40.55694444444444],[-75.47583333333334,40.50055555555556],[-75.59916666666666,40.44361111111111],[-75.72611111111111,40.38472222222222],[-76.22666666666667,40.150277777777774],[-76.34888888888888,40.093333333333334],[-76.47305555555556,40.03611111111111],[-76.59166666666667,39.98111111111111],[-76.71555555555555,39.92333333333333],[-76.85583333333332,39.85805555555556],[-76.97611111111111,39.80138888888889],[-77.12249999999999,39.73277777777778],[-77.21805555555555,39.6875],[-77.24222222222222,39.67611111111111],[-77.36361111111111,39.61805555555556],[-77.57916666666667,39.515277777777776],[-77.60166666666666,39.504444444444445],[-77.7038888888889,39.45527777777778],[-77.85166666666666,39.38444444444444],[-77.9786111111111,39.33416666666667],[-78.10777777777777,39.2825],[-78.22611111111111,39.235],[-78.36472222222221,39.17972222222222],[-78.49694444444445,39.12638888888889],[-78.62722222222222,39.073888888888895],[-78.755,39.02166666666667],[-78.88527777777779,38.968611111111116],[-79.14277777777778,38.862500000000004],[-79.28166666666667,38.82527777777778],[-79.42166666666667,38.8],[-79.85888888888888,38.72],[-79.99805555555555,38.69444444444444],[-80.1413888888889,38.66777777777777],[-80.28083333333333,38.64111111111111],[-80.42361111111111,38.614444444444445],[-80.56638888888888,38.58722222222222],[-80.70277777777778,38.56083333333333],[-80.85166666666666,38.531666666666666],[-81.14055555555557,38.47555555555556],[-81.28361111111111,38.447222222222216],[-81.43083333333334,38.418055555555554],[-81.71611111111112,38.36055555555556],[-81.85694444444444,38.32555555555556],[-82.14250000000001,38.24527777777778],[-82.42722222222223,38.16444444444444],[-82.57805555555555,38.12111111111111],[-82.72166666666666,38.07972222222222],[-82.865,38.03805555555555],[-83.1525,37.95416666666667],[-83.29305555555555,37.91277777777778],[-83.43722222222223,37.87],[-83.57777777777777,37.82833333333333],[-83.5975,37.82333333333334],[-83.72,37.78583333333333],[-83.73805555555556,37.77972222222222],[-83.88083333333333,37.73638888888889],[-84.00666666666666,37.69944444444444],[-84.02527777777777,37.693888888888885],[-84.16861111111112,37.65],[-84.31416666666667,37.606944444444444],[-84.43583333333333,37.568333333333335],[-84.48611111111111,37.552499999999995],[-84.57888888888888,37.52388888888889],[-84.60194444444444,37.51694444444444],[-84.72305555555556,37.47944444444445],[-84.77222222222223,37.46416666666667],[-84.86916666666666,37.43388888888889],[-84.91916666666667,37.41833333333333],[-85.01555555555555,37.388333333333335],[-85.06583333333333,37.3725],[-85.21166666666667,37.32638888888889],[-85.35499999999999,37.28111111111111],[-85.45027777777779,37.25083333333333],[-85.58416666666666,37.20805555555556],[-85.64194444444445,37.18944444444444],[-85.72611111111111,37.1625],[-85.78472222222221,37.14361111111111],[-85.87305555555555,37.11527777777778],[-86.01444444444445,37.06944444444445],[-86.07305555555556,37.050555555555555],[-86.18583333333333,37.013333333333335],[-86.33333333333333,36.965],[-86.36361111111111,36.955000000000005],[-86.5075,36.906666666666666],[-86.62249999999999,36.864444444444445],[-86.65083333333334,36.85416666666667],[-86.76611111111112,36.8125],[-86.79472222222222,36.80222222222222],[-86.9088888888889,36.76083333333333],[-87.08222222222221,36.69777777777777],[-87.19194444444445,36.6575],[-87.22361111111111,36.64611111111111],[-87.33694444444444,36.61138888888889],[-87.52083333333333,36.58694444444445],[-87.82333333333332,36.54888888888889],[-87.9413888888889,36.534166666666664],[-87.97305555555556,36.53],[-88.12305555555555,36.51083333333333],[-88.27888888888889,36.49055555555556],[-88.58361111111111,36.45027777777778],[-88.73555555555555,36.43],[-88.89111111111112,36.409166666666664],[-89.04555555555555,36.38805555555555],[-89.49027777777778,36.32611111111112],[-89.64694444444446,36.31194444444444],[-90.24777777777778,36.41416666666667],[-90.39694444444446,36.441111111111105],[-90.54555555555555,36.46333333333334],[-90.6975,36.44694444444444],[-90.84861111111111,36.42833333333333],[-91.00055555555555,36.409444444444446],[-91.14916666666667,36.39],[-91.3,36.37027777777778],[-91.6111111111111,36.328611111111115],[-91.7625,36.308055555555555],[-91.91305555555556,36.2875],[-92.06638888888888,36.26638888888889],[-92.21861111111112,36.245],[-92.37249999999999,36.223333333333336],[-92.52666666666667,36.20138888888889],[-92.67861111111111,36.17944444444444],[-92.83083333333333,36.1575],[-92.97805555555556,36.13583333333333],[-93.12555555555555,36.11416666666667],[-93.27333333333333,36.091944444444444],[-93.36416666666666,36.078611111111115],[-93.42361111111111,36.069722222222225],[-93.57138888888889,36.04722222222222],[-93.66166666666668,36.03333333333333],[-93.72,36.02444444444444],[-93.95083333333334,35.98888888888889],[-94.02194444444444,35.9775],[-94.25416666666666,35.941111111111105],[-94.33972222222222,35.927499999999995],[-94.64027777777778,35.879444444444445],[-94.7025,35.86888888888889],[-94.79083333333332,35.85472222222222],[-94.85527777777777,35.844166666666666],[-94.94,35.830000000000005],[-95.00333333333333,35.819722222222225],[-95.09222222222222,35.805],[-95.23944444444444,35.78055555555555],[-95.30444444444444,35.76972222222222],[-95.36305555555555,35.75972222222222],[-95.45444444444445,35.744166666666665],[-95.51222222222222,35.73444444444444],[-95.66472222222222,35.70861111111111],[-95.82,35.68194444444444],[-95.97305555555556,35.65555555555555],[-96.21972222222223,35.61222222222222],[-96.37222222222222,35.58527777777778],[-96.82972222222222,35.503055555555555],[-96.98111111111112,35.47527777777778],[-97.13138888888888,35.44777777777777],[-97.26888888888888,35.42222222222222],[-97.41861111111112,35.394444444444446],[-97.56888888888888,35.36666666666667],[-97.72527777777778,35.36694444444444],[-97.88,35.3775],[-98.03666666666666,35.38805555555555],[-98.345,35.40861111111111],[-98.49777777777778,35.41833333333333],[-98.65972222222223,35.42861111111111],[-98.96861111111112,35.4475],[-99.12388888888889,35.45666666666667],[-99.28,35.465833333333336],[-99.43361111111112,35.474444444444444],[-99.56055555555555,35.481388888888894],[-99.74527777777777,35.49138888888889],[-100.02555555555556,35.50611111111111],[-100.18027777777779,35.513888888888886],[-100.20833333333334,35.515277777777776],[-100.3611111111111,35.5225],[-100.48472222222222,35.52861111111111],[-100.66666666666667,35.536944444444444],[-101.55027777777778,35.573888888888895],[-101.7025,35.57972222222222],[-101.85388888888889,35.58527777777778],[-102.00611111111111,35.59055555555556],[-102.16055555555556,35.595555555555556],[-102.46555555555555,35.605555555555554],[-102.77194444444444,35.614444444444445],[-103.25416666666666,35.62722222222222],[-103.41027777777778,35.630833333333335],[-103.565,35.63388888888889],[-103.72305555555556,35.63722222222222],[-103.87722222222222,35.640277777777776],[-104.03416666666666,35.64333333333333],[-104.16055555555556,35.64416666666666],[-104.64888888888889,35.652499999999996],[-104.78666666666666,35.65222222222222],[-104.80277777777778,35.65416666666667],[-104.94416666666667,35.653888888888886],[-104.95916666666668,35.655833333333334],[-105.10305555555556,35.65611111111111],[-105.24277777777777,35.690555555555555],[-105.26277777777777,35.69694444444444],[-105.39,35.73583333333333],[-105.53416666666666,35.78],[-105.55444444444444,35.78611111111111],[-105.67944444444444,35.82416666666667],[-105.82444444444444,35.86805555555556],[-106.1275,35.95916666666667],[-106.15222222222222,35.96638888888889],[-106.30027777777778,36.010555555555555],[-106.415,36.044444444444444],[-106.43833333333333,36.05138888888889],[-106.70777777777778,36.13055555555555],[-106.85305555555556,36.17305555555555],[-106.99777777777778,36.215],[-107.0275,36.22361111111111],[-107.14166666666668,36.25472222222222],[-107.28972222222222,36.28777777777778],[-107.32,36.29472222222222],[-107.4363888888889,36.321111111111115],[-107.61083333333333,36.36416666666667],[-107.71694444444445,36.406388888888884],[-107.74666666666667,36.41833333333333],[-107.88416666666667,36.473333333333336],[-108.01833333333333,36.52777777777778],[-108.12972222222221,36.57333333333334],[-108.15611111111112,36.58444444444444],[-108.27083333333333,36.6175],[-108.42166666666667,36.64472222222222],[-108.57055555555556,36.67166666666667],[-108.72277777777778,36.69888888888889],[-108.87166666666666,36.72555555555556],[-109.17472222222223,36.779444444444444],[-109.32472222222222,36.80555555555555],[-109.34833333333333,36.80916666666666],[-109.49944444444445,36.83416666666667],[-109.65,36.85777777777778],[-109.92277777777778,36.908055555555556],[-109.95,36.91027777777778],[-110.09888888888888,36.93805555555555],[-110.36805555555554,36.98222222222223],[-110.40277777777779,36.98777777777778],[-110.54527777777777,37.01111111111111],[-110.66833333333334,37.03138888888889],[-110.84472222222222,37.05972222222222],[-110.99638888888889,37.08361111111111],[-111.11972222222222,37.10333333333333],[-111.30055555555555,37.13166666666667],[-111.45055555555555,37.155],[-111.60083333333333,37.17805555555555],[-111.72500000000001,37.192499999999995],[-111.87027777777777,37.16166666666666],[-112.01638888888888,37.12222222222222],[-112.15916666666668,37.083333333333336],[-112.18833333333333,37.07555555555556],[-112.30166666666666,37.044444444444444],[-112.47194444444445,36.99777777777778],[-112.60972222222222,36.95944444444445],[-112.74722222222222,36.921388888888885],[-112.88,36.884166666666665],[-113.01333333333334,36.84666666666667],[-113.14333333333335,36.81027777777778],[-113.27444444444444,36.77305555555555],[-113.40472222222223,36.73583333333333],[-113.53222222222222,36.69944444444444],[-113.655,36.66444444444444],[-113.78,36.62861111111111],[-113.90305555555557,36.592222222222226],[-113.95277777777778,36.566111111111105],[-114.00777777777778,36.53333333333333],[-114.09916666666666,36.47666666666667],[-114.37249999999999,36.30361111111111],[-114.37027777777777,36.30555555555555],[-114.45305555555557,36.25555555555555],[-114.55083333333333,36.2275],[-114.65916666666668,36.19694444444444],[-114.75194444444445,36.171388888888885],[-114.83194444444445,36.15083333333333],[-115.00222222222222,36.13916666666667],[-115.06916666666666,36.1425],[-115.1275,36.13388888888889],[-115.13777777777779,36.126666666666665],[-115.15527777777778,36.09583333333334]],"type":"LineString"}
}
