{
  "id": 2032040089,
  "type": "Feature",
  "properties": {
    "geom:area": 0,
    "geom:bbox": "-126.931667,37.651944,-122.451389,38.124444",
    "geom:latitude": 37.89295301737218,
    "geom:longitude": -124.68189831119962,
    "src:alt_label": "swim-path",
    "src:geom": "swim",
    "swim:altitudes": [
      "026",
      "035C",
      "039",
      "056C",
      "061",
      "079C",
      "104",
      "113C",
      "118",
      "130",
      "150",
      "165C",
      "170",
      "187",
      "222",
      "237",
      "251",
      "264",
      "292",
      "300C",
      "300C",
      "300C",
      "300C",
      "300C",
      "300C",
      "300C",
      "300C",
      "300C",
      "300C",
      "300C",
      "300C"
    ],
    "swim:geom": "path",
    "swim:speeds": [
      183,
      230,
      257,
      270,
      272,
      280,
      300,
      320,
      338,
      375,
      389,
      400,
      393,
      402,
      414,
      417,
      425,
      433,
      466,
      462,
      461,
      460,
      460,
      460,
      462,
      463,
      464,
      465,
      465,
      465,
      466
    ],
    "swim:timestamps": [
      1785442861,
      1785442907,
      1785442921,
      1785442967,
      1785442981,
      1785443027,
      1785443101,
      1785443147,
      1785443161,
      1785443222,
      1785443282,
      1785443328,
      1785443342,
      1785443402,
      1785443522,
      1785443582,
      1785443642,
      1785443702,
      1785443883,
      1785444063,
      1785444123,
      1785444183,
      1785444243,
      1785444303,
      1785444363,
      1785444423,
      1785444483,
      1785444543,
      1785444604,
      1785444664,
      1785444724
    ],
    "wof:geomhash": "a9975c0b3778bec94a858e7104e62f66",
    "wof:id": 2032040089,
    "wof:repo": "sfomuseum-data-flights-2026-07"
  },
  "bbox": [
    -126.93166666666667,
    37.651944444444446,
    -122.45138888888889,
    38.12444444444444
  ],
  "geometry": {"coordinates":[[-122.45138888888889,37.651944444444446],[-122.5,37.666666666666664],[-122.52333333333333,37.6875],[-122.58333333333333,37.666666666666664],[-122.61861111111111,37.6825],[-122.68333333333334,37.68333333333333],[-122.82277777777777,37.69416666666666],[-122.9,37.68333333333333],[-122.93777777777778,37.70055555555556],[-123.06666666666666,37.70888888888889],[-123.2025,37.72416666666667],[-123.3,37.733333333333334],[-123.34027777777777,37.74138888888889],[-123.47888888888889,37.75833333333333],[-123.76555555555555,37.7925],[-123.91083333333334,37.80972222222222],[-124.05972222222222,37.827222222222225],[-124.21027777777778,37.844722222222224],[-124.68305555555555,37.89805555555556],[-125.16638888888889,37.95027777777778],[-125.32444444444444,37.967222222222226],[-125.48583333333333,37.98388888888889],[-125.64611111111111,38.00055555555556],[-125.80666666666666,38.016666666666666],[-125.96805555555555,38.032777777777774],[-126.13027777777778,38.04888888888889],[-126.28111111111112,38.06361111111111],[-126.44305555555556,38.07916666666667],[-126.60666666666665,38.09444444444445],[-126.76916666666666,38.109722222222224],[-126.93166666666667,38.12444444444444]],"type":"LineString"}
}
