{
  "id": 2032049779,
  "type": "Feature",
  "properties": {
    "geom:area": 0,
    "geom:bbox": "-122.349120,36.742480,-121.891090,37.607760",
    "geom:latitude": 37.22074866247184,
    "geom:longitude": -122.09162679012371,
    "src:alt_label": "swim-approach",
    "src:geom": "swim",
    "swim:elevations": [
      5286,
      5142,
      4869,
      4836,
      4277,
      3665,
      3268,
      3007,
      2788,
      2688,
      2422,
      2299,
      1906,
      1613,
      1345,
      1121,
      914,
      914,
      890,
      831,
      736,
      671,
      522,
      394,
      304,
      251,
      181,
      144,
      59
    ],
    "swim:geom": "approach",
    "swim:timestamps": [
      1785519148,
      1785519172,
      1785519205,
      1785519210,
      1785519276,
      1785519356,
      1785519403,
      1785519439,
      1785519469,
      1785519483,
      1785519537,
      1785519564,
      1785519620,
      1785519698,
      1785519752,
      1785519785,
      1785519829,
      1785519857,
      1785519865,
      1785519874,
      1785519898,
      1785519914,
      1785519941,
      1785519975,
      1785520001,
      1785520016,
      1785520031,
      1785520045,
      1785520066
    ],
    "wof:geomhash": "740622a3e3594d761bb8f106afab4e0f",
    "wof:id": 2032049779,
    "wof:repo": "sfomuseum-data-flights-2026-07"
  },
  "bbox": [
    -122.34912,
    36.74248,
    -121.89109,
    37.60776
  ],
  "geometry": {"coordinates":[[-121.89109,36.74248],[-121.90476,36.78023],[-121.91936,36.83136],[-121.92152,36.83871],[-121.94814,36.93574],[-122.02001,37.03395],[-122.06735,37.08825],[-122.10279,37.12912],[-122.13228,37.16262],[-122.14443,37.17901],[-122.16871,37.24767],[-122.16317,37.27834],[-122.13148,37.33427],[-122.0923,37.41328],[-122.1019,37.46333],[-122.11195,37.49285],[-122.14499,37.52125],[-122.17119,37.53307],[-122.1788,37.53632],[-122.18762,37.54003],[-122.21052,37.54967],[-122.22615,37.55617],[-122.25226,37.56721],[-122.28085,37.5792],[-122.30107,37.58763],[-122.31269,37.59256],[-122.32436,37.59747],[-122.33462,37.6018],[-122.34912,37.60776]],"type":"LineString"}
}
