{
  "id": 2032006097,
  "type": "Feature",
  "properties": {
    "geom:area": 0,
    "geom:bbox": "-122.351111,37.524722,-122.152778,37.608611",
    "geom:latitude": 37.568109108200154,
    "geom:longitude": -122.25157091870746,
    "src:alt_label": "swim-path",
    "src:geom": "swim",
    "swim:altitudes": [
      "040C",
      "028",
      "017",
      "008",
      "002"
    ],
    "swim:geom": "path",
    "swim:speeds": [
      194,
      178,
      163,
      149,
      143
    ],
    "swim:timestamps": [
      1785278468,
      1785278528,
      1785278588,
      1785278653,
      1785278709
    ],
    "wof:geomhash": "bcd82bd23543ca283cdd681ad1de04ec",
    "wof:id": 2032006097,
    "wof:repo": "sfomuseum-data-flights-2026-07"
  },
  "bbox": [
    -122.35111111111111,
    37.52472222222222,
    -122.15277777777779,
    37.60861111111111
  ],
  "geometry": {"coordinates":[[-122.15277777777779,37.52472222222222],[-122.20833333333334,37.54888888888889],[-122.25888888888889,37.569722222222225],[-122.31666666666666,37.6],[-122.35111111111111,37.60861111111111]],"type":"LineString"}
}
