{
  "id": 2032046745,
  "type": "Feature",
  "properties": {
    "geom:area": 0,
    "geom:bbox": "-122.750000,37.400000,-81.330278,46.747222",
    "geom:latitude": 43.696545575390175,
    "geom:longitude": -103.40772216089084,
    "src:alt_label": "swim-path",
    "src:geom": "swim",
    "swim:altitudes": [
      "227",
      "236",
      "241",
      "248",
      "256",
      "263",
      "271",
      "280",
      "288",
      "294",
      "301",
      "307",
      "312",
      "320",
      "328",
      "335",
      "340C",
      "340C",
      "340C",
      "340C",
      "340C",
      "340C",
      "340C",
      "340C",
      "340C",
      "340C",
      "340C",
      "340C",
      "340C",
      "340C",
      "340C",
      "340C",
      "340C",
      "340C",
      "340C",
      "340C",
      "340C",
      "340C",
      "340C",
      "340C",
      "340C",
      "340C",
      "340C",
      "340C",
      "340C",
      "340C",
      "340C",
      "340C",
      "340C",
      "340C",
      "340C",
      "340C",
      "340C",
      "340C",
      "340C",
      "340C",
      "340C",
      "340C",
      "340C",
      "340C",
      "340C",
      "340C",
      "340C",
      "340C",
      "340C",
      "340C",
      "340C",
      "340C",
      "340C",
      "340C",
      "340C",
      "340C",
      "340C",
      "340C",
      "340C",
      "340C",
      "340C",
      "340C",
      "340C",
      "340C",
      "340C",
      "340C",
      "340C",
      "340C",
      "340C",
      "340C",
      "340C",
      "340C",
      "340C",
      "340C",
      "340C",
      "340C",
      "340C",
      "340C",
      "340C",
      "340C",
      "340C",
      "340C",
      "340C",
      "340C",
      "340C",
      "340C",
      "340C",
      "340C",
      "340C",
      "340C",
      "340C",
      "340C",
      "340C",
      "340C",
      "340C",
      "340C",
      "340C",
      "340C",
      "340C",
      "340C",
      "340C",
      "340C",
      "340C",
      "340C",
      "340C",
      "340C",
      "340C",
      "340C",
      "340C",
      "340C",
      "340C",
      "340C",
      "340C",
      "340C",
      "340C",
      "340C",
      "340C",
      "340C",
      "340C",
      "340C",
      "340C",
      "340C",
      "340C",
      "340C",
      "340C",
      "340C",
      "340C",
      "340C",
      "340C",
      "340C",
      "340C",
      "340C",
      "340C",
      "340C",
      "340C",
      "340C",
      "340C",
      "340C",
      "340C",
      "340C",
      "340C",
      "340C",
      "340C",
      "340C",
      "340C",
      "340",
      "340",
      "340",
      "340",
      "340",
      "335",
      "332",
      "323",
      "320C",
      "320C",
      "320C",
      "320C",
      "320C",
      "320C",
      "320C",
      "320C",
      "320C",
      "320C",
      "320C",
      "320C",
      "320C",
      "320C",
      "320C",
      "320C",
      "320C",
      "320C",
      "320C",
      "320C",
      "320C",
      "320C",
      "320C",
      "320C",
      "320C",
      "320C",
      "320C",
      "320C",
      "320C",
      "322",
      "331",
      "337",
      "340C",
      "340C",
      "340C",
      "340C",
      "340C",
      "340C",
      "349",
      "358C",
      "360C",
      "360C",
      "360C",
      "360C",
      "360C",
      "360C",
      "360C",
      "360C",
      "360C",
      "360C",
      "360C",
      "360C",
      "360C",
      "360C",
      "360C",
      "360C",
      "360C",
      "360C",
      "360C",
      "360C",
      "360C",
      "360C",
      "360C",
      "360C",
      "360C",
      "360C",
      "360C",
      "360C",
      "360C",
      "360C",
      "360C",
      "360C",
      "360C",
      "360C",
      "360C",
      "360C",
      "360C",
      "360C",
      "360C",
      "360C",
      "360C",
      "360C",
      "360C",
      "360C",
      "360C",
      "360C",
      "360C",
      "360C",
      "360C",
      "360C",
      "360C",
      "360C",
      "360C",
      "360C",
      "360C",
      "360C",
      "360C",
      "360C",
      "360C",
      "360C",
      "360C",
      "360C",
      "360C",
      "360C",
      "360C",
      "360C",
      "360C",
      "360C",
      "360C",
      "360C",
      "360C",
      "360C",
      "360C",
      "360C",
      "360C",
      "360C",
      "360C",
      "360C",
      "360",
      "360",
      "360",
      "360",
      "360",
      "360",
      "360",
      "346",
      "328",
      "307",
      "286",
      "266",
      "247",
      "230",
      "208",
      "194",
      "186",
      "176",
      "170",
      "152",
      "148",
      "138",
      "134",
      "123",
      "119",
      "110",
      "110",
      "110",
      "110",
      "107",
      "104",
      "094",
      "089",
      "080",
      "077",
      "066",
      "063",
      "057",
      "054",
      "043",
      "041",
      "040",
      "040",
      "037",
      "035",
      "032",
      "030",
      "024",
      "020",
      "015",
      "012",
      "007",
      "005"
    ],
    "swim:geom": "path",
    "swim:speeds": [
      391,
      394,
      406,
      414,
      417,
      422,
      424,
      430,
      432,
      435,
      440,
      439,
      435,
      429,
      422,
      413,
      412,
      413,
      420,
      428,
      434,
      438,
      437,
      433,
      433,
      435,
      437,
      438,
      438,
      437,
      435,
      434,
      434,
      433,
      433,
      431,
      429,
      428,
      429,
      428,
      427,
      426,
      425,
      425,
      428,
      429,
      430,
      431,
      431,
      432,
      433,
      435,
      438,
      437,
      435,
      435,
      433,
      433,
      433,
      432,
      434,
      439,
      441,
      441,
      441,
      442,
      452,
      454,
      456,
      457,
      459,
      458,
      458,
      458,
      458,
      458,
      451,
      448,
      448,
      449,
      454,
      456,
      458,
      459,
      460,
      457,
      460,
      460,
      461,
      462,
      462,
      461,
      460,
      458,
      456,
      456,
      457,
      453,
      451,
      451,
      450,
      460,
      460,
      464,
      463,
      452,
      453,
      453,
      453,
      455,
      453,
      453,
      453,
      452,
      453,
      453,
      453,
      458,
      456,
      462,
      460,
      471,
      469,
      473,
      474,
      473,
      474,
      474,
      474,
      474,
      472,
      474,
      467,
      472,
      465,
      463,
      460,
      460,
      459,
      460,
      460,
      460,
      460,
      461,
      463,
      464,
      469,
      468,
      468,
      468,
      468,
      465,
      468,
      470,
      469,
      469,
      448,
      442,
      439,
      438,
      438,
      437,
      435,
      433,
      430,
      429,
      428,
      432,
      434,
      436,
      442,
      443,
      449,
      451,
      455,
      456,
      456,
      455,
      455,
      455,
      456,
      456,
      457,
      457,
      456,
      456,
      455,
      455,
      454,
      454,
      453,
      452,
      452,
      452,
      454,
      456,
      456,
      455,
      455,
      452,
      451,
      450,
      450,
      448,
      447,
      446,
      446,
      422,
      406,
      405,
      412,
      415,
      417,
      417,
      418,
      421,
      421,
      421,
      420,
      420,
      422,
      427,
      429,
      423,
      413,
      401,
      405,
      412,
      411,
      413,
      414,
      414,
      415,
      416,
      417,
      419,
      422,
      423,
      424,
      424,
      424,
      425,
      425,
      426,
      424,
      426,
      426,
      424,
      425,
      425,
      425,
      425,
      425,
      426,
      427,
      429,
      428,
      429,
      430,
      431,
      431,
      431,
      431,
      431,
      432,
      432,
      432,
      432,
      433,
      434,
      435,
      436,
      437,
      436,
      436,
      436,
      436,
      422,
      415,
      415,
      415,
      408,
      405,
      403,
      404,
      405,
      405,
      405,
      425,
      445,
      450,
      452,
      454,
      458,
      450,
      445,
      445,
      438,
      407,
      398,
      389,
      376,
      383,
      386,
      384,
      367,
      358,
      352,
      345,
      333,
      330,
      322,
      310,
      277,
      268,
      264,
      266,
      260,
      257,
      251,
      243,
      236,
      243,
      244,
      223,
      210,
      204,
      197,
      197,
      192,
      190,
      188,
      189,
      188,
      186,
      178,
      180,
      156,
      152,
      146
    ],
    "swim:timestamps": [
      1785501579,
      1785501639,
      1785501699,
      1785501759,
      1785501819,
      1785501879,
      1785501939,
      1785501999,
      1785502060,
      1785502120,
      1785502180,
      1785502240,
      1785502300,
      1785502360,
      1785502420,
      1785502480,
      1785502540,
      1785502600,
      1785502660,
      1785502720,
      1785502780,
      1785502841,
      1785502901,
      1785502961,
      1785503021,
      1785503081,
      1785503141,
      1785503201,
      1785503261,
      1785503321,
      1785503381,
      1785503441,
      1785503562,
      1785503622,
      1785503682,
      1785503742,
      1785503802,
      1785503862,
      1785503922,
      1785503982,
      1785504042,
      1785504102,
      1785504162,
      1785504222,
      1785504283,
      1785504343,
      1785504403,
      1785504463,
      1785504523,
      1785504583,
      1785504643,
      1785504703,
      1785504763,
      1785504823,
      1785504883,
      1785504943,
      1785505004,
      1785505064,
      1785505124,
      1785505184,
      1785505244,
      1785505304,
      1785505364,
      1785505424,
      1785505484,
      1785505544,
      1785505664,
      1785505725,
      1785505785,
      1785505845,
      1785505905,
      1785505965,
      1785506025,
      1785506085,
      1785506145,
      1785506205,
      1785506265,
      1785506325,
      1785506385,
      1785506446,
      1785506506,
      1785506566,
      1785506626,
      1785506686,
      1785506746,
      1785506866,
      1785506926,
      1785506986,
      1785507046,
      1785507107,
      1785507167,
      1785507227,
      1785507287,
      1785507347,
      1785507407,
      1785507467,
      1785507527,
      1785507587,
      1785507647,
      1785507707,
      1785507731,
      1785507767,
      1785507791,
      1785507828,
      1785507851,
      1785507888,
      1785507911,
      1785507948,
      1785507971,
      1785508008,
      1785508031,
      1785508068,
      1785508091,
      1785508128,
      1785508151,
      1785508188,
      1785508211,
      1785508248,
      1785508271,
      1785508308,
      1785508331,
      1785508368,
      1785508391,
      1785508428,
      1785508451,
      1785508488,
      1785508549,
      1785508572,
      1785508609,
      1785508632,
      1785508669,
      1785508692,
      1785508729,
      1785508752,
      1785508789,
      1785508812,
      1785508849,
      1785508872,
      1785508909,
      1785508932,
      1785508969,
      1785508992,
      1785509029,
      1785509052,
      1785509089,
      1785509112,
      1785509149,
      1785509172,
      1785509209,
      1785509233,
      1785509270,
      1785509288,
      1785509330,
      1785509349,
      1785509390,
      1785509409,
      1785509450,
      1785509469,
      1785509510,
      1785509529,
      1785509570,
      1785509589,
      1785509630,
      1785509649,
      1785509690,
      1785509709,
      1785509750,
      1785509769,
      1785509829,
      1785509881,
      1785509941,
      1785510062,
      1785510106,
      1785510122,
      1785510166,
      1785510182,
      1785510226,
      1785510242,
      1785510286,
      1785510302,
      1785510346,
      1785510362,
      1785510422,
      1785510466,
      1785510482,
      1785510526,
      1785510542,
      1785510586,
      1785510646,
      1785510662,
      1785510723,
      1785510783,
      1785510843,
      1785510903,
      1785510963,
      1785511023,
      1785511083,
      1785511143,
      1785511203,
      1785511263,
      1785511323,
      1785511383,
      1785511443,
      1785511504,
      1785511564,
      1785511624,
      1785511684,
      1785511744,
      1785511804,
      1785511864,
      1785511924,
      1785511984,
      1785512044,
      1785512104,
      1785512164,
      1785512225,
      1785512285,
      1785512345,
      1785512405,
      1785512465,
      1785512525,
      1785512585,
      1785512645,
      1785512705,
      1785512765,
      1785512825,
      1785512885,
      1785513066,
      1785513126,
      1785513186,
      1785513246,
      1785513306,
      1785513366,
      1785513426,
      1785513486,
      1785513546,
      1785513666,
      1785513727,
      1785513847,
      1785513907,
      1785513967,
      1785514027,
      1785514087,
      1785514147,
      1785514209,
      1785514267,
      1785514327,
      1785514390,
      1785514448,
      1785514508,
      1785514568,
      1785514628,
      1785514688,
      1785514750,
      1785514808,
      1785514868,
      1785514930,
      1785514988,
      1785515168,
      1785515229,
      1785515291,
      1785515349,
      1785515471,
      1785515529,
      1785515591,
      1785515649,
      1785515709,
      1785515769,
      1785515829,
      1785515889,
      1785515950,
      1785516072,
      1785516132,
      1785516192,
      1785516252,
      1785516312,
      1785516372,
      1785516433,
      1785516493,
      1785516553,
      1785516673,
      1785516733,
      1785516793,
      1785516853,
      1785516913,
      1785516973,
      1785517033,
      1785517093,
      1785517154,
      1785517214,
      1785517274,
      1785517334,
      1785517394,
      1785517454,
      1785517514,
      1785517574,
      1785517634,
      1785517694,
      1785517754,
      1785517814,
      1785517875,
      1785517935,
      1785517995,
      1785518009,
      1785518055,
      1785518068,
      1785518115,
      1785518123,
      1785518175,
      1785518188,
      1785518235,
      1785518248,
      1785518295,
      1785518314,
      1785518355,
      1785518369,
      1785518415,
      1785518428,
      1785518475,
      1785518488,
      1785518536,
      1785518548,
      1785518596,
      1785518608,
      1785518656,
      1785518669,
      1785518716,
      1785518729,
      1785518776,
      1785518789,
      1785518836,
      1785518849,
      1785518896,
      1785518909,
      1785518956,
      1785518975,
      1785519016,
      1785519029,
      1785519076,
      1785519089
    ],
    "wof:geomhash": "90a2b97ee820cfdacc1c1c2643bf245e",
    "wof:id": 2032046745,
    "wof:repo": "sfomuseum-data-flights-2026-07"
  },
  "bbox": [
    -122.75,
    37.4,
    -81.33027777777778,
    46.74722222222222
  ],
  "geometry": {"coordinates":[[-81.33027777777778,43.975],[-81.48333333333333,43.97694444444445],[-81.64083333333333,43.978611111111114],[-81.80388888888889,43.98027777777778],[-81.96416666666667,43.98166666666667],[-82.12694444444443,43.98277777777778],[-82.28999999999999,43.981944444444444],[-82.45722222222223,43.97944444444445],[-82.6286111111111,43.97666666666667],[-82.79277777777777,43.97361111111111],[-82.96166666666667,43.97027777777778],[-83.13027777777778,43.96666666666667],[-83.29166666666667,43.99916666666667],[-83.44555555555556,44.04138888888889],[-83.59666666666666,44.08222222222223],[-83.74416666666667,44.12222222222222],[-83.89472222222223,44.1625],[-84.04138888888889,44.20194444444445],[-84.19444444444444,44.2425],[-84.35,44.28333333333333],[-84.50972222222222,44.32527777777778],[-84.66972222222223,44.36694444444444],[-84.82944444444443,44.408055555555556],[-84.985,44.448055555555555],[-85.14333333333335,44.48833333333334],[-85.3025,44.52861111111111],[-85.46361111111112,44.56916666666667],[-85.62472222222222,44.60944444444445],[-85.77638888888889,44.64694444444444],[-85.93666666666667,44.68666666666666],[-86.09555555555555,44.72527777777778],[-86.25361111111111,44.763888888888886],[-86.57472222222222,44.840833333333336],[-86.73333333333333,44.87861111111111],[-86.88972222222223,44.91555555555556],[-87.04833333333333,44.95277777777778],[-87.2063888888889,44.989444444444445],[-87.36749999999999,45.026666666666664],[-87.52555555555556,45.06305555555555],[-87.68527777777778,45.099444444444444],[-87.84527777777777,45.13527777777778],[-88.00305555555556,45.170833333333334],[-88.16166666666668,45.20611111111111],[-88.32194444444444,45.24138888888889],[-88.48333333333333,45.276944444444446],[-88.64833333333334,45.312777777777775],[-88.81055555555555,45.34777777777778],[-88.97277777777778,45.3825],[-89.13555555555556,45.41722222222222],[-89.29972222222221,45.45166666666667],[-89.46444444444445,45.486111111111114],[-89.62833333333333,45.52027777777778],[-89.79444444444444,45.55444444444444],[-89.95944444444444,45.588055555555556],[-90.125,45.62166666666667],[-90.29722222222222,45.65611111111111],[-90.46305555555556,45.689166666666665],[-90.62694444444443,45.72138888888889],[-90.79027777777777,45.75333333333333],[-90.95694444444445,45.78583333333333],[-91.12277777777777,45.8175],[-91.29388888888889,45.85027777777778],[-91.46194444444444,45.88194444444444],[-91.63138888888888,45.91361111111111],[-91.80055555555555,45.94499999999999],[-91.96972222222223,45.976111111111116],[-92.31972222222223,46.03944444444444],[-92.49416666666667,46.07083333333334],[-92.6725,46.102222222222224],[-92.85,46.13333333333333],[-93.02638888888889,46.163888888888884],[-93.23805555555556,46.20027777777778],[-93.41666666666667,46.230555555555554],[-93.56083333333333,46.25472222222222],[-93.73944444444444,46.28444444444444],[-93.91777777777779,46.31388888888888],[-94.09388888888888,46.34277777777778],[-94.27,46.37111111111111],[-94.44638888888889,46.399166666666666],[-94.62194444444444,46.426944444444445],[-94.80138888888888,46.455000000000005],[-94.9825,46.48305555555556],[-95.16388888888889,46.510555555555555],[-95.34333333333333,46.53777777777778],[-95.53333333333333,46.566111111111105],[-95.89111111111112,46.618611111111115],[-96.07388888888889,46.64472222222222],[-96.25555555555556,46.670833333333334],[-96.44083333333333,46.69694444444444],[-96.6236111111111,46.72222222222222],[-96.80666666666666,46.74722222222222],[-96.99166666666667,46.74388888888889],[-97.17805555555556,46.73111111111111],[-97.36166666666666,46.71805555555556],[-97.54527777777777,46.705000000000005],[-97.72805555555556,46.69166666666666],[-97.91305555555556,46.67777777777778],[-98.095,46.663888888888884],[-98.275,46.64972222222222],[-98.4575,46.635],[-98.545,46.62777777777778],[-98.6438888888889,46.62],[-98.73138888888889,46.611666666666665],[-98.8286111111111,46.60444444444445],[-98.91722222222222,46.596111111111114],[-99.01138888888889,46.58916666666667],[-99.09555555555555,46.581388888888895],[-99.19277777777778,46.57333333333334],[-99.2786111111111,46.565],[-99.3711111111111,46.55777777777777],[-99.46111111111111,46.54861111111111],[-99.54916666666666,46.541666666666664],[-99.63916666666667,46.53333333333333],[-99.72833333333334,46.525277777777774],[-99.82055555555556,46.516666666666666],[-99.90972222222223,46.50833333333333],[-100.00083333333333,46.499722222222225],[-100.0911111111111,46.480000000000004],[-100.17944444444444,46.46083333333333],[-100.26777777777778,46.441111111111105],[-100.35805555555555,46.421388888888885],[-100.44583333333334,46.401944444444446],[-100.54027777777777,46.38055555555555],[-100.62722222222222,46.36138888888889],[-100.7225,46.33972222222222],[-100.80805555555555,46.32055555555556],[-100.98861111111111,46.279444444444444],[-101.08277777777778,46.257222222222225],[-101.16861111111112,46.23833333333334],[-101.26277777777777,46.21805555555556],[-101.34555555555555,46.1975],[-101.44111111111111,46.17583333333333],[-101.55638888888889,46.14833333333333],[-101.61888888888888,46.13333333333333],[-101.73055555555555,46.1075],[-101.79222222222222,46.09277777777778],[-101.90472222222223,46.066111111111105],[-101.96388888888889,46.051944444444445],[-102.0775,46.025],[-102.13944444444445,46.01],[-102.25027777777778,45.983333333333334],[-102.3111111111111,45.968611111111116],[-102.4213888888889,45.94194444444444],[-102.48777777777778,45.92583333333333],[-102.59722222222221,45.89888888888889],[-102.66277777777778,45.882777777777775],[-102.765,45.8575],[-102.83944444444444,45.83916666666667],[-102.94055555555556,45.81388888888888],[-103.01555555555555,45.79527777777778],[-103.11611111111111,45.769999999999996],[-103.15694444444445,45.76],[-103.29055555555556,45.726111111111116],[-103.33222222222221,45.71555555555556],[-103.46666666666667,45.68138888888889],[-103.50444444444445,45.67194444444444],[-103.63388888888889,45.63861111111111],[-103.67361111111111,45.62833333333333],[-103.79416666666667,45.597500000000004],[-103.83444444444444,45.58694444444445],[-103.95972222222223,45.55444444444444],[-104.00333333333333,45.543055555555554],[-104.11777777777777,45.51305555555555],[-104.16361111111112,45.50111111111111],[-104.27944444444444,45.470555555555556],[-104.32166666666666,45.45944444444445],[-104.43555555555555,45.42944444444444],[-104.48,45.4175],[-104.64027777777778,45.374722222222225],[-104.76888888888888,45.34],[-104.93361111111112,45.29555555555555],[-105.2575,45.20722222222223],[-105.39,45.17055555555555],[-105.4238888888889,45.16138888888889],[-105.55777777777777,45.12388888888889],[-105.5911111111111,45.11472222222223],[-105.72111111111111,45.07833333333333],[-105.75722222222223,45.068333333333335],[-105.88722222222223,45.031666666666666],[-105.92333333333333,45.021388888888886],[-106.05277777777778,44.981388888888894],[-106.08666666666666,44.969722222222224],[-106.24722222222222,44.913333333333334],[-106.37388888888889,44.868611111111115],[-106.40527777777778,44.8575],[-106.53083333333333,44.81305555555555],[-106.56555555555555,44.80083333333333],[-106.69,44.756388888888885],[-106.85,44.69888888888889],[-106.88111111111111,44.687777777777775],[-107.03861111111111,44.63111111111111],[-107.19694444444445,44.57361111111111],[-107.35333333333332,44.51638888888889],[-107.5111111111111,44.458333333333336],[-107.66833333333334,44.400277777777774],[-107.8275,44.34138888888889],[-107.98694444444445,44.281666666666666],[-108.14305555555556,44.223055555555554],[-108.29805555555555,44.16444444444444],[-108.4538888888889,44.10527777777778],[-108.60499999999999,44.0475],[-108.75944444444444,43.988055555555555],[-108.91027777777778,43.93],[-109.06416666666667,43.87027777777778],[-109.21361111111112,43.81194444444444],[-109.36305555555555,43.75333333333333],[-109.51444444444445,43.69361111111111],[-109.65861111111111,43.63611111111111],[-109.79444444444444,43.58222222222223],[-109.93972222222223,43.524166666666666],[-110.06916666666666,43.464444444444446],[-110.19944444444445,43.39805555555556],[-110.33138888888888,43.33027777777778],[-110.46138888888889,43.26305555555555],[-110.59055555555555,43.19638888888888],[-110.73333333333333,43.121944444444445],[-110.86305555555555,43.05416666666667],[-110.99388888888889,42.98555555555556],[-111.095,42.93222222222222],[-111.22555555555556,42.863055555555555],[-111.35666666666665,42.79361111111111],[-111.48722222222223,42.723888888888894],[-111.64111111111112,42.64111111111111],[-111.76805555555555,42.57277777777778],[-111.89444444444445,42.504444444444445],[-112.01527777777778,42.43888888888888],[-112.13722222222223,42.37222222222222],[-112.5175,42.17777777777778],[-112.65694444444445,42.13055555555555],[-112.79722222222222,42.0825],[-112.93805555555556,42.03444444444444],[-113.07805555555555,41.98638888888889],[-113.21833333333333,41.937777777777775],[-113.35833333333333,41.88944444444444],[-113.49944444444445,41.84027777777778],[-113.64,41.79083333333333],[-113.92500000000001,41.69027777777777],[-114.06555555555555,41.640277777777776],[-114.34888888888888,41.53861111111111],[-114.49,41.48777777777778],[-114.63166666666666,41.436388888888885],[-114.77305555555556,41.38472222222222],[-114.90555555555557,41.336111111111116],[-115.04666666666667,41.284166666666664],[-115.18944444444445,41.231388888888894],[-115.3286111111111,41.17944444444444],[-115.47,41.126666666666665],[-115.61,41.07472222222223],[-115.74916666666667,41.021388888888886],[-115.88777777777779,40.96888888888889],[-116.0275,40.91583333333333],[-116.165,40.863055555555555],[-116.30444444444444,40.809444444444445],[-116.44444444444444,40.75555555555555],[-116.58166666666666,40.70194444444445],[-116.74861111111112,40.636944444444445],[-116.88666666666667,40.58277777777778],[-117.02944444444444,40.54138888888889],[-117.46833333333333,40.42583333333333],[-117.61694444444444,40.38638888888889],[-117.76777777777778,40.34583333333334],[-117.91277777777778,40.30694444444444],[-118.21333333333334,40.22527777777778],[-118.35583333333332,40.18611111111111],[-118.50611111111111,40.14472222222222],[-118.65111111111112,40.10305555555556],[-118.79527777777777,40.05972222222222],[-118.93944444444445,40.01611111111111],[-119.08583333333333,39.97166666666667],[-119.23194444444445,39.926944444444445],[-119.3786111111111,39.88194444444444],[-119.67027777777778,39.791666666666664],[-119.82083333333333,39.760555555555555],[-119.97833333333334,39.768055555555556],[-120.15166666666667,39.77777777777778],[-120.30944444444444,39.78666666666666],[-120.46527777777779,39.79555555555555],[-120.61944444444444,39.80472222222222],[-120.76611111111112,39.81388888888888],[-120.91694444444445,39.823888888888895],[-121.20333333333333,39.844166666666666],[-121.34805555555555,39.85472222222222],[-121.49472222222222,39.865],[-121.63833333333334,39.875277777777775],[-121.78333333333333,39.88583333333333],[-121.93222222222222,39.890277777777776],[-122.07333333333332,39.859722222222224],[-122.21277777777777,39.823888888888895],[-122.3125,39.73833333333334],[-122.33722222222222,39.615833333333335],[-122.34916666666666,39.49027777777778],[-122.36166666666666,39.36083333333333],[-122.37416666666665,39.23388888888889],[-122.3863888888889,39.106944444444444],[-122.39833333333334,38.98361111111111],[-122.41027777777778,38.85888888888889],[-122.42194444444445,38.73583333333333],[-122.43361111111112,38.61555555555556],[-122.47666666666667,38.507777777777775],[-122.56472222222222,38.42222222222222],[-122.64694444444446,38.341944444444444],[-122.75,38.25],[-122.74888888888889,38.16],[-122.73333333333333,38.11666666666667],[-122.71916666666667,38.0575],[-122.7,38.016666666666666],[-122.68583333333333,37.942499999999995],[-122.68333333333334,37.93333333333333],[-122.6325,37.861111111111114],[-122.61666666666666,37.85],[-122.56,37.79222222222222],[-122.53333333333333,37.766666666666666],[-122.48916666666666,37.72555555555556],[-122.46666666666667,37.7],[-122.42777777777778,37.668055555555554],[-122.41666666666667,37.65],[-122.36777777777777,37.611111111111114],[-122.35,37.6],[-122.33027777777778,37.547777777777775],[-122.31666666666666,37.53333333333333],[-122.31416666666667,37.48277777777778],[-122.31666666666666,37.46666666666667],[-122.2786111111111,37.43194444444444],[-122.25,37.416666666666664],[-122.2038888888889,37.408055555555556],[-122.18333333333334,37.4],[-122.13027777777778,37.4175],[-122.11666666666666,37.416666666666664],[-122.08999999999999,37.45277777777778],[-122.08333333333333,37.46666666666667],[-122.10416666666666,37.500277777777775],[-122.11666666666666,37.516666666666666],[-122.1575,37.52916666666667],[-122.18333333333334,37.53333333333333],[-122.21666666666667,37.55138888888889],[-122.23333333333333,37.56666666666667],[-122.27055555555556,37.57472222222223],[-122.28333333333333,37.583333333333336],[-122.3175,37.59444444444445],[-122.33333333333333,37.6]],"type":"LineString"}
}
