{
  "id": 2032040081,
  "type": "Feature",
  "properties": {
    "geom:area": 0,
    "geom:bbox": "-122.360820,36.731300,-121.481810,37.348090",
    "geom:latitude": 37.04096594967596,
    "geom:longitude": -121.92042803235267,
    "src:alt_label": "swim-takeoff",
    "src:geom": "swim",
    "swim:elevations": [
      4974,
      5175,
      5648,
      5872,
      6374,
      6676,
      7005,
      7155,
      7528,
      7769,
      8008,
      8197,
      8230,
      8230,
      8300,
      8537,
      8639,
      8906,
      9125
    ],
    "swim:geom": "takeoff",
    "swim:timestamps": [
      1785430694,
      1785430710,
      1785430755,
      1785430775,
      1785430804,
      1785430823,
      1785430850,
      1785430865,
      1785430912,
      1785430943,
      1785430970,
      1785430995,
      1785431033,
      1785431043,
      1785431093,
      1785431123,
      1785431137,
      1785431172,
      1785431202
    ],
    "wof:geomhash": "78ac6460ebe2c773a763cbd5842d2df0",
    "wof:id": 2032040081,
    "wof:repo": "sfomuseum-data-flights-2026-07"
  },
  "bbox": [
    -122.36082,
    36.7313,
    -121.48181,
    37.34809
  ],
  "geometry": {"coordinates":[[-122.36082,37.34809],[-122.3342,37.33007],[-122.25833,37.2785],[-122.22392,37.25447],[-122.17425,37.2197],[-122.14329,37.19801],[-122.09924,37.1672],[-122.07608,37.15099],[-121.99683,37.09547],[-121.94386,37.05758],[-121.89583,37.02407],[-121.85135,36.99286],[-121.78416,36.94589],[-121.76584,36.93293],[-121.6776,36.87073],[-121.62373,36.8318],[-121.59846,36.81378],[-121.53638,36.7699],[-121.48181,36.7313]],"type":"LineString"}
}
