{
  "id": 2031965607,
  "type": "Feature",
  "properties": {
    "geom:area": 0,
    "geom:bbox": "-126.664167,35.396667,-122.127222,37.594167",
    "geom:latitude": 36.51734085156145,
    "geom:longitude": -124.30118865585204,
    "src:alt_label": "swim-path",
    "src:geom": "swim",
    "swim:altitudes": [
      "390C",
      "390C",
      "390C",
      "390C",
      "390",
      "390",
      "390",
      "390",
      "390",
      "380",
      "357",
      "330",
      "300",
      "274",
      "251",
      "228",
      "205",
      "181",
      "159",
      "135",
      "113",
      "110",
      "106",
      "100",
      "100",
      "092",
      "092",
      "088",
      "085",
      "085",
      "082",
      "082",
      "074",
      "073",
      "054",
      "038",
      "036",
      "030",
      "030",
      "025",
      "017",
      "010",
      "009"
    ],
    "swim:geom": "path",
    "swim:speeds": [
      583,
      560,
      560,
      560,
      560,
      561,
      561,
      560,
      560,
      559,
      559,
      560,
      563,
      553,
      533,
      514,
      498,
      479,
      466,
      452,
      437,
      422,
      414,
      410,
      368,
      312,
      313,
      311,
      307,
      309,
      284,
      287,
      271,
      269,
      241,
      198,
      201,
      184,
      188,
      183,
      160,
      140,
      143
    ],
    "swim:timestamps": [
      1785071552,
      1785071612,
      1785071672,
      1785071768,
      1785071828,
      1785071948,
      1785072008,
      1785072068,
      1785072128,
      1785072248,
      1785072308,
      1785072368,
      1785072428,
      1785072488,
      1785072548,
      1785072608,
      1785072668,
      1785072728,
      1785072788,
      1785072848,
      1785072909,
      1785072923,
      1785072965,
      1785073025,
      1785073079,
      1785073140,
      1785073149,
      1785073209,
      1785073254,
      1785073269,
      1785073314,
      1785073329,
      1785073374,
      1785073389,
      1785073434,
      1785073494,
      1785073509,
      1785073554,
      1785073569,
      1785073629,
      1785073674,
      1785073734,
      1785073749
    ],
    "wof:geomhash": "1c6ab8e7db3885d3f8c88236f1bacb24",
    "wof:id": 2031965607,
    "wof:repo": "sfomuseum-data-flights-2026-07"
  },
  "bbox": [
    -126.66416666666667,
    35.39666666666667,
    -122.12722222222222,
    37.594166666666666
  ],
  "geometry": {"coordinates":[[-126.66416666666667,35.39666666666667],[-126.5075,35.46055555555556],[-126.34277777777777,35.527499999999996],[-126.05361111111111,35.643055555555556],[-125.88333333333334,35.71361111111111],[-125.56361111111111,35.88055555555555],[-125.40083333333334,35.96666666666667],[-125.2388888888889,36.051944444444445],[-125.0775,36.13638888888889],[-124.75472222222223,36.30444444444444],[-124.595,36.3875],[-124.43194444444445,36.471111111111114],[-124.26527777777778,36.55638888888888],[-124.10555555555555,36.63805555555555],[-123.94805555555556,36.717777777777776],[-123.7975,36.79388888888889],[-123.65222222222222,36.86694444444444],[-123.50972222222222,36.93805555555555],[-123.3736111111111,37.005833333333335],[-123.23861111111111,37.07277777777778],[-123.11027777777777,37.13638888888889],[-123.06666666666666,37.15],[-122.98333333333333,37.2],[-122.86666666666666,37.25],[-122.73333333333333,37.28333333333333],[-122.63333333333334,37.31666666666667],[-122.62694444444443,37.312777777777775],[-122.52361111111111,37.336666666666666],[-122.43333333333334,37.35],[-122.42083333333333,37.36027777777778],[-122.33333333333333,37.38333333333333],[-122.32388888888889,37.382777777777775],[-122.25,37.4],[-122.23222222222222,37.40361111111111],[-122.16666666666667,37.416666666666664],[-122.13333333333334,37.483333333333334],[-122.12722222222222,37.48361111111111],[-122.15,37.516666666666666],[-122.1613888888889,37.52638888888889],[-122.21444444444445,37.55333333333333],[-122.26666666666667,37.56666666666667],[-122.3,37.583333333333336],[-122.3111111111111,37.594166666666666]],"type":"LineString"}
}
