{
  "id": 2031965607,
  "type": "Feature",
  "properties": {
    "geom:area": 0,
    "geom:bbox": "-123.507300,36.938670,-122.095810,37.613150",
    "geom:latitude": 37.30552473577745,
    "geom:longitude": -122.74621212572096,
    "src:alt_label": "swim-approach",
    "src:geom": "swim",
    "swim:elevations": [
      1552,
      1523,
      1297,
      1218,
      1219,
      1219,
      1219,
      1098,
      985,
      908,
      882,
      753,
      640,
      515,
      455,
      329,
      241,
      109,
      19,
      5519,
      5484,
      5442,
      4968,
      4846,
      4456,
      3931,
      3575,
      3389,
      3263,
      3215,
      3077,
      3066,
      3048,
      3048,
      3048,
      3048,
      2884,
      2782,
      2715,
      2681,
      2684,
      2651,
      2654,
      2619,
      2591,
      2557,
      2530,
      2465,
      2431,
      2347,
      2248,
      2209,
      2135,
      1880,
      1807,
      1740,
      1164,
      1037,
      914,
      914,
      833,
      673,
      498,
      404,
      352,
      218,
      118,
      13
    ],
    "swim:geom": "approach",
    "swim:timestamps": [
      1784962823,
      1784962835,
      1784962878,
      1784962907,
      1784962945,
      1784962954,
      1784962974,
      1784962995,
      1784963019,
      1784963038,
      1784963045,
      1784963072,
      1784963097,
      1784963127,
      1784963146,
      1784963184,
      1784963206,
      1784963244,
      1784963265,
      1785047524,
      1785047527,
      1785047530,
      1785047569,
      1785047581,
      1785047615,
      1785047658,
      1785047690,
      1785047713,
      1785047756,
      1785047768,
      1785047813,
      1785047821,
      1785047840,
      1785047860,
      1785047866,
      1785047890,
      1785047929,
      1785047949,
      1785047987,
      1785048006,
      1785048012,
      1785048024,
      1785048030,
      1785048041,
      1785048062,
      1785048076,
      1785048105,
      1785048130,
      1785048142,
      1785048157,
      1785048176,
      1785048182,
      1785048190,
      1785048214,
      1785048220,
      1785048226,
      1785048290,
      1785048309,
      1785048351,
      1785048366,
      1785048409,
      1785048445,
      1785048477,
      1785048504,
      1785048521,
      1785048555,
      1785048580,
      1785048604
    ],
    "wof:geomhash": "b4f248f2666c9d2da63d3be7fff21116",
    "wof:id": 2031965607,
    "wof:repo": "sfomuseum-data-flights-2026-07"
  },
  "bbox": [
    -123.5073,
    36.93867,
    -122.09581,
    37.61315
  ],
  "geometry": {"coordinates":[[-122.16089,37.41994],[-122.14707,37.42313],[-122.10329,37.4401],[-122.09581,37.46423],[-122.11795,37.49157],[-122.12354,37.49771],[-122.13587,37.51142],[-122.15003,37.52541],[-122.17138,37.53549],[-122.18921,37.54289],[-122.19538,37.54548],[-122.21879,37.55532],[-122.23797,37.56344],[-122.26103,37.57311],[-122.2745,37.57878],[-122.30047,37.58969],[-122.31589,37.59619],[-122.34116,37.60682],[-122.35617,37.61315],[-123.5073,36.93867],[-123.50038,36.94237],[-123.49331,36.94594],[-123.403,36.99056],[-123.37542,37.00372],[-123.30262,37.04115],[-123.20567,37.08898],[-123.13856,37.12253],[-123.0878,37.14728],[-123.00012,37.1905],[-122.97554,37.20255],[-122.88481,37.24717],[-122.86597,37.25526],[-122.82335,37.26706],[-122.77833,37.27739],[-122.76562,37.28042],[-122.7177,37.29176],[-122.64889,37.30769],[-122.61484,37.31559],[-122.54991,37.33059],[-122.51653,37.33837],[-122.50616,37.34074],[-122.48572,37.34549],[-122.47549,37.34782],[-122.45762,37.35193],[-122.42116,37.36033],[-122.39734,37.36588],[-122.35116,37.37648],[-122.311,37.38567],[-122.29225,37.39],[-122.26878,37.39525],[-122.23937,37.40198],[-122.2307,37.40402],[-122.21946,37.40652],[-122.18681,37.414],[-122.17876,37.4159],[-122.17096,37.41832],[-122.12842,37.47324],[-122.1297,37.48969],[-122.15522,37.51972],[-122.16443,37.52972],[-122.20307,37.54874],[-122.2365,37.56283],[-122.26348,37.57414],[-122.28359,37.58259],[-122.29592,37.58777],[-122.32055,37.59814],[-122.33869,37.60582],[-122.35569,37.613]],"type":"LineString"}
}
