{
  "id": 2031991909,
  "type": "Feature",
  "properties": {
    "geom:area": 0,
    "geom:bbox": "-122.345833,37.552500,-122.217222,37.606389",
    "geom:latitude": 37.580010808081106,
    "geom:longitude": -122.28132957971087,
    "src:alt_label": "swim-path",
    "src:geom": "swim",
    "swim:altitudes": [
      "024",
      "018",
      "017",
      "012",
      "005",
      "003"
    ],
    "swim:geom": "path",
    "swim:speeds": [
      155,
      149,
      149,
      134,
      133,
      135
    ],
    "swim:timestamps": [
      1785219901,
      1785219935,
      1785219961,
      1785219995,
      1785220049,
      1785220081
    ],
    "wof:geomhash": "5cbe6788527e87486282f3d954b3c0a5",
    "wof:id": 2031991909,
    "wof:repo": "sfomuseum-data-flights-2026-07"
  },
  "bbox": [
    -122.34583333333333,
    37.552499999999995,
    -122.21722222222222,
    37.60638888888889
  ],
  "geometry": {"coordinates":[[-122.21722222222222,37.552499999999995],[-122.25,37.56666666666667],[-122.26305555555555,37.57166666666667],[-122.28333333333333,37.583333333333336],[-122.33333333333333,37.6],[-122.34583333333333,37.60638888888889]],"type":"LineString"}
}
