{
  "id": 2032052123,
  "type": "Feature",
  "properties": {
    "geom:area": 0,
    "geom:bbox": "-122.547850,36.721240,-121.442610,37.663590",
    "geom:latitude": 37.21213009564865,
    "geom:longitude": -122.06977761049603,
    "src:alt_label": "swim-takeoff",
    "src:geom": "swim",
    "swim:elevations": [
      122,
      242,
      532,
      683,
      1301,
      1507,
      1991,
      2169,
      2515,
      2761,
      3156,
      3308,
      3424,
      3603,
      3833,
      4099,
      4297,
      4511,
      4791,
      4943,
      5270,
      5494,
      5660,
      5947,
      6031,
      6317,
      6388,
      6614,
      6818,
      6867,
      7018,
      7147
    ],
    "swim:geom": "takeoff",
    "swim:timestamps": [
      1785497717,
      1785497731,
      1785497776,
      1785497790,
      1785497839,
      1785497870,
      1785497907,
      1785497921,
      1785497954,
      1785497983,
      1785498027,
      1785498055,
      1785498079,
      1785498114,
      1785498145,
      1785498175,
      1785498195,
      1785498220,
      1785498259,
      1785498276,
      1785498317,
      1785498348,
      1785498368,
      1785498418,
      1785498434,
      1785498477,
      1785498498,
      1785498524,
      1785498553,
      1785498565,
      1785498589,
      1785498612
    ],
    "wof:geomhash": "044da1bafa527b646081465aa11d4e7f",
    "wof:id": 2032052123,
    "wof:repo": "sfomuseum-data-flights-2026-07"
  },
  "bbox": [
    -122.54785,
    36.72124,
    -121.44261,
    37.66359
  ],
  "geometry": {"coordinates":[[-122.38894,37.6245],[-122.40114,37.6296],[-122.44656,37.6493],[-122.46386,37.65674],[-122.52774,37.66359],[-122.54785,37.62764],[-122.52627,37.58305],[-122.51695,37.56597],[-122.49551,37.52753],[-122.47312,37.4918],[-122.41811,37.44848],[-122.3806,37.42076],[-122.34524,37.39478],[-122.29238,37.35588],[-122.24292,37.31948],[-122.19453,37.28372],[-122.16259,37.26009],[-122.12335,37.23089],[-122.05848,37.1827],[-122.02966,37.16132],[-121.96151,37.11076],[-121.90891,37.07169],[-121.87523,37.04659],[-121.78925,36.98219],[-121.7616,36.96145],[-121.68551,36.90441],[-121.64814,36.87641],[-121.60239,36.84192],[-121.54951,36.80202],[-121.52934,36.78673],[-121.48444,36.7529],[-121.44261,36.72124]],"type":"LineString"}
}
