{
  "id": 2031956349,
  "type": "Feature",
  "properties": {
    "geom:area": 0,
    "geom:bbox": "-122.663160,37.345950,-122.081410,38.519530",
    "geom:latitude": 37.78995903374533,
    "geom:longitude": -122.41671295070243,
    "src:alt_label": "swim-approach",
    "src:geom": "swim",
    "swim:elevations": [
      7529,
      7387,
      7243,
      7130,
      7021,
      6831,
      6805,
      6620,
      6418,
      6153,
      5721,
      5600,
      5243,
      5117,
      4792,
      4655,
      4101,
      3847,
      3766,
      3524,
      3494,
      3405,
      3344,
      3353,
      3353,
      3353,
      3353,
      3313,
      3106,
      3044,
      2741,
      2743,
      2589,
      2447,
      2413,
      2220,
      2132,
      1947,
      1808,
      1655,
      1523,
      1459,
      1398,
      1287,
      1220,
      1219,
      1219,
      1175,
      1106,
      1047,
      997,
      915,
      875,
      787,
      638,
      618,
      548,
      516,
      456,
      329,
      318,
      145,
      17,
      0
    ],
    "swim:geom": "approach",
    "swim:timestamps": [
      1784931264,
      1784931293,
      1784931317,
      1784931339,
      1784931363,
      1784931399,
      1784931402,
      1784931437,
      1784931460,
      1784931484,
      1784931525,
      1784931537,
      1784931571,
      1784931584,
      1784931617,
      1784931630,
      1784931687,
      1784931715,
      1784931726,
      1784931767,
      1784931772,
      1784931791,
      1784931821,
      1784931843,
      1784931896,
      1784931910,
      1784931939,
      1784931957,
      1784931983,
      1784931995,
      1784932047,
      1784932065,
      1784932108,
      1784932138,
      1784932149,
      1784932195,
      1784932215,
      1784932244,
      1784932263,
      1784932296,
      1784932317,
      1784932329,
      1784932341,
      1784932360,
      1784932383,
      1784932438,
      1784932457,
      1784932484,
      1784932494,
      1784932503,
      1784932509,
      1784932532,
      1784932579,
      1784932603,
      1784932641,
      1784932650,
      1784932677,
      1784932684,
      1784932700,
      1784932738,
      1784932741,
      1784932794,
      1784932827,
      1784932832
    ],
    "wof:geomhash": "4b8597a7cd2330505a862280613727ef",
    "wof:id": 2031956349,
    "wof:repo": "sfomuseum-data-flights-2026-07"
  },
  "bbox": [
    -122.66316,
    37.34595,
    -122.08141,
    38.51953
  ],
  "geometry": {"coordinates":[[-122.46367,38.51953],[-122.50258,38.48209],[-122.53507,38.45036],[-122.55368,38.41476],[-122.5629,38.37616],[-122.57741,38.31644],[-122.57887,38.31054],[-122.59311,38.25207],[-122.60246,38.21431],[-122.61158,38.17612],[-122.62616,38.1098],[-122.63037,38.09042],[-122.64261,38.03539],[-122.64712,38.01592],[-122.65869,37.96377],[-122.66316,37.94354],[-122.63406,37.86268],[-122.59843,37.82878],[-122.58374,37.81495],[-122.53459,37.76866],[-122.52907,37.76346],[-122.50768,37.74318],[-122.47638,37.71356],[-122.45634,37.69471],[-122.40655,37.64788],[-122.39304,37.6351],[-122.36693,37.61025],[-122.35334,37.59314],[-122.3388,37.56554],[-122.3334,37.55268],[-122.30244,37.49993],[-122.29123,37.48157],[-122.28719,37.43639],[-122.30332,37.40666],[-122.30895,37.39644],[-122.31358,37.35533],[-122.29248,37.34595],[-122.25893,37.35495],[-122.23769,37.36364],[-122.20118,37.3772],[-122.17748,37.38592],[-122.16423,37.39083],[-122.15142,37.39559],[-122.13287,37.40524],[-122.11729,37.42196],[-122.08141,37.46238],[-122.08297,37.47842],[-122.1,37.49784],[-122.10688,37.50392],[-122.1149,37.50845],[-122.12044,37.51115],[-122.14203,37.52093],[-122.18284,37.53795],[-122.20116,37.54559],[-122.22705,37.55651],[-122.23328,37.5591],[-122.25158,37.56689],[-122.25671,37.56907],[-122.26747,37.57356],[-122.29343,37.5844],[-122.29543,37.58529],[-122.33258,37.60089],[-122.35616,37.6108],[-122.35979,37.61234]],"type":"LineString"}
}
