{
  "id": 2031945977,
  "type": "Feature",
  "properties": {
    "geom:area": 0,
    "geom:bbox": "-122.383333,37.666667,-70.937778,44.196944",
    "geom:latitude": 42.74136524105121,
    "geom:longitude": -96.85118506024219,
    "src:alt_label": "swim-path",
    "src:geom": "swim",
    "swim:altitudes": [
      "020",
      "027",
      "038",
      "047",
      "066",
      "085",
      "100",
      "117",
      "131",
      "149",
      "161",
      "208",
      "225",
      "242",
      "249",
      "257",
      "263",
      "264",
      "269",
      "272",
      "287",
      "296",
      "305",
      "308",
      "314",
      "320",
      "327",
      "330C",
      "330C",
      "330C",
      "330C",
      "330C",
      "330C",
      "330C",
      "330C",
      "330C",
      "330C",
      "330C",
      "330C",
      "330C",
      "330C",
      "330C",
      "330C",
      "330C",
      "330C",
      "330C",
      "330C",
      "330C",
      "330C",
      "330C",
      "330C",
      "331C",
      "330C",
      "330C",
      "330C",
      "330C",
      "330C",
      "330C",
      "330C",
      "330C",
      "330C",
      "330C",
      "330C",
      "330C",
      "330C",
      "330C",
      "330C",
      "330C",
      "330C",
      "330C",
      "330C",
      "330C",
      "330C",
      "330C",
      "330C",
      "330C",
      "330C",
      "330C",
      "330C",
      "330C",
      "330C",
      "330C",
      "330C",
      "330C",
      "330C",
      "330C",
      "330C",
      "330C",
      "330C",
      "330C",
      "330C",
      "330C",
      "330C",
      "330C",
      "330C",
      "330C",
      "330C",
      "330C",
      "330C",
      "330C",
      "330C",
      "330C",
      "330C",
      "330C",
      "330C",
      "330C",
      "330C",
      "330C",
      "330C",
      "330C",
      "331C",
      "330C",
      "330C",
      "330C",
      "330C",
      "330C",
      "330C",
      "330C",
      "330C",
      "330C",
      "330C",
      "330C",
      "330C",
      "330C",
      "330C",
      "330C",
      "330C",
      "330C",
      "330C",
      "330C",
      "330C",
      "330C",
      "330C",
      "330C",
      "330C",
      "330C",
      "330C",
      "330C",
      "330C",
      "330C",
      "330C",
      "330C",
      "330C",
      "330C",
      "330C",
      "330C",
      "330C",
      "330C",
      "330C",
      "330C",
      "330C",
      "330C",
      "330C",
      "330C",
      "330C",
      "330C",
      "330C",
      "330C",
      "330C",
      "330C",
      "330C",
      "331C",
      "330C",
      "330C",
      "330C",
      "330C",
      "330C",
      "330C",
      "330C",
      "330C",
      "330C",
      "330C",
      "330C",
      "330C",
      "330C",
      "330C",
      "330C",
      "330C",
      "330C",
      "330C",
      "330C",
      "330C",
      "330C",
      "330C",
      "330C",
      "336",
      "341",
      "350C",
      "350C",
      "350C",
      "350C",
      "350C",
      "350C",
      "350C",
      "350C",
      "350C",
      "350C",
      "350C",
      "350C",
      "350C",
      "350C",
      "350C",
      "350C",
      "350C",
      "350C",
      "350C",
      "350C",
      "350C",
      "350C",
      "350C",
      "350C",
      "350C",
      "350C",
      "350C",
      "350C",
      "350C",
      "350C",
      "350C",
      "350C",
      "350C",
      "350C",
      "350C",
      "350C",
      "350C",
      "350C",
      "350C",
      "350C",
      "350C",
      "350C",
      "350C",
      "350C",
      "350C",
      "350C",
      "350C",
      "350C",
      "350C",
      "350C",
      "350C",
      "350C",
      "350C",
      "350C",
      "350C",
      "350C",
      "350C",
      "350C",
      "350C",
      "350C",
      "350C",
      "350C",
      "350C",
      "350C",
      "350C",
      "350C",
      "350C",
      "350C",
      "350C",
      "350C",
      "350C",
      "350C",
      "350C",
      "350C",
      "350C",
      "350C",
      "350C",
      "350C",
      "350C",
      "350C",
      "350C",
      "350C",
      "348",
      "339",
      "316",
      "248",
      "232",
      "207",
      "188",
      "149",
      "132",
      "116",
      "105",
      "097",
      "095",
      "088",
      "086",
      "069",
      "063",
      "058",
      "054",
      "041",
      "040",
      "040",
      "040",
      "040",
      "039",
      "032",
      "032",
      "029",
      "019",
      "010"
    ],
    "swim:geom": "path",
    "swim:speeds": [
      232,
      245,
      268,
      266,
      282,
      293,
      311,
      385,
      401,
      403,
      419,
      447,
      469,
      483,
      489,
      494,
      502,
      500,
      508,
      509,
      511,
      512,
      511,
      509,
      512,
      513,
      513,
      513,
      511,
      511,
      510,
      509,
      509,
      508,
      508,
      506,
      505,
      504,
      503,
      501,
      500,
      498,
      496,
      494,
      493,
      492,
      492,
      492,
      491,
      491,
      492,
      493,
      492,
      492,
      490,
      490,
      491,
      491,
      492,
      493,
      493,
      492,
      491,
      490,
      489,
      489,
      489,
      490,
      491,
      492,
      492,
      491,
      490,
      491,
      491,
      490,
      489,
      488,
      462,
      484,
      488,
      486,
      488,
      489,
      489,
      488,
      488,
      488,
      487,
      488,
      488,
      488,
      489,
      489,
      490,
      491,
      492,
      492,
      492,
      493,
      493,
      493,
      493,
      493,
      493,
      493,
      493,
      493,
      495,
      496,
      498,
      498,
      498,
      497,
      496,
      494,
      494,
      495,
      496,
      497,
      496,
      495,
      480,
      491,
      491,
      491,
      490,
      491,
      490,
      491,
      490,
      490,
      489,
      479,
      478,
      485,
      485,
      490,
      491,
      492,
      496,
      496,
      498,
      499,
      496,
      488,
      486,
      486,
      486,
      486,
      486,
      487,
      488,
      489,
      490,
      499,
      504,
      505,
      505,
      505,
      506,
      507,
      507,
      507,
      509,
      511,
      512,
      512,
      511,
      511,
      515,
      517,
      516,
      515,
      513,
      512,
      511,
      511,
      511,
      511,
      512,
      513,
      515,
      517,
      517,
      519,
      523,
      526,
      525,
      525,
      525,
      526,
      526,
      526,
      526,
      526,
      526,
      526,
      526,
      526,
      525,
      524,
      526,
      531,
      532,
      533,
      533,
      534,
      534,
      534,
      534,
      535,
      536,
      538,
      539,
      539,
      540,
      539,
      539,
      539,
      539,
      539,
      537,
      535,
      530,
      529,
      526,
      523,
      519,
      518,
      518,
      518,
      517,
      517,
      518,
      517,
      499,
      496,
      495,
      494,
      495,
      494,
      494,
      493,
      493,
      494,
      495,
      496,
      497,
      498,
      499,
      499,
      499,
      499,
      500,
      500,
      497,
      495,
      495,
      497,
      498,
      498,
      497,
      497,
      497,
      499,
      499,
      501,
      501,
      502,
      502,
      511,
      478,
      467,
      455,
      439,
      411,
      375,
      345,
      321,
      312,
      314,
      289,
      287,
      259,
      258,
      245,
      246,
      233,
      231,
      209,
      206,
      202,
      178,
      178,
      177,
      178,
      178,
      157
    ],
    "swim:timestamps": [
      1784828204,
      1784828236,
      1784828264,
      1784828296,
      1784828356,
      1784828416,
      1784828476,
      1784828596,
      1784828656,
      1784828716,
      1784828776,
      1784829017,
      1784829137,
      1784829257,
      1784829317,
      1784829377,
      1784829437,
      1784829454,
      1784829497,
      1784829514,
      1784829634,
      1784829695,
      1784829755,
      1784829810,
      1784829870,
      1784829930,
      1784829990,
      1784830055,
      1784830110,
      1784830175,
      1784830230,
      1784830291,
      1784830355,
      1784830411,
      1784830476,
      1784830536,
      1784830591,
      1784830651,
      1784830711,
      1784830771,
      1784830836,
      1784830896,
      1784830956,
      1784831016,
      1784831076,
      1784831136,
      1784831197,
      1784831257,
      1784831317,
      1784831377,
      1784831437,
      1784831497,
      1784831557,
      1784831617,
      1784831677,
      1784831737,
      1784831857,
      1784831917,
      1784831978,
      1784832038,
      1784832098,
      1784832278,
      1784832338,
      1784832398,
      1784832458,
      1784832518,
      1784832578,
      1784832638,
      1784832699,
      1784832759,
      1784832819,
      1784832939,
      1784832999,
      1784833059,
      1784833179,
      1784833239,
      1784833359,
      1784833419,
      1784833467,
      1784833527,
      1784833540,
      1784833587,
      1784833600,
      1784833647,
      1784833660,
      1784833707,
      1784833720,
      1784833767,
      1784833780,
      1784833827,
      1784833840,
      1784833887,
      1784833900,
      1784833947,
      1784833960,
      1784834020,
      1784834080,
      1784834128,
      1784834140,
      1784834201,
      1784834248,
      1784834261,
      1784834308,
      1784834321,
      1784834368,
      1784834381,
      1784834428,
      1784834441,
      1784834488,
      1784834561,
      1784834608,
      1784834668,
      1784834728,
      1784834789,
      1784834849,
      1784834909,
      1784835029,
      1784835089,
      1784835149,
      1784835209,
      1784835269,
      1784835329,
      1784835380,
      1784835500,
      1784835570,
      1784835620,
      1784835630,
      1784835680,
      1784835690,
      1784835740,
      1784835750,
      1784835800,
      1784835810,
      1784835861,
      1784835870,
      1784835921,
      1784835930,
      1784836050,
      1784836101,
      1784836110,
      1784836221,
      1784836231,
      1784836281,
      1784836341,
      1784836351,
      1784836401,
      1784836461,
      1784836471,
      1784836521,
      1784836531,
      1784836582,
      1784836642,
      1784836702,
      1784836762,
      1784836822,
      1784836942,
      1784837002,
      1784837062,
      1784837122,
      1784837303,
      1784837363,
      1784837423,
      1784837483,
      1784837543,
      1784837663,
      1784837723,
      1784837783,
      1784837903,
      1784837963,
      1784838024,
      1784838264,
      1784838324,
      1784838504,
      1784838564,
      1784838624,
      1784838684,
      1784838745,
      1784838805,
      1784838846,
      1784838865,
      1784838925,
      1784838967,
      1784839045,
      1784839099,
      1784839105,
      1784839225,
      1784839279,
      1784839345,
      1784839405,
      1784839520,
      1784839526,
      1784839586,
      1784839646,
      1784839706,
      1784839760,
      1784839766,
      1784839826,
      1784839838,
      1784839880,
      1784839898,
      1784839940,
      1784839958,
      1784840000,
      1784840060,
      1784840078,
      1784840121,
      1784840139,
      1784840181,
      1784840241,
      1784840259,
      1784840319,
      1784840361,
      1784840439,
      1784840499,
      1784840541,
      1784840559,
      1784840601,
      1784840616,
      1784840661,
      1784840676,
      1784840721,
      1784840739,
      1784840782,
      1784840796,
      1784840860,
      1784840916,
      1784840976,
      1784841036,
      1784841100,
      1784841157,
      1784841214,
      1784841280,
      1784841337,
      1784841397,
      1784841457,
      1784841577,
      1784842154,
      1784842214,
      1784842274,
      1784842334,
      1784842454,
      1784842515,
      1784842575,
      1784842635,
      1784842695,
      1784842755,
      1784842815,
      1784842875,
      1784842935,
      1784842995,
      1784843055,
      1784843115,
      1784843176,
      1784843236,
      1784843296,
      1784843416,
      1784843536,
      1784843656,
      1784843716,
      1784843776,
      1784843897,
      1784844017,
      1784844077,
      1784844137,
      1784844214,
      1784844334,
      1784844394,
      1784844514,
      1784844574,
      1784844634,
      1784844694,
      1784844754,
      1784844935,
      1784844995,
      1784845055,
      1784845115,
      1784845235,
      1784845285,
      1784845355,
      1784845415,
      1784845459,
      1784845476,
      1784845519,
      1784845536,
      1784845656,
      1784845716,
      1784845759,
      1784845776,
      1784845820,
      1784845836,
      1784845896,
      1784845956,
      1784846006,
      1784846076,
      1784846125,
      1784846136,
      1784846197,
      1784846257,
      1784846317
    ],
    "wof:geomhash": "a05729ce03eeddebfe5e247e83000e31",
    "wof:id": 2031945977,
    "wof:repo": "sfomuseum-data-flights-2026-07"
  },
  "bbox": [
    -122.38333333333334,
    37.666666666666664,
    -70.93777777777778,
    44.19694444444444
  ],
  "geometry": {"coordinates":[[-122.38333333333334,37.666666666666664],[-122.34944444444444,37.678888888888885],[-122.3,37.7],[-122.2775,37.719166666666666],[-122.21694444444445,37.78055555555555],[-122.1525,37.845555555555556],[-122.08666666666666,37.911944444444444],[-121.9325,38.06638888888889],[-121.84444444444443,38.15416666666667],[-121.74944444444445,38.24888888888889],[-121.65555555555557,38.34138888888889],[-121.20527777777778,38.655277777777776],[-120.94388888888889,38.81305555555555],[-120.67166666666667,38.976111111111116],[-120.53333333333333,39.058611111111105],[-120.39055555555557,39.143055555555556],[-120.24777777777778,39.2275],[-120.19694444444445,39.25555555555555],[-120.10249999999999,39.3125],[-120.05,39.34305555555556],[-119.75472222222223,39.513888888888886],[-119.60777777777777,39.599444444444444],[-119.46138888888889,39.68527777777778],[-119.33916666666666,39.754444444444445],[-119.18916666666667,39.84055555555556],[-119.03611111111111,39.92361111111111],[-118.88055555555555,39.999722222222225],[-118.68527777777778,40.08222222222223],[-118.55333333333333,40.13861111111111],[-118.36388888888888,40.218333333333334],[-118.22916666666667,40.27472222222222],[-118.06388888888888,40.33916666666667],[-117.86527777777778,40.40333333333333],[-117.72500000000001,40.448611111111106],[-117.52361111111111,40.51361111111111],[-117.35222222222221,40.568333333333335],[-117.21444444444445,40.61222222222222],[-117.04305555555555,40.66638888888889],[-116.87083333333332,40.720555555555556],[-116.70111111111112,40.77333333333333],[-116.53305555555555,40.82555555555556],[-116.36305555555555,40.87777777777778],[-116.19638888888889,40.928888888888885],[-116.0275,40.980000000000004],[-115.86055555555555,41.03055555555555],[-115.69361111111111,41.080555555555556],[-115.52361111111111,41.13138888888889],[-115.3561111111111,41.18111111111111],[-115.18861111111111,41.23027777777778],[-115.01861111111111,41.28],[-114.84944444444444,41.32944444444445],[-114.68,41.37833333333333],[-114.51055555555556,41.426944444444445],[-114.34055555555555,41.47527777777778],[-114.1713888888889,41.52333333333333],[-114.00166666666667,41.571111111111115],[-113.66083333333334,41.66611111111111],[-113.49055555555556,41.71277777777778],[-113.31666666666666,41.760555555555555],[-113.14277777777778,41.80777777777777],[-112.9713888888889,41.85416666666667],[-112.45444444444445,41.99138888888889],[-112.2825,42.03666666666666],[-112.10805555555555,42.08222222222223],[-111.9363888888889,42.126666666666665],[-111.76583333333333,42.17055555555555],[-111.58972222222222,42.21555555555556],[-111.41583333333334,42.25944444444445],[-111.24277777777777,42.30277777777778],[-111.06638888888888,42.34666666666667],[-110.89222222222223,42.39],[-110.54194444444444,42.47555555555556],[-110.36472222222221,42.51833333333333],[-110.19083333333333,42.559999999999995],[-109.83416666666666,42.635555555555555],[-109.65444444444445,42.67166666666667],[-109.29861111111111,42.742222222222225],[-109.1211111111111,42.77722222222222],[-108.97916666666667,42.80555555555555],[-108.80027777777778,42.84],[-108.76222222222222,42.84638888888889],[-108.62083333333332,42.87305555555555],[-108.58277777777778,42.88027777777778],[-108.44055555555556,42.907222222222224],[-108.40416666666667,42.913888888888884],[-108.26305555555555,42.940555555555555],[-108.2275,42.947222222222216],[-108.08555555555554,42.97361111111111],[-108.03222222222222,42.98416666666667],[-107.90583333333333,43.009166666666665],[-107.85444444444444,43.01916666666666],[-107.72694444444444,43.04361111111111],[-107.67583333333334,43.05333333333333],[-107.53027777777778,43.081388888888895],[-107.49416666666667,43.088055555555556],[-107.31388888888888,43.12222222222222],[-107.13472222222222,43.155833333333334],[-106.99,43.183055555555555],[-106.95361111111112,43.189722222222215],[-106.76444444444445,43.22694444444445],[-106.62138888888889,43.25944444444445],[-106.58305555555555,43.26777777777777],[-106.44027777777778,43.29861111111111],[-106.40472222222223,43.30638888888888],[-106.26027777777777,43.336666666666666],[-106.2213888888889,43.342222222222226],[-106.07472222222222,43.35916666666667],[-106.03583333333333,43.36388888888889],[-105.88666666666667,43.38194444444444],[-105.66222222222223,43.410555555555554],[-105.51166666666667,43.42972222222222],[-105.325,43.45333333333333],[-105.13694444444445,43.47694444444445],[-104.9475,43.50111111111111],[-104.76333333333334,43.52444444444444],[-104.57666666666667,43.551944444444445],[-104.20527777777778,43.60777777777778],[-104.0175,43.63527777777778],[-103.83166666666666,43.66222222222222],[-103.6438888888889,43.66416666666667],[-103.46638888888889,43.61694444444444],[-103.33027777777778,43.56583333333333],[-103.1713888888889,43.5075],[-102.83,43.39194444444444],[-102.64777777777779,43.33833333333334],[-102.48805555555556,43.29111111111111],[-102.47333333333333,43.28666666666666],[-102.30749999999999,43.248333333333335],[-102.29666666666667,43.24777777777778],[-102.12833333333333,43.270833333333336],[-102.11666666666666,43.274166666666666],[-101.95,43.31888888888889],[-101.94361111111111,43.321111111111115],[-101.78861111111111,43.375277777777775],[-101.75333333333333,43.38777777777778],[-101.61888888888888,43.42916666666667],[-101.58305555555555,43.44],[-101.22833333333334,43.516666666666666],[-101.07555555555555,43.53388888888889],[-101.03805555555556,43.53777777777778],[-100.70277777777778,43.57361111111111],[-100.66444444444446,43.57777777777778],[-100.51166666666667,43.595555555555556],[-100.3261111111111,43.62694444444445],[-100.29083333333332,43.6325],[-100.1463888888889,43.655],[-99.96527777777779,43.6825],[-99.93055555555556,43.68694444444444],[-99.78305555555555,43.69944444444444],[-99.7475,43.702222222222225],[-99.59861111111111,43.715833333333336],[-99.41083333333334,43.73277777777778],[-99.22888888888889,43.74916666666667],[-99.04277777777777,43.76583333333333],[-98.85388888888889,43.782222222222224],[-98.45222222222222,43.81583333333333],[-98.25722222222223,43.83166666666667],[-98.06416666666667,43.84722222222222],[-97.87194444444444,43.86222222222222],[-97.29444444444444,43.905],[-97.10166666666666,43.91861111111111],[-96.90833333333335,43.93194444444444],[-96.715,43.94499999999999],[-96.52222222222223,43.95805555555556],[-96.13611111111112,43.98222222222223],[-95.94027777777778,43.99388888888889],[-95.74388888888889,44.00555555555555],[-95.35055555555554,44.02777777777778],[-95.15444444444445,44.03861111111111],[-94.95833333333334,44.04861111111111],[-94.15361111111112,44.086666666666666],[-93.9525,44.095555555555556],[-93.35833333333333,44.11888888888889],[-93.16472222222222,44.126111111111115],[-92.96861111111112,44.132777777777775],[-92.77305555555556,44.13916666666667],[-92.5775,44.144999999999996],[-92.38138888888888,44.15083333333333],[-92.23083333333334,44.155],[-92.18472222222222,44.156388888888884],[-91.98694444444445,44.16166666666666],[-91.83388888888888,44.165277777777774],[-91.58833333333332,44.17055555555555],[-91.43194444444445,44.17388888888889],[-91.38861111111112,44.175],[-90.98611111111111,44.18222222222222],[-90.82388888888889,44.18444444444444],[-90.57833333333333,44.187777777777775],[-90.35305555555556,44.190555555555555],[-89.99416666666667,44.19361111111111],[-89.94666666666667,44.19416666666666],[-89.74416666666667,44.195277777777775],[-89.58111111111111,44.19583333333333],[-89.37722222222222,44.196666666666665],[-89.17750000000001,44.19694444444444],[-89.17055555555557,44.19694444444444],[-88.9675,44.196666666666665],[-88.92833333333334,44.19638888888888],[-88.76972222222223,44.19611111111111],[-88.7225,44.19611111111111],[-88.56583333333333,44.195277777777775],[-88.52055555555556,44.19499999999999],[-88.3611111111111,44.18388888888889],[-88.1613888888889,44.151111111111106],[-88.11361111111111,44.143055555555556],[-87.95833333333334,44.11694444444444],[-87.9113888888889,44.10888888888889],[-87.75555555555556,44.08166666666667],[-87.55388888888889,44.046388888888885],[-87.51027777777777,44.038888888888884],[-87.30749999999999,44.003055555555555],[-87.16250000000001,43.977222222222224],[-86.87888888888888,43.92611111111111],[-86.67555555555556,43.88861111111111],[-86.55777777777777,43.86694444444444],[-86.47527777777778,43.85138888888889],[-86.35583333333332,43.82916666666667],[-86.32833333333333,43.823888888888895],[-86.15555555555557,43.79138888888889],[-86.11388888888888,43.78361111111111],[-85.95277777777778,43.753055555555555],[-85.91111111111111,43.745],[-85.75194444444445,43.71638888888889],[-85.7125,43.71138888888889],[-85.50888888888889,43.68861111111111],[-85.31416666666667,43.66583333333333],[-85.11999999999999,43.64333333333333],[-84.91722222222222,43.619166666666665],[-84.71944444444445,43.595],[-84.52972222222222,43.57166666666667],[-84.34416666666667,43.54055555555556],[-84.14555555555556,43.50805555555556],[-83.93222222222222,43.47277777777778],[-83.7375,43.44027777777777],[-83.54638888888888,43.407777777777774],[-83.16194444444444,43.34138888888889],[-81.31888888888888,43.2425],[-81.13277777777778,43.236111111111114],[-80.94555555555556,43.22944444444445],[-80.75972222222222,43.22277777777778],[-80.38194444444444,43.20777777777778],[-80.19611111111111,43.2],[-80.01138888888889,43.19194444444444],[-79.83638888888889,43.18416666666666],[-79.65361111111112,43.175555555555555],[-79.46611111111112,43.16638888888889],[-79.27361111111111,43.15694444444444],[-79.08722222222222,43.14722222222222],[-78.89666666666668,43.13722222222222],[-78.70833333333334,43.12694444444445],[-78.51777777777778,43.11611111111111],[-78.32944444444443,43.105000000000004],[-78.13805555555557,43.093611111111116],[-77.94694444444445,43.08166666666667],[-77.75916666666667,43.07],[-77.37888888888888,43.04472222222222],[-77.00111111111111,43.01888888888889],[-76.62194444444444,42.99111111111111],[-76.43944444444445,42.977222222222224],[-76.24833333333333,42.962500000000006],[-75.87222222222222,42.93277777777777],[-75.50222222222222,42.90222222222222],[-75.32194444444444,42.88666666666666],[-75.13555555555556,42.87083333333334],[-74.94944444444445,42.85444444444445],[-74.50305555555556,42.81333333333333],[-74.31638888888888,42.795833333333334],[-73.95805555555556,42.76138888888889],[-73.77,42.745555555555555],[-73.57944444444443,42.74527777777778],[-73.39083333333333,42.74388888888889],[-73.19722222222222,42.74194444444444],[-72.6438888888889,42.686388888888885],[-72.48055555555555,42.66638888888889],[-72.29222222222222,42.643055555555556],[-72.1325,42.624722222222225],[-71.82111111111111,42.586666666666666],[-71.68333333333334,42.56666666666667],[-71.54055555555556,42.540277777777774],[-71.42222222222223,42.51555555555556],[-71.33333333333333,42.5],[-71.3111111111111,42.49277777777778],[-71.23333333333333,42.483333333333334],[-71.20361111111112,42.47138888888889],[-71.01722222222222,42.43722222222222],[-70.97583333333334,42.37305555555555],[-70.95,42.333333333333336],[-70.93777777777778,42.312777777777775],[-70.95,42.266666666666666],[-70.96055555555556,42.25083333333333],[-70.98416666666667,42.19583333333333],[-71.00694444444444,42.14194444444444],[-71.03333333333333,42.1],[-71.0886111111111,42.11833333333333],[-71.08333333333333,42.166666666666664],[-71.0886111111111,42.168055555555554],[-71.07638888888889,42.21666666666667],[-71.05472222222222,42.26277777777778],[-71.03194444444445,42.309444444444445]],"type":"LineString"}
}
