{
  "id": 2031958499,
  "type": "Feature",
  "properties": {
    "geom:area": 0,
    "geom:bbox": "-123.326280,37.624830,-122.389280,38.504030",
    "geom:latitude": 38.022156964294695,
    "geom:longitude": -122.89174900712554,
    "src:alt_label": "swim-takeoff",
    "src:geom": "swim",
    "swim:elevations": [
      152,
      437,
      661,
      693,
      743,
      832,
      1355,
      1544,
      1728,
      2260,
      2574,
      2796,
      3236,
      3413,
      3791,
      3926,
      4385,
      4422,
      4815,
      4893,
      4980,
      5287,
      5320,
      5348,
      5910,
      6213,
      6303,
      6471,
      6604,
      6788,
      7017,
      7163
    ],
    "swim:geom": "takeoff",
    "swim:timestamps": [
      1784925598,
      1784925614,
      1784925653,
      1784925658,
      1784925665,
      1784925678,
      1784925720,
      1784925735,
      1784925750,
      1784925797,
      1784925823,
      1784925842,
      1784925887,
      1784925916,
      1784925956,
      1784925972,
      1784926019,
      1784926022,
      1784926064,
      1784926073,
      1784926082,
      1784926118,
      1784926121,
      1784926124,
      1784926194,
      1784926233,
      1784926241,
      1784926261,
      1784926278,
      1784926302,
      1784926335,
      1784926362
    ],
    "wof:geomhash": "f8c28ac2e3dd99ab44d3ae4a8667e1bb",
    "wof:id": 2031958499,
    "wof:repo": "sfomuseum-data-flights-2026-07"
  },
  "bbox": [
    -123.32628,
    37.62483,
    -122.38928,
    38.50403
  ],
  "geometry": {"coordinates":[[-122.38928,37.62483],[-122.40218,37.6304],[-122.43939,37.64684],[-122.44422,37.64895],[-122.45222,37.65253],[-122.4685,37.65986],[-122.52268,37.68616],[-122.5416,37.6971],[-122.56035,37.70821],[-122.62072,37.74415],[-122.65607,37.7644],[-122.68239,37.77968],[-122.74299,37.81714],[-122.77893,37.85073],[-122.82274,37.90388],[-122.84046,37.9252],[-122.89427,37.98921],[-122.89774,37.99338],[-122.94793,38.05362],[-122.95855,38.0664],[-122.9693,38.07934],[-123.0128,38.13146],[-123.01644,38.13586],[-123.0201,38.14024],[-123.10705,38.24384],[-123.15722,38.30361],[-123.16782,38.31613],[-123.19318,38.34628],[-123.21552,38.37278],[-123.2472,38.40995],[-123.29005,38.46072],[-123.32628,38.50403]],"type":"LineString"}
}
