{
  "id": 2031940727,
  "type": "Feature",
  "properties": {
    "geom:area": 0,
    "geom:bbox": "-122.360380,37.449180,-121.280590,37.615650",
    "geom:latitude": 37.53598806674319,
    "geom:longitude": -121.82719720534774,
    "src:alt_label": "swim-approach",
    "src:geom": "swim",
    "swim:elevations": [
      4461,
      4034,
      3750,
      3591,
      3405,
      3355,
      3323,
      3259,
      3138,
      3048,
      3048,
      2930,
      2788,
      2556,
      2380,
      2101,
      1933,
      1866,
      1806,
      1625,
      1306,
      1218,
      1069,
      973,
      754,
      670,
      584,
      490,
      352,
      257,
      122,
      179
    ],
    "swim:geom": "approach",
    "swim:timestamps": [
      1784808716,
      1784808763,
      1784808793,
      1784808811,
      1784808845,
      1784808894,
      1784808918,
      1784808935,
      1784808976,
      1784809003,
      1784809039,
      1784809075,
      1784809087,
      1784809118,
      1784809144,
      1784809189,
      1784809225,
      1784809245,
      1784809261,
      1784809295,
      1784809348,
      1784809364,
      1784809399,
      1784809417,
      1784809460,
      1784809477,
      1784809496,
      1784809516,
      1784809553,
      1784809579,
      1784809616,
      1784809655
    ],
    "wof:geomhash": "f580aef42634f7b729e4d751b48e3727",
    "wof:id": 2031940727,
    "wof:repo": "sfomuseum-data-flights-2026-07"
  },
  "bbox": [
    -122.36038,
    37.44918,
    -121.28059,
    37.61565
  ],
  "geometry": {"coordinates":[[-121.28059,37.59032],[-121.37336,37.57989],[-121.43372,37.57297],[-121.4689,37.56886],[-121.53414,37.56123],[-121.61859,37.55138],[-121.65521,37.54816],[-121.67955,37.55528],[-121.73437,37.57703],[-121.77166,37.57877],[-121.79515,37.5466],[-121.79575,37.50654],[-121.79917,37.4933],[-121.81689,37.46226],[-121.85119,37.45374],[-121.91297,37.44965],[-121.96257,37.44918],[-121.9878,37.45766],[-122.00755,37.46582],[-122.04887,37.48355],[-122.10764,37.50835],[-122.12411,37.51532],[-122.15922,37.53023],[-122.17612,37.53736],[-122.21619,37.55424],[-122.23186,37.56088],[-122.24976,37.56835],[-122.26576,37.57511],[-122.29268,37.58647],[-122.31035,37.59394],[-122.33516,37.60433],[-122.36038,37.61565]],"type":"LineString"}
}
