{
  "id": 2031960457,
  "type": "Feature",
  "properties": {
    "geom:area": 0,
    "geom:bbox": "-123.491780,37.626190,-122.392750,37.784750",
    "geom:latitude": 37.7190348287779,
    "geom:longitude": -122.93840864421803,
    "src:alt_label": "swim-takeoff",
    "src:geom": "swim",
    "swim:elevations": [
      122,
      531,
      627,
      912,
      1081,
      1353,
      1972,
      2585,
      3076,
      3195,
      3340,
      3400,
      3545,
      3653,
      3923,
      4293,
      4343,
      4534,
      4667,
      4858,
      5195
    ],
    "swim:geom": "takeoff",
    "swim:timestamps": [
      1784936127,
      1784936153,
      1784936161,
      1784936197,
      1784936241,
      1784936274,
      1784936331,
      1784936389,
      1784936436,
      1784936452,
      1784936486,
      1784936503,
      1784936531,
      1784936563,
      1784936595,
      1784936638,
      1784936645,
      1784936668,
      1784936687,
      1784936707,
      1784936750
    ],
    "wof:geomhash": "30884ef8d698609295f1bfc883c128b6",
    "wof:id": 2031960457,
    "wof:repo": "sfomuseum-data-flights-2026-07"
  },
  "bbox": [
    -123.49178,
    37.62619,
    -122.39275,
    37.78475
  ],
  "geometry": {"coordinates":[[-122.39275,37.62619],[-122.41672,37.63626],[-122.42422,37.63967],[-122.45731,37.65466],[-122.50725,37.67449],[-122.55629,37.67829],[-122.64589,37.68508],[-122.7388,37.69637],[-122.81715,37.70585],[-122.84469,37.7092],[-122.9057,37.71641],[-122.93822,37.7202],[-122.99449,37.72683],[-123.06341,37.73498],[-123.13454,37.74336],[-123.2319,37.7549],[-123.24626,37.75655],[-123.30049,37.76277],[-123.34435,37.76755],[-123.38948,37.77283],[-123.49178,37.78475]],"type":"LineString"}
}
