{
  "id": 2031942841,
  "type": "Feature",
  "properties": {
    "geom:area": 0,
    "geom:bbox": "-176.883333,37.365556,179.266667,55.100000",
    "geom:latitude": 52.680884688759626,
    "geom:longitude": -20.117505987648315,
    "src:alt_label": "swim-path",
    "src:geom": "swim",
    "swim:altitudes": [
      "330",
      "330",
      "330",
      "330",
      "330",
      "330",
      "330",
      "330",
      "330",
      "330",
      "330",
      "330",
      "330",
      "330",
      "330",
      "330",
      "330",
      "330",
      "330",
      "330",
      "330",
      "330",
      "330",
      "330",
      "330",
      "330",
      "330",
      "330",
      "330",
      "330",
      "330",
      "330",
      "330",
      "330",
      "330",
      "330",
      "330",
      "330",
      "330",
      "330",
      "330",
      "330",
      "330",
      "330",
      "330",
      "330",
      "330",
      "330",
      "330",
      "330",
      "330",
      "330",
      "330",
      "330",
      "330",
      "330",
      "330",
      "330",
      "350C",
      "350C",
      "350C",
      "350C",
      "350C",
      "350C",
      "350C",
      "350C",
      "350C",
      "350C",
      "350C",
      "350C",
      "350C",
      "350C",
      "350C",
      "350C",
      "350C",
      "350C",
      "350C",
      "350C",
      "350C",
      "350C",
      "350C",
      "350",
      "350",
      "350",
      "350",
      "342",
      "332",
      "313",
      "293",
      "272",
      "252",
      "240",
      "231",
      "207",
      "187",
      "181",
      "162",
      "146",
      "131",
      "115",
      "110C",
      "110C",
      "107",
      "096",
      "084",
      "071",
      "061",
      "048",
      "040",
      "040",
      "035",
      "025",
      "016",
      "110"
    ],
    "swim:geom": "path",
    "swim:speeds": [
      540,
      540,
      550,
      540,
      540,
      550,
      540,
      550,
      540,
      550,
      550,
      550,
      550,
      550,
      550,
      550,
      550,
      550,
      550,
      550,
      560,
      560,
      560,
      560,
      560,
      560,
      550,
      550,
      550,
      550,
      550,
      550,
      540,
      550,
      550,
      550,
      550,
      550,
      550,
      550,
      550,
      560,
      560,
      560,
      570,
      570,
      570,
      560,
      570,
      570,
      570,
      570,
      570,
      570,
      570,
      570,
      570,
      570,
      474,
      472,
      472,
      471,
      472,
      473,
      474,
      475,
      477,
      478,
      478,
      477,
      476,
      476,
      476,
      468,
      464,
      462,
      462,
      461,
      461,
      461,
      461,
      463,
      465,
      466,
      462,
      454,
      452,
      444,
      439,
      431,
      424,
      408,
      394,
      376,
      352,
      355,
      352,
      342,
      344,
      339,
      291,
      288,
      257,
      249,
      248,
      247,
      231,
      204,
      200,
      190,
      179,
      174,
      163,
      146
    ],
    "swim:timestamps": [
      1784889231,
      1784889292,
      1784890272,
      1784890332,
      1784890393,
      1784890453,
      1784890513,
      1784890573,
      1784890633,
      1784890694,
      1784892069,
      1784892130,
      1784892191,
      1784892251,
      1784892312,
      1784892372,
      1784892433,
      1784892554,
      1784892614,
      1784892674,
      1784892734,
      1784892854,
      1784892914,
      1784892974,
      1784893034,
      1784893094,
      1784893154,
      1784893215,
      1784893274,
      1784893335,
      1784893396,
      1784893457,
      1784893517,
      1784893578,
      1784893638,
      1784893698,
      1784893758,
      1784893819,
      1784893879,
      1784893940,
      1784894001,
      1784894061,
      1784894121,
      1784894182,
      1784894242,
      1784894362,
      1784894422,
      1784894482,
      1784894542,
      1784894603,
      1784894664,
      1784894724,
      1784894785,
      1784894845,
      1784894906,
      1784894966,
      1784895027,
      1784895186,
      1784904931,
      1784904991,
      1784905051,
      1784905111,
      1784905171,
      1784905231,
      1784905291,
      1784905351,
      1784905411,
      1784905471,
      1784905532,
      1784905592,
      1784905652,
      1784905712,
      1784905772,
      1784905832,
      1784905892,
      1784905952,
      1784906012,
      1784906072,
      1784906132,
      1784906192,
      1784906252,
      1784906313,
      1784906373,
      1784906433,
      1784906493,
      1784906553,
      1784906613,
      1784906673,
      1784906733,
      1784906793,
      1784906853,
      1784906913,
      1784906973,
      1784907034,
      1784907074,
      1784907094,
      1784907153,
      1784907213,
      1784907274,
      1784907334,
      1784907394,
      1784907454,
      1784907514,
      1784907574,
      1784907634,
      1784907694,
      1784907755,
      1784907815,
      1784907875,
      1784907935,
      1784907995,
      1784908055,
      1784908115,
      1784908235
    ],
    "wof:geomhash": "1dcb5f3a42e0469d0d77e60aafbf63fe",
    "wof:id": 2031942841,
    "wof:repo": "sfomuseum-data-flights-2026-07"
  },
  "bbox": [
    -176.88333333333333,
    37.36555555555556,
    179.26666666666668,
    55.1
  ],
  "geometry": {"coordinates":[[[179.03333333333333,52.75],[179.26666666666668,52.81666666666667]],[[-176.88333333333333,53.71666666666667],[-176.65,53.78333333333333],[-176.4,53.833333333333336],[-176.16666666666666,53.88333333333333],[-175.91666666666666,53.93333333333333],[-175.68333333333334,53.983333333333334],[-175.43333333333334,54.03333333333333],[-175.2,54.083333333333336],[-169.43333333333334,55.016666666666666],[-169.16666666666666,55.016666666666666],[-168.9,55.03333333333333],[-168.61666666666667,55.03333333333333],[-168.36666666666667,55.05],[-168.08333333333334,55.05],[-167.81666666666666,55.06666666666667],[-167.28333333333333,55.06666666666667],[-167.01666666666668,55.083333333333336],[-166.75,55.083333333333336],[-166.48333333333332,55.083333333333336],[-165.95,55.083333333333336],[-165.66666666666666,55.1],[-165.4,55.1],[-165.13333333333333,55.1],[-164.86666666666667,55.1],[-164.58333333333334,55.1],[-164.31666666666666,55.1],[-164.05,55.083333333333336],[-163.78333333333333,55.083333333333336],[-163.51666666666668,55.083333333333336],[-163.25,55.083333333333336],[-162.98333333333332,55.083333333333336],[-162.71666666666667,55.06666666666667],[-162.45,55.06666666666667],[-162.18333333333334,55.06666666666667],[-161.91666666666666,55.05],[-161.65,55.05],[-161.36666666666667,55.03333333333333],[-161.1,55.03333333333333],[-160.83333333333334,55.016666666666666],[-160.56666666666666,55.016666666666666],[-160.3,55],[-160.03333333333333,54.983333333333334],[-159.76666666666668,54.95],[-159.23333333333332,54.88333333333333],[-158.96666666666667,54.833333333333336],[-158.71666666666667,54.8],[-158.45,54.75],[-158.18333333333334,54.7],[-157.91666666666666,54.666666666666664],[-157.66666666666666,54.61666666666667],[-157.4,54.56666666666667],[-157.13333333333333,54.516666666666666],[-156.88333333333333,54.483333333333334],[-156.61666666666667,54.43333333333333],[-156.35,54.38333333333333],[-155.66666666666666,54.25],[-127.43416666666667,40.83277777777778],[-127.29055555555556,40.76444444444444],[-127.14333333333335,40.69416666666666],[-126.99833333333333,40.62444444444444],[-126.85138888888888,40.55472222222222],[-126.70722222222223,40.48583333333333],[-126.55916666666667,40.414722222222224],[-126.41333333333334,40.344166666666666],[-126.26583333333333,40.272777777777776],[-126.11888888888888,40.20138888888889],[-125.9738888888889,40.13027777777778],[-125.83027777777778,40.05972222222222],[-125.68472222222222,39.98777777777778],[-125.54083333333332,39.91611111111111],[-125.39861111111112,39.845555555555556],[-125.25694444444444,39.77444444444444],[-125.11888888888888,39.705000000000005],[-124.98055555555555,39.635],[-124.84194444444444,39.56472222222222],[-124.70333333333333,39.494166666666665],[-124.55138888888888,39.41638888888889],[-124.41444444444446,39.34583333333334],[-124.275,39.27388888888889],[-124.13583333333334,39.20194444444445],[-124.01527777777778,39.138888888888886],[-123.86,39.05777777777777],[-123.72722222222222,38.981388888888894],[-123.61222222222221,38.89277777777778],[-123.49805555555555,38.80305555555555],[-123.38694444444445,38.71611111111111],[-123.2786111111111,38.63055555555555],[-123.17166666666667,38.546388888888885],[-123.065,38.461666666666666],[-122.96277777777777,38.38055555555555],[-122.86388888888888,38.30166666666666],[-122.77444444444444,38.223333333333336],[-122.75,38.15],[-122.73916666666666,38.12833333333333],[-122.71666666666667,38.03333333333333],[-122.68333333333334,37.93333333333333],[-122.63333333333334,37.861666666666665],[-122.55749999999999,37.79],[-122.49,37.72666666666667],[-122.42444444444445,37.664722222222224],[-122.36388888888888,37.6075],[-122.33111111111111,37.544444444444444],[-122.2925,37.48222222222223],[-122.25472222222223,37.42194444444444],[-122.2125,37.36555555555556],[-122.16388888888889,37.39388888888889],[-122.14611111111111,37.446666666666665],[-122.12888888888888,37.49722222222222],[-122.16611111111112,37.533055555555556],[-122.21888888888888,37.555277777777775],[-122.26916666666666,37.57666666666667],[-122.36027777777777,37.61472222222223]]],"type":"MultiLineString"}
}
