{
  "id": 2032020317,
  "type": "Feature",
  "properties": {
    "geom:area": 0,
    "geom:bbox": "-122.341290,37.422410,-121.300160,37.636330",
    "geom:latitude": 37.539207202162466,
    "geom:longitude": -121.83471189822313,
    "src:alt_label": "swim-approach",
    "src:geom": "swim",
    "swim:elevations": [
      4237,
      4134,
      4109,
      3963,
      3762,
      3480,
      3323,
      3347,
      3353,
      3353,
      3222,
      3048,
      3048,
      3046,
      2896,
      2726,
      2747,
      2743,
      2743,
      2743,
      2576,
      2489,
      2437,
      2438,
      2408,
      2408,
      2284,
      2094,
      1913,
      1833,
      1829,
      1829,
      1645,
      1379,
      1218,
      1147,
      1003,
      885,
      754,
      613,
      418,
      364,
      247,
      206,
      103
    ],
    "swim:geom": "approach",
    "swim:timestamps": [
      1785328825,
      1785328858,
      1785328866,
      1785328900,
      1785328926,
      1785328970,
      1785328998,
      1785329037,
      1785329054,
      1785329080,
      1785329118,
      1785329154,
      1785329178,
      1785329209,
      1785329238,
      1785329277,
      1785329294,
      1785329331,
      1785329373,
      1785329404,
      1785329450,
      1785329475,
      1785329507,
      1785329572,
      1785329605,
      1785329631,
      1785329655,
      1785329694,
      1785329723,
      1785329737,
      1785329766,
      1785329794,
      1785329820,
      1785329858,
      1785329883,
      1785329903,
      1785329930,
      1785329943,
      1785329958,
      1785329973,
      1785330019,
      1785330034,
      1785330063,
      1785330075,
      1785330099
    ],
    "wof:geomhash": "ad7d16590cfebb3497b8e7daa429ef3c",
    "wof:id": 2032020317,
    "wof:repo": "sfomuseum-data-flights-2026-07"
  },
  "bbox": [
    -122.34129,
    37.42241,
    -121.30016,
    37.63633
  ],
  "geometry": {"coordinates":[[-121.30016,37.49877],[-121.32831,37.53229],[-121.33336,37.54149],[-121.36484,37.57152],[-121.40395,37.5707],[-121.46971,37.56479],[-121.51005,37.56131],[-121.56732,37.55619],[-121.59248,37.55372],[-121.62981,37.54935],[-121.68476,37.54839],[-121.7291,37.57072],[-121.75701,37.58621],[-121.79406,37.60689],[-121.82787,37.62573],[-121.88046,37.63633],[-121.90419,37.63453],[-121.95475,37.62953],[-121.98374,37.5904],[-121.95802,37.56194],[-121.8967,37.53808],[-121.86266,37.52483],[-121.82131,37.50865],[-121.7751,37.45457],[-121.80875,37.43225],[-121.84441,37.4279],[-121.87623,37.42241],[-121.92706,37.43169],[-121.96297,37.4473],[-121.97997,37.45472],[-122.01495,37.46926],[-122.04901,37.48358],[-122.07899,37.49628],[-122.12438,37.51553],[-122.1534,37.52777],[-122.17565,37.53717],[-122.20204,37.54829],[-122.21416,37.55344],[-122.22774,37.55913],[-122.24196,37.56514],[-122.28092,37.58152],[-122.29275,37.58643],[-122.31475,37.59574],[-122.32344,37.59927],[-122.34129,37.60683]],"type":"LineString"}
}
