{
  "id": 2032050143,
  "type": "Feature",
  "properties": {
    "geom:area": 0,
    "geom:bbox": "-122.356580,37.492180,-121.266200,37.613400",
    "geom:latitude": 37.54217241225889,
    "geom:longitude": -121.81829938318263,
    "src:alt_label": "swim-approach",
    "src:geom": "swim",
    "swim:elevations": [
      4621,
      4460,
      4357,
      4108,
      4083,
      3717,
      3522,
      3358,
      3093,
      2987,
      2627,
      2531,
      2329,
      2151,
      2022,
      1913,
      1645,
      1615,
      1396,
      1223,
      1068,
      901,
      755,
      620,
      608,
      488,
      372,
      249,
      190,
      18
    ],
    "swim:geom": "approach",
    "swim:timestamps": [
      1785484448,
      1785484465,
      1785484482,
      1785484528,
      1785484532,
      1785484583,
      1785484610,
      1785484631,
      1785484667,
      1785484681,
      1785484730,
      1785484751,
      1785484792,
      1785484821,
      1785484843,
      1785484864,
      1785484915,
      1785484921,
      1785484964,
      1785485000,
      1785485032,
      1785485067,
      1785485096,
      1785485124,
      1785485130,
      1785485158,
      1785485185,
      1785485212,
      1785485226,
      1785485272
    ],
    "wof:geomhash": "c9106b60a2610100d95efa59fbf35045",
    "wof:id": 2032050143,
    "wof:repo": "sfomuseum-data-flights-2026-07"
  },
  "bbox": [
    -122.35658,
    37.49218,
    -121.2662,
    37.6134
  ],
  "geometry": {"coordinates":[[-121.2662,37.59198],[-121.29709,37.58834],[-121.32671,37.58523],[-121.40715,37.5765],[-121.41284,37.57584],[-121.49938,37.56523],[-121.54476,37.56002],[-121.58099,37.5559],[-121.64005,37.54709],[-121.66261,37.54182],[-121.74015,37.52342],[-121.77381,37.51522],[-121.83438,37.5006],[-121.87609,37.49218],[-121.90987,37.49296],[-121.94027,37.49472],[-122.00939,37.49827],[-122.01718,37.49879],[-122.07375,37.50224],[-122.11721,37.51288],[-122.15112,37.52822],[-122.18797,37.54238],[-122.21636,37.55426],[-122.24178,37.56499],[-122.24664,37.56704],[-122.26999,37.57695],[-122.29095,37.58582],[-122.3117,37.59452],[-122.32208,37.59882],[-122.35658,37.6134]],"type":"LineString"}
}
