{
  "id": 2031953847,
  "type": "Feature",
  "properties": {
    "geom:area": 0,
    "geom:bbox": "-122.387222,33.918333,-118.447500,37.602222",
    "geom:latitude": 35.606642642938574,
    "geom:longitude": -120.75869134454305,
    "src:alt_label": "swim-path",
    "src:geom": "swim",
    "swim:altitudes": [
      "010",
      "022",
      "033",
      "054",
      "072",
      "093",
      "108",
      "125",
      "145",
      "168",
      "189",
      "207",
      "226",
      "243",
      "244",
      "256",
      "257",
      "269",
      "283",
      "284",
      "294",
      "297",
      "307",
      "316",
      "317",
      "327",
      "328",
      "338C",
      "340C",
      "340C",
      "340C",
      "340C",
      "340",
      "340",
      "340",
      "326",
      "309",
      "292",
      "275",
      "258",
      "253",
      "245",
      "229",
      "226",
      "213",
      "194",
      "183",
      "179",
      "168",
      "167",
      "151",
      "139",
      "137",
      "125",
      "123",
      "112",
      "109",
      "100",
      "100",
      "100",
      "098",
      "087",
      "086",
      "070",
      "061",
      "060",
      "060",
      "060",
      "052",
      "049",
      "041",
      "040",
      "040",
      "040",
      "040",
      "033",
      "033",
      "026",
      "025",
      "018",
      "018",
      "011",
      "010",
      "004"
    ],
    "swim:geom": "path",
    "swim:speeds": [
      172,
      211,
      264,
      267,
      285,
      294,
      323,
      353,
      366,
      380,
      393,
      408,
      415,
      425,
      420,
      440,
      444,
      453,
      463,
      463,
      466,
      467,
      473,
      481,
      481,
      485,
      485,
      486,
      487,
      488,
      488,
      487,
      486,
      486,
      485,
      464,
      445,
      430,
      421,
      408,
      403,
      393,
      383,
      385,
      372,
      364,
      351,
      353,
      341,
      345,
      345,
      321,
      325,
      319,
      320,
      317,
      319,
      302,
      305,
      297,
      300,
      288,
      292,
      292,
      290,
      292,
      289,
      291,
      292,
      292,
      261,
      196,
      196,
      167,
      172,
      162,
      166,
      161,
      164,
      143,
      147,
      126,
      130,
      145
    ],
    "swim:timestamps": [
      1784950896,
      1784950956,
      1784951016,
      1784951076,
      1784951136,
      1784951197,
      1784951257,
      1784951317,
      1784951377,
      1784951437,
      1784951497,
      1784951557,
      1784951617,
      1784951677,
      1784951685,
      1784951737,
      1784951745,
      1784951797,
      1784951858,
      1784951865,
      1784951918,
      1784951925,
      1784951985,
      1784952038,
      1784952045,
      1784952098,
      1784952105,
      1784952165,
      1784952218,
      1784952226,
      1784952278,
      1784952346,
      1784952398,
      1784952406,
      1784952458,
      1784952526,
      1784952586,
      1784952646,
      1784952706,
      1784952766,
      1784952781,
      1784952811,
      1784952871,
      1784952886,
      1784952931,
      1784953006,
      1784953052,
      1784953066,
      1784953112,
      1784953126,
      1784953186,
      1784953232,
      1784953247,
      1784953292,
      1784953307,
      1784953346,
      1784953367,
      1784953406,
      1784953427,
      1784953466,
      1784953487,
      1784953532,
      1784953547,
      1784953607,
      1784953646,
      1784953667,
      1784953706,
      1784953727,
      1784953767,
      1784953787,
      1784953847,
      1784953887,
      1784953907,
      1784953952,
      1784953967,
      1784954012,
      1784954027,
      1784954073,
      1784954087,
      1784954132,
      1784954147,
      1784954192,
      1784954207,
      1784954267
    ],
    "wof:geomhash": "6cc4986a5e124d0eb7af2f364c896201",
    "wof:id": 2031953847,
    "wof:repo": "sfomuseum-data-flights-2026-07"
  },
  "bbox": [
    -122.38722222222223,
    33.91833333333333,
    -118.4475,
    37.602222222222224
  ],
  "geometry": {"coordinates":[[-118.4475,33.94555555555555],[-118.5125,33.94222222222222],[-118.59583333333333,33.93555555555555],[-118.68277777777779,33.928888888888885],[-118.77694444444444,33.92111111111111],[-118.87472222222222,33.91833333333333],[-118.97583333333334,33.936388888888885],[-119.0911111111111,33.961111111111116],[-119.20861111111111,33.98694444444445],[-119.31638888888888,34.03611111111111],[-119.40138888888889,34.12111111111111],[-119.48972222222223,34.208333333333336],[-119.57944444444443,34.296388888888885],[-119.6725,34.3875],[-119.68305555555555,34.39805555555556],[-119.7675,34.47972222222222],[-119.78388888888888,34.49583333333334],[-119.86805555555554,34.577222222222225],[-119.98222222222222,34.6875],[-119.98583333333333,34.691111111111105],[-120.06611111111111,34.76833333333333],[-120.08833333333332,34.78972222222222],[-120.1888888888889,34.88583333333333],[-120.29305555555555,34.98555555555556],[-120.29666666666667,34.98888888888889],[-120.39972222222222,35.087500000000006],[-120.40916666666668,35.09638888888889],[-120.51833333333333,35.20027777777778],[-120.615,35.29222222222222],[-120.62944444444443,35.30583333333333],[-120.72333333333333,35.39472222222222],[-120.84694444444445,35.514722222222225],[-120.92888888888889,35.60277777777778],[-120.94638888888889,35.62166666666667],[-121.02361111111111,35.70444444444445],[-121.14277777777778,35.83222222222223],[-121.23666666666666,35.9325],[-121.32583333333334,36.02722222222222],[-121.40722222222223,36.12305555555555],[-121.48138888888889,36.21805555555556],[-121.5,36.25],[-121.53333333333333,36.3],[-121.61666666666666,36.38333333333333],[-121.62527777777777,36.40138888888889],[-121.68333333333334,36.46666666666667],[-121.76194444444444,36.574444444444445],[-121.81666666666666,36.63333333333333],[-121.82916666666667,36.66],[-121.88333333333334,36.71666666666667],[-121.88305555555554,36.72777777777778],[-121.91555555555556,36.81888888888889],[-121.96666666666667,36.88333333333333],[-121.96972222222223,36.89527777777778],[-122.03333333333333,36.95],[-122.04638888888888,36.95944444444445],[-122.11666666666666,37.016666666666666],[-122.12333333333332,37.02305555555555],[-122.18333333333334,37.06666666666667],[-122.19694444444445,37.08388888888889],[-122.25,37.13333333333333],[-122.26916666666666,37.143055555555556],[-122.33333333333333,37.2],[-122.33944444444444,37.202222222222225],[-122.38722222222223,37.270833333333336],[-122.38333333333334,37.333333333333336],[-122.37527777777777,37.34527777777778],[-122.3,37.36666666666667],[-122.28,37.36833333333333],[-122.2,37.38333333333333],[-122.18111111111112,37.39111111111111],[-122.09083333333332,37.415277777777774],[-122.06666666666666,37.46666666666667],[-122.06472222222222,37.469166666666666],[-122.1,37.5],[-122.10527777777777,37.504444444444445],[-122.15,37.516666666666666],[-122.15555555555557,37.52638888888889],[-122.2,37.55],[-122.20555555555556,37.5475],[-122.25,37.56666666666667],[-122.25111111111111,37.56666666666667],[-122.28333333333333,37.583333333333336],[-122.29138888888889,37.58361111111111],[-122.33583333333333,37.602222222222224]],"type":"LineString"}
}
