{
  "id": 2032023293,
  "type": "Feature",
  "properties": {
    "geom:area": 0,
    "geom:bbox": "-122.408611,37.641389,-73.665000,42.691944",
    "geom:latitude": 41.71730416163469,
    "geom:longitude": -97.95717673064694,
    "src:alt_label": "swim-path",
    "src:geom": "swim",
    "swim:altitudes": [
      "019",
      "038",
      "042",
      "060",
      "091",
      "096",
      "116",
      "136",
      "164",
      "188",
      "212",
      "232",
      "267",
      "287",
      "310",
      "332",
      "345",
      "356",
      "369C",
      "370C",
      "370C",
      "370C",
      "370C",
      "370C",
      "370C",
      "370C",
      "370C",
      "370C",
      "370C",
      "370C",
      "370C",
      "370C",
      "370C",
      "370C",
      "370C",
      "370C",
      "370C",
      "370C",
      "370C",
      "370C",
      "370C",
      "370C",
      "370C",
      "370C",
      "370C",
      "370C",
      "370C",
      "370C",
      "370C",
      "370C",
      "370C",
      "370C",
      "370C",
      "370C",
      "370C",
      "370C",
      "370C",
      "370C",
      "370C",
      "370C",
      "370C",
      "370C",
      "370C",
      "370C",
      "370C",
      "370C",
      "370C",
      "370C",
      "370C",
      "370C",
      "370C",
      "370C",
      "370C",
      "370C",
      "370C",
      "370C",
      "370C",
      "370C",
      "370C",
      "370C",
      "370C",
      "370C",
      "370C",
      "370C",
      "370C",
      "370C",
      "370C",
      "370C",
      "370C",
      "370C",
      "370C",
      "370C",
      "370C",
      "370C",
      "370C",
      "370C",
      "370C",
      "370C",
      "370C",
      "370C",
      "370C",
      "370C",
      "370C",
      "370C",
      "370C",
      "370C",
      "370C",
      "370C",
      "370C",
      "370C",
      "370C",
      "370C",
      "370C",
      "370C",
      "370C",
      "370C",
      "370C",
      "370C",
      "370C",
      "370C",
      "370C",
      "370C",
      "370C",
      "370C",
      "370C",
      "370C",
      "370C",
      "370C",
      "370C",
      "370C",
      "370C",
      "370C",
      "370C",
      "370C",
      "370C",
      "370C",
      "370C",
      "370C",
      "370C",
      "370C",
      "370C",
      "370C",
      "370C",
      "370C",
      "370C",
      "370C",
      "370C",
      "370C",
      "370C",
      "370C",
      "370C",
      "370C",
      "370C",
      "370C",
      "370C",
      "370C",
      "370C",
      "370C",
      "370C",
      "370C",
      "370C",
      "370C",
      "370C",
      "370C",
      "370C",
      "370C",
      "370C",
      "370C",
      "370C",
      "370C",
      "370C",
      "370C",
      "370C",
      "370C",
      "370C",
      "370C",
      "370C",
      "370C",
      "370C",
      "370C",
      "370C",
      "370C",
      "370C",
      "370C",
      "370C",
      "370C",
      "370C",
      "370C",
      "370C",
      "370C",
      "370C",
      "370C",
      "370C",
      "370C",
      "370C",
      "370C",
      "370C",
      "370C",
      "370C",
      "370C",
      "370C",
      "370C",
      "370C",
      "370C",
      "370C",
      "370C",
      "370C",
      "370C",
      "370C",
      "370C",
      "370C",
      "370C",
      "370C",
      "370C",
      "370C",
      "370C",
      "370C",
      "370C",
      "370C",
      "370C",
      "370C",
      "370C",
      "370C",
      "370C",
      "370C",
      "370C",
      "370C",
      "370C",
      "370C",
      "370C",
      "370C",
      "370C",
      "370C",
      "370C",
      "370C",
      "370C",
      "370C",
      "370C",
      "370C",
      "370C",
      "370C",
      "370C",
      "370C",
      "370C",
      "370C",
      "370C",
      "370C",
      "370C",
      "370C",
      "370C",
      "370C",
      "370C",
      "370C",
      "370C",
      "370C",
      "370C",
      "370C",
      "370C",
      "370C",
      "370C",
      "370C",
      "370",
      "370",
      "370",
      "360",
      "337",
      "290",
      "261",
      "240",
      "230C",
      "221",
      "208",
      "202",
      "200",
      "196",
      "192",
      "147",
      "131",
      "130",
      "127",
      "109",
      "063",
      "046",
      "032",
      "022",
      "020",
      "020",
      "017",
      "008",
      "001"
    ],
    "swim:geom": "path",
    "swim:speeds": [
      181,
      220,
      222,
      276,
      292,
      288,
      336,
      384,
      405,
      431,
      442,
      461,
      501,
      513,
      513,
      507,
      502,
      508,
      510,
      512,
      512,
      513,
      512,
      513,
      511,
      513,
      513,
      511,
      512,
      513,
      513,
      518,
      517,
      516,
      515,
      516,
      514,
      515,
      515,
      515,
      515,
      515,
      513,
      512,
      512,
      509,
      508,
      507,
      506,
      506,
      506,
      508,
      509,
      510,
      510,
      509,
      508,
      507,
      507,
      506,
      505,
      501,
      499,
      499,
      499,
      499,
      498,
      496,
      492,
      491,
      491,
      492,
      492,
      493,
      496,
      497,
      498,
      498,
      497,
      497,
      497,
      497,
      497,
      497,
      497,
      497,
      500,
      501,
      501,
      501,
      499,
      499,
      500,
      500,
      501,
      501,
      502,
      503,
      503,
      503,
      503,
      504,
      505,
      506,
      506,
      506,
      507,
      507,
      507,
      507,
      506,
      506,
      505,
      507,
      504,
      506,
      502,
      501,
      499,
      500,
      499,
      499,
      497,
      497,
      497,
      497,
      497,
      497,
      498,
      498,
      499,
      499,
      500,
      500,
      500,
      500,
      500,
      501,
      501,
      499,
      498,
      498,
      499,
      499,
      499,
      500,
      502,
      503,
      503,
      503,
      498,
      499,
      502,
      500,
      501,
      502,
      501,
      500,
      500,
      499,
      499,
      498,
      498,
      497,
      497,
      497,
      497,
      497,
      497,
      496,
      497,
      497,
      497,
      497,
      496,
      495,
      494,
      492,
      492,
      491,
      491,
      490,
      490,
      490,
      489,
      489,
      490,
      490,
      490,
      491,
      492,
      493,
      494,
      494,
      494,
      494,
      493,
      492,
      492,
      493,
      495,
      496,
      498,
      499,
      501,
      499,
      498,
      499,
      499,
      499,
      499,
      499,
      500,
      501,
      501,
      501,
      501,
      500,
      500,
      499,
      499,
      498,
      496,
      494,
      492,
      486,
      483,
      479,
      476,
      475,
      474,
      470,
      470,
      470,
      471,
      470,
      470,
      473,
      481,
      482,
      482,
      484,
      489,
      492,
      493,
      493,
      493,
      494,
      494,
      494,
      494,
      502,
      487,
      477,
      477,
      477,
      478,
      480,
      485,
      487,
      489,
      490,
      489,
      490,
      485,
      429,
      446,
      454,
      437,
      422,
      424,
      372,
      354,
      356,
      355,
      357,
      341,
      317,
      310,
      304,
      305,
      285,
      265,
      235,
      189,
      184,
      193,
      189,
      157,
      151
    ],
    "swim:timestamps": [
      1785351410,
      1785351452,
      1785351470,
      1785351511,
      1785351572,
      1785351590,
      1785351650,
      1785351710,
      1785351770,
      1785351831,
      1785351891,
      1785351951,
      1785352071,
      1785352131,
      1785352191,
      1785352251,
      1785352311,
      1785352371,
      1785352440,
      1785352492,
      1785352552,
      1785352560,
      1785352612,
      1785352620,
      1785352672,
      1785352681,
      1785352741,
      1785352792,
      1785352852,
      1785352921,
      1785352972,
      1785352981,
      1785353041,
      1785353101,
      1785353152,
      1785353161,
      1785353213,
      1785353221,
      1785353281,
      1785353341,
      1785353393,
      1785353462,
      1785353522,
      1785353573,
      1785353582,
      1785353693,
      1785353753,
      1785353762,
      1785353822,
      1785353874,
      1785353934,
      1785354002,
      1785354074,
      1785354195,
      1785354255,
      1785354315,
      1785354375,
      1785354495,
      1785354615,
      1785354675,
      1785354735,
      1785354916,
      1785354976,
      1785355036,
      1785355216,
      1785355276,
      1785355336,
      1785355516,
      1785355757,
      1785355817,
      1785355877,
      1785355997,
      1785356057,
      1785356177,
      1785356358,
      1785356418,
      1785356478,
      1785356538,
      1785356658,
      1785356718,
      1785356778,
      1785356838,
      1785356898,
      1785356958,
      1785357018,
      1785357079,
      1785357199,
      1785357319,
      1785357379,
      1785357439,
      1785357559,
      1785357619,
      1785357679,
      1785357739,
      1785357799,
      1785357860,
      1785357920,
      1785357980,
      1785358040,
      1785358100,
      1785358160,
      1785358220,
      1785358340,
      1785358400,
      1785358460,
      1785358520,
      1785358581,
      1785358641,
      1785358701,
      1785358761,
      1785358810,
      1785358821,
      1785358881,
      1785358930,
      1785358941,
      1785358990,
      1785359001,
      1785359061,
      1785359110,
      1785359121,
      1785359170,
      1785359181,
      1785359301,
      1785359422,
      1785359471,
      1785359482,
      1785359531,
      1785359542,
      1785359591,
      1785359602,
      1785359651,
      1785359662,
      1785359711,
      1785359722,
      1785359771,
      1785359951,
      1785360011,
      1785360072,
      1785360132,
      1785360252,
      1785360312,
      1785360372,
      1785360432,
      1785360492,
      1785360552,
      1785360612,
      1785360793,
      1785360913,
      1785360973,
      1785361093,
      1785361121,
      1785361181,
      1785361213,
      1785361241,
      1785361301,
      1785361333,
      1785361361,
      1785361418,
      1785361453,
      1785361514,
      1785361538,
      1785361574,
      1785361599,
      1785361694,
      1785361719,
      1785361754,
      1785361779,
      1785361814,
      1785361839,
      1785361874,
      1785361899,
      1785361934,
      1785361959,
      1785361994,
      1785362019,
      1785362054,
      1785362079,
      1785362114,
      1785362139,
      1785362174,
      1785362200,
      1785362235,
      1785362260,
      1785362295,
      1785362320,
      1785362355,
      1785362380,
      1785362415,
      1785362440,
      1785362475,
      1785362500,
      1785362560,
      1785362620,
      1785362680,
      1785362741,
      1785362801,
      1785362861,
      1785362921,
      1785362981,
      1785363041,
      1785363101,
      1785363161,
      1785363221,
      1785363281,
      1785363342,
      1785363578,
      1785363638,
      1785363698,
      1785363758,
      1785363818,
      1785363878,
      1785363938,
      1785363999,
      1785364059,
      1785364119,
      1785364179,
      1785364239,
      1785364299,
      1785364359,
      1785364419,
      1785364479,
      1785364539,
      1785364599,
      1785364660,
      1785364720,
      1785364840,
      1785364900,
      1785364960,
      1785365020,
      1785365080,
      1785365140,
      1785365268,
      1785365328,
      1785365388,
      1785365441,
      1785365448,
      1785365508,
      1785365568,
      1785365629,
      1785365689,
      1785365749,
      1785365809,
      1785365869,
      1785365929,
      1785365989,
      1785366049,
      1785366102,
      1785366169,
      1785366222,
      1785366290,
      1785366350,
      1785366410,
      1785366470,
      1785366530,
      1785366583,
      1785366643,
      1785366650,
      1785366770,
      1785366823,
      1785366891,
      1785366951,
      1785367011,
      1785367064,
      1785367131,
      1785367191,
      1785367251,
      1785367311,
      1785367371,
      1785367431,
      1785367552,
      1785367612,
      1785367732,
      1785367814,
      1785367852,
      1785367912,
      1785367970,
      1785368092,
      1785368151,
      1785368211,
      1785368270,
      1785368333,
      1785368453,
      1785368513,
      1785368573,
      1785368631,
      1785368697,
      1785368756,
      1785368814,
      1785368874,
      1785368934
    ],
    "wof:geomhash": "5f86d1726b626cc1d379f033641083d1",
    "wof:id": 2032023293,
    "wof:repo": "sfomuseum-data-flights-2026-07"
  },
  "bbox": [
    -122.40861111111111,
    37.64138888888889,
    -73.665,
    42.69194444444444
  ],
  "geometry": {"coordinates":[[-122.40861111111111,37.64138888888889],[-122.36666666666666,37.666666666666664],[-122.36,37.6725],[-122.28333333333333,37.7],[-122.2,37.733333333333334],[-122.19166666666668,37.74277777777778],[-122.12722222222222,37.81305555555555],[-122.04777777777778,37.894444444444446],[-121.93777777777778,37.968611111111116],[-121.82444444444444,38.04416666666666],[-121.70027777777779,38.12833333333333],[-121.57722222222222,38.21055555555556],[-121.31361111111111,38.38444444444444],[-121.17500000000001,38.469166666666666],[-121.03583333333333,38.55444444444444],[-120.89527777777778,38.64083333333333],[-120.75583333333333,38.72638888888889],[-120.61277777777777,38.81333333333333],[-120.4475,38.91111111111111],[-120.32333333333332,38.98833333333334],[-120.17888888888889,39.075],[-120.15861111111111,39.08527777777778],[-120.01361111111112,39.17388888888889],[-120.01333333333334,39.172777777777775],[-119.86666666666666,39.26111111111111],[-119.86833333333333,39.25888888888889],[-119.7225,39.34583333333334],[-119.57416666666666,39.43388888888889],[-119.42611111111111,39.52055555555555],[-119.28111111111112,39.60527777777778],[-119.15805555555556,39.67666666666666],[-119.13361111111112,39.69083333333333],[-118.9825,39.77833333333333],[-118.83166666666666,39.864444444444445],[-118.70083333333334,39.924166666666665],[-118.66972222222223,39.93694444444444],[-118.53527777777778,39.99166666666667],[-118.50277777777778,40.00472222222222],[-118.34166666666667,40.06944444444445],[-118.17611111111111,40.13611111111111],[-118.03527777777778,40.19138888888889],[-117.83527777777778,40.25472222222222],[-117.66333333333334,40.30583333333333],[-117.52,40.348333333333336],[-117.48861111111111,40.35777777777778],[-117.1763888888889,40.44944444444444],[-116.99861111111112,40.50111111111111],[-116.96833333333333,40.51],[-116.78861111111111,40.56194444444444],[-116.64805555555556,40.602222222222224],[-116.47194444444445,40.652499999999996],[-116.2675,40.71055555555556],[-116.09222222222222,40.75972222222222],[-115.70472222222223,40.8675],[-115.52972222222222,40.91555555555556],[-115.35416666666666,40.96333333333334],[-115.17750000000001,41.01138888888889],[-114.82888888888888,41.105000000000004],[-114.47666666666667,41.198055555555555],[-114.30222222222221,41.24388888888889],[-114.12472222222222,41.28972222222222],[-113.58888888888889,41.395833333333336],[-113.40833333333335,41.41833333333333],[-113.2275,41.441111111111105],[-112.66416666666667,41.50972222222222],[-112.49638888888889,41.52972222222222],[-112.3125,41.54944444444444],[-111.765,41.60583333333334],[-111.04833333333333,41.675555555555555],[-110.86833333333333,41.69222222222222],[-110.68555555555555,41.70888888888889],[-110.32111111111111,41.74138888888889],[-110.14,41.757222222222225],[-109.775,41.78805555555555],[-109.22277777777778,41.83222222222223],[-109.03666666666666,41.84638888888889],[-108.84972222222221,41.86055555555556],[-108.66472222222222,41.87416666666667],[-108.29333333333334,41.900555555555556],[-108.10972222222222,41.913333333333334],[-107.92555555555556,41.925555555555555],[-107.74333333333334,41.9375],[-107.55583333333333,41.94944444444444],[-107.37249999999999,41.96083333333333],[-107.18861111111111,41.971944444444446],[-107.00194444444445,41.98277777777778],[-106.62944444444443,42.00388888888889],[-106.28138888888888,42.0225],[-106.09527777777777,42.03194444444444],[-105.91111111111111,42.04083333333333],[-105.53805555555556,42.05833333333333],[-105.31638888888888,42.068333333333335],[-105.13083333333333,42.07777777777778],[-104.94583333333334,42.093611111111116],[-104.76138888888889,42.11],[-104.57694444444444,42.12555555555556],[-104.39305555555556,42.14111111111111],[-104.2063888888889,42.156666666666666],[-104.0225,42.171388888888885],[-103.83416666666666,42.18611111111111],[-103.65138888888889,42.20027777777778],[-103.46166666666667,42.214444444444446],[-103.08749999999999,42.24194444444444],[-102.89944444444446,42.25527777777778],[-102.70972222222223,42.26833333333333],[-102.52111111111111,42.280833333333334],[-102.3325,42.29333333333333],[-102.14416666666668,42.305277777777775],[-101.95305555555557,42.31722222222223],[-101.74916666666667,42.32944444444445],[-101.62722222222222,42.33555555555556],[-101.55749999999999,42.340833333333336],[-101.36972222222222,42.35138888888889],[-101.24972222222222,42.35666666666667],[-101.18138888888889,42.36194444444445],[-101.06222222222222,42.36694444444444],[-100.99416666666667,42.371944444444445],[-100.80749999999999,42.38166666666667],[-100.65555555555557,42.38916666666667],[-100.61861111111111,42.39111111111111],[-100.47111111111111,42.39833333333333],[-100.43416666666667,42.4],[-100.06166666666667,42.41722222222222],[-99.72583333333334,42.431666666666665],[-99.56333333333333,42.43861111111111],[-99.53833333333333,42.439722222222215],[-99.37222222222222,42.44611111111111],[-99.35083333333333,42.44694444444444],[-99.18472222222222,42.45305555555556],[-99.16555555555556,42.45388888888889],[-98.99777777777778,42.46],[-98.97555555555556,42.46083333333333],[-98.81,42.46638888888889],[-98.75805555555556,42.46805555555556],[-98.62333333333332,42.47277777777778],[-98.05777777777777,42.49722222222222],[-97.86916666666666,42.50472222222222],[-97.68138888888889,42.51166666666666],[-97.49527777777777,42.51833333333333],[-97.11999999999999,42.53666666666666],[-96.93138888888889,42.54666666666667],[-96.74583333333334,42.55583333333333],[-96.55694444444444,42.56472222222222],[-96.36944444444444,42.57333333333334],[-96.18194444444445,42.58166666666667],[-95.99361111111111,42.59],[-95.42583333333334,42.612500000000004],[-95.0436111111111,42.626111111111115],[-94.85527777777777,42.632222222222225],[-94.47583333333334,42.64388888888889],[-94.38694444444445,42.646388888888886],[-94.19638888888889,42.651666666666664],[-94.09694444444445,42.654444444444444],[-94.00944444444444,42.656666666666666],[-93.81833333333333,42.66111111111111],[-93.72194444444445,42.663333333333334],[-93.63055555555555,42.665277777777774],[-93.4413888888889,42.66916666666666],[-93.36527777777778,42.670833333333334],[-93.13861111111112,42.675],[-93.06444444444445,42.67611111111111],[-92.95166666666667,42.67805555555555],[-92.87777777777777,42.67916666666667],[-92.61388888888888,42.68277777777777],[-92.5025,42.68416666666666],[-92.42777777777778,42.684999999999995],[-92.31666666666666,42.68611111111111],[-92.20111111111112,42.68722222222222],[-92.12805555555555,42.687777777777775],[-92.01583333333333,42.68861111111111],[-91.94111111111111,42.68944444444444],[-91.82666666666667,42.69],[-91.7538888888889,42.69027777777777],[-91.64027777777778,42.69083333333333],[-91.57083333333333,42.691111111111105],[-91.49277777777777,42.69138888888889],[-91.38805555555557,42.69166666666666],[-91.27277777777778,42.69194444444444],[-91.20138888888889,42.69194444444444],[-91.08638888888889,42.69194444444444],[-91.01833333333333,42.69194444444444],[-90.90277777777779,42.69166666666666],[-90.83527777777778,42.69166666666666],[-90.72,42.691111111111105],[-90.64944444444446,42.69083333333333],[-90.5363888888889,42.69027777777777],[-90.46527777777779,42.69],[-90.35166666666666,42.689166666666665],[-90.28166666666667,42.68861111111111],[-90.16638888888889,42.687777777777775],[-90.09638888888888,42.68694444444444],[-89.90805555555556,42.68527777777778],[-89.7225,42.683055555555555],[-89.53722222222223,42.68055555555555],[-89.35249999999999,42.67777777777778],[-89.16666666666667,42.67472222222222],[-88.98166666666667,42.67111111111111],[-88.80027777777778,42.66777777777777],[-88.61416666666666,42.66361111111111],[-88.42888888888889,42.659444444444446],[-88.24305555555556,42.65472222222222],[-88.05638888888889,42.65],[-87.86999999999999,42.64472222222222],[-87.68194444444445,42.63916666666667],[-87.49194444444444,42.63333333333333],[-86.74527777777777,42.605555555555554],[-86.55916666666667,42.599444444444444],[-86.37638888888888,42.592222222222226],[-86.19,42.58416666666667],[-86.00472222222223,42.575833333333335],[-85.81861111111111,42.56722222222223],[-85.63222222222221,42.558611111111105],[-85.44888888888889,42.54944444444444],[-85.2575,42.53972222222222],[-85.06861111111111,42.52972222222222],[-84.88222222222221,42.51972222222222],[-84.69555555555556,42.509166666666665],[-84.50027777777778,42.49805555555556],[-84.31444444444445,42.48722222222222],[-84.12527777777777,42.47555555555556],[-83.93972222222223,42.46388888888889],[-83.7525,42.45194444444445],[-83.56527777777778,42.439722222222215],[-83.37888888888888,42.426944444444445],[-83.18944444444445,42.413888888888884],[-82.8275,42.38805555555555],[-82.64666666666668,42.375277777777775],[-82.47027777777778,42.37],[-82.2911111111111,42.36333333333334],[-82.115,42.355555555555554],[-81.95444444444445,42.34861111111111],[-81.55333333333333,42.32833333333333],[-81.37805555555555,42.32],[-81.20166666666667,42.31111111111111],[-81.07249999999999,42.30638888888888],[-81.02638888888889,42.30361111111111],[-80.85,42.29361111111111],[-80.67111111111112,42.282222222222224],[-80.48972222222223,42.2725],[-80.30944444444444,42.26305555555555],[-80.12916666666666,42.25361111111111],[-79.94805555555556,42.24166666666667],[-79.76777777777778,42.21666666666667],[-79.60027777777778,42.18333333333333],[-79.42333333333333,42.14944444444444],[-79.23055555555555,42.11611111111111],[-79.08805555555556,42.09],[-78.88944444444445,42.04805555555556],[-78.73166666666667,42.016666666666666],[-78.53805555555556,41.97666666666667],[-78.37027777777777,41.925555555555555],[-78.24583333333334,41.82138888888889],[-78.08944444444444,41.75805555555556],[-77.91666666666667,41.75194444444445],[-77.74388888888889,41.73916666666667],[-77.56805555555555,41.721944444444446],[-77.5286111111111,41.717777777777776],[-77.17583333333334,41.680277777777775],[-77.03666666666666,41.64805555555556],[-76.83638888888889,41.593611111111116],[-76.66111111111111,41.54527777777778],[-76.49,41.49777777777778],[-76.35583333333332,41.46055555555556],[-76.1738888888889,41.41],[-76.0038888888889,41.36194444444445],[-75.835,41.314166666666665],[-75.68694444444445,41.27194444444444],[-75.5425,41.223888888888894],[-75.39750000000001,41.17527777777777],[-75.10388888888889,41.075833333333335],[-74.955,41.025277777777774],[-74.67527777777778,40.97277777777778],[-74.5,40.95],[-74.41944444444445,40.94305555555555],[-74.29027777777777,40.92722222222222],[-74.15,40.916666666666664],[-73.9375,40.81722222222223],[-73.83333333333333,40.766666666666666],[-73.76666666666667,40.7],[-73.7,40.63333333333333],[-73.66805555555555,40.54833333333333],[-73.665,40.39361111111111],[-73.7461111111111,40.358333333333334],[-73.8275,40.37361111111111],[-73.88333333333334,40.4],[-73.88333333333334,40.46666666666667],[-73.86666666666666,40.516666666666666],[-73.82888888888888,40.55027777777777],[-73.79722222222222,40.590833333333336],[-73.76944444444445,40.626666666666665]],"type":"LineString"}
}
