{
  "id": 2032035409,
  "type": "Feature",
  "properties": {
    "geom:area": 0,
    "geom:bbox": "-122.355278,37.576111,-122.268333,37.612778",
    "geom:latitude": 37.5935136639493,
    "geom:longitude": -122.31226379326425,
    "src:alt_label": "swim-path",
    "src:geom": "swim",
    "swim:altitudes": [
      "016",
      "013",
      "006",
      "001"
    ],
    "swim:geom": "path",
    "swim:speeds": [
      177,
      154,
      136,
      134
    ],
    "swim:timestamps": [
      1785449819,
      1785449837,
      1785449897,
      1785449939
    ],
    "wof:geomhash": "bcc25dbe8780287269317b65a7abcad3",
    "wof:id": 2032035409,
    "wof:repo": "sfomuseum-data-flights-2026-07"
  },
  "bbox": [
    -122.35527777777777,
    37.57611111111112,
    -122.26833333333333,
    37.61277777777778
  ],
  "geometry": {"coordinates":[[-122.26833333333333,37.57611111111112],[-122.28333333333333,37.583333333333336],[-122.33333333333333,37.6],[-122.35527777777777,37.61277777777778]],"type":"LineString"}
}
