{
  "id": 2031942679,
  "type": "Feature",
  "properties": {
    "geom:area": 0,
    "geom:bbox": "-122.344520,37.492780,-121.301400,37.608290",
    "geom:latitude": 37.53974276387176,
    "geom:longitude": -121.82951485345954,
    "src:alt_label": "swim-approach",
    "src:geom": "swim",
    "swim:elevations": [
      4231,
      3939,
      3901,
      3524,
      3228,
      3157,
      3091,
      2970,
      2868,
      2690,
      2499,
      2315,
      2234,
      1999,
      1880,
      1829,
      1752,
      1650,
      1274,
      1127,
      1052,
      891,
      779,
      578,
      515,
      384,
      325,
      194,
      181,
      94
    ],
    "swim:geom": "approach",
    "swim:timestamps": [
      1784811625,
      1784811658,
      1784811662,
      1784811703,
      1784811736,
      1784811750,
      1784811777,
      1784811806,
      1784811820,
      1784811846,
      1784811892,
      1784811926,
      1784811940,
      1784811981,
      1784812003,
      1784812035,
      1784812051,
      1784812064,
      1784812099,
      1784812135,
      1784812161,
      1784812193,
      1784812214,
      1784812257,
      1784812273,
      1784812312,
      1784812322,
      1784812358,
      1784812362,
      1784812383
    ],
    "wof:geomhash": "019314e308bfe68b120fc6ca8c1f4f1c",
    "wof:id": 2031942679,
    "wof:repo": "sfomuseum-data-flights-2026-07"
  },
  "bbox": [
    -122.34452,
    37.49278,
    -121.3014,
    37.60829
  ],
  "geometry": {"coordinates":[[-121.3014,37.58781],[-121.36698,37.58068],[-121.37422,37.57991],[-121.45632,37.57056],[-121.51964,37.56318],[-121.54709,37.55996],[-121.59602,37.55415],[-121.64556,37.54576],[-121.66847,37.54051],[-121.70971,37.53062],[-121.78306,37.51299],[-121.83182,37.50122],[-121.85248,37.49627],[-121.91385,37.49278],[-121.94693,37.49472],[-121.99482,37.49772],[-122.0179,37.49911],[-122.03612,37.5002],[-122.08276,37.50288],[-122.12725,37.51643],[-122.15651,37.52897],[-122.19037,37.54335],[-122.21271,37.55276],[-122.25253,37.56956],[-122.26464,37.57465],[-122.29361,37.58689],[-122.30035,37.58963],[-122.32656,37.60068],[-122.32948,37.60184],[-122.34452,37.60829]],"type":"LineString"}
}
