{
  "id": 2031991779,
  "type": "Feature",
  "properties": {
    "geom:area": 0,
    "geom:bbox": "-123.846667,37.425556,-120.927500,44.291389",
    "geom:latitude": 40.678661316835345,
    "geom:longitude": -122.41113775338054,
    "src:alt_label": "swim-path",
    "src:geom": "swim",
    "swim:altitudes": [
      "042",
      "055",
      "077",
      "109",
      "130",
      "194",
      "216",
      "228",
      "240",
      "252",
      "263",
      "276",
      "290C",
      "305",
      "310C",
      "310C",
      "310C",
      "310C",
      "310C",
      "310C",
      "310C",
      "310C",
      "310C",
      "310C",
      "310C",
      "310C",
      "310C",
      "310C",
      "310C",
      "310C",
      "310C",
      "310C",
      "310C",
      "310C",
      "310C",
      "310C",
      "310C",
      "310C",
      "311C",
      "310C",
      "310C",
      "310C",
      "310C",
      "310C",
      "310C",
      "310C",
      "310C",
      "310",
      "304",
      "295",
      "285",
      "275",
      "265",
      "255",
      "236",
      "225",
      "197",
      "159",
      "146",
      "140",
      "124",
      "113",
      "110C",
      "110C",
      "103",
      "089",
      "062",
      "059",
      "051",
      "040",
      "039",
      "031",
      "022",
      "020",
      "014",
      "008",
      "001"
    ],
    "swim:geom": "path",
    "swim:speeds": [
      169,
      233,
      280,
      281,
      312,
      349,
      384,
      413,
      425,
      433,
      444,
      448,
      444,
      444,
      451,
      454,
      455,
      456,
      457,
      458,
      458,
      457,
      456,
      456,
      457,
      431,
      431,
      431,
      432,
      434,
      434,
      434,
      434,
      434,
      434,
      434,
      434,
      434,
      443,
      443,
      442,
      441,
      440,
      440,
      440,
      439,
      439,
      439,
      429,
      415,
      413,
      411,
      409,
      401,
      391,
      386,
      369,
      347,
      347,
      338,
      336,
      326,
      304,
      259,
      254,
      248,
      244,
      237,
      204,
      196,
      192,
      190,
      175,
      168,
      136,
      123,
      123
    ],
    "swim:timestamps": [
      1785187985,
      1785188045,
      1785188105,
      1785188165,
      1785188225,
      1785188346,
      1785188406,
      1785188466,
      1785188526,
      1785188586,
      1785188646,
      1785188706,
      1785188766,
      1785188942,
      1785189062,
      1785189122,
      1785189187,
      1785189242,
      1785189367,
      1785189422,
      1785189482,
      1785189615,
      1785189675,
      1785189735,
      1785189795,
      1785189847,
      1785189915,
      1785189975,
      1785190028,
      1785190095,
      1785190155,
      1785190215,
      1785190275,
      1785190388,
      1785190396,
      1785190508,
      1785190568,
      1785190576,
      1785190636,
      1785190689,
      1785190756,
      1785190816,
      1785190876,
      1785190936,
      1785190996,
      1785191057,
      1785191117,
      1785191177,
      1785191237,
      1785191297,
      1785191357,
      1785191417,
      1785191477,
      1785191537,
      1785191657,
      1785191717,
      1785191838,
      1785191964,
      1785192018,
      1785192029,
      1785192083,
      1785192138,
      1785192198,
      1785192258,
      1785192318,
      1785192378,
      1785192499,
      1785192559,
      1785192619,
      1785192679,
      1785192689,
      1785192739,
      1785192799,
      1785192809,
      1785192859,
      1785192919,
      1785192979
    ],
    "wof:geomhash": "78f4f44dc8543b7387d8dabe474aac7a",
    "wof:id": 2031991779,
    "wof:repo": "sfomuseum-data-flights-2026-07"
  },
  "bbox": [
    -123.84666666666666,
    37.425555555555555,
    -120.92750000000001,
    44.29138888888889
  ],
  "geometry": {"coordinates":[[-121.12277777777777,44.265277777777776],[-121.05083333333333,44.29138888888889],[-120.96027777777778,44.27972222222222],[-120.92750000000001,44.20305555555556],[-120.95444444444445,44.126666666666665],[-121.02833333333334,43.94638888888888],[-121.06916666666666,43.845],[-121.11027777777777,43.74194444444444],[-121.155,43.62972222222222],[-121.20111111111112,43.51305555555555],[-121.24861111111112,43.39277777777778],[-121.29555555555555,43.27361111111111],[-121.34194444444444,43.15472222222222],[-121.46972222222223,42.82333333333334],[-121.5625,42.58222222222223],[-121.60972222222222,42.46],[-121.66666666666667,42.3125],[-121.71055555555556,42.19694444444444],[-121.7825,41.936388888888885],[-121.8086111111111,41.83305555555556],[-121.84027777777777,41.708333333333336],[-121.90944444444445,41.43277777777777],[-121.93916666666667,41.31388888888888],[-121.97027777777778,41.18833333333333],[-122.00111111111111,41.06472222222222],[-122.08527777777778,40.96194444444445],[-122.22972222222222,40.918055555555554],[-122.38222222222221,40.88861111111111],[-122.53388888888888,40.85916666666667],[-122.71944444444445,40.823055555555555],[-122.87388888888889,40.793055555555554],[-123.02527777777777,40.76444444444444],[-123.17805555555556,40.736111111111114],[-123.44694444444445,40.684999999999995],[-123.47805555555556,40.67916666666667],[-123.74361111111111,40.60916666666667],[-123.835,40.51166666666666],[-123.84666666666666,40.48916666666667],[-123.83583333333333,40.36611111111111],[-123.78833333333333,40.27333333333333],[-123.71805555555555,40.13583333333333],[-123.65972222222223,40.02194444444444],[-123.60166666666666,39.907777777777774],[-123.54388888888889,39.79388888888889],[-123.48611111111111,39.67944444444444],[-123.42916666666667,39.56666666666667],[-123.37249999999999,39.45333333333333],[-123.31777777777778,39.344722222222224],[-123.26166666666667,39.23222222222223],[-123.20805555555556,39.12444444444444],[-123.15583333333333,39.01861111111111],[-123.10333333333332,38.91277777777778],[-123.05138888888888,38.8075],[-123,38.70277777777778],[-122.90083333333334,38.499722222222225],[-122.84638888888888,38.38805555555555],[-122.76138888888889,38.20444444444445],[-122.7,37.983333333333334],[-122.67944444444444,37.921388888888885],[-122.66666666666667,37.9],[-122.6,37.833333333333336],[-122.52833333333334,37.76305555555555],[-122.45972222222223,37.69833333333333],[-122.40055555555556,37.6425],[-122.35333333333332,37.583333333333336],[-122.31527777777778,37.52166666666667],[-122.21722222222222,37.425555555555555],[-122.1375,37.44499999999999],[-122.07944444444443,37.47416666666667],[-122.11999999999999,37.513333333333335],[-122.13333333333334,37.516666666666666],[-122.17805555555556,37.53805555555555],[-122.23277777777778,37.561388888888885],[-122.25,37.56666666666667],[-122.28,37.58111111111111],[-122.3175,37.596944444444446],[-122.35472222222222,37.612500000000004]],"type":"LineString"}
}
