{
  "id": 2031957237,
  "type": "Feature",
  "properties": {
    "geom:area": 0,
    "geom:bbox": "-122.527240,37.648400,-121.257060,38.418540",
    "geom:latitude": 38.05435089970187,
    "geom:longitude": -121.96072984455793,
    "src:alt_label": "swim-takeoff",
    "src:geom": "swim",
    "swim:elevations": [
      662,
      727,
      950,
      1132,
      1647,
      1860,
      2097,
      2433,
      2791,
      3029,
      3078,
      3177,
      3330,
      3913,
      4051,
      4205,
      4300,
      4391,
      4595,
      4787,
      4881,
      5116,
      5205,
      5370,
      5570,
      5693,
      5885,
      6109,
      6132,
      6194,
      6283,
      6429,
      6837,
      6912,
      7116,
      7238,
      7286
    ],
    "swim:geom": "takeoff",
    "swim:timestamps": [
      1784960341,
      1784960351,
      1784960382,
      1784960400,
      1784960454,
      1784960479,
      1784960500,
      1784960534,
      1784960574,
      1784960603,
      1784960618,
      1784960656,
      1784960671,
      1784960728,
      1784960742,
      1784960757,
      1784960766,
      1784960775,
      1784960794,
      1784960817,
      1784960826,
      1784960846,
      1784960855,
      1784960877,
      1784960901,
      1784960913,
      1784960932,
      1784960964,
      1784960967,
      1784960988,
      1784961009,
      1784961034,
      1784961088,
      1784961099,
      1784961131,
      1784961145,
      1784961151
    ],
    "wof:geomhash": "c08f75217376b77c95d8b8cdab9c4167",
    "wof:id": 2031957237,
    "wof:repo": "sfomuseum-data-flights-2026-07"
  },
  "bbox": [
    -122.52724,
    37.6484,
    -121.25706,
    38.41854
  ],
  "geometry": {"coordinates":[[-122.44486,37.6484],[-122.45463,37.6523],[-122.49023,37.66826],[-122.51227,37.6783],[-122.5257,37.74125],[-122.52724,37.77384],[-122.51588,37.80105],[-122.46737,37.8258],[-122.40408,37.85256],[-122.3599,37.874],[-122.33568,37.88557],[-122.26947,37.91733],[-122.24273,37.93028],[-122.13956,37.97996],[-122.11431,37.99209],[-122.08711,38.00523],[-122.0704,38.01322],[-122.05366,38.02125],[-122.01847,38.03817],[-121.97496,38.05892],[-121.95749,38.06726],[-121.91756,38.08629],[-121.90078,38.09422],[-121.85728,38.11488],[-121.8094,38.13773],[-121.785,38.14934],[-121.74537,38.16823],[-121.67825,38.20008],[-121.67187,38.20313],[-121.62779,38.22397],[-121.57995,38.24663],[-121.52185,38.274],[-121.39568,38.33385],[-121.3715,38.34764],[-121.30159,38.39101],[-121.27031,38.41037],[-121.25706,38.41854]],"type":"LineString"}
}
