{
  "id": 2031990097,
  "type": "Feature",
  "properties": {
    "geom:area": 0,
    "geom:bbox": "-124.081389,37.433333,-122.120000,47.437222",
    "geom:latitude": 42.260585252530454,
    "geom:longitude": -123.11691180481381,
    "src:alt_label": "swim-path",
    "src:geom": "swim",
    "swim:altitudes": [
      "010",
      "021",
      "039",
      "054",
      "065",
      "093",
      "112",
      "130",
      "153",
      "174",
      "190",
      "207",
      "220",
      "233",
      "245",
      "257",
      "268",
      "278",
      "289",
      "299",
      "313",
      "323",
      "332",
      "341",
      "349C",
      "350C",
      "350C",
      "350C",
      "350C",
      "350C",
      "350C",
      "350C",
      "350C",
      "350C",
      "350C",
      "350C",
      "350C",
      "350C",
      "350C",
      "350C",
      "350C",
      "350C",
      "350C",
      "350C",
      "350C",
      "350C",
      "350C",
      "350C",
      "350C",
      "350C",
      "350C",
      "350C",
      "350C",
      "350C",
      "350C",
      "350C",
      "350C",
      "350C",
      "350C",
      "350C",
      "350C",
      "350C",
      "350C",
      "350C",
      "350C",
      "350C",
      "350C",
      "350C",
      "350C",
      "350C",
      "350C",
      "350C",
      "350C",
      "350C",
      "350C",
      "350C",
      "350C",
      "350C",
      "350C",
      "350C",
      "350C",
      "350C",
      "350C",
      "350C",
      "350C",
      "350C",
      "350C",
      "350C",
      "350C",
      "350C",
      "350C",
      "350C",
      "350C",
      "350C",
      "350C",
      "350C",
      "350C",
      "350C",
      "350C",
      "350C",
      "350C",
      "350C",
      "350",
      "350",
      "350",
      "350",
      "350",
      "344",
      "323",
      "303",
      "282",
      "261",
      "243",
      "224",
      "206",
      "187",
      "171",
      "167",
      "154",
      "150",
      "138",
      "133",
      "123",
      "118",
      "110",
      "110",
      "105",
      "101",
      "091",
      "084",
      "077",
      "070",
      "063",
      "058",
      "052",
      "048",
      "041",
      "038",
      "030",
      "022",
      "016",
      "011",
      "005",
      "002"
    ],
    "swim:geom": "path",
    "swim:speeds": [
      153,
      157,
      211,
      261,
      263,
      265,
      292,
      331,
      331,
      339,
      343,
      355,
      368,
      376,
      384,
      389,
      398,
      403,
      409,
      414,
      414,
      411,
      410,
      408,
      406,
      408,
      422,
      424,
      425,
      424,
      424,
      424,
      424,
      423,
      423,
      424,
      426,
      427,
      427,
      427,
      426,
      425,
      425,
      425,
      425,
      426,
      427,
      429,
      430,
      428,
      429,
      429,
      429,
      429,
      430,
      429,
      429,
      427,
      427,
      427,
      427,
      428,
      429,
      429,
      418,
      413,
      409,
      411,
      412,
      413,
      412,
      409,
      406,
      406,
      406,
      406,
      405,
      405,
      406,
      406,
      405,
      393,
      393,
      395,
      398,
      399,
      399,
      399,
      399,
      399,
      399,
      399,
      396,
      396,
      396,
      396,
      409,
      425,
      419,
      414,
      413,
      411,
      410,
      409,
      410,
      411,
      409,
      405,
      418,
      441,
      432,
      413,
      406,
      396,
      381,
      372,
      364,
      358,
      360,
      354,
      355,
      335,
      313,
      301,
      304,
      300,
      260,
      251,
      253,
      246,
      247,
      242,
      242,
      223,
      205,
      194,
      185,
      180,
      172,
      171,
      135,
      128,
      127,
      128
    ],
    "swim:timestamps": [
      1785216777,
      1785216804,
      1785216864,
      1785216924,
      1785216984,
      1785217044,
      1785217104,
      1785217164,
      1785217224,
      1785217284,
      1785217344,
      1785217405,
      1785217465,
      1785217525,
      1785217585,
      1785217645,
      1785217705,
      1785217765,
      1785217825,
      1785217885,
      1785217945,
      1785218005,
      1785218065,
      1785218125,
      1785218185,
      1785218245,
      1785218305,
      1785218365,
      1785218425,
      1785218485,
      1785218545,
      1785218605,
      1785218665,
      1785218725,
      1785218785,
      1785218845,
      1785218906,
      1785218966,
      1785219026,
      1785219086,
      1785219146,
      1785219206,
      1785219266,
      1785219326,
      1785219386,
      1785219446,
      1785219506,
      1785219566,
      1785219577,
      1785219626,
      1785219637,
      1785219697,
      1785219746,
      1785219757,
      1785219806,
      1785219817,
      1785219877,
      1785219926,
      1785219937,
      1785219986,
      1785219997,
      1785220057,
      1785220106,
      1785220117,
      1785220166,
      1785220178,
      1785220226,
      1785220238,
      1785220286,
      1785220298,
      1785220346,
      1785220358,
      1785220406,
      1785220418,
      1785220466,
      1785220478,
      1785220526,
      1785220538,
      1785220586,
      1785220598,
      1785220658,
      1785220707,
      1785220718,
      1785220778,
      1785220838,
      1785220887,
      1785220898,
      1785220947,
      1785220958,
      1785221018,
      1785221067,
      1785221078,
      1785221127,
      1785221138,
      1785221198,
      1785221258,
      1785221318,
      1785221378,
      1785221438,
      1785221498,
      1785221559,
      1785221619,
      1785221679,
      1785221739,
      1785221799,
      1785221859,
      1785221919,
      1785221979,
      1785222039,
      1785222099,
      1785222159,
      1785222219,
      1785222279,
      1785222339,
      1785222399,
      1785222459,
      1785222519,
      1785222528,
      1785222579,
      1785222588,
      1785222639,
      1785222648,
      1785222699,
      1785222708,
      1785222759,
      1785222819,
      1785222879,
      1785222888,
      1785222939,
      1785222954,
      1785222999,
      1785223014,
      1785223059,
      1785223074,
      1785223120,
      1785223128,
      1785223180,
      1785223188,
      1785223248,
      1785223303,
      1785223363,
      1785223420,
      1785223480,
      1785223488
    ],
    "wof:geomhash": "b1ce6573738958164e9fb62b2ad2c892",
    "wof:id": 2031990097,
    "wof:repo": "sfomuseum-data-flights-2026-07"
  },
  "bbox": [
    -124.08138888888888,
    37.43333333333333,
    -122.11999999999999,
    47.43722222222222
  ],
  "geometry": {"coordinates":[[-122.30916666666667,47.43722222222222],[-122.30833333333334,47.41777777777777],[-122.31,47.36361111111111],[-122.36361111111111,47.31361111111111],[-122.47305555555556,47.308055555555555],[-122.58111111111111,47.31111111111111],[-122.6863888888889,47.31361111111111],[-122.81777777777778,47.30305555555555],[-122.94388888888889,47.269444444444446],[-123.06805555555555,47.218333333333334],[-123.15166666666667,47.14222222222222],[-123.21722222222222,47.05694444444444],[-123.215,46.96055555555556],[-123.21138888888889,46.85527777777778],[-123.20777777777778,46.74916666666667],[-123.20416666666667,46.64111111111111],[-123.20055555555555,46.52916666666667],[-123.19694444444445,46.42444444444444],[-123.19333333333334,46.31083333333333],[-123.18944444444445,46.195277777777775],[-123.18583333333333,46.07972222222222],[-123.18222222222222,45.96555555555556],[-123.17861111111111,45.85277777777778],[-123.17472222222223,45.73916666666667],[-123.1713888888889,45.628055555555555],[-123.16777777777779,45.514722222222225],[-123.16388888888889,45.396388888888886],[-123.16027777777778,45.277499999999996],[-123.1563888888889,45.15888888888889],[-123.15277777777779,45.03972222222222],[-123.14888888888889,44.920833333333334],[-123.14527777777778,44.80222222222222],[-123.14166666666668,44.68388888888889],[-123.13805555555557,44.565555555555555],[-123.13416666666667,44.447222222222216],[-123.12972222222221,44.32916666666667],[-123.12555555555555,44.20916666666667],[-123.12138888888889,44.09027777777778],[-123.11749999999999,43.97916666666667],[-123.11333333333333,43.861111111111114],[-123.10916666666667,43.74194444444444],[-123.10499999999999,43.625277777777775],[-123.10083333333333,43.50555555555555],[-123.09666666666666,43.386944444444445],[-123.09277777777777,43.26972222222222],[-123.0886111111111,43.14944444444444],[-123.08444444444444,43.031666666666666],[-123.08027777777778,42.910555555555554],[-123.0786111111111,42.87722222222222],[-123.07638888888889,42.79194444444444],[-123.07416666666666,42.759166666666665],[-123.06972222222223,42.640277777777776],[-123.06805555555555,42.544999999999995],[-123.06638888888888,42.521388888888886],[-123.06388888888888,42.42527777777777],[-123.06361111111111,42.401944444444446],[-123.05944444444444,42.28388888888889],[-123.05638888888889,42.189722222222215],[-123.05555555555556,42.16583333333333],[-123.05277777777778,42.07222222222222],[-123.05194444444444,42.04666666666667],[-123.04805555555555,41.92972222222222],[-123.045,41.83361111111111],[-123.04416666666667,41.80972222222222],[-123.0411111111111,41.71611111111111],[-123.04027777777777,41.69305555555555],[-123.03777777777778,41.605000000000004],[-123.03694444444444,41.580555555555556],[-123.03416666666666,41.48916666666667],[-123.03333333333333,41.46638888888889],[-123.03055555555555,41.37388888888889],[-123.02972222222222,41.35138888888889],[-123.02694444444444,41.25861111111111],[-123.02666666666667,41.25111111111111],[-123.02361111111111,41.146388888888886],[-123.02333333333333,41.136944444444445],[-123.02,41.033055555555556],[-123.01944444444445,41.01027777777778],[-123.01666666666667,40.92055555555555],[-123.01611111111112,40.89611111111111],[-123.0125,40.785],[-123.03583333333333,40.693888888888885],[-123.03583333333333,40.693888888888885],[-123.17166666666667,40.61972222222222],[-123.30166666666666,40.57944444444445],[-123.4088888888889,40.54611111111111],[-123.4363888888889,40.5375],[-123.54305555555555,40.50388888888889],[-123.57166666666666,40.495],[-123.70472222222223,40.45277777777778],[-123.81166666666667,40.41888888888889],[-123.83777777777777,40.407222222222224],[-123.91472222222222,40.33833333333334],[-123.92944444444444,40.32166666666667],[-124.01194444444444,40.22805555555556],[-124.07249999999999,40.15222222222222],[-124.08138888888888,40.041666666666664],[-123.99694444444445,39.91555555555556],[-123.92111111111112,39.81388888888888],[-123.8475,39.71472222222223],[-123.77416666666666,39.615833333333335],[-123.70138888888889,39.51722222222222],[-123.62888888888888,39.41916666666666],[-123.55638888888889,39.32],[-123.48805555555556,39.22694444444445],[-123.41472222222222,39.126111111111115],[-123.34388888888888,39.02861111111111],[-123.27333333333333,38.93138888888889],[-123.19972222222222,38.82944444444445],[-123.12416666666665,38.724444444444444],[-123.04694444444445,38.61694444444444],[-122.97305555555556,38.51361111111111],[-122.90611111111112,38.41972222222222],[-122.83722222222222,38.322500000000005],[-122.77305555555556,38.23027777777778],[-122.74,38.12833333333333],[-122.71194444444444,38.032777777777774],[-122.7,38.016666666666666],[-122.68444444444445,37.93833333333333],[-122.68333333333334,37.916666666666664],[-122.62833333333333,37.856944444444444],[-122.6,37.833333333333336],[-122.55666666666666,37.78916666666667],[-122.53333333333333,37.766666666666666],[-122.48944444444444,37.725833333333334],[-122.4225,37.66277777777778],[-122.36361111111111,37.60583333333334],[-122.35,37.583333333333336],[-122.32694444444444,37.5425],[-122.31666666666666,37.516666666666666],[-122.29027777777777,37.48222222222223],[-122.26666666666667,37.46666666666667],[-122.21583333333334,37.45138888888889],[-122.18333333333334,37.43333333333333],[-122.1463888888889,37.439166666666665],[-122.13333333333334,37.45],[-122.11999999999999,37.48305555555556],[-122.13333333333334,37.5],[-122.16666666666667,37.53333333333333],[-122.21666666666667,37.55],[-122.26666666666667,37.583333333333336],[-122.2975,37.58833333333334],[-122.33638888888889,37.60472222222222],[-122.35,37.61666666666667]],"type":"LineString"}
}
