{
  "id": 2032034561,
  "type": "Feature",
  "properties": {
    "geom:area": 0,
    "geom:bbox": "-122.335556,33.395833,-112.033333,37.601944",
    "geom:latitude": 34.87187120338401,
    "geom:longitude": -117.60738789478829,
    "src:alt_label": "swim-path",
    "src:geom": "swim",
    "swim:altitudes": [
      "019",
      "030",
      "046",
      "073",
      "105",
      "121",
      "146",
      "173",
      "198",
      "221",
      "240",
      "258",
      "275",
      "292",
      "310",
      "325",
      "341",
      "357",
      "369",
      "381",
      "395",
      "400C",
      "400C",
      "400C",
      "400C",
      "400C",
      "400C",
      "400C",
      "400C",
      "400C",
      "400C",
      "400C",
      "400C",
      "400C",
      "400C",
      "400C",
      "400C",
      "400C",
      "400C",
      "400C",
      "400C",
      "400C",
      "400C",
      "400C",
      "400C",
      "400C",
      "400C",
      "400C",
      "400C",
      "400C",
      "400C",
      "400C",
      "400C",
      "400C",
      "400C",
      "400C",
      "400C",
      "400C",
      "400C",
      "400C",
      "400C",
      "400C",
      "400C",
      "400C",
      "400C",
      "400C",
      "400C",
      "400C",
      "400C",
      "400C",
      "400C",
      "400C",
      "400C",
      "400C",
      "400C",
      "400C",
      "400C",
      "400C",
      "400C",
      "400C",
      "400C",
      "392",
      "385",
      "372",
      "366",
      "354",
      "347",
      "341",
      "332",
      "321",
      "311",
      "287",
      "264",
      "245",
      "241",
      "234",
      "219",
      "211",
      "175",
      "155",
      "149",
      "133",
      "127",
      "126",
      "118",
      "105",
      "101",
      "091",
      "078",
      "073",
      "062",
      "051",
      "043",
      "036",
      "027",
      "004"
    ],
    "swim:geom": "path",
    "swim:speeds": [
      172,
      183,
      217,
      266,
      285,
      305,
      347,
      393,
      406,
      416,
      430,
      441,
      455,
      461,
      463,
      462,
      463,
      460,
      459,
      459,
      456,
      451,
      449,
      448,
      448,
      449,
      449,
      449,
      449,
      449,
      448,
      448,
      448,
      448,
      447,
      447,
      446,
      445,
      444,
      445,
      446,
      446,
      447,
      447,
      449,
      450,
      452,
      453,
      452,
      453,
      453,
      453,
      452,
      452,
      451,
      451,
      450,
      449,
      449,
      448,
      447,
      446,
      446,
      444,
      444,
      444,
      443,
      444,
      444,
      445,
      445,
      446,
      446,
      446,
      446,
      447,
      446,
      446,
      446,
      446,
      445,
      445,
      445,
      446,
      446,
      446,
      445,
      444,
      443,
      442,
      445,
      435,
      420,
      404,
      407,
      398,
      398,
      393,
      388,
      379,
      370,
      331,
      296,
      278,
      267,
      257,
      251,
      250,
      241,
      243,
      242,
      242,
      223,
      189,
      186,
      134
    ],
    "swim:timestamps": [
      1785440769,
      1785440810,
      1785440869,
      1785440929,
      1785440989,
      1785441050,
      1785441110,
      1785441170,
      1785441230,
      1785441290,
      1785441350,
      1785441410,
      1785441470,
      1785441530,
      1785441590,
      1785441650,
      1785441711,
      1785441771,
      1785441831,
      1785441891,
      1785441951,
      1785442011,
      1785442071,
      1785442131,
      1785442191,
      1785442251,
      1785442311,
      1785442371,
      1785442432,
      1785442492,
      1785442552,
      1785442612,
      1785442672,
      1785442732,
      1785442792,
      1785442852,
      1785442912,
      1785442972,
      1785443032,
      1785443093,
      1785443153,
      1785443213,
      1785443273,
      1785443333,
      1785443393,
      1785443453,
      1785443513,
      1785443558,
      1785443573,
      1785443618,
      1785443633,
      1785443678,
      1785443693,
      1785443738,
      1785443754,
      1785443798,
      1785443814,
      1785443858,
      1785443874,
      1785443919,
      1785443934,
      1785443979,
      1785443994,
      1785444039,
      1785444054,
      1785444099,
      1785444114,
      1785444159,
      1785444174,
      1785444219,
      1785444234,
      1785444279,
      1785444294,
      1785444339,
      1785444355,
      1785444399,
      1785444415,
      1785444459,
      1785444475,
      1785444519,
      1785444535,
      1785444580,
      1785444595,
      1785444640,
      1785444655,
      1785444700,
      1785444715,
      1785444760,
      1785444820,
      1785444880,
      1785444940,
      1785445000,
      1785445060,
      1785445099,
      1785445120,
      1785445130,
      1785445180,
      1785445189,
      1785445301,
      1785445361,
      1785445369,
      1785445429,
      1785445481,
      1785445490,
      1785445541,
      1785445601,
      1785445609,
      1785445661,
      1785445721,
      1785445730,
      1785445781,
      1785445841,
      1785445901,
      1785445961,
      1785446022,
      1785446202
    ],
    "wof:geomhash": "f06a654950397afaa22169d4b5b2015f",
    "wof:id": 2032034561,
    "wof:repo": "sfomuseum-data-flights-2026-07"
  },
  "bbox": [
    -122.33555555555554,
    33.395833333333336,
    -112.03333333333333,
    37.60194444444445
  ],
  "geometry": {"coordinates":[[-112.03333333333333,33.43333333333333],[-112.06944444444444,33.42527777777777],[-112.13777777777779,33.40555555555555],[-112.23166666666667,33.395833333333336],[-112.32416666666666,33.40972222222222],[-112.42944444444444,33.42527777777777],[-112.55222222222221,33.443888888888885],[-112.68222222222222,33.45111111111111],[-112.81694444444445,33.45638888888889],[-112.95305555555557,33.481388888888894],[-113.09166666666667,33.507222222222225],[-113.23277777777778,33.533055555555556],[-113.39333333333335,33.562777777777775],[-113.5436111111111,33.59],[-113.69444444444444,33.61833333333333],[-113.84416666666667,33.645833333333336],[-113.99583333333334,33.67388888888889],[-114.14583333333334,33.7025],[-114.2911111111111,33.73972222222222],[-114.43611111111112,33.77638888888889],[-114.58166666666666,33.81333333333333],[-114.72500000000001,33.84916666666667],[-114.86777777777777,33.88472222222222],[-115.00833333333334,33.91972222222222],[-115.15111111111112,33.95472222222222],[-115.29527777777777,33.99027777777778],[-115.44027777777778,34.02583333333333],[-115.58388888888888,34.06055555555555],[-115.72666666666667,34.095],[-115.87055555555555,34.129444444444445],[-116.01138888888889,34.16305555555555],[-116.155,34.19694444444444],[-116.29916666666666,34.23111111111111],[-116.44444444444444,34.265277777777776],[-116.5886111111111,34.29888888888889],[-116.73361111111112,34.33222222222223],[-116.87527777777777,34.365],[-117.01888888888888,34.39805555555556],[-117.16527777777779,34.43138888888889],[-117.30777777777777,34.46361111111111],[-117.45611111111111,34.496944444444445],[-117.60083333333333,34.52972222222222],[-117.74722222222222,34.56222222222222],[-117.89500000000001,34.59444444444445],[-118.03388888888888,34.64527777777778],[-118.16833333333334,34.7075],[-118.30111111111111,34.76888888888889],[-118.39972222222222,34.81361111111111],[-118.4363888888889,34.83111111111111],[-118.53222222222222,34.875],[-118.57166666666666,34.893055555555556],[-118.6725,34.939166666666665],[-118.69472222222223,34.94916666666666],[-118.8025,34.998333333333335],[-118.82777777777777,35.00972222222222],[-118.9375,35.059444444444445],[-118.96083333333334,35.07],[-119.06972222222223,35.119166666666665],[-119.0936111111111,35.13],[-119.20333333333333,35.17916666666667],[-119.22583333333334,35.189166666666665],[-119.33333333333333,35.237500000000004],[-119.35722222222222,35.248333333333335],[-119.46694444444445,35.29694444444444],[-119.48861111111111,35.306666666666665],[-119.59722222222221,35.355000000000004],[-119.62166666666666,35.365833333333335],[-119.73027777777779,35.413888888888884],[-119.7525,35.42388888888889],[-119.86444444444444,35.473055555555554],[-119.88583333333334,35.4825],[-119.995,35.53055555555555],[-120.01972222222223,35.54138888888889],[-120.12944444444443,35.58916666666667],[-120.14750000000001,35.59722222222222],[-120.26138888888889,35.64666666666667],[-120.28916666666666,35.65888888888889],[-120.39444444444445,35.70194444444445],[-120.44611111111111,35.721944444444446],[-120.53055555555555,35.75416666666667],[-120.5825,35.774166666666666],[-120.66777777777779,35.80611111111111],[-120.71916666666667,35.82555555555556],[-120.81333333333333,35.86138888888889],[-120.85694444444444,35.87777777777778],[-120.94416666666667,35.91083333333333],[-120.99444444444444,35.92972222222222],[-121.08055555555555,35.96222222222222],[-121.21777777777778,36.013888888888886],[-121.35555555555555,36.07083333333334],[-121.44222222222223,36.16833333333333],[-121.52277777777778,36.270833333333336],[-121.60083333333333,36.37],[-121.66666666666667,36.45],[-121.67583333333334,36.46555555555556],[-121.7,36.5],[-121.74805555555555,36.55722222222222],[-121.76666666666667,36.583333333333336],[-121.89222222222223,36.74527777777778],[-121.9238888888889,36.84777777777778],[-121.93333333333334,36.88333333333333],[-121.96666666666667,36.96666666666667],[-121.98361111111112,37.02916666666667],[-121.98333333333333,37.05],[-122.0111111111111,37.10055555555556],[-122.0375,37.16777777777777],[-122.05,37.18333333333333],[-122.08944444444444,37.22138888888889],[-122.13555555555556,37.27361111111111],[-122.13333333333334,37.3],[-122.12027777777777,37.340833333333336],[-122.11222222222221,37.4075],[-122.10305555555556,37.470555555555556],[-122.13138888888888,37.51611111111111],[-122.18916666666667,37.54055555555556],[-122.33555555555554,37.60194444444445]],"type":"LineString"}
}
