{
  "id": 2032004569,
  "type": "Feature",
  "properties": {
    "geom:area": 0,
    "geom:bbox": "-122.357110,37.504510,-121.337090,37.613470",
    "geom:latitude": 37.54501206029732,
    "geom:longitude": -121.8540607227713,
    "src:alt_label": "swim-approach",
    "src:geom": "swim",
    "swim:elevations": [
      4256,
      4092,
      3953,
      3532,
      3417,
      3117,
      2987,
      2597,
      2130,
      1891,
      1768,
      1642,
      1401,
      1286,
      1098,
      997,
      840,
      799,
      667,
      431,
      349,
      267,
      180,
      88,
      13
    ],
    "swim:geom": "approach",
    "swim:timestamps": [
      1785247998,
      1785248012,
      1785248024,
      1785248069,
      1785248078,
      1785248128,
      1785248171,
      1785248235,
      1785248295,
      1785248341,
      1785248377,
      1785248407,
      1785248445,
      1785248472,
      1785248504,
      1785248525,
      1785248548,
      1785248555,
      1785248578,
      1785248630,
      1785248660,
      1785248672,
      1785248695,
      1785248717,
      1785248737
    ],
    "wof:geomhash": "25a1469317c29977ce604b8640f09ade",
    "wof:id": 2032004569,
    "wof:repo": "sfomuseum-data-flights-2026-07"
  },
  "bbox": [
    -122.35711,
    37.50451,
    -121.33709,
    37.61347
  ],
  "geometry": {"coordinates":[[-121.33709,37.58405],[-121.36653,37.58089],[-121.3903,37.5783],[-121.47903,37.56821],[-121.49729,37.56598],[-121.59094,37.55461],[-121.66358,37.54122],[-121.76507,37.52922],[-121.86198,37.52192],[-121.93457,37.5163],[-121.98932,37.51212],[-122.03085,37.50879],[-122.08196,37.50451],[-122.11547,37.51128],[-122.1511,37.52694],[-122.17431,37.53657],[-122.19971,37.54732],[-122.20765,37.55067],[-122.23096,37.56053],[-122.27674,37.57975],[-122.29995,37.58953],[-122.30934,37.59344],[-122.32665,37.60073],[-122.34255,37.60739],[-122.35711,37.61347]],"type":"LineString"}
}
