{
  "id": 2031996651,
  "type": "Feature",
  "properties": {
    "geom:area": 0,
    "geom:bbox": "-122.401500,37.626830,-121.340110,37.948440",
    "geom:latitude": 37.82251965564637,
    "geom:longitude": -121.89084309864595,
    "src:alt_label": "swim-takeoff",
    "src:geom": "swim",
    "swim:elevations": [
      213,
      644,
      1026,
      1100,
      1136,
      1513,
      1856,
      2111,
      2235,
      2385,
      2653,
      2904,
      2965,
      3176,
      3411,
      3724,
      3853,
      4141,
      4146,
      4177,
      4398,
      5057,
      5213,
      5681,
      5915,
      6026,
      6334
    ],
    "swim:geom": "takeoff",
    "swim:timestamps": [
      1785136731,
      1785136767,
      1785136798,
      1785136807,
      1785136816,
      1785136856,
      1785136886,
      1785136905,
      1785136915,
      1785136928,
      1785136954,
      1785136975,
      1785136981,
      1785136998,
      1785137031,
      1785137064,
      1785137074,
      1785137098,
      1785137101,
      1785137108,
      1785137138,
      1785137208,
      1785137225,
      1785137274,
      1785137299,
      1785137310,
      1785137346
    ],
    "wof:geomhash": "0dc8af48fef270daffa27415c3c4bb52",
    "wof:id": 2031996651,
    "wof:repo": "sfomuseum-data-flights-2026-07"
  },
  "bbox": [
    -122.4015,
    37.62683,
    -121.34011,
    37.94844
  ],
  "geometry": {"coordinates":[[-122.39344,37.62683],[-122.4015,37.65145],[-122.36971,37.66598],[-122.35992,37.66906],[-122.34961,37.67239],[-122.29691,37.69045],[-122.25306,37.70535],[-122.22466,37.71505],[-122.21054,37.72054],[-122.19179,37.72948],[-122.15421,37.74881],[-122.12353,37.76506],[-122.11445,37.76973],[-122.08867,37.78307],[-122.03488,37.81078],[-121.97367,37.83183],[-121.95467,37.8356],[-121.90656,37.8443],[-121.90038,37.8454],[-121.88504,37.84821],[-121.82052,37.86005],[-121.66246,37.88928],[-121.62482,37.89632],[-121.51185,37.91707],[-121.45231,37.92805],[-121.42587,37.93283],[-121.34011,37.94844]],"type":"LineString"}
}
