{
  "id": 2031989421,
  "type": "Feature",
  "properties": {
    "geom:area": 0,
    "geom:bbox": "-122.846600,37.410250,-122.105640,38.493220",
    "geom:latitude": 37.8135967191021,
    "geom:longitude": -122.49223945840426,
    "src:alt_label": "swim-approach",
    "src:geom": "swim",
    "swim:elevations": [
      7771,
      7253,
      6809,
      6742,
      6709,
      6614,
      6561,
      6324,
      5712,
      5473,
      5056,
      4802,
      4582,
      3897,
      3844,
      3711,
      3665,
      3411,
      3353,
      3353,
      3353,
      3342,
      3323,
      3112,
      2800,
      2611,
      2296,
      2219,
      1872,
      1500,
      1071,
      911,
      914,
      904,
      734,
      724,
      675,
      667,
      646,
      491,
      355,
      273,
      187,
      52
    ],
    "swim:geom": "approach",
    "swim:timestamps": [
      1785176417,
      1785176470,
      1785176516,
      1785176522,
      1785176526,
      1785176535,
      1785176540,
      1785176564,
      1785176627,
      1785176651,
      1785176696,
      1785176722,
      1785176744,
      1785176816,
      1785176820,
      1785176835,
      1785176840,
      1785176876,
      1785176916,
      1785176968,
      1785177024,
      1785177051,
      1785177062,
      1785177115,
      1785177159,
      1785177184,
      1785177227,
      1785177242,
      1785177275,
      1785177310,
      1785177358,
      1785177384,
      1785177407,
      1785177436,
      1785177467,
      1785177471,
      1785177482,
      1785177487,
      1785177491,
      1785177523,
      1785177560,
      1785177583,
      1785177602,
      1785177648
    ],
    "wof:geomhash": "05cb8b6171fd934a69507d82be4af00f",
    "wof:id": 2031989421,
    "wof:repo": "sfomuseum-data-flights-2026-07"
  },
  "bbox": [
    -122.8466,
    37.41025,
    -122.10564,
    38.49322
  ],
  "geometry": {"coordinates":[[-122.8466,38.49322],[-122.81844,38.39884],[-122.79492,38.3179],[-122.79203,38.30801],[-122.78976,38.30033],[-122.78526,38.28488],[-122.78272,38.27618],[-122.77097,38.23642],[-122.73989,38.12884],[-122.72852,38.09],[-122.70709,38.01641],[-122.69501,37.97409],[-122.68467,37.93861],[-122.60971,37.83956],[-122.60406,37.83417],[-122.58508,37.81612],[-122.57813,37.8095],[-122.53257,37.76628],[-122.48558,37.72208],[-122.42591,37.66622],[-122.364,37.60711],[-122.34488,37.5739],[-122.33922,37.56087],[-122.30478,37.50398],[-122.27688,37.45846],[-122.26036,37.43331],[-122.20576,37.41093],[-122.18473,37.41025],[-122.13988,37.41487],[-122.10564,37.43916],[-122.12974,37.48351],[-122.14868,37.50493],[-122.16463,37.52349],[-122.18747,37.54226],[-122.21797,37.5549],[-122.22157,37.55647],[-122.2313,37.56055],[-122.23529,37.56225],[-122.23868,37.56368],[-122.26535,37.57495],[-122.29265,37.58645],[-122.30897,37.59326],[-122.32319,37.59928],[-122.3571,37.61354]],"type":"LineString"}
}
