{
  "id": 2031977557,
  "type": "Feature",
  "properties": {
    "geom:area": 0,
    "geom:bbox": "-123.489160,37.187190,-122.090530,37.612350",
    "geom:latitude": 37.357718289340035,
    "geom:longitude": -122.65966940404054,
    "src:alt_label": "swim-approach",
    "src:geom": "swim",
    "swim:elevations": [
      5480,
      5425,
      4911,
      4563,
      4299,
      4076,
      3892,
      3646,
      3452,
      3048,
      3048,
      3048,
      3048,
      3048,
      3048,
      3048,
      3048,
      3048,
      3048,
      3048,
      2969,
      2819,
      2647,
      2620,
      2480,
      2389,
      2276,
      2213,
      2124,
      1948,
      1905,
      1868,
      1829,
      1829,
      1829,
      1829,
      1829,
      1766,
      1705,
      1601,
      1394,
      1309,
      1217,
      1220,
      1219,
      1219,
      1219,
      1059,
      1029,
      840,
      744,
      729,
      521,
      476,
      402,
      354,
      305,
      233,
      148,
      94,
      36
    ],
    "swim:geom": "approach",
    "swim:timestamps": [
      1785097467,
      1785097472,
      1785097521,
      1785097552,
      1785097577,
      1785097598,
      1785097613,
      1785097636,
      1785097655,
      1785097715,
      1785097747,
      1785097774,
      1785097813,
      1785097828,
      1785097906,
      1785097944,
      1785097956,
      1785097968,
      1785097980,
      1785097992,
      1785098017,
      1785098042,
      1785098079,
      1785098085,
      1785098112,
      1785098127,
      1785098141,
      1785098155,
      1785098172,
      1785098204,
      1785098226,
      1785098241,
      1785098275,
      1785098283,
      1785098310,
      1785098328,
      1785098346,
      1785098364,
      1785098376,
      1785098403,
      1785098445,
      1785098461,
      1785098484,
      1785098490,
      1785098516,
      1785098544,
      1785098566,
      1785098608,
      1785098617,
      1785098657,
      1785098672,
      1785098676,
      1785098724,
      1785098737,
      1785098757,
      1785098773,
      1785098790,
      1785098814,
      1785098837,
      1785098854,
      1785098870
    ],
    "wof:geomhash": "9ee129e599755a56a95d0d2a161dee0f",
    "wof:id": 2031977557,
    "wof:repo": "sfomuseum-data-flights-2026-07"
  },
  "bbox": [
    -123.48916,
    37.18719,
    -122.09053,
    37.61235
  ],
  "geometry": {"coordinates":[[-123.48916,37.45263],[-123.478,37.4492],[-123.37043,37.41572],[-123.30196,37.39459],[-123.24643,37.37745],[-123.20342,37.36397],[-123.17049,37.35367],[-123.12312,37.33893],[-123.08422,37.32682],[-122.96398,37.2892],[-122.90756,37.27157],[-122.86346,37.26015],[-122.80477,37.27153],[-122.7814,37.27093],[-122.66754,37.23566],[-122.61204,37.21802],[-122.59428,37.21224],[-122.5781,37.20703],[-122.55988,37.2012],[-122.54265,37.19558],[-122.50656,37.18719],[-122.4722,37.19869],[-122.46513,37.23997],[-122.46986,37.24579],[-122.49224,37.27084],[-122.49799,37.28835],[-122.49576,37.30438],[-122.48438,37.31808],[-122.46309,37.32893],[-122.42092,37.34492],[-122.38977,37.34955],[-122.36927,37.35127],[-122.32388,37.35521],[-122.31336,37.35615],[-122.27755,37.35926],[-122.25321,37.3614],[-122.22985,37.36345],[-122.20622,37.3655],[-122.18982,37.3669],[-122.15704,37.37375],[-122.1168,37.40326],[-122.11078,37.41814],[-122.10214,37.44139],[-122.10002,37.44696],[-122.09053,37.47181],[-122.09755,37.49693],[-122.11456,37.50984],[-122.15437,37.52805],[-122.16303,37.5317],[-122.20122,37.5479],[-122.21555,37.55395],[-122.21932,37.55555],[-122.26156,37.57335],[-122.2708,37.57726],[-122.28403,37.58286],[-122.29421,37.58711],[-122.3048,37.59154],[-122.31924,37.59763],[-122.33349,37.60362],[-122.34409,37.6081],[-122.35423,37.61235]],"type":"LineString"}
}
