{
  "id": 2032049707,
  "type": "Feature",
  "properties": {
    "geom:area": 0,
    "geom:bbox": "-156.150000,19.700000,-122.109444,37.620556",
    "geom:latitude": 29.75766271685637,
    "geom:longitude": -139.5425024609744,
    "src:alt_label": "swim-path",
    "src:geom": "swim",
    "swim:altitudes": [
      "023C",
      "043C",
      "068C",
      "090C",
      "104C",
      "115C",
      "128C",
      "144C",
      "162C",
      "177C",
      "190C",
      "202C",
      "214C",
      "225C",
      "234C",
      "244C",
      "255C",
      "269C",
      "282C",
      "294C",
      "308C",
      "320",
      "320",
      "320",
      "320",
      "320",
      "320",
      "320",
      "320",
      "320",
      "320",
      "320",
      "320",
      "320",
      "320",
      "320",
      "320",
      "320",
      "320",
      "320",
      "320",
      "320",
      "320",
      "320C",
      "320C",
      "320C",
      "320C",
      "320C",
      "320C",
      "320C",
      "320",
      "318",
      "303",
      "300C",
      "300C",
      "300C",
      "300C",
      "300C",
      "296",
      "285",
      "280",
      "263",
      "261",
      "261",
      "261",
      "260",
      "252",
      "245",
      "238",
      "230",
      "216",
      "204",
      "189",
      "176",
      "165",
      "161",
      "146",
      "143",
      "132",
      "128",
      "118",
      "114",
      "104",
      "100",
      "100C",
      "100",
      "098C",
      "095",
      "091",
      "090",
      "086",
      "085",
      "082",
      "079",
      "072",
      "069",
      "066",
      "064",
      "061",
      "060",
      "061",
      "060",
      "060",
      "051",
      "044",
      "041",
      "034",
      "031",
      "022",
      "019",
      "013",
      "010",
      "005",
      "002",
      "100"
    ],
    "swim:geom": "path",
    "swim:speeds": [
      220,
      260,
      260,
      270,
      290,
      340,
      380,
      400,
      410,
      420,
      430,
      440,
      450,
      460,
      470,
      480,
      480,
      480,
      470,
      470,
      470,
      470,
      470,
      480,
      480,
      480,
      480,
      480,
      480,
      480,
      480,
      480,
      470,
      470,
      470,
      470,
      470,
      470,
      470,
      470,
      470,
      480,
      480,
      495,
      496,
      496,
      496,
      497,
      498,
      498,
      491,
      444,
      431,
      429,
      430,
      435,
      435,
      434,
      433,
      423,
      399,
      389,
      380,
      381,
      382,
      383,
      382,
      380,
      379,
      376,
      365,
      353,
      347,
      342,
      333,
      336,
      328,
      324,
      323,
      316,
      316,
      310,
      311,
      303,
      279,
      259,
      260,
      255,
      256,
      252,
      254,
      250,
      248,
      247,
      244,
      237,
      239,
      244,
      241,
      240,
      225,
      206,
      205,
      200,
      195,
      201,
      190,
      178,
      170,
      165,
      143,
      150,
      149,
      136,
      121
    ],
    "swim:timestamps": [
      1785536474,
      1785536534,
      1785536594,
      1785536654,
      1785536715,
      1785536775,
      1785536835,
      1785536896,
      1785536955,
      1785537016,
      1785537076,
      1785537136,
      1785537196,
      1785537256,
      1785537316,
      1785537377,
      1785537437,
      1785537497,
      1785537557,
      1785537617,
      1785537677,
      1785537738,
      1785537798,
      1785537858,
      1785537918,
      1785537978,
      1785538038,
      1785538098,
      1785538159,
      1785538219,
      1785538279,
      1785538339,
      1785538399,
      1785538459,
      1785538519,
      1785538580,
      1785538640,
      1785538700,
      1785538760,
      1785538817,
      1785538877,
      1785538937,
      1785539000,
      1785550535,
      1785550595,
      1785550655,
      1785550716,
      1785550776,
      1785550836,
      1785550896,
      1785550956,
      1785551016,
      1785551076,
      1785551136,
      1785551196,
      1785551256,
      1785551316,
      1785551376,
      1785551436,
      1785551497,
      1785551557,
      1785551617,
      1785551677,
      1785551737,
      1785551797,
      1785551857,
      1785551917,
      1785551977,
      1785552037,
      1785552097,
      1785552157,
      1785552217,
      1785552277,
      1785552338,
      1785552377,
      1785552398,
      1785552458,
      1785552468,
      1785552518,
      1785552533,
      1785552578,
      1785552594,
      1785552638,
      1785552653,
      1785552698,
      1785552713,
      1785552758,
      1785552774,
      1785552818,
      1785552833,
      1785552878,
      1785552894,
      1785552938,
      1785552954,
      1785552998,
      1785553014,
      1785553058,
      1785553074,
      1785553118,
      1785553134,
      1785553179,
      1785553188,
      1785553239,
      1785553299,
      1785553359,
      1785553368,
      1785553419,
      1785553428,
      1785553479,
      1785553488,
      1785553539,
      1785553554,
      1785553599,
      1785553614,
      1785553659
    ],
    "wof:geomhash": "c88d4c295151764ff54a807f8ec69923",
    "wof:id": 2032049707,
    "wof:repo": "sfomuseum-data-flights-2026-07"
  },
  "bbox": [
    -156.15,
    19.7,
    -122.10944444444443,
    37.620555555555555
  ],
  "geometry": {"coordinates":[[-156.08333333333334,19.7],[-156.15,19.75],[-156.13333333333333,19.816666666666666],[-156.1,19.883333333333333],[-156.06666666666666,19.95],[-156.01666666666668,20.033333333333335],[-155.96666666666667,20.133333333333333],[-155.93333333333334,20.233333333333334],[-155.88333333333333,20.333333333333332],[-155.83333333333334,20.45],[-155.76666666666668,20.55],[-155.7,20.666666666666668],[-155.61666666666667,20.766666666666666],[-155.55,20.866666666666667],[-155.46666666666667,20.983333333333334],[-155.38333333333333,21.083333333333332],[-155.3,21.2],[-155.21666666666667,21.3],[-155.13333333333333,21.416666666666668],[-155.06666666666666,21.516666666666666],[-154.98333333333332,21.633333333333333],[-154.9,21.733333333333334],[-154.81666666666666,21.85],[-154.73333333333332,21.95],[-154.65,22.066666666666666],[-154.58333333333334,22.166666666666668],[-154.5,22.283333333333335],[-154.41666666666666,22.4],[-154.33333333333334,22.5],[-154.25,22.616666666666667],[-154.16666666666666,22.716666666666665],[-154.08333333333334,22.833333333333332],[-154,22.933333333333334],[-153.91666666666666,23.05],[-153.83333333333334,23.15],[-153.75,23.25],[-153.66666666666666,23.366666666666667],[-153.6,23.45],[-153.5,23.583333333333332],[-153.43333333333334,23.683333333333334],[-153.33333333333334,23.783333333333335],[-153.21666666666667,23.866666666666667],[-153.08333333333334,23.933333333333334],[-126.52694444444444,35.60722222222223],[-126.36694444444444,35.65361111111111],[-126.20694444444445,35.69944444444444],[-126.05277777777778,35.75277777777778],[-125.90666666666667,35.823888888888895],[-125.75888888888889,35.89694444444444],[-125.61472222222221,35.968611111111116],[-125.51305555555555,36.0775],[-125.49111111111111,36.203611111111115],[-125.47944444444444,36.32166666666667],[-125.46833333333333,36.44138888888889],[-125.4575,36.559444444444445],[-125.44555555555556,36.68111111111111],[-125.42222222222223,36.80083333333333],[-125.36361111111111,36.91166666666666],[-125.30583333333333,37.022777777777776],[-125.25083333333333,37.13166666666667],[-125.14916666666667,37.20444444444445],[-125.01638888888888,37.21138888888889],[-124.88305555555554,37.215],[-124.75222222222222,37.218611111111116],[-124.61749999999999,37.222500000000004],[-124.48416666666667,37.226111111111116],[-124.35194444444444,37.22972222222222],[-124.22194444444445,37.23277777777778],[-124.09027777777777,37.23583333333333],[-123.95944444444444,37.23888888888889],[-123.80916666666667,37.24194444444444],[-123.68527777777778,37.24444444444445],[-123.56472222222222,37.24666666666667],[-123.44666666666667,37.24888888888889],[-123.36666666666666,37.25],[-123.33166666666666,37.25083333333333],[-123.21777777777778,37.25277777777778],[-123.2,37.25],[-123.10638888888889,37.254444444444445],[-123.08333333333333,37.25],[-122.99916666666667,37.255833333333335],[-122.96666666666667,37.25],[-122.89194444444445,37.257222222222225],[-122.86666666666666,37.266666666666666],[-122.79277777777777,37.27388888888889],[-122.76666666666667,37.28333333333333],[-122.70527777777778,37.28472222222222],[-122.68333333333334,37.28333333333333],[-122.61777777777777,37.280277777777776],[-122.6,37.28333333333333],[-122.53361111111111,37.265],[-122.5,37.266666666666666],[-122.455,37.27444444444444],[-122.45,37.3],[-122.42,37.336111111111116],[-122.41666666666667,37.35],[-122.36055555555555,37.37222222222222],[-122.33333333333333,37.36666666666667],[-122.27555555555556,37.37861111111111],[-122.25,37.38333333333333],[-122.19444444444444,37.38527777777778],[-122.18333333333334,37.38333333333333],[-122.1325,37.403055555555554],[-122.10944444444443,37.455000000000005],[-122.14722222222223,37.49888888888889],[-122.15,37.516666666666666],[-122.18861111111111,37.54194444444444],[-122.2,37.55],[-122.24111111111111,37.56472222222222],[-122.25,37.56666666666667],[-122.28861111111111,37.584722222222226],[-122.3,37.583333333333336],[-122.33388888888888,37.60388888888889],[-122.35,37.61666666666667],[-122.3736111111111,37.620555555555555]],"type":"LineString"}
}
