{
  "id": 2031991795,
  "type": "Feature",
  "properties": {
    "geom:area": 0,
    "geom:bbox": "-122.757530,37.374360,-122.071720,38.504700",
    "geom:latitude": 37.826780402647394,
    "geom:longitude": -122.45304967309723,
    "src:alt_label": "swim-approach",
    "src:geom": "swim",
    "swim:elevations": [
      7315,
      7315,
      7243,
      7073,
      6918,
      6890,
      6622,
      6379,
      6227,
      5720,
      5374,
      5149,
      4962,
      4666,
      4482,
      3914,
      3609,
      3528,
      3463,
      3442,
      3343,
      3353,
      3353,
      3343,
      3353,
      3353,
      3353,
      3324,
      3194,
      2922,
      2759,
      2492,
      2469,
      2324,
      2228,
      2164,
      2135,
      2133,
      2083,
      2040,
      1951,
      1846,
      1736,
      1646,
      1513,
      1449,
      1278,
      1040,
      774,
      610,
      466,
      405,
      306,
      220,
      122,
      0
    ],
    "swim:geom": "approach",
    "swim:timestamps": [
      1785144702,
      1785144727,
      1785144768,
      1785144807,
      1785144837,
      1785144843,
      1785144871,
      1785144894,
      1785144907,
      1785144952,
      1785144989,
      1785145009,
      1785145030,
      1785145060,
      1785145078,
      1785145131,
      1785145165,
      1785145178,
      1785145195,
      1785145200,
      1785145250,
      1785145257,
      1785145266,
      1785145270,
      1785145317,
      1785145326,
      1785145362,
      1785145390,
      1785145411,
      1785145454,
      1785145485,
      1785145524,
      1785145528,
      1785145558,
      1785145578,
      1785145587,
      1785145604,
      1785145615,
      1785145626,
      1785145634,
      1785145655,
      1785145687,
      1785145719,
      1785145741,
      1785145787,
      1785145801,
      1785145830,
      1785145871,
      1785145914,
      1785145948,
      1785145978,
      1785145992,
      1785146020,
      1785146046,
      1785146076,
      1785146107
    ],
    "wof:geomhash": "1270b9dce4077130f65290b0c8ea4bab",
    "wof:id": 2031991795,
    "wof:repo": "sfomuseum-data-flights-2026-07"
  },
  "bbox": [
    -122.75753,
    37.37436,
    -122.07172,
    38.5047
  ],
  "geometry": {"coordinates":[[-122.47846,38.5047],[-122.51678,38.46772],[-122.57987,38.40662],[-122.63596,38.35204],[-122.67798,38.31116],[-122.68556,38.30374],[-122.72585,38.26465],[-122.75163,38.23111],[-122.75753,38.20973],[-122.73966,38.13207],[-122.72233,38.07074],[-122.7128,38.03781],[-122.70238,38.0023],[-122.68841,37.95368],[-122.68066,37.92641],[-122.6223,37.85209],[-122.57704,37.80929],[-122.56083,37.7939],[-122.53856,37.77291],[-122.5324,37.76709],[-122.47676,37.71418],[-122.46928,37.70719],[-122.4602,37.69881],[-122.45618,37.6951],[-122.40996,37.65166],[-122.40118,37.64331],[-122.36797,37.60951],[-122.35116,37.57872],[-122.33685,37.55666],[-122.30909,37.51119],[-122.28982,37.47993],[-122.26494,37.43931],[-122.26257,37.43528],[-122.24375,37.40464],[-122.22848,37.38592],[-122.21839,37.3814],[-122.19502,37.37615],[-122.17953,37.37436],[-122.16449,37.37702],[-122.15401,37.38134],[-122.12992,37.39503],[-122.10265,37.42041],[-122.08138,37.44531],[-122.07172,37.46436],[-122.09846,37.49983],[-122.10987,37.50804],[-122.13851,37.52145],[-122.17807,37.53816],[-122.2169,37.55453],[-122.24743,37.56746],[-122.27306,37.57819],[-122.28311,37.58243],[-122.30293,37.59077],[-122.32018,37.59801],[-122.33934,37.60592],[-122.35873,37.61454]],"type":"LineString"}
}
