{
  "id": 2032010281,
  "type": "Feature",
  "properties": {
    "geom:area": 0,
    "geom:bbox": "-158.350000,21.200000,-122.473056,37.685556",
    "geom:latitude": 30.790887177335094,
    "geom:longitude": -141.37202119353833,
    "src:alt_label": "swim-path",
    "src:geom": "swim",
    "swim:altitudes": [
      "035",
      "046",
      "059C",
      "087",
      "102C",
      "105",
      "114",
      "119C",
      "124",
      "134C",
      "139",
      "154",
      "170",
      "181",
      "191C",
      "195",
      "206",
      "216C",
      "220",
      "231",
      "251",
      "258C",
      "267C",
      "268",
      "276",
      "287",
      "295",
      "303",
      "315",
      "320C",
      "320C",
      "320C",
      "320C",
      "320C",
      "320C",
      "320C",
      "320C",
      "320",
      "320",
      "320",
      "320",
      "320",
      "320",
      "320",
      "320",
      "320",
      "320",
      "320",
      "320",
      "320",
      "320",
      "320",
      "320",
      "320",
      "320",
      "320",
      "320",
      "320",
      "320T",
      "320T",
      "320T",
      "320T",
      "320T",
      "320T",
      "320T",
      "320T",
      "300T",
      "274T",
      "245T",
      "224T",
      "202T",
      "183T",
      "164T",
      "144T",
      "126T",
      "107T",
      "100T",
      "090T",
      "080T",
      "080T",
      "073T",
      "061T",
      "057T",
      "041T",
      "026T",
      "018T",
      "015T",
      "015T",
      "015T",
      "011T",
      "005"
    ],
    "swim:geom": "path",
    "swim:speeds": [
      194,
      232,
      250,
      273,
      280,
      295,
      347,
      370,
      376,
      380,
      385,
      392,
      398,
      408,
      410,
      412,
      419,
      420,
      424,
      431,
      443,
      450,
      450,
      452,
      458,
      460,
      460,
      461,
      459,
      455,
      453,
      453,
      453,
      453,
      453,
      454,
      454,
      460,
      460,
      460,
      460,
      460,
      460,
      460,
      460,
      460,
      460,
      460,
      460,
      460,
      460,
      460,
      460,
      460,
      460,
      460,
      460,
      460,
      460,
      460,
      460,
      460,
      460,
      470,
      470,
      460,
      450,
      440,
      430,
      410,
      390,
      380,
      370,
      360,
      350,
      340,
      310,
      280,
      280,
      240,
      230,
      230,
      240,
      240,
      240,
      200,
      180,
      170,
      170,
      150,
      150
    ],
    "swim:timestamps": [
      1785267894,
      1785267954,
      1785267993,
      1785268074,
      1785268113,
      1785268134,
      1785268194,
      1785268233,
      1785268254,
      1785268293,
      1785268314,
      1785268375,
      1785268435,
      1785268495,
      1785268533,
      1785268555,
      1785268615,
      1785268653,
      1785268675,
      1785268735,
      1785268855,
      1785268894,
      1785268954,
      1785268975,
      1785269035,
      1785269096,
      1785269156,
      1785269216,
      1785269276,
      1785269336,
      1785269396,
      1785269456,
      1785269516,
      1785269576,
      1785269636,
      1785269696,
      1785269756,
      1785282903,
      1785282999,
      1785283060,
      1785283120,
      1785283236,
      1785283296,
      1785283356,
      1785283416,
      1785283476,
      1785283536,
      1785283596,
      1785283657,
      1785283717,
      1785283777,
      1785283837,
      1785283897,
      1785283957,
      1785284018,
      1785284078,
      1785284138,
      1785284198,
      1785284258,
      1785284318,
      1785284379,
      1785284439,
      1785284499,
      1785284559,
      1785284619,
      1785284679,
      1785284740,
      1785284799,
      1785284860,
      1785284920,
      1785284980,
      1785285040,
      1785285101,
      1785285161,
      1785285221,
      1785285281,
      1785285341,
      1785285401,
      1785285461,
      1785285522,
      1785285582,
      1785285642,
      1785285702,
      1785285762,
      1785285823,
      1785285883,
      1785285943,
      1785286003,
      1785286063,
      1785286123,
      1785286169
    ],
    "wof:geomhash": "c650782c3f69c429a68370555f1f6879",
    "wof:id": 2032010281,
    "wof:repo": "sfomuseum-data-flights-2026-07"
  },
  "bbox": [
    -158.35,
    21.2,
    -122.47305555555556,
    37.68555555555555
  ],
  "geometry": {"coordinates":[[-122.47305555555556,37.66083333333333],[-122.53055555555555,37.67666666666666],[-122.58333333333333,37.666666666666664],[-122.71666666666667,37.68555555555555],[-122.78333333333333,37.666666666666664],[-122.81972222222223,37.68277777777777],[-122.93666666666667,37.67916666666667],[-123.03333333333333,37.666666666666664],[-123.06722222222221,37.67611111111111],[-123.16666666666667,37.666666666666664],[-123.2025,37.672777777777775],[-123.34027777777777,37.66916666666666],[-123.48138888888889,37.665],[-123.62444444444444,37.660555555555554],[-123.73333333333333,37.65],[-123.7713888888889,37.655833333333334],[-123.91666666666667,37.65083333333333],[-124.01666666666667,37.63333333333333],[-124.06805555555555,37.64555555555555],[-124.21972222222223,37.640277777777776],[-124.52916666666667,37.62861111111111],[-124.63333333333334,37.61666666666667],[-124.8,37.61666666666667],[-124.84277777777777,37.615833333333335],[-125.0038888888889,37.60916666666667],[-125.16527777777779,37.60194444444445],[-125.32694444444444,37.594722222222224],[-125.48694444444445,37.58777777777778],[-125.64777777777779,37.58027777777778],[-125.80416666666666,37.57222222222222],[-125.96222222222222,37.564166666666665],[-126.12027777777777,37.55583333333333],[-126.27833333333334,37.5475],[-126.43666666666667,37.538888888888884],[-126.59472222222222,37.53],[-126.7525,37.52111111111111],[-126.90944444444445,37.51166666666666],[-154.6,25.116666666666667],[-154.78333333333333,25.016666666666666],[-154.9,24.933333333333334],[-155.01666666666668,24.866666666666667],[-155.23333333333332,24.716666666666665],[-155.33333333333334,24.633333333333333],[-155.43333333333334,24.533333333333335],[-155.53333333333333,24.45],[-155.63333333333333,24.35],[-155.71666666666667,24.266666666666666],[-155.81666666666666,24.166666666666668],[-155.91666666666666,24.083333333333332],[-156.01666666666668,23.983333333333334],[-156.11666666666667,23.883333333333333],[-156.2,23.8],[-156.3,23.7],[-156.4,23.616666666666667],[-156.48333333333332,23.516666666666666],[-156.58333333333334,23.416666666666668],[-156.68333333333334,23.333333333333332],[-156.78333333333333,23.233333333333334],[-156.86666666666667,23.133333333333333],[-156.96666666666667,23.05],[-157.06666666666666,22.95],[-157.15,22.85],[-157.25,22.766666666666666],[-157.35,22.666666666666668],[-157.45,22.566666666666666],[-157.53333333333333,22.483333333333334],[-157.63333333333333,22.383333333333333],[-157.71666666666667,22.3],[-157.8,22.2],[-157.88333333333333,22.116666666666667],[-157.96666666666667,22.033333333333335],[-158.05,21.966666666666665],[-158.11666666666667,21.883333333333333],[-158.2,21.816666666666666],[-158.26666666666668,21.733333333333334],[-158.33333333333334,21.666666666666668],[-158.35,21.583333333333332],[-158.3,21.516666666666666],[-158.21666666666667,21.483333333333334],[-158.16666666666666,21.433333333333334],[-158.1,21.4],[-158.05,21.366666666666667],[-158.05,21.316666666666666],[-158.11666666666667,21.283333333333335],[-158.16666666666666,21.25],[-158.15,21.2],[-158.1,21.2],[-158.05,21.216666666666665],[-158,21.25],[-157.96666666666667,21.266666666666666],[-157.93333333333334,21.283333333333335]],"type":"LineString"}
}
