{
  "id": 2032032779,
  "type": "Feature",
  "properties": {
    "geom:area": 0,
    "geom:bbox": "-122.333333,37.536111,-122.178333,37.600000",
    "geom:latitude": 37.56815934872548,
    "geom:longitude": -122.25576125290759,
    "src:alt_label": "swim-path",
    "src:geom": "swim",
    "swim:altitudes": [
      "028",
      "025",
      "021",
      "007",
      "003"
    ],
    "swim:geom": "path",
    "swim:speeds": [
      190,
      165,
      159,
      138,
      135
    ],
    "swim:timestamps": [
      1785469153,
      1785469182,
      1785469213,
      1785469333,
      1785469363
    ],
    "wof:geomhash": "91d0f57defea83f6cfed2f9d4b7b5a23",
    "wof:id": 2032032779,
    "wof:repo": "sfomuseum-data-flights-2026-07"
  },
  "bbox": [
    -122.33333333333333,
    37.53611111111111,
    -122.17833333333334,
    37.6
  ],
  "geometry": {"coordinates":[[-122.17833333333334,37.53611111111111],[-122.21666666666667,37.55],[-122.22972222222222,37.5575],[-122.31638888888888,37.594166666666666],[-122.33333333333333,37.6]],"type":"LineString"}
}
