{
  "id": 2032046165,
  "type": "Feature",
  "properties": {
    "geom:area": 0,
    "geom:bbox": "-122.356667,37.249722,-75.350833,39.925000",
    "geom:latitude": 38.369159592931716,
    "geom:longitude": -98.7290397719085,
    "src:alt_label": "swim-path",
    "src:geom": "swim",
    "swim:altitudes": [
      "025",
      "044",
      "044",
      "057",
      "062",
      "085",
      "089",
      "107",
      "109",
      "127",
      "140",
      "142",
      "157",
      "159",
      "174",
      "177",
      "191",
      "192",
      "203",
      "205",
      "218",
      "219",
      "229",
      "231",
      "239",
      "240",
      "250",
      "272",
      "272",
      "280",
      "297",
      "301",
      "301",
      "317",
      "320C",
      "320C",
      "320C",
      "320C",
      "320C",
      "320C",
      "320C",
      "320C",
      "320C",
      "321C",
      "321C",
      "320C",
      "320C",
      "320C",
      "320C",
      "320C",
      "320C",
      "320C",
      "320C",
      "320C",
      "320C",
      "320C",
      "320C",
      "320C",
      "320C",
      "320C",
      "320C",
      "320C",
      "321C",
      "321C",
      "321C",
      "320C",
      "320C",
      "320C",
      "320C",
      "320C",
      "320C",
      "320C",
      "320C",
      "320C",
      "320C",
      "320C",
      "320C",
      "320C",
      "320C",
      "321C",
      "320C",
      "320C",
      "320C",
      "320C",
      "320C",
      "320C",
      "320C",
      "320C",
      "320C",
      "320C",
      "320C",
      "320C",
      "320C",
      "320C",
      "320C",
      "320C",
      "320C",
      "320C",
      "320C",
      "320C",
      "320C",
      "320C",
      "320C",
      "320C",
      "320C",
      "320C",
      "321C",
      "321C",
      "321C",
      "320C",
      "320C",
      "320C",
      "320C",
      "320C",
      "321C",
      "321C",
      "321C",
      "320C",
      "320C",
      "320C",
      "320C",
      "320C",
      "320C",
      "320C",
      "320C",
      "320C",
      "320C",
      "320C",
      "320C",
      "320C",
      "320C",
      "320C",
      "320C",
      "320C",
      "320C",
      "320C",
      "320C",
      "320C",
      "320C",
      "320C",
      "320C",
      "320C",
      "320C",
      "320C",
      "320C",
      "320C",
      "320C",
      "320C",
      "320C",
      "320C",
      "320C",
      "320C",
      "320C",
      "320C",
      "320C",
      "320C",
      "320C",
      "320C",
      "320C",
      "320C",
      "320C",
      "320C",
      "320C",
      "320C",
      "320C",
      "321C",
      "321C",
      "321C",
      "320C",
      "320C",
      "320C",
      "320C",
      "320C",
      "320C",
      "320C",
      "320C",
      "320C",
      "320C",
      "320C",
      "320C",
      "320C",
      "320C",
      "320C",
      "320C",
      "320C",
      "320C",
      "320C",
      "320C",
      "320C",
      "320C",
      "320C",
      "320C",
      "320C",
      "320C",
      "320C",
      "320C",
      "320C",
      "320C",
      "320C",
      "320C",
      "320C",
      "320C",
      "320C",
      "320C",
      "320C",
      "320C",
      "320",
      "320",
      "320",
      "320",
      "320",
      "320",
      "320",
      "323",
      "325",
      "329",
      "334",
      "335",
      "339C",
      "340C",
      "340C",
      "340C",
      "340C",
      "340C",
      "340C",
      "340C",
      "340C",
      "340C",
      "340C",
      "340C",
      "340C",
      "340C",
      "340C",
      "340C",
      "340C",
      "340C",
      "340C",
      "340C",
      "340C",
      "340C",
      "340C",
      "340C",
      "340C",
      "340C",
      "340C",
      "340C",
      "340C",
      "340C",
      "340C",
      "340C",
      "340C",
      "340C",
      "340C",
      "340C",
      "340C",
      "340C",
      "340C",
      "340C",
      "340C",
      "340C",
      "340C",
      "340C",
      "340C",
      "340C",
      "340C",
      "340C",
      "340C",
      "340C",
      "340C",
      "340C",
      "340C",
      "340C",
      "340C",
      "340C",
      "340C",
      "340C",
      "340C",
      "340C",
      "340C",
      "340C",
      "340C",
      "340C",
      "340C",
      "340C",
      "340C",
      "340C",
      "340C",
      "340C",
      "341C",
      "340C",
      "340C",
      "340C",
      "340C",
      "340C",
      "340C",
      "340C",
      "340C",
      "340C",
      "340C",
      "340C",
      "340C",
      "340C",
      "340C",
      "340C",
      "340C",
      "340C",
      "341C",
      "340C",
      "340C",
      "340C",
      "340C",
      "340C",
      "340C",
      "340C",
      "340C",
      "340C",
      "340C",
      "340C",
      "340C",
      "340C",
      "340C",
      "340C",
      "340C",
      "340C",
      "340C",
      "340C",
      "340C",
      "340C",
      "340C",
      "340C",
      "340C",
      "340C",
      "340C",
      "340C",
      "340C",
      "340C",
      "340C",
      "340C",
      "340C",
      "340C",
      "340C",
      "340C",
      "340C",
      "340C",
      "340C",
      "340C",
      "340C",
      "340C",
      "340C",
      "340C",
      "340C",
      "340C",
      "340C",
      "340C",
      "340C",
      "340C",
      "340C",
      "340C",
      "340C",
      "340C",
      "340C",
      "340C",
      "340C",
      "340C",
      "340C",
      "340C",
      "340C",
      "340C",
      "340C",
      "340C",
      "340C",
      "340C",
      "340C",
      "340C",
      "340C",
      "340C",
      "340C",
      "340C",
      "339C",
      "340C",
      "340C",
      "340C",
      "340C",
      "340C",
      "340C",
      "340C",
      "340C",
      "340C",
      "340C",
      "340C",
      "340C",
      "340C",
      "340C",
      "340C",
      "340C",
      "340C",
      "340C",
      "341C",
      "341C",
      "340C",
      "340C",
      "340C",
      "340C",
      "340C",
      "340C",
      "340C",
      "340C",
      "340C",
      "340C",
      "340C",
      "340C",
      "340C",
      "340C",
      "340C",
      "340C",
      "340C",
      "340C",
      "340C",
      "340C",
      "340C",
      "340C",
      "340C",
      "340C",
      "340C",
      "340C",
      "340C",
      "335",
      "326",
      "320C",
      "317",
      "307",
      "300",
      "300",
      "293",
      "283",
      "270",
      "266",
      "245",
      "221",
      "204",
      "196",
      "180",
      "156",
      "136",
      "124",
      "115",
      "103",
      "090",
      "081",
      "076",
      "066",
      "054",
      "045",
      "036",
      "026",
      "017",
      "009",
      "001"
    ],
    "swim:geom": "path",
    "swim:speeds": [
      217,
      260,
      260,
      265,
      265,
      273,
      274,
      295,
      302,
      331,
      358,
      362,
      378,
      380,
      387,
      389,
      398,
      399,
      413,
      414,
      424,
      428,
      439,
      441,
      448,
      453,
      465,
      470,
      470,
      474,
      461,
      470,
      470,
      484,
      479,
      481,
      472,
      465,
      467,
      466,
      470,
      472,
      477,
      486,
      485,
      486,
      475,
      472,
      467,
      465,
      462,
      460,
      457,
      456,
      454,
      453,
      453,
      452,
      453,
      453,
      454,
      454,
      456,
      458,
      457,
      457,
      458,
      457,
      457,
      454,
      453,
      454,
      455,
      457,
      456,
      455,
      454,
      453,
      452,
      450,
      443,
      439,
      441,
      433,
      433,
      430,
      427,
      428,
      427,
      427,
      427,
      428,
      427,
      428,
      427,
      430,
      429,
      432,
      434,
      432,
      433,
      433,
      433,
      433,
      436,
      433,
      439,
      439,
      441,
      442,
      440,
      442,
      438,
      439,
      439,
      439,
      439,
      439,
      434,
      435,
      435,
      435,
      433,
      433,
      431,
      433,
      433,
      433,
      433,
      433,
      433,
      432,
      433,
      433,
      433,
      433,
      433,
      432,
      433,
      432,
      432,
      433,
      434,
      434,
      435,
      435,
      436,
      435,
      436,
      436,
      436,
      436,
      435,
      435,
      434,
      434,
      433,
      433,
      432,
      432,
      431,
      430,
      429,
      429,
      430,
      432,
      434,
      435,
      435,
      432,
      429,
      428,
      427,
      427,
      428,
      428,
      428,
      427,
      426,
      424,
      424,
      424,
      425,
      425,
      425,
      425,
      426,
      427,
      428,
      428,
      427,
      425,
      425,
      425,
      425,
      424,
      424,
      422,
      422,
      422,
      423,
      422,
      421,
      420,
      419,
      418,
      433,
      418,
      417,
      418,
      417,
      418,
      417,
      417,
      417,
      418,
      417,
      416,
      417,
      415,
      416,
      413,
      413,
      413,
      413,
      414,
      413,
      413,
      412,
      412,
      411,
      412,
      412,
      412,
      413,
      413,
      413,
      413,
      412,
      412,
      411,
      411,
      410,
      409,
      409,
      408,
      407,
      406,
      406,
      406,
      405,
      405,
      406,
      406,
      407,
      406,
      407,
      407,
      408,
      407,
      407,
      406,
      406,
      405,
      405,
      405,
      406,
      406,
      406,
      406,
      407,
      409,
      410,
      411,
      413,
      414,
      415,
      418,
      419,
      419,
      419,
      420,
      420,
      420,
      419,
      420,
      420,
      420,
      422,
      421,
      424,
      421,
      425,
      421,
      421,
      423,
      421,
      422,
      421,
      420,
      420,
      419,
      420,
      420,
      420,
      421,
      424,
      423,
      425,
      425,
      425,
      426,
      425,
      426,
      425,
      426,
      425,
      427,
      426,
      428,
      426,
      429,
      427,
      429,
      428,
      429,
      428,
      429,
      429,
      430,
      431,
      431,
      432,
      432,
      433,
      432,
      432,
      433,
      433,
      433,
      433,
      433,
      433,
      432,
      433,
      433,
      434,
      434,
      433,
      433,
      433,
      433,
      434,
      436,
      436,
      436,
      436,
      437,
      438,
      439,
      440,
      440,
      440,
      439,
      440,
      439,
      438,
      438,
      439,
      440,
      441,
      441,
      442,
      443,
      443,
      443,
      444,
      443,
      444,
      443,
      444,
      443,
      444,
      443,
      444,
      443,
      444,
      443,
      444,
      443,
      443,
      443,
      444,
      444,
      446,
      446,
      448,
      448,
      449,
      449,
      433,
      432,
      432,
      432,
      431,
      431,
      429,
      428,
      428,
      430,
      431,
      431,
      431,
      431,
      432,
      432,
      432,
      432,
      432,
      432,
      432,
      432,
      433,
      433,
      434,
      434,
      434,
      451,
      451,
      451,
      449,
      446,
      445,
      444,
      442,
      435,
      434,
      418,
      399,
      388,
      356,
      332,
      327,
      320,
      296,
      269,
      248,
      249,
      242,
      239,
      237,
      232,
      199,
      194,
      189,
      169,
      152,
      141
    ],
    "swim:timestamps": [
      1785532515,
      1785532565,
      1785532575,
      1785532625,
      1785532635,
      1785532685,
      1785532695,
      1785532745,
      1785532755,
      1785532815,
      1785532865,
      1785532875,
      1785532926,
      1785532935,
      1785532986,
      1785532995,
      1785533046,
      1785533056,
      1785533106,
      1785533116,
      1785533166,
      1785533176,
      1785533226,
      1785533236,
      1785533286,
      1785533296,
      1785533356,
      1785533466,
      1785533476,
      1785533536,
      1785533596,
      1785533647,
      1785533657,
      1785533777,
      1785533829,
      1785533837,
      1785533889,
      1785533897,
      1785533949,
      1785533957,
      1785534017,
      1785534069,
      1785534077,
      1785534129,
      1785534137,
      1785534197,
      1785534249,
      1785534257,
      1785534318,
      1785534369,
      1785534438,
      1785534490,
      1785534550,
      1785534558,
      1785534618,
      1785534678,
      1785534730,
      1785534738,
      1785534790,
      1785534798,
      1785534850,
      1785534858,
      1785534910,
      1785534970,
      1785534979,
      1785535039,
      1785535091,
      1785535099,
      1785535159,
      1785535271,
      1785535331,
      1785535391,
      1785535451,
      1785535571,
      1785535631,
      1785535691,
      1785535752,
      1785535812,
      1785535872,
      1785535992,
      1785536052,
      1785536112,
      1785536124,
      1785536172,
      1785536184,
      1785536232,
      1785536244,
      1785536292,
      1785536304,
      1785536352,
      1785536364,
      1785536413,
      1785536424,
      1785536473,
      1785536484,
      1785536533,
      1785536544,
      1785536593,
      1785536604,
      1785536653,
      1785536665,
      1785536725,
      1785536773,
      1785536785,
      1785536833,
      1785536845,
      1785536893,
      1785536905,
      1785536953,
      1785536965,
      1785537013,
      1785537025,
      1785537073,
      1785537085,
      1785537134,
      1785537145,
      1785537194,
      1785537205,
      1785537254,
      1785537266,
      1785537314,
      1785537326,
      1785537374,
      1785537386,
      1785537434,
      1785537446,
      1785537494,
      1785537506,
      1785537566,
      1785537614,
      1785537626,
      1785537674,
      1785537686,
      1785537734,
      1785537746,
      1785537795,
      1785537806,
      1785537855,
      1785537866,
      1785537915,
      1785537927,
      1785537975,
      1785537987,
      1785538035,
      1785538047,
      1785538095,
      1785538107,
      1785538155,
      1785538167,
      1785538227,
      1785538287,
      1785538347,
      1785538407,
      1785538467,
      1785538527,
      1785538588,
      1785538648,
      1785538708,
      1785538768,
      1785538828,
      1785538888,
      1785538948,
      1785539008,
      1785539068,
      1785539128,
      1785539189,
      1785539249,
      1785539309,
      1785539369,
      1785539429,
      1785539489,
      1785539549,
      1785539609,
      1785539669,
      1785539729,
      1785539789,
      1785539850,
      1785539910,
      1785539970,
      1785540030,
      1785540090,
      1785540150,
      1785540210,
      1785540270,
      1785540330,
      1785540390,
      1785540450,
      1785540511,
      1785540571,
      1785540631,
      1785540691,
      1785540751,
      1785540811,
      1785540871,
      1785540931,
      1785540991,
      1785541051,
      1785541112,
      1785541172,
      1785541232,
      1785541292,
      1785541352,
      1785541412,
      1785541472,
      1785541532,
      1785541592,
      1785541624,
      1785541652,
      1785541684,
      1785541712,
      1785541744,
      1785541772,
      1785541804,
      1785541833,
      1785541864,
      1785541893,
      1785541924,
      1785541953,
      1785541985,
      1785542013,
      1785542045,
      1785542073,
      1785542105,
      1785542133,
      1785542193,
      1785542225,
      1785542253,
      1785542285,
      1785542313,
      1785542345,
      1785542373,
      1785542434,
      1785542465,
      1785542494,
      1785542525,
      1785542554,
      1785542585,
      1785542614,
      1785542645,
      1785542674,
      1785542706,
      1785542734,
      1785542766,
      1785542794,
      1785542826,
      1785542854,
      1785542886,
      1785542914,
      1785542946,
      1785542974,
      1785543006,
      1785543034,
      1785543066,
      1785543095,
      1785543126,
      1785543155,
      1785543186,
      1785543215,
      1785543246,
      1785543275,
      1785543366,
      1785543426,
      1785543487,
      1785543547,
      1785543607,
      1785543667,
      1785543727,
      1785543787,
      1785543847,
      1785543907,
      1785543967,
      1785544027,
      1785544087,
      1785544147,
      1785544208,
      1785544268,
      1785544328,
      1785544388,
      1785544448,
      1785544508,
      1785544568,
      1785544628,
      1785544668,
      1785544688,
      1785544748,
      1785544788,
      1785544848,
      1785544868,
      1785544929,
      1785544968,
      1785544989,
      1785545028,
      1785545049,
      1785545088,
      1785545148,
      1785545169,
      1785545208,
      1785545229,
      1785545268,
      1785545289,
      1785545329,
      1785545349,
      1785545389,
      1785545409,
      1785545449,
      1785545469,
      1785545529,
      1785545569,
      1785545589,
      1785545629,
      1785545649,
      1785545710,
      1785545749,
      1785545770,
      1785545809,
      1785545830,
      1785545869,
      1785545890,
      1785545929,
      1785545950,
      1785545989,
      1785546010,
      1785546050,
      1785546070,
      1785546110,
      1785546130,
      1785546170,
      1785546190,
      1785546230,
      1785546290,
      1785546310,
      1785546350,
      1785546370,
      1785546410,
      1785546431,
      1785546470,
      1785546491,
      1785546530,
      1785546551,
      1785546611,
      1785546650,
      1785546671,
      1785546710,
      1785546731,
      1785546770,
      1785546791,
      1785546831,
      1785546851,
      1785546891,
      1785546951,
      1785547011,
      1785547071,
      1785547131,
      1785547191,
      1785547251,
      1785547311,
      1785547371,
      1785547431,
      1785547491,
      1785547552,
      1785547612,
      1785547672,
      1785547732,
      1785547792,
      1785547852,
      1785547912,
      1785547972,
      1785548032,
      1785548092,
      1785548152,
      1785548212,
      1785548272,
      1785548333,
      1785548393,
      1785548453,
      1785548513,
      1785548553,
      1785548573,
      1785548613,
      1785548633,
      1785548673,
      1785548693,
      1785548733,
      1785548753,
      1785548793,
      1785548813,
      1785548853,
      1785548873,
      1785548913,
      1785548933,
      1785548973,
      1785548993,
      1785549033,
      1785549054,
      1785549093,
      1785549114,
      1785549154,
      1785549174,
      1785549214,
      1785549234,
      1785549274,
      1785549294,
      1785549334,
      1785549354,
      1785549394,
      1785549414,
      1785549454,
      1785549474,
      1785549514,
      1785549534,
      1785549574,
      1785549594,
      1785549634,
      1785549654,
      1785549694,
      1785549714,
      1785549754,
      1785549775,
      1785549814,
      1785549835,
      1785549874,
      1785549895,
      1785549935,
      1785549995,
      1785550055,
      1785550115,
      1785550175,
      1785550235,
      1785550295,
      1785550355,
      1785550415,
      1785550475,
      1785550535,
      1785550595,
      1785550655,
      1785550696,
      1785550716,
      1785550776,
      1785550840,
      1785550895,
      1785550956,
      1785551016,
      1785551076,
      1785551136,
      1785551196,
      1785551256,
      1785551316,
      1785551376,
      1785551436,
      1785551497,
      1785551557,
      1785551615,
      1785551677,
      1785551737,
      1785551795,
      1785551855,
      1785551915,
      1785551977
    ],
    "wof:geomhash": "07d9b9b58cfcb169349f1546b39ee8e2",
    "wof:id": 2032046165,
    "wof:repo": "sfomuseum-data-flights-2026-07"
  },
  "bbox": [
    -122.35666666666665,
    37.249722222222225,
    -75.35083333333333,
    39.925
  ],
  "geometry": {"coordinates":[[-75.35083333333333,39.843611111111116],[-75.43944444444445,39.850833333333334],[-75.43944444444445,39.850833333333334],[-75.52777777777777,39.87638888888889],[-75.54083333333332,39.88027777777778],[-75.61999999999999,39.90333333333333],[-75.63333333333334,39.907222222222224],[-75.7213888888889,39.91694444444444],[-75.73694444444445,39.91638888888889],[-75.85777777777777,39.91444444444444],[-75.97111111111111,39.911944444444444],[-75.98305555555555,39.91166666666666],[-76.10444444444444,39.90888888888889],[-76.12249999999999,39.90861111111111],[-76.24138888888889,39.91],[-76.2611111111111,39.91083333333333],[-76.3913888888889,39.91611111111111],[-76.40611111111112,39.916666666666664],[-76.53694444444444,39.92222222222222],[-76.55444444444444,39.922777777777775],[-76.69305555555556,39.925],[-76.70583333333333,39.9225],[-76.8325,39.86833333333333],[-76.84583333333333,39.86194444444445],[-76.94972222222222,39.81361111111111],[-76.9775,39.800555555555555],[-77.12277777777777,39.73222222222223],[-77.40777777777778,39.596944444444446],[-77.41055555555556,39.595555555555556],[-77.55305555555556,39.527499999999996],[-77.69694444444445,39.45861111111111],[-77.83,39.384166666666665],[-77.83222222222221,39.382777777777775],[-78.0886111111111,39.205555555555556],[-78.20111111111112,39.124722222222225],[-78.21583333333334,39.12138888888889],[-78.36055555555555,39.08416666666667],[-78.36944444444444,39.08361111111111],[-78.52,39.05083333333333],[-78.50277777777778,39.055],[-78.69722222222222,39.013888888888886],[-78.845,38.980000000000004],[-78.8611111111111,38.974722222222226],[-79.00194444444445,38.92055555555555],[-79.01388888888889,38.91555555555556],[-79.17305555555556,38.86055555555556],[-79.32083333333333,38.83888888888889],[-79.37166666666666,38.83722222222222],[-79.53555555555555,38.83361111111111],[-79.64861111111112,38.831388888888895],[-79.84638888888888,38.82666666666667],[-79.97527777777778,38.82361111111111],[-80.13555555555556,38.81944444444445],[-80.16833333333334,38.81861111111112],[-80.32833333333333,38.814166666666665],[-80.48944444444444,38.809444444444445],[-80.61777777777777,38.80583333333333],[-80.65138888888889,38.80472222222222],[-80.77777777777777,38.80083333333333],[-80.815,38.79944444444444],[-80.9413888888889,38.79527777777778],[-80.97500000000001,38.79416666666666],[-81.1036111111111,38.79],[-81.2675,38.78388888888889],[-81.30555555555556,38.7825],[-81.43861111111111,38.77777777777778],[-81.60972222222222,38.77111111111111],[-81.63222222222221,38.77027777777778],[-81.8,38.76361111111111],[-82.08972222222222,38.751666666666665],[-82.25166666666667,38.74583333333334],[-82.4113888888889,38.739444444444445],[-82.57333333333332,38.73277777777778],[-82.90138888888889,38.71888888888889],[-83.06277777777777,38.711666666666666],[-83.22583333333334,38.70416666666667],[-83.3875,38.69638888888888],[-83.54861111111111,38.68833333333333],[-83.7075,38.680277777777775],[-84.0261111111111,38.66361111111111],[-84.18444444444445,38.655],[-84.33972222222222,38.646388888888886],[-84.34888888888888,38.649166666666666],[-84.49166666666667,38.64722222222222],[-84.53194444444445,38.64611111111111],[-84.64166666666668,38.65888888888889],[-84.65194444444445,38.655833333333334],[-84.79416666666667,38.67055555555555],[-84.80388888888889,38.6725],[-84.94388888888889,38.68194444444444],[-84.95444444444445,38.68555555555555],[-85.09666666666666,38.69333333333333],[-85.10666666666665,38.6975],[-85.24805555555555,38.70305555555556],[-85.25805555555556,38.70666666666667],[-85.40027777777779,38.70416666666667],[-85.41194444444444,38.7075],[-85.55361111111111,38.68944444444444],[-85.56555555555555,38.69138888888889],[-85.70777777777778,38.68],[-85.71916666666667,38.67944444444444],[-85.87138888888889,38.67444444444444],[-85.995,38.675555555555555],[-86.02722222222222,38.675555555555555],[-86.15305555555557,38.67722222222222],[-86.18222222222222,38.677499999999995],[-86.30916666666667,38.67861111111111],[-86.34055555555555,38.67861111111111],[-86.46527777777779,38.67972222222222],[-86.49722222222222,38.680277777777775],[-86.62222222222222,38.68111111111111],[-86.65305555555557,38.68222222222222],[-86.77416666666666,38.681666666666665],[-86.83527777777778,38.68194444444444],[-86.93166666666667,38.6825],[-86.99388888888889,38.68194444444444],[-87.085,38.66888888888889],[-87.14472222222223,38.659166666666664],[-87.2625,38.64055555555556],[-87.2925,38.63583333333333],[-87.41305555555556,38.6175],[-87.44444444444444,38.61277777777778],[-87.56166666666667,38.59027777777778],[-87.59194444444444,38.58416666666667],[-87.7088888888889,38.561388888888885],[-87.73944444444444,38.55555555555555],[-87.85833333333333,38.53361111111111],[-87.89111111111112,38.52722222222222],[-88.03916666666666,38.49916666666667],[-88.1575,38.477222222222224],[-88.18722222222223,38.471944444444446],[-88.30638888888889,38.44638888888888],[-88.33305555555555,38.437777777777775],[-88.44666666666667,38.400277777777774],[-88.47694444444444,38.390277777777776],[-88.58694444444444,38.35444444444445],[-88.61694444444444,38.344722222222224],[-88.72916666666667,38.3075],[-88.7538888888889,38.29944444444444],[-88.8711111111111,38.26],[-88.89611111111111,38.251666666666665],[-89.00722222222223,38.214444444444446],[-89.03694444444444,38.20472222222222],[-89.14972222222222,38.1675],[-89.18,38.157777777777774],[-89.28999999999999,38.121944444444445],[-89.32194444444444,38.111666666666665],[-89.43361111111112,38.07611111111112],[-89.465,38.06583333333333],[-89.60638888888889,38.019999999999996],[-89.75,37.973888888888894],[-89.8913888888889,37.928888888888885],[-90.03444444444445,37.88361111111111],[-90.17750000000001,37.83861111111111],[-90.31944444444444,37.79527777777778],[-90.46111111111111,37.75277777777778],[-90.60305555555556,37.71027777777778],[-90.74166666666667,37.66166666666666],[-90.88055555555555,37.61472222222223],[-91.00944444444444,37.57166666666667],[-91.15,37.525555555555556],[-91.28888888888889,37.480000000000004],[-91.42666666666668,37.43388888888889],[-91.56583333333333,37.388333333333335],[-91.70666666666666,37.340833333333336],[-91.84583333333333,37.29527777777778],[-91.9888888888889,37.25],[-92.14027777777778,37.249722222222225],[-92.29138888888889,37.26638888888889],[-92.43916666666667,37.283055555555556],[-92.58833333333332,37.29972222222222],[-92.73611111111111,37.316111111111105],[-92.88583333333334,37.3325],[-93.03333333333333,37.348333333333336],[-93.18305555555555,37.36416666666667],[-93.33222222222221,37.38],[-93.47972222222222,37.39527777777778],[-93.62833333333333,37.410555555555554],[-93.77416666666666,37.425555555555555],[-93.92222222222223,37.44027777777777],[-94.06777777777778,37.45472222222222],[-94.19972222222222,37.4675],[-94.34833333333333,37.481944444444444],[-94.49472222222222,37.49611111111111],[-94.64222222222223,37.51],[-94.79194444444444,37.52388888888889],[-94.94055555555556,37.53777777777778],[-95.08972222222222,37.55083333333333],[-95.23861111111111,37.564166666666665],[-95.38527777777779,37.577222222222225],[-95.53,37.589444444444446],[-95.67861111111111,37.602222222222224],[-95.82583333333334,37.614444444444445],[-95.9725,37.626666666666665],[-96.12194444444444,37.63861111111111],[-96.26861111111111,37.650277777777774],[-96.43222222222222,37.663333333333334],[-96.57805555555555,37.67472222222222],[-96.72638888888889,37.68583333333333],[-96.87249999999999,37.69694444444444],[-97.01916666666666,37.7075],[-97.16638888888889,37.718333333333334],[-97.31305555555555,37.74],[-97.45583333333333,37.768055555555556],[-97.58666666666666,37.79361111111111],[-97.72972222222222,37.82166666666667],[-97.81,37.836666666666666],[-97.87388888888889,37.849722222222226],[-97.95166666666667,37.86388888888889],[-98.01583333333333,37.87722222222222],[-98.09416666666667,37.89222222222222],[-98.1575,37.90416666666667],[-98.2375,37.918055555555554],[-98.29166666666667,37.92972222222222],[-98.37916666666666,37.94499999999999],[-98.43583333333333,37.95722222222223],[-98.52083333333333,37.97166666666667],[-98.57694444444444,37.98361111111111],[-98.66277777777778,37.998333333333335],[-98.71944444444445,38.01],[-98.80333333333333,38.025277777777774],[-98.85972222222222,38.03583333333333],[-98.94333333333334,38.05027777777777],[-99.00111111111111,38.06194444444444],[-99.14277777777778,38.087500000000006],[-99.22916666666667,38.10333333333333],[-99.285,38.11333333333334],[-99.36944444444444,38.12861111111111],[-99.42555555555556,38.13861111111111],[-99.50944444444444,38.15361111111111],[-99.56666666666666,38.16361111111111],[-99.73555555555555,38.19333333333333],[-99.79388888888889,38.203611111111115],[-99.87777777777777,38.218333333333334],[-99.93555555555555,38.228611111111114],[-100.02111111111111,38.24333333333333],[-100.07722222222222,38.253055555555555],[-100.16222222222223,38.26777777777777],[-100.21861111111112,38.27722222222222],[-100.30555555555556,38.29222222222222],[-100.35916666666667,38.30138888888889],[-100.44555555555556,38.316111111111105],[-100.49805555555555,38.325],[-100.58749999999999,38.34],[-100.63944444444445,38.348888888888894],[-100.7275,38.36361111111111],[-100.77694444444444,38.37166666666667],[-100.865,38.38611111111111],[-100.91805555555555,38.394999999999996],[-100.9975,38.408055555555556],[-101.05694444444444,38.41777777777777],[-101.13916666666667,38.43138888888889],[-101.22500000000001,38.445277777777775],[-101.27722222222222,38.45388888888889],[-101.36555555555555,38.46805555555556],[-101.41944444444445,38.47666666666667],[-101.50611111111111,38.49055555555556],[-101.56166666666667,38.49944444444444],[-101.64722222222223,38.51277777777778],[-101.70194444444445,38.521388888888886],[-101.93055555555556,38.5575],[-102.07027777777778,38.57611111111112],[-102.2125,38.59],[-102.35416666666666,38.60388888888889],[-102.49833333333333,38.617777777777775],[-102.64,38.63111111111111],[-102.78194444444445,38.644444444444446],[-102.90722222222223,38.655833333333334],[-103.04888888888888,38.66861111111111],[-103.19388888888889,38.681666666666665],[-103.33694444444444,38.69444444444444],[-103.4975,38.708333333333336],[-103.64500000000001,38.72083333333334],[-103.78999999999999,38.733333333333334],[-103.93472222222222,38.74527777777778],[-104.08166666666666,38.74611111111111],[-104.21666666666667,38.740833333333335],[-104.36749999999999,38.735],[-104.51805555555555,38.74194444444444],[-104.66583333333334,38.749722222222225],[-104.81444444444445,38.757222222222225],[-104.965,38.76972222222222],[-105.06888888888888,38.78611111111111],[-105.11138888888888,38.79416666666666],[-105.25694444444444,38.81861111111112],[-105.36222222222221,38.83555555555556],[-105.50666666666666,38.859722222222224],[-105.55027777777778,38.867222222222225],[-105.69972222222222,38.88861111111111],[-105.80333333333333,38.8975],[-105.85083333333333,38.88916666666667],[-105.95555555555556,38.894444444444446],[-106.00444444444445,38.88861111111111],[-106.10777777777777,38.89111111111111],[-106.25861111111111,38.88527777777778],[-106.31277777777777,38.88055555555555],[-106.40833333333335,38.875277777777775],[-106.46083333333334,38.873333333333335],[-106.55694444444444,38.86805555555556],[-106.61055555555555,38.865833333333335],[-106.705,38.86083333333333],[-106.76083333333334,38.85805555555556],[-106.85416666666666,38.8525],[-106.91222222222223,38.85],[-107.00444444444445,38.844166666666666],[-107.06361111111111,38.84166666666667],[-107.2175,38.83305555555556],[-107.30722222222222,38.82777777777778],[-107.36805555555554,38.824444444444445],[-107.45861111111111,38.81861111111112],[-107.51833333333333,38.815555555555555],[-107.67027777777778,38.806666666666665],[-107.7625,38.8],[-107.82111111111111,38.7975],[-107.91305555555556,38.79111111111111],[-107.97194444444445,38.78805555555555],[-108.06416666666667,38.78194444444444],[-108.12527777777777,38.77833333333333],[-108.21694444444445,38.770833333333336],[-108.2786111111111,38.76833333333333],[-108.36999999999999,38.76166666666666],[-108.43,38.75833333333333],[-108.52361111111111,38.75194444444445],[-108.58388888888888,38.74805555555556],[-108.6763888888889,38.74138888888889],[-108.7363888888889,38.737500000000004],[-108.82694444444444,38.73111111111111],[-108.88805555555557,38.72666666666667],[-108.9738888888889,38.720555555555556],[-109.13361111111112,38.70916666666667],[-109.19361111111111,38.70472222222222],[-109.28722222222223,38.69777777777777],[-109.34861111111111,38.69333333333333],[-109.44027777777778,38.686388888888885],[-109.50083333333333,38.681666666666665],[-109.59333333333333,38.67472222222222],[-109.655,38.66972222222222],[-109.7475,38.6625],[-109.80722222222222,38.658055555555556],[-109.96000000000001,38.645833333333336],[-110.05333333333333,38.63805555555555],[-110.11222222222221,38.63333333333333],[-110.20527777777778,38.62583333333333],[-110.265,38.62083333333334],[-110.35972222222222,38.613055555555555],[-110.41861111111112,38.60805555555556],[-110.51222222222222,38.60027777777778],[-110.57138888888889,38.595],[-110.66583333333334,38.58694444444445],[-110.81777777777778,38.57361111111111],[-110.94972222222222,38.56222222222222],[-111.10194444444444,38.54861111111111],[-111.25611111111111,38.53472222222222],[-111.43944444444445,38.51777777777777],[-111.59277777777777,38.50333333333333],[-111.74555555555555,38.48888888888889],[-111.89888888888889,38.473888888888894],[-112.05333333333333,38.45888888888889],[-112.20722222222223,38.443888888888885],[-112.36083333333333,38.42805555555555],[-112.51416666666667,38.4125],[-112.66722222222222,38.39694444444444],[-112.82111111111111,38.380833333333335],[-112.97305555555556,38.36472222222223],[-113.12722222222222,38.35194444444445],[-113.28111111111112,38.34027777777778],[-113.43416666666667,38.328611111111115],[-113.58694444444444,38.31666666666667],[-113.74111111111111,38.30694444444444],[-113.89555555555556,38.2975],[-114.05305555555556,38.28777777777778],[-114.20583333333333,38.278055555555554],[-114.36333333333333,38.26777777777777],[-114.51777777777778,38.257777777777775],[-114.67277777777778,38.24722222222222],[-114.83055555555555,38.23638888888889],[-114.94527777777778,38.228611111111114],[-114.985,38.22555555555556],[-115.10111111111111,38.217777777777776],[-115.14027777777778,38.214444444444446],[-115.22638888888889,38.209722222222226],[-115.29694444444445,38.20305555555556],[-115.38305555555554,38.197222222222216],[-115.44194444444445,38.19222222222222],[-115.5375,38.18555555555555],[-115.59833333333333,38.180277777777775],[-115.69305555555556,38.17305555555555],[-115.75333333333333,38.16861111111111],[-115.87333333333332,38.159166666666664],[-115.91083333333334,38.15611111111111],[-116.03722222222223,38.14611111111111],[-116.06611111111111,38.14388888888889],[-116.19333333333334,38.13361111111111],[-116.22305555555556,38.13111111111111],[-116.34861111111111,38.12083333333334],[-116.38,38.11805555555556],[-116.50805555555556,38.1075],[-116.53805555555556,38.105000000000004],[-116.66722222222222,38.094166666666666],[-116.69694444444445,38.09166666666667],[-116.78833333333333,38.08361111111111],[-116.84833333333333,38.07833333333333],[-116.94083333333333,38.07027777777778],[-116.99888888888889,38.06527777777777],[-117.09333333333333,38.05694444444444],[-117.15277777777779,38.05166666666666],[-117.24861111111112,38.04277777777778],[-117.30805555555555,38.0375],[-117.40027777777779,38.02916666666667],[-117.46055555555556,38.02361111111111],[-117.55361111111111,38.015],[-117.61305555555555,38.009166666666665],[-117.70583333333333,38.00055555555556],[-117.76333333333334,37.99527777777778],[-117.85583333333332,37.98638888888889],[-117.91527777777779,37.980555555555554],[-118.00888888888889,37.97166666666667],[-118.06611111111111,37.96611111111111],[-118.15972222222223,37.956944444444446],[-118.21777777777778,37.95111111111111],[-118.30916666666667,37.94194444444444],[-118.36833333333333,37.93611111111111],[-118.46138888888889,37.92666666666666],[-118.61138888888888,37.91138888888889],[-118.76444444444445,37.895833333333336],[-118.91666666666667,37.87861111111111],[-119.05694444444444,37.862500000000004],[-119.21138888888889,37.84444444444445],[-119.36999999999999,37.825833333333335],[-119.52527777777777,37.8075],[-119.67916666666667,37.78916666666667],[-119.835,37.769999999999996],[-119.98805555555556,37.75138888888889],[-120.14305555555556,37.73222222222223],[-120.29472222222222,37.713055555555556],[-120.41666666666667,37.7],[-120.44416666666667,37.69416666666666],[-120.59055555555555,37.677499999999995],[-120.76666666666667,37.65],[-120.88333333333334,37.65],[-120.99666666666667,37.62861111111111],[-121.11333333333333,37.61277777777778],[-121.23416666666667,37.59638888888889],[-121.34583333333333,37.58305555555556],[-121.45027777777779,37.571111111111115],[-121.54722222222222,37.559999999999995],[-121.63166666666666,37.549166666666665],[-121.71527777777779,37.52916666666667],[-121.79222222222222,37.50194444444445],[-121.86611111111111,37.47777777777778],[-121.94805555555556,37.470555555555556],[-122.03333333333333,37.46666666666667],[-122.09194444444444,37.501666666666665],[-122.15083333333334,37.526666666666664],[-122.2,37.55],[-122.26666666666667,37.56666666666667],[-122.31666666666666,37.6],[-122.35666666666665,37.61333333333334]],"type":"LineString"}
}
