{
  "id": 2031942223,
  "type": "Feature",
  "properties": {
    "geom:area": 0,
    "geom:bbox": "-122.358290,37.442390,-121.250340,37.613780",
    "geom:latitude": 37.54192980714685,
    "geom:longitude": -121.81402329238169,
    "src:alt_label": "swim-approach",
    "src:geom": "swim",
    "swim:elevations": [
      4909,
      4500,
      4354,
      4155,
      4104,
      3908,
      3755,
      3649,
      3505,
      3477,
      3380,
      3290,
      3201,
      3107,
      3014,
      2971,
      2902,
      2869,
      2818,
      2743,
      2743,
      2743,
      2743,
      2617,
      2562,
      2362,
      2252,
      2132,
      2134,
      2026,
      1918,
      1862,
      1833,
      1568,
      1526,
      1520,
      1203,
      960,
      829,
      670,
      542,
      505,
      323,
      245,
      194,
      125,
      0
    ],
    "swim:geom": "approach",
    "swim:timestamps": [
      1784842601,
      1784842647,
      1784842677,
      1784842706,
      1784842714,
      1784842734,
      1784842757,
      1784842772,
      1784842796,
      1784842800,
      1784842821,
      1784842861,
      1784842884,
      1784842906,
      1784842944,
      1784842953,
      1784842965,
      1784842975,
      1784842982,
      1784843035,
      1784843057,
      1784843096,
      1784843100,
      1784843136,
      1784843150,
      1784843185,
      1784843203,
      1784843234,
      1784843257,
      1784843283,
      1784843306,
      1784843318,
      1784843327,
      1784843364,
      1784843378,
      1784843416,
      1784843453,
      1784843486,
      1784843500,
      1784843538,
      1784843569,
      1784843580,
      1784843631,
      1784843651,
      1784843665,
      1784843690,
      1784843721
    ],
    "wof:geomhash": "0455155a1573a75dc1a9a68e72c69a67",
    "wof:id": 2031942223,
    "wof:repo": "sfomuseum-data-flights-2026-07"
  },
  "bbox": [
    -122.35829,
    37.44239,
    -121.25034,
    37.61378
  ],
  "geometry": {"coordinates":[[-121.25034,37.59465],[-121.32537,37.58564],[-121.37235,37.5803],[-121.41597,37.57522],[-121.42692,37.57395],[-121.45714,37.57053],[-121.49122,37.56631],[-121.51363,37.56373],[-121.54781,37.55976],[-121.55379,37.55906],[-121.5833,37.55558],[-121.63969,37.55088],[-121.67037,37.56112],[-121.69846,37.57241],[-121.74781,37.59208],[-121.75965,37.59677],[-121.77638,37.60335],[-121.78946,37.60852],[-121.79742,37.61159],[-121.85418,37.58951],[-121.84493,37.56649],[-121.80416,37.53612],[-121.80018,37.53308],[-121.79286,37.49564],[-121.79731,37.48118],[-121.824,37.45065],[-121.84875,37.44743],[-121.89118,37.44463],[-121.92379,37.44239],[-121.9591,37.44638],[-121.98893,37.45805],[-122.00353,37.46424],[-122.01438,37.46885],[-122.05899,37.48783],[-122.07525,37.49473],[-122.11413,37.51127],[-122.1529,37.52756],[-122.18544,37.54136],[-122.19885,37.54694],[-122.23274,37.56134],[-122.25687,37.57123],[-122.2647,37.57472],[-122.3015,37.59017],[-122.31338,37.59519],[-122.32189,37.59878],[-122.33846,37.60568],[-122.35829,37.61378]],"type":"LineString"}
}
