{
  "id": 2032008805,
  "type": "Feature",
  "properties": {
    "geom:area": 0,
    "geom:bbox": "-122.550000,29.138056,-103.072222,37.666667",
    "geom:latitude": 33.60232381043415,
    "geom:longitude": -112.71643556130188,
    "src:alt_label": "swim-path",
    "src:geom": "swim",
    "swim:altitudes": [
      "020",
      "027",
      "036",
      "037",
      "047",
      "049",
      "067",
      "070",
      "082",
      "085",
      "094",
      "097",
      "105",
      "110",
      "118",
      "134",
      "139",
      "152",
      "167",
      "177",
      "181",
      "192",
      "195",
      "208",
      "215",
      "218",
      "225",
      "228",
      "235",
      "246",
      "248",
      "254",
      "257",
      "264",
      "275",
      "281",
      "283",
      "289C",
      "290C",
      "290C",
      "290C",
      "290C",
      "290C",
      "290C",
      "290C",
      "290C",
      "290C",
      "292",
      "300",
      "302",
      "310C",
      "310C",
      "310",
      "310",
      "310C",
      "310C",
      "310C",
      "310C",
      "310C",
      "310C",
      "310C",
      "310C",
      "310C",
      "310C",
      "310C",
      "310C",
      "310C",
      "310C",
      "310C",
      "310C",
      "310C",
      "310C",
      "310C",
      "310C",
      "310C",
      "310C",
      "310C",
      "310C",
      "310C",
      "310C",
      "310C",
      "310C",
      "310C",
      "310C",
      "310C",
      "310C",
      "310C",
      "310C",
      "310C",
      "310C",
      "310C",
      "310C",
      "310C",
      "310C",
      "310C",
      "310C",
      "310C",
      "310C",
      "310C",
      "310C",
      "310C",
      "310C",
      "310C",
      "310C",
      "310C",
      "310C",
      "310C",
      "310C",
      "310C",
      "310C",
      "310C",
      "310C",
      "310C",
      "310C",
      "310C",
      "310C",
      "310C",
      "310C",
      "310",
      "316",
      "327",
      "330C",
      "330C",
      "330C",
      "330C",
      "330C",
      "330C",
      "330C",
      "330C",
      "330C",
      "330C",
      "330C",
      "330C",
      "330C",
      "330C",
      "330C",
      "330C",
      "330C",
      "330C",
      "330C",
      "330C",
      "330C",
      "330C",
      "330C",
      "330C",
      "330C",
      "330C",
      "330C",
      "330C",
      "330C",
      "330C",
      "330C",
      "330C",
      "330C",
      "330C",
      "330C",
      "330C",
      "330C",
      "330C",
      "330C",
      "330C",
      "330C",
      "330C",
      "330C",
      "330C",
      "330C",
      "330C",
      "330C",
      "330C",
      "330C",
      "330C",
      "330C",
      "330C",
      "330C",
      "330C",
      "330C",
      "330C",
      "330C",
      "330C",
      "330C",
      "330C",
      "330C",
      "330C",
      "330C",
      "330C",
      "330C",
      "330C",
      "330C",
      "330C",
      "330C",
      "330C",
      "330C"
    ],
    "swim:geom": "path",
    "swim:speeds": [
      170,
      184,
      185,
      202,
      252,
      269,
      288,
      285,
      286,
      294,
      294,
      294,
      294,
      315,
      305,
      328,
      342,
      353,
      362,
      363,
      370,
      368,
      372,
      379,
      384,
      395,
      395,
      403,
      404,
      408,
      414,
      417,
      423,
      448,
      429,
      434,
      434,
      436,
      455,
      460,
      460,
      462,
      462,
      463,
      464,
      465,
      477,
      479,
      477,
      476,
      471,
      473,
      476,
      478,
      476,
      478,
      480,
      482,
      482,
      483,
      483,
      483,
      482,
      482,
      482,
      481,
      481,
      480,
      478,
      475,
      473,
      471,
      470,
      470,
      471,
      471,
      463,
      463,
      466,
      468,
      470,
      468,
      470,
      469,
      469,
      469,
      468,
      467,
      466,
      466,
      465,
      464,
      463,
      462,
      462,
      462,
      463,
      464,
      465,
      465,
      465,
      465,
      464,
      464,
      463,
      462,
      461,
      461,
      460,
      460,
      459,
      459,
      459,
      459,
      460,
      460,
      459,
      457,
      456,
      445,
      433,
      429,
      431,
      434,
      434,
      434,
      434,
      434,
      435,
      444,
      453,
      446,
      440,
      431,
      429,
      430,
      433,
      445,
      449,
      450,
      451,
      450,
      450,
      449,
      453,
      455,
      446,
      445,
      445,
      446,
      447,
      451,
      454,
      457,
      459,
      458,
      457,
      452,
      451,
      451,
      452,
      453,
      453,
      452,
      452,
      452,
      451,
      449,
      449,
      449,
      450,
      445,
      443,
      444,
      447,
      449,
      450,
      452,
      452,
      450,
      447,
      446,
      447,
      448,
      448,
      448,
      446,
      445,
      453,
      457,
      458,
      458
    ],
    "swim:timestamps": [
      1785227129,
      1785227156,
      1785227190,
      1785227198,
      1785227250,
      1785227258,
      1785227310,
      1785227318,
      1785227370,
      1785227378,
      1785227423,
      1785227430,
      1785227483,
      1785227490,
      1785227543,
      1785227603,
      1785227610,
      1785227670,
      1785227730,
      1785227784,
      1785227790,
      1785227844,
      1785227850,
      1785227910,
      1785227964,
      1785227970,
      1785228024,
      1785228030,
      1785228084,
      1785228144,
      1785228150,
      1785228204,
      1785228210,
      1785228264,
      1785228330,
      1785228384,
      1785228390,
      1785228444,
      1785228510,
      1785228564,
      1785228570,
      1785228624,
      1785228630,
      1785228684,
      1785228744,
      1785228750,
      1785228810,
      1785228870,
      1785228924,
      1785228930,
      1785228990,
      1785229050,
      1785229099,
      1785229105,
      1785229164,
      1785229170,
      1785229224,
      1785229284,
      1785229290,
      1785229344,
      1785229350,
      1785229410,
      1785229464,
      1785229470,
      1785229524,
      1785229530,
      1785229584,
      1785229644,
      1785229704,
      1785229764,
      1785229824,
      1785229885,
      1785229945,
      1785230005,
      1785230065,
      1785230125,
      1785230185,
      1785230245,
      1785230305,
      1785230365,
      1785230425,
      1785230455,
      1785230485,
      1785230515,
      1785230545,
      1785230574,
      1785230605,
      1785230634,
      1785230665,
      1785230695,
      1785230725,
      1785230756,
      1785230785,
      1785230845,
      1785230874,
      1785230905,
      1785230934,
      1785230965,
      1785230994,
      1785231025,
      1785231056,
      1785231085,
      1785231116,
      1785231145,
      1785231175,
      1785231205,
      1785231235,
      1785231265,
      1785231294,
      1785231325,
      1785231354,
      1785231414,
      1785231476,
      1785231537,
      1785231594,
      1785231655,
      1785231714,
      1785231774,
      1785231834,
      1785231894,
      1785231954,
      1785232014,
      1785232076,
      1785232134,
      1785232194,
      1785232256,
      1785232317,
      1785232374,
      1785232434,
      1785232494,
      1785232554,
      1785232616,
      1785232677,
      1785232735,
      1785232795,
      1785232916,
      1785232977,
      1785233037,
      1785233096,
      1785233155,
      1785233215,
      1785233275,
      1785233336,
      1785233397,
      1785233455,
      1785233517,
      1785233575,
      1785233635,
      1785233695,
      1785233758,
      1785233816,
      1785233876,
      1785233937,
      1785233996,
      1785234055,
      1785234115,
      1785234176,
      1785234238,
      1785234298,
      1785234415,
      1785234475,
      1785234536,
      1785234595,
      1785234656,
      1785234717,
      1785234775,
      1785234836,
      1785234955,
      1785235016,
      1785235076,
      1785235136,
      1785235258,
      1785235316,
      1785235376,
      1785235436,
      1785235498,
      1785235556,
      1785235618,
      1785235676,
      1785235738,
      1785235858,
      1785235916,
      1785235977,
      1785236036,
      1785236096,
      1785236157,
      1785236216,
      1785236279,
      1785236336,
      1785236456,
      1785236516,
      1785236576
    ],
    "wof:geomhash": "de6436a0c2fdd45c4d244982beb2b35f",
    "wof:id": 2032008805,
    "wof:repo": "sfomuseum-data-flights-2026-07"
  },
  "bbox": [
    -122.55,
    29.138055555555557,
    -103.07222222222222,
    37.666666666666664
  ],
  "geometry": {"coordinates":[[-122.4225,37.63805555555555],[-122.45,37.65],[-122.4786111111111,37.66416666666667],[-122.48333333333333,37.666666666666664],[-122.54777777777778,37.64972222222222],[-122.55,37.63333333333333],[-122.52444444444444,37.57611111111112],[-122.51666666666667,37.56666666666667],[-122.48333333333333,37.50416666666667],[-122.46666666666667,37.5],[-122.44361111111111,37.456944444444446],[-122.40972222222223,37.44833333333333],[-122.36194444444443,37.39666666666667],[-122.325,37.39361111111111],[-122.26666666666667,37.35027777777778],[-122.1713888888889,37.29194444444444],[-122.14111111111112,37.27472222222222],[-122.0461111111111,37.21333333333334],[-121.94861111111112,37.14972222222222],[-121.87972222222221,37.10166666666667],[-121.84888888888888,37.08444444444444],[-121.77944444444444,37.035],[-121.74777777777778,37.01833333333333],[-121.64555555555556,36.95138888888889],[-121.57249999999999,36.900555555555556],[-121.54055555555556,36.88194444444444],[-121.46555555555555,36.82916666666667],[-121.43111111111112,36.80972222222222],[-121.35638888888889,36.756388888888885],[-121.24666666666667,36.683055555555555],[-121.215,36.666666666666664],[-121.13305555555554,36.60805555555556],[-121.10222222222221,36.59111111111111],[-121.01361111111112,36.531666666666666],[-120.87416666666665,36.43833333333333],[-120.78416666666666,36.37833333333333],[-120.7575,36.36055555555556],[-120.66805555555555,36.30083333333333],[-120.5225,36.20138888888889],[-120.4263888888889,36.13638888888889],[-120.4,36.118611111111115],[-120.30333333333333,36.05361111111111],[-120.27666666666667,36.03583333333333],[-120.18055555555556,35.970555555555556],[-120.05888888888889,35.8875],[-120.02944444444444,35.869166666666665],[-119.87722222222222,35.82194444444445],[-119.71638888888889,35.785],[-119.59555555555555,35.757222222222225],[-119.5625,35.74944444444444],[-119.40583333333333,35.71361111111111],[-119.25111111111111,35.67805555555555],[-119.12416666666665,35.64694444444444],[-119.10888888888888,35.644999999999996],[-118.9725,35.61277777777778],[-118.93805555555556,35.60472222222222],[-118.81583333333333,35.575833333333335],[-118.65527777777778,35.5375],[-118.6525,35.536944444444444],[-118.49805555555555,35.499722222222225],[-118.495,35.49916666666667],[-118.33694444444444,35.461111111111116],[-118.1825,35.42388888888889],[-118.18,35.42333333333333],[-118.02583333333334,35.38583333333333],[-118.02055555555556,35.38444444444444],[-117.86722222222221,35.346944444444446],[-117.71138888888889,35.30833333333333],[-117.55361111111111,35.26916666666666],[-117.39583333333334,35.22972222222222],[-117.24305555555556,35.19138888888889],[-117.09027777777777,35.15277777777778],[-116.9375,35.11388888888889],[-116.78583333333333,35.075],[-116.63305555555554,35.03583333333333],[-116.48055555555555,34.99611111111111],[-116.33222222222221,34.9575],[-116.18222222222222,34.918055555555554],[-116.03138888888888,34.87861111111111],[-115.87972222222221,34.83861111111111],[-115.72944444444444,34.79833333333333],[-115.66805555555555,34.78111111111111],[-115.57888888888888,34.757777777777775],[-115.51805555555555,34.74138888888889],[-115.42888888888889,34.717222222222226],[-115.36916666666666,34.70055555555556],[-115.28083333333333,34.67722222222222],[-115.2088888888889,34.657777777777774],[-115.13777777777779,34.638333333333335],[-115.07388888888889,34.62083333333334],[-114.99027777777778,34.597500000000004],[-114.92555555555556,34.580000000000005],[-114.8436111111111,34.55722222222222],[-114.69500000000001,34.51611111111111],[-114.635,34.49916666666667],[-114.54833333333333,34.47527777777778],[-114.48583333333333,34.45777777777778],[-114.40027777777779,34.43388888888889],[-114.33805555555556,34.41638888888889],[-114.25111111111111,34.39194444444444],[-114.1888888888889,34.37444444444444],[-114.1036111111111,34.35027777777778],[-114.04222222222222,34.33277777777778],[-113.95777777777778,34.308611111111105],[-113.8963888888889,34.29111111111111],[-113.81055555555555,34.26638888888889],[-113.75083333333333,34.24944444444444],[-113.66527777777779,34.225],[-113.60638888888889,34.20805555555556],[-113.53388888888888,34.18694444444444],[-113.45333333333333,34.16361111111111],[-113.30722222222222,34.12111111111111],[-113.16416666666667,34.07916666666667],[-113.01916666666666,34.03638888888889],[-112.87333333333332,33.993611111111115],[-112.72805555555556,33.95],[-112.6061111111111,33.87777777777778],[-112.52888888888889,33.769999999999996],[-112.46638888888889,33.65416666666667],[-112.415,33.54],[-112.36527777777778,33.42833333333333],[-112.31527777777778,33.31722222222223],[-112.2425,33.21361111111111],[-112.13111111111111,33.13777777777778],[-112.03222222222222,33.051944444444445],[-111.96111111111111,32.94888888888889],[-111.89194444444445,32.843333333333334],[-111.82249999999999,32.736666666666665],[-111.72805555555556,32.647777777777776],[-111.58972222222222,32.61388888888889],[-111.44666666666667,32.64833333333333],[-111.30499999999999,32.677499999999995],[-111.16416666666667,32.658055555555556],[-111.02305555555556,32.63722222222222],[-110.88555555555556,32.61638888888889],[-110.60944444444443,32.573055555555555],[-110.4675,32.55083333333333],[-110.31083333333333,32.52583333333333],[-110.16555555555556,32.50277777777778],[-110.02083333333333,32.47944444444445],[-109.87583333333333,32.45611111111111],[-109.73194444444445,32.4325],[-109.58722222222222,32.40861111111111],[-109.44305555555556,32.38472222222222],[-109.29722222222222,32.36027777777778],[-109.15305555555557,32.336111111111116],[-109.00916666666667,32.311388888888885],[-108.86749999999999,32.2875],[-108.72527777777778,32.26305555555555],[-108.5825,32.23833333333334],[-108.43777777777778,32.213055555555556],[-108.29277777777777,32.187777777777775],[-108.14500000000001,32.16138888888889],[-107.99972222222222,32.135555555555555],[-107.85222222222221,32.10916666666667],[-107.7063888888889,32.08277777777778],[-107.56361111111111,32.056666666666665],[-107.42055555555557,32.03055555555555],[-107.24833333333333,31.99888888888889],[-106.96333333333334,31.945555555555554],[-106.81777777777778,31.918333333333333],[-106.6738888888889,31.891111111111112],[-106.53277777777778,31.86416666666667],[-106.38777777777779,31.836388888888887],[-106.24638888888889,31.791944444444447],[-106.13222222222221,31.714166666666667],[-106.01694444444445,31.636666666666667],[-105.795,31.485277777777778],[-105.68305555555555,31.40861111111111],[-105.56833333333333,31.33],[-105.45416666666667,31.25138888888889],[-105.22305555555556,31.099722222222223],[-105.10472222222222,31.02611111111111],[-104.99222222222222,30.95583333333333],[-104.875,30.8825],[-104.75694444444444,30.808333333333334],[-104.65055555555556,30.741111111111113],[-104.53333333333333,30.666944444444447],[-104.41583333333334,30.592777777777776],[-104.29805555555555,30.518055555555556],[-104.06777777777778,30.370833333333334],[-103.95666666666666,30.29361111111111],[-103.87333333333332,30.1925],[-103.79222222222222,30.0875],[-103.71305555555556,29.983888888888888],[-103.63305555555554,29.879444444444445],[-103.55499999999999,29.776666666666667],[-103.47666666666667,29.67388888888889],[-103.39611111111111,29.568055555555556],[-103.23583333333333,29.355833333333333],[-103.15138888888889,29.24361111111111],[-103.07222222222222,29.138055555555557]],"type":"LineString"}
}
