{
  "id": 2032009977,
  "type": "Feature",
  "properties": {
    "geom:area": 0,
    "geom:bbox": "-122.399820,37.637660,-121.248810,38.164780",
    "geom:latitude": 37.99414771534297,
    "geom:longitude": -121.93384374223959,
    "src:alt_label": "swim-takeoff",
    "src:geom": "swim",
    "swim:elevations": [
      468,
      612,
      938,
      1167,
      1705,
      2169,
      2368,
      2608,
      3072,
      3183,
      3285,
      3473,
      3927,
      4117,
      4803,
      5066,
      5317,
      5397,
      5850,
      6091,
      6240,
      6696,
      7103,
      7292,
      7527,
      7749,
      7922,
      8268
    ],
    "swim:geom": "takeoff",
    "swim:timestamps": [
      1785280911,
      1785280934,
      1785280969,
      1785281002,
      1785281055,
      1785281091,
      1785281106,
      1785281120,
      1785281149,
      1785281165,
      1785281184,
      1785281205,
      1785281238,
      1785281251,
      1785281304,
      1785281325,
      1785281348,
      1785281357,
      1785281398,
      1785281419,
      1785281432,
      1785281476,
      1785281516,
      1785281538,
      1785281565,
      1785281591,
      1785281610,
      1785281658
    ],
    "wof:geomhash": "cf1700922281397e7029deec9451ea5e",
    "wof:id": 2032009977,
    "wof:repo": "sfomuseum-data-flights-2026-07"
  },
  "bbox": [
    -122.39982,
    37.63766,
    -121.24881,
    38.16478
  ],
  "geometry": {"coordinates":[[-122.39982,37.63766],[-122.39002,37.65591],[-122.36606,37.6853],[-122.34244,37.71604],[-122.35467,37.77908],[-122.37526,37.82201],[-122.38284,37.84032],[-122.38572,37.85784],[-122.38485,37.8963],[-122.37838,37.91612],[-122.35645,37.93906],[-122.31872,37.9534],[-122.25156,37.96664],[-122.22413,37.97259],[-122.11239,37.99556],[-122.06671,38.00467],[-122.01596,38.01477],[-121.9957,38.01885],[-121.90126,38.03757],[-121.85206,38.04733],[-121.82083,38.05346],[-121.71627,38.07421],[-121.61568,38.09397],[-121.56294,38.10434],[-121.49417,38.1177],[-121.42534,38.13116],[-121.37427,38.14033],[-121.24881,38.16478]],"type":"LineString"}
}
