{
  "id": 2032034587,
  "type": "Feature",
  "properties": {
    "geom:area": 0,
    "geom:bbox": "-122.354444,32.742222,-117.218333,37.610000",
    "geom:latitude": 35.01337143900448,
    "geom:longitude": -120.02224554209931,
    "src:alt_label": "swim-path",
    "src:geom": "swim",
    "swim:altitudes": [
      "014",
      "039",
      "058",
      "083",
      "105",
      "123",
      "146",
      "170",
      "191",
      "212",
      "229",
      "248",
      "263",
      "279",
      "294",
      "307",
      "319",
      "333",
      "356",
      "370",
      "384",
      "393",
      "395",
      "397",
      "398C",
      "400C",
      "400C",
      "400C",
      "400C",
      "400C",
      "400C",
      "400C",
      "400C",
      "400C",
      "400C",
      "400C",
      "400C",
      "400C",
      "400C",
      "400C",
      "400C",
      "400C",
      "400C",
      "400C",
      "400C",
      "400C",
      "400",
      "400",
      "400",
      "400",
      "400",
      "400",
      "385",
      "362",
      "334",
      "314",
      "301",
      "268",
      "249",
      "233",
      "206",
      "185",
      "163",
      "144",
      "138",
      "133",
      "122",
      "109",
      "090",
      "072",
      "056",
      "048",
      "036",
      "037",
      "022",
      "015",
      "008",
      "008",
      "001"
    ],
    "swim:geom": "path",
    "swim:speeds": [
      159,
      218,
      269,
      285,
      302,
      344,
      358,
      368,
      387,
      393,
      409,
      417,
      432,
      442,
      452,
      462,
      473,
      481,
      465,
      461,
      459,
      448,
      452,
      449,
      453,
      457,
      463,
      463,
      465,
      464,
      465,
      466,
      466,
      466,
      466,
      467,
      468,
      468,
      469,
      469,
      470,
      471,
      471,
      472,
      472,
      472,
      473,
      473,
      472,
      472,
      470,
      470,
      464,
      461,
      460,
      462,
      461,
      460,
      442,
      402,
      390,
      389,
      387,
      372,
      322,
      279,
      269,
      258,
      241,
      245,
      236,
      190,
      168,
      170,
      150,
      148,
      136,
      139,
      136
    ],
    "swim:timestamps": [
      1785472056,
      1785472116,
      1785472176,
      1785472236,
      1785472296,
      1785472356,
      1785472416,
      1785472476,
      1785472537,
      1785472597,
      1785472657,
      1785472717,
      1785472777,
      1785472837,
      1785472897,
      1785472957,
      1785473017,
      1785473077,
      1785473138,
      1785473198,
      1785473258,
      1785473309,
      1785473318,
      1785473370,
      1785473378,
      1785473430,
      1785473490,
      1785473498,
      1785473550,
      1785473558,
      1785473610,
      1785473670,
      1785473678,
      1785473730,
      1785473738,
      1785473799,
      1785473850,
      1785473859,
      1785473910,
      1785473919,
      1785473979,
      1785474030,
      1785474039,
      1785474090,
      1785474099,
      1785474159,
      1785474210,
      1785474219,
      1785474270,
      1785474279,
      1785474331,
      1785474339,
      1785474391,
      1785474451,
      1785474511,
      1785474538,
      1785474571,
      1785474628,
      1785474691,
      1785474751,
      1785474808,
      1785474871,
      1785474931,
      1785474991,
      1785475051,
      1785475111,
      1785475171,
      1785475231,
      1785475288,
      1785475348,
      1785475409,
      1785475469,
      1785475523,
      1785475532,
      1785475589,
      1785475652,
      1785475702,
      1785475712,
      1785475772
    ],
    "wof:geomhash": "fabfb538711767b73bfeb171078d0775",
    "wof:id": 2032034587,
    "wof:repo": "sfomuseum-data-flights-2026-07"
  },
  "bbox": [
    -122.35444444444444,
    32.742222222222225,
    -117.21833333333333,
    37.61
  ],
  "geometry": {"coordinates":[[-117.21833333333333,32.742222222222225],[-117.27583333333334,32.776666666666664],[-117.3386111111111,32.82166666666667],[-117.41000000000001,32.87277777777778],[-117.48583333333333,32.92666666666666],[-117.57083333333333,32.987500000000004],[-117.66027777777778,33.05083333333333],[-117.75333333333333,33.11694444444444],[-117.85249999999999,33.18694444444444],[-117.94583333333334,33.26416666666667],[-118.04194444444444,33.34444444444445],[-118.14055555555557,33.426944444444445],[-118.2425,33.511944444444445],[-118.35499999999999,33.593333333333334],[-118.4738888888889,33.676944444444445],[-118.59527777777777,33.7625],[-118.71583333333334,33.84638888888889],[-118.84138888888889,33.93416666666666],[-118.96305555555556,34.01861111111111],[-119.07916666666667,34.09916666666667],[-119.19722222222222,34.18055555555555],[-119.28527777777778,34.2425],[-119.31416666666667,34.26138888888889],[-119.40166666666667,34.32166666666667],[-119.43027777777779,34.340833333333336],[-119.52111111111111,34.404444444444444],[-119.63472222222222,34.49388888888889],[-119.66027777777778,34.514722222222225],[-119.75083333333333,34.58833333333334],[-119.7725,34.60583333333334],[-119.86305555555555,34.678888888888885],[-119.97638888888889,34.77027777777778],[-119.99638888888889,34.78666666666666],[-120.08888888888889,34.86055555555556],[-120.10972222222222,34.8775],[-120.21888888888888,34.96472222222223],[-120.31777777777778,35.04361111111111],[-120.33083333333333,35.05416666666667],[-120.42916666666667,35.13805555555555],[-120.44166666666668,35.14888888888889],[-120.54888888888888,35.24472222222222],[-120.64944444444446,35.33388888888889],[-120.65666666666667,35.34027777777778],[-120.76,35.43194444444444],[-120.76694444444445,35.43805555555555],[-120.86916666666666,35.53861111111111],[-120.94250000000001,35.6175],[-120.96527777777779,35.64222222222222],[-121.0411111111111,35.723333333333336],[-121.05777777777777,35.74111111111111],[-121.13805555555557,35.82694444444445],[-121.15444444444445,35.844722222222224],[-121.23555555555555,35.93111111111111],[-121.32916666666667,36.03055555555555],[-121.4175,36.13611111111111],[-121.46666666666667,36.2],[-121.50166666666667,36.244166666666665],[-121.6,36.36666666666667],[-121.67,36.458333333333336],[-121.745,36.55361111111111],[-121.83333333333333,36.666666666666664],[-121.89,36.74055555555556],[-121.92277777777778,36.84388888888889],[-121.95138888888889,36.94555555555555],[-121.985,37.034166666666664],[-122.01555555555555,37.11194444444445],[-122.04277777777777,37.181666666666665],[-122.06972222222223,37.249722222222225],[-122.1,37.31666666666667],[-122.1,37.38333333333333],[-122.1,37.45],[-122.13333333333334,37.5],[-122.18333333333334,37.53333333333333],[-122.1763888888889,37.53472222222222],[-122.23333333333333,37.55],[-122.27083333333333,37.575],[-122.31666666666666,37.6],[-122.31277777777777,37.5925],[-122.35444444444444,37.61]],"type":"LineString"}
}
