{
  "id": 2031982747,
  "type": "Feature",
  "properties": {
    "geom:area": 0,
    "geom:bbox": "-122.516540,36.720540,-121.466620,37.503570",
    "geom:latitude": 37.1035970563429,
    "geom:longitude": -121.99884935549692,
    "src:alt_label": "swim-takeoff",
    "src:geom": "swim",
    "swim:elevations": [
      2774,
      2924,
      3711,
      3970,
      4108,
      4172,
      4412,
      4771,
      5057,
      5105,
      5345,
      5675,
      5767,
      5904,
      6412,
      6521,
      6548,
      6930,
      7240,
      7384,
      7606,
      7749,
      8116,
      8208,
      8578,
      8631,
      8660,
      8877
    ],
    "swim:geom": "takeoff",
    "swim:timestamps": [
      1785097851,
      1785097871,
      1785097934,
      1785097963,
      1785097980,
      1785097986,
      1785098010,
      1785098046,
      1785098076,
      1785098082,
      1785098103,
      1785098141,
      1785098150,
      1785098166,
      1785098216,
      1785098226,
      1785098229,
      1785098275,
      1785098318,
      1785098334,
      1785098361,
      1785098379,
      1785098420,
      1785098433,
      1785098484,
      1785098490,
      1785098498,
      1785098528
    ],
    "wof:geomhash": "17ffbbd9c96281d3f9d3c16bd7a07600",
    "wof:id": 2031982747,
    "wof:repo": "sfomuseum-data-flights-2026-07"
  },
  "bbox": [
    -122.51654,
    36.72054,
    -121.46662,
    37.50357
  ],
  "geometry": {"coordinates":[[-122.51654,37.50357],[-122.49586,37.48267],[-122.42996,37.41628],[-122.39662,37.38345],[-122.37405,37.36432],[-122.36505,37.35826],[-122.32906,37.33379],[-122.27517,37.2954],[-122.228,37.26215],[-122.21852,37.25552],[-122.1852,37.23223],[-122.12388,37.18915],[-122.10938,37.17899],[-122.08448,37.16152],[-122.00328,37.10445],[-121.98572,37.0921],[-121.98069,37.08854],[-121.90453,37.03456],[-121.83299,36.98404],[-121.80427,36.96371],[-121.75794,36.93083],[-121.72452,36.90867],[-121.65273,36.85847],[-121.62972,36.84214],[-121.54047,36.77852],[-121.53029,36.7711],[-121.51664,36.76107],[-121.46662,36.72054]],"type":"LineString"}
}
