{
  "id": 2031966039,
  "type": "Feature",
  "properties": {
    "geom:area": 0,
    "geom:bbox": "-122.766667,37.540556,-114.341111,50.470000",
    "geom:latitude": 43.89656033173527,
    "geom:longitude": -118.96716253734245,
    "src:alt_label": "swim-path",
    "src:geom": "swim",
    "swim:altitudes": [
      "188",
      "206",
      "224",
      "238",
      "251",
      "282",
      "291",
      "299",
      "308",
      "308",
      "320C",
      "320C",
      "320C",
      "320C",
      "320C",
      "320C",
      "320C",
      "320C",
      "320C",
      "320C",
      "320C",
      "320C",
      "320C",
      "320C",
      "320C",
      "320C",
      "320C",
      "320C",
      "320C",
      "320C",
      "320C",
      "320C",
      "320C",
      "320C",
      "320",
      "328C",
      "330C",
      "330C",
      "330C",
      "330C",
      "330C",
      "330C",
      "330C",
      "330C",
      "330C",
      "330C",
      "330C",
      "330C",
      "330C",
      "330C",
      "330C",
      "330C",
      "330C",
      "330C",
      "330C",
      "330C",
      "330C",
      "330C",
      "330C",
      "330C",
      "330C",
      "330C",
      "330C",
      "330C",
      "330C",
      "330C",
      "330C",
      "330C",
      "330C",
      "330C",
      "330C",
      "330C",
      "330C",
      "330C",
      "330C",
      "330C",
      "330C",
      "330C",
      "330C",
      "330C",
      "330C",
      "330C",
      "330C",
      "330C",
      "330C",
      "330C",
      "330C",
      "330C",
      "330C",
      "330C",
      "330C",
      "330C",
      "330C",
      "330C",
      "330C",
      "330C",
      "330C",
      "330C",
      "330C",
      "330C",
      "330C",
      "330C",
      "330C",
      "330C",
      "330C",
      "330C",
      "330C",
      "330C",
      "330C",
      "330C",
      "330C",
      "330C",
      "330C",
      "330C",
      "330C",
      "330C",
      "330",
      "330",
      "330",
      "322",
      "312",
      "302",
      "292",
      "282",
      "272",
      "262",
      "252",
      "237",
      "216",
      "207",
      "184",
      "165",
      "155",
      "144",
      "132",
      "124",
      "113",
      "110",
      "109C",
      "108",
      "095",
      "081",
      "070",
      "063",
      "056",
      "049",
      "039",
      "033",
      "029",
      "025",
      "020",
      "016",
      "009",
      "005",
      "002",
      "110"
    ],
    "swim:geom": "path",
    "swim:speeds": [
      361,
      358,
      358,
      358,
      361,
      382,
      381,
      391,
      397,
      398,
      398,
      397,
      397,
      395,
      395,
      384,
      383,
      383,
      383,
      383,
      384,
      384,
      384,
      385,
      385,
      386,
      386,
      386,
      385,
      384,
      383,
      383,
      383,
      383,
      382,
      383,
      382,
      382,
      381,
      380,
      378,
      376,
      374,
      373,
      373,
      375,
      378,
      380,
      380,
      381,
      378,
      377,
      379,
      379,
      379,
      382,
      385,
      385,
      384,
      383,
      382,
      384,
      385,
      387,
      388,
      385,
      388,
      386,
      388,
      386,
      386,
      387,
      388,
      387,
      389,
      392,
      395,
      393,
      396,
      395,
      394,
      394,
      393,
      393,
      393,
      392,
      392,
      391,
      392,
      392,
      394,
      394,
      396,
      396,
      396,
      396,
      396,
      396,
      396,
      396,
      397,
      398,
      399,
      399,
      399,
      400,
      400,
      400,
      400,
      400,
      400,
      399,
      398,
      398,
      398,
      398,
      400,
      401,
      401,
      401,
      402,
      398,
      394,
      391,
      389,
      387,
      380,
      376,
      369,
      366,
      363,
      356,
      358,
      358,
      357,
      355,
      355,
      342,
      318,
      286,
      263,
      260,
      226,
      216,
      208,
      198,
      199,
      187,
      187,
      183,
      180,
      173,
      144,
      145,
      142,
      119
    ],
    "swim:timestamps": [
      1784998205,
      1784998266,
      1784998326,
      1784998386,
      1784998446,
      1784998560,
      1784998626,
      1784998680,
      1784998740,
      1784998746,
      1784998806,
      1784998861,
      1784998921,
      1784998986,
      1784999047,
      1784999107,
      1784999167,
      1784999227,
      1784999287,
      1784999467,
      1784999527,
      1784999587,
      1784999647,
      1784999707,
      1784999767,
      1784999827,
      1784999888,
      1784999948,
      1785000068,
      1785000128,
      1785000188,
      1785000248,
      1785000368,
      1785000428,
      1785000488,
      1785000548,
      1785000608,
      1785000669,
      1785000729,
      1785000789,
      1785000909,
      1785000969,
      1785001029,
      1785001089,
      1785001269,
      1785001329,
      1785001450,
      1785001510,
      1785001570,
      1785001750,
      1785001870,
      1785001930,
      1785001990,
      1785002050,
      1785002110,
      1785002170,
      1785002230,
      1785002351,
      1785002411,
      1785002471,
      1785002531,
      1785002711,
      1785002831,
      1785002891,
      1785002951,
      1785002962,
      1785003011,
      1785003023,
      1785003072,
      1785003083,
      1785003143,
      1785003203,
      1785003252,
      1785003263,
      1785003323,
      1785003372,
      1785003432,
      1785003443,
      1785003492,
      1785003563,
      1785003612,
      1785003623,
      1785003672,
      1785003683,
      1785003732,
      1785003792,
      1785003804,
      1785003853,
      1785003913,
      1785003924,
      1785003973,
      1785003984,
      1785004093,
      1785004153,
      1785004164,
      1785004213,
      1785004224,
      1785004284,
      1785004333,
      1785004344,
      1785004393,
      1785004404,
      1785004465,
      1785004513,
      1785004525,
      1785004573,
      1785004585,
      1785004645,
      1785004694,
      1785004705,
      1785004754,
      1785004765,
      1785004825,
      1785004885,
      1785004945,
      1785005005,
      1785005125,
      1785005186,
      1785005246,
      1785005306,
      1785005366,
      1785005426,
      1785005486,
      1785005546,
      1785005606,
      1785005666,
      1785005726,
      1785005786,
      1785005846,
      1785005864,
      1785005930,
      1785005991,
      1785006027,
      1785006051,
      1785006087,
      1785006111,
      1785006147,
      1785006171,
      1785006207,
      1785006231,
      1785006285,
      1785006327,
      1785006387,
      1785006411,
      1785006447,
      1785006471,
      1785006507,
      1785006531,
      1785006567,
      1785006591,
      1785006628,
      1785006651,
      1785006712,
      1785006748,
      1785006772,
      1785006808
    ],
    "wof:geomhash": "6b6d4b2de8e1ecda1e2e753b5a33957c",
    "wof:id": 2031966039,
    "wof:repo": "sfomuseum-data-flights-2026-07"
  },
  "bbox": [
    -122.76666666666667,
    37.54055555555556,
    -114.3411111111111,
    50.47
  ],
  "geometry": {"coordinates":[[-114.3411111111111,50.47],[-114.38944444444445,50.376111111111115],[-114.43833333333333,50.28194444444444],[-114.48472222222222,50.18722222222222],[-114.53277777777778,50.09],[-114.62916666666666,49.89],[-114.68055555555556,49.78722222222222],[-114.73138888888889,49.683611111111105],[-114.77361111111111,49.57638888888889],[-114.77444444444444,49.574444444444445],[-114.81638888888888,49.468611111111116],[-114.85805555555555,49.363055555555555],[-114.89944444444446,49.257777777777775],[-114.94166666666668,49.14944444444444],[-114.98388888888888,49.044444444444444],[-115.07805555555555,48.93333333333333],[-115.16027777777778,48.84305555555556],[-115.2425,48.75194444444445],[-115.32555555555555,48.660555555555554],[-115.56972222222223,48.38722222222222],[-115.65055555555556,48.295833333333334],[-115.73083333333334,48.20527777777778],[-115.81166666666667,48.11361111111111],[-115.89277777777778,48.02111111111111],[-115.9738888888889,47.92833333333333],[-116.05388888888889,47.836666666666666],[-116.13416666666667,47.744166666666665],[-116.21333333333334,47.65222222222222],[-116.37222222222222,47.4675],[-116.45055555555555,47.375277777777775],[-116.52888888888889,47.28361111111111],[-116.60694444444444,47.191111111111105],[-116.7611111111111,47.00805555555556],[-116.83916666666666,46.91444444444444],[-116.91527777777779,46.82333333333334],[-116.98611111111111,46.738055555555555],[-117.06222222222222,46.645833333333336],[-117.13805555555557,46.553888888888885],[-117.22194444444445,46.45111111111111],[-117.29694444444445,46.35916666666667],[-117.44527777777778,46.17666666666666],[-117.51777777777778,46.08722222222222],[-117.58972222222222,45.9975],[-117.66250000000001,45.90694444444444],[-117.87055555555555,45.644999999999996],[-117.94277777777778,45.55333333333333],[-118.08722222222222,45.36972222222222],[-118.16083333333334,45.275277777777774],[-118.23361111111112,45.18138888888889],[-118.44777777777779,44.903888888888886],[-118.58916666666666,44.719166666666666],[-118.65944444444445,44.62638888888889],[-118.73055555555555,44.5325],[-118.80055555555555,44.439722222222215],[-118.86999999999999,44.347500000000004],[-118.9413888888889,44.25222222222222],[-119.01222222222222,44.157222222222224],[-119.1525,43.96805555555556],[-119.22222222222223,43.87388888888889],[-119.2911111111111,43.78],[-119.35972222222222,43.686388888888885],[-119.56583333333333,43.403055555555554],[-119.70583333333333,43.20888888888889],[-119.77361111111111,43.11388888888889],[-119.84166666666667,43.01888888888889],[-119.85694444444444,42.99916666666667],[-119.91027777777778,42.9225],[-119.92416666666666,42.90361111111111],[-119.97833333333334,42.82638888888889],[-119.99194444444444,42.80638888888888],[-120.06083333333333,42.71083333333333],[-120.12722222222222,42.61527777777778],[-120.18083333333334,42.53944444444444],[-120.19361111111111,42.51916666666666],[-120.2625,42.42222222222222],[-120.31638888888888,42.345],[-120.385,42.24583333333334],[-120.39833333333334,42.22638888888889],[-120.45361111111112,42.1475],[-120.53388888888888,42.03],[-120.58777777777777,41.95277777777778],[-120.60166666666666,41.9325],[-120.65444444444445,41.855000000000004],[-120.6675,41.836111111111116],[-120.7213888888889,41.757222222222225],[-120.7863888888889,41.66138888888889],[-120.8,41.64111111111111],[-120.85222222222221,41.56388888888888],[-120.91861111111112,41.46611111111111],[-120.93222222222222,41.44611111111111],[-120.98472222222222,41.367777777777775],[-120.99861111111112,41.346944444444446],[-121.11722222222221,41.169999999999995],[-121.18361111111112,41.07083333333334],[-121.19638888888889,41.05138888888889],[-121.24777777777778,40.973888888888894],[-121.26138888888889,40.95333333333333],[-121.32583333333334,40.85638888888889],[-121.37916666666666,40.775],[-121.39250000000001,40.754444444444445],[-121.44361111111111,40.676944444444445],[-121.45722222222223,40.656388888888884],[-121.52194444444444,40.55777777777777],[-121.57416666666666,40.4775],[-121.58694444444444,40.45777777777778],[-121.63972222222223,40.37694444444445],[-121.65194444444445,40.358333333333334],[-121.71805555555555,40.25611111111111],[-121.76861111111111,40.17777777777778],[-121.7825,40.156388888888884],[-121.83361111111111,40.07694444444445],[-121.84694444444445,40.05638888888888],[-121.9113888888889,39.95611111111111],[-121.97500000000001,39.85666666666667],[-122.03916666666666,39.75611111111111],[-122.10222222222221,39.65694444444444],[-122.22916666666667,39.45611111111111],[-122.29305555555555,39.355000000000004],[-122.35638888888889,39.25388888888889],[-122.41805555555555,39.155],[-122.48138888888889,39.05333333333333],[-122.54333333333334,38.95388888888889],[-122.5911111111111,38.85166666666667],[-122.62055555555555,38.74777777777778],[-122.64888888888889,38.64833333333333],[-122.67805555555556,38.54361111111111],[-122.70694444444445,38.44138888888889],[-122.73527777777778,38.34],[-122.7625,38.24],[-122.76666666666667,38.2],[-122.73333333333333,38.083333333333336],[-122.7,38],[-122.6875,37.948055555555555],[-122.66666666666667,37.9],[-122.62055555555555,37.85],[-122.58333333333333,37.81666666666667],[-122.5425,37.776944444444446],[-122.5,37.75],[-122.43833333333333,37.736666666666665],[-122.4,37.71666666666667],[-122.31666666666666,37.7],[-122.26694444444445,37.67388888888889],[-122.19638888888889,37.64083333333333],[-122.16666666666667,37.63333333333333],[-122.13222222222221,37.61055555555556],[-122.11666666666666,37.6],[-122.12388888888889,37.56055555555555],[-122.15,37.55],[-122.18111111111112,37.54055555555556],[-122.2,37.55],[-122.23861111111111,37.561388888888885],[-122.26666666666667,37.56666666666667],[-122.3,37.583333333333336],[-122.3325,37.600833333333334],[-122.35,37.61666666666667],[-122.3711111111111,37.61694444444444]],"type":"LineString"}
}
