{
  "id": 2031982475,
  "type": "Feature",
  "properties": {
    "geom:area": 0,
    "geom:bbox": "-123.281111,37.616667,-122.007222,47.667778",
    "geom:latitude": 42.901927375768196,
    "geom:longitude": -122.3799879646298,
    "src:alt_label": "swim-path",
    "src:geom": "swim",
    "swim:altitudes": [
      "007",
      "020",
      "034",
      "038",
      "043",
      "052",
      "083",
      "106",
      "120",
      "139",
      "156",
      "173",
      "191",
      "208",
      "222",
      "245",
      "257",
      "268",
      "296",
      "315",
      "323",
      "341",
      "350",
      "354",
      "360C",
      "360C",
      "360C",
      "360C",
      "360C",
      "360C",
      "360C",
      "360C",
      "360C",
      "360C",
      "360C",
      "360C",
      "360C",
      "360C",
      "360C",
      "360C",
      "360C",
      "360C",
      "360C",
      "361C",
      "360C",
      "360C",
      "360C",
      "360C",
      "360C",
      "360C",
      "361C",
      "361C",
      "360C",
      "360C",
      "360C",
      "360C",
      "360C",
      "360C",
      "361",
      "361",
      "360",
      "356",
      "338",
      "299",
      "281",
      "263",
      "246",
      "224",
      "208",
      "188",
      "171",
      "158",
      "152",
      "138",
      "130",
      "115",
      "105",
      "104",
      "096",
      "095",
      "081",
      "080",
      "077",
      "076",
      "067",
      "066",
      "054",
      "052",
      "042",
      "040",
      "039",
      "038",
      "030",
      "030",
      "030",
      "028",
      "019",
      "012",
      "005",
      "003"
    ],
    "swim:geom": "path",
    "swim:speeds": [
      156,
      150,
      182,
      198,
      263,
      281,
      287,
      303,
      360,
      370,
      400,
      413,
      418,
      436,
      450,
      470,
      481,
      481,
      515,
      524,
      535,
      540,
      539,
      541,
      545,
      545,
      547,
      548,
      549,
      549,
      548,
      548,
      544,
      542,
      540,
      539,
      530,
      515,
      515,
      513,
      501,
      498,
      494,
      487,
      425,
      392,
      392,
      397,
      399,
      400,
      406,
      433,
      467,
      486,
      486,
      485,
      485,
      488,
      489,
      490,
      491,
      492,
      492,
      461,
      449,
      439,
      435,
      430,
      422,
      411,
      399,
      375,
      380,
      369,
      327,
      314,
      306,
      300,
      301,
      291,
      283,
      279,
      278,
      277,
      250,
      241,
      244,
      241,
      242,
      239,
      233,
      219,
      212,
      202,
      185,
      169,
      167,
      134,
      132,
      130
    ],
    "swim:timestamps": [
      1785122735,
      1785122773,
      1785122802,
      1785122834,
      1785122856,
      1785122894,
      1785122954,
      1785123014,
      1785123074,
      1785123134,
      1785123194,
      1785123254,
      1785123314,
      1785123375,
      1785123435,
      1785123555,
      1785123615,
      1785123674,
      1785123854,
      1785123975,
      1785124034,
      1785124155,
      1785124215,
      1785124275,
      1785124336,
      1785124395,
      1785124455,
      1785124516,
      1785124575,
      1785124635,
      1785124696,
      1785124756,
      1785124876,
      1785124935,
      1785124995,
      1785125055,
      1785125115,
      1785125176,
      1785125296,
      1785125356,
      1785125416,
      1785125476,
      1785125536,
      1785125596,
      1785125656,
      1785125716,
      1785125776,
      1785125836,
      1785125896,
      1785125956,
      1785126016,
      1785126076,
      1785126136,
      1785126196,
      1785126256,
      1785126317,
      1785126377,
      1785126437,
      1785126497,
      1785126557,
      1785126617,
      1785126677,
      1785126737,
      1785126857,
      1785126917,
      1785126977,
      1785127037,
      1785127097,
      1785127157,
      1785127217,
      1785127277,
      1785127315,
      1785127337,
      1785127397,
      1785127454,
      1785127526,
      1785127578,
      1785127586,
      1785127638,
      1785127646,
      1785127698,
      1785127707,
      1785127758,
      1785127767,
      1785127818,
      1785127827,
      1785127878,
      1785127887,
      1785127938,
      1785127947,
      1785127998,
      1785128007,
      1785128058,
      1785128067,
      1785128118,
      1785128178,
      1785128238,
      1785128298,
      1785128358,
      1785128418
    ],
    "wof:geomhash": "db0d336c0580a3c1004a6ad6e31167e5",
    "wof:id": 2031982475,
    "wof:repo": "sfomuseum-data-flights-2026-07"
  },
  "bbox": [
    -123.28111111111112,
    37.61666666666667,
    -122.00722222222223,
    47.66777777777777
  ],
  "geometry": {"coordinates":[[-122.38333333333334,37.61666666666667],[-122.39944444444446,37.636944444444445],[-122.36666666666666,37.666666666666664],[-122.34861111111111,37.66694444444444],[-122.3,37.68333333333333],[-122.26861111111111,37.6975],[-122.20805555555556,37.75416666666667],[-122.19555555555556,37.83583333333333],[-122.17972222222222,37.93277777777777],[-122.16166666666668,38.04861111111111],[-122.16611111111112,38.14722222222222],[-122.16277777777778,38.26222222222222],[-122.15222222222222,38.39555555555555],[-122.15527777777778,38.52055555555555],[-122.15166666666667,38.64555555555555],[-122.1438888888889,38.90694444444444],[-122.14,39.04083333333333],[-122.13138888888888,39.169444444444444],[-122.12138888888889,39.59666666666667],[-122.11444444444444,39.88916666666667],[-122.11,40.03611111111111],[-122.10111111111111,40.32972222222222],[-122.09666666666666,40.4775],[-122.09194444444444,40.62694444444445],[-122.08722222222222,40.77916666666667],[-122.08277777777778,40.92861111111111],[-122.07805555555555,41.07972222222222],[-122.07305555555556,41.235],[-122.06805555555555,41.39416666666666],[-122.06333333333333,41.54722222222222],[-122.0586111111111,41.698055555555555],[-122.05361111111111,41.8525],[-122.04333333333334,42.16694444444444],[-122.03861111111111,42.3175],[-122.03361111111111,42.46666666666667],[-122.02888888888889,42.61611111111111],[-122.02388888888889,42.76416666666667],[-122.01916666666666,42.90694444444444],[-122.00972222222222,43.19444444444444],[-122.00722222222223,43.33166666666667],[-122.0325,43.47083333333334],[-122.06361111111111,43.60472222222222],[-122.0961111111111,43.74055555555556],[-122.12777777777777,43.87166666666667],[-122.21805555555555,43.976111111111116],[-122.36027777777777,44.01361111111111],[-122.50694444444444,44.040277777777774],[-122.65555555555557,44.06638888888889],[-122.80833333333334,44.09138888888889],[-122.9588888888889,44.115],[-123.0975,44.14111111111111],[-123.22666666666667,44.21222222222222],[-123.28111111111112,44.32972222222222],[-123.23694444444445,44.45888888888889],[-123.17472222222223,44.58638888888889],[-123.11333333333333,44.71138888888889],[-123.05055555555555,44.83861111111111],[-122.97555555555556,44.98972222222222],[-122.91083333333334,45.11888888888889],[-122.84666666666666,45.24666666666667],[-122.7825,45.37361111111111],[-122.71722222222222,45.50222222222222],[-122.65166666666667,45.63111111111111],[-122.6275,45.89111111111111],[-122.6575,46.01361111111111],[-122.685,46.1325],[-122.70583333333333,46.23722222222222],[-122.7238888888889,46.367777777777775],[-122.7275,46.46555555555556],[-122.73194444444445,46.588055555555556],[-122.73583333333333,46.6975],[-122.73305555555555,46.782777777777774],[-122.70361111111112,46.814166666666665],[-122.60944444444443,46.89611111111111],[-122.54666666666667,46.973055555555554],[-122.5038888888889,47.07555555555556],[-122.48861111111111,47.14666666666667],[-122.48833333333333,47.158055555555556],[-122.47416666666666,47.22944444444445],[-122.4725,47.240833333333335],[-122.4625,47.30777777777777],[-122.46277777777777,47.318333333333335],[-122.45555555555556,47.38444444444444],[-122.45611111111111,47.396388888888886],[-122.45555555555556,47.4575],[-122.4563888888889,47.467777777777776],[-122.45555555555556,47.52027777777778],[-122.45583333333333,47.534166666666664],[-122.45555555555556,47.586111111111116],[-122.45555555555556,47.600833333333334],[-122.44611111111111,47.651666666666664],[-122.43305555555555,47.659444444444446],[-122.36416666666666,47.66777777777777],[-122.34666666666666,47.666666666666664],[-122.31722222222221,47.63333333333333],[-122.31666666666666,47.58694444444445],[-122.31722222222221,47.541666666666664],[-122.3175,47.50222222222222],[-122.31777777777778,47.46611111111111],[-122.31833333333333,47.43388888888889]],"type":"LineString"}
}
