{
  "id": 2032052207,
  "type": "Feature",
  "properties": {
    "geom:area": 0,
    "geom:bbox": "-122.529050,37.624500,-122.117630,38.486500",
    "geom:latitude": 38.01977913733206,
    "geom:longitude": -122.32472606239102,
    "src:alt_label": "swim-takeoff",
    "src:geom": "swim",
    "swim:elevations": [
      152,
      574,
      1179,
      1608,
      1977,
      2194,
      2679,
      2724,
      2979,
      3181,
      3277,
      3692,
      3934,
      4213,
      4246,
      4475,
      4719,
      4952,
      5044,
      5245,
      5326,
      5546,
      5590,
      5830
    ],
    "swim:geom": "takeoff",
    "swim:timestamps": [
      1785540574,
      1785540611,
      1785540678,
      1785540718,
      1785540748,
      1785540767,
      1785540807,
      1785540811,
      1785540838,
      1785540867,
      1785540880,
      1785540931,
      1785540956,
      1785540988,
      1785540994,
      1785541018,
      1785541044,
      1785541070,
      1785541082,
      1785541121,
      1785541145,
      1785541196,
      1785541205,
      1785541241
    ],
    "wof:geomhash": "7fd487668c113aa5dfd7f06db5188928",
    "wof:id": 2032052207,
    "wof:repo": "sfomuseum-data-flights-2026-07"
  },
  "bbox": [
    -122.52905,
    37.6245,
    -122.11763,
    38.4865
  ],
  "geometry": {"coordinates":[[-122.38853,37.6245],[-122.42153,37.63904],[-122.50156,37.67348],[-122.52905,37.71384],[-122.52721,37.75237],[-122.52638,37.77831],[-122.48974,37.82045],[-122.48365,37.8234],[-122.45091,37.84927],[-122.4252,37.88655],[-122.4132,37.90405],[-122.36272,37.97613],[-122.33795,38.01197],[-122.30521,38.05918],[-122.29907,38.06812],[-122.2742,38.10397],[-122.24711,38.14291],[-122.21924,38.18285],[-122.20652,38.20122],[-122.16475,38.26125],[-122.1374,38.30051],[-122.11763,38.39729],[-122.11879,38.4163],[-122.12306,38.4865]],"type":"LineString"}
}
