{
  "id": 2031979091,
  "type": "Feature",
  "properties": {
    "geom:area": 0,
    "geom:bbox": "-122.398440,37.632750,-121.301320,37.991440",
    "geom:latitude": 37.93611924733316,
    "geom:longitude": -121.96161447652037,
    "src:alt_label": "swim-takeoff",
    "src:geom": "swim",
    "swim:elevations": [
      421,
      604,
      767,
      805,
      877,
      1379,
      1471,
      2070,
      2736,
      3176,
      3268,
      3398,
      3651,
      4019,
      4114,
      4280,
      4592,
      4834,
      4930,
      5151,
      5151,
      5396,
      5450,
      5763,
      5827,
      5997,
      6275
    ],
    "swim:geom": "takeoff",
    "swim:timestamps": [
      1785104121,
      1785104149,
      1785104176,
      1785104182,
      1785104191,
      1785104239,
      1785104246,
      1785104297,
      1785104353,
      1785104407,
      1785104424,
      1785104452,
      1785104482,
      1785104517,
      1785104530,
      1785104548,
      1785104582,
      1785104610,
      1785104625,
      1785104671,
      1785104684,
      1785104725,
      1785104736,
      1785104781,
      1785104790,
      1785104817,
      1785104861
    ],
    "wof:geomhash": "7e4c76cdea3dac813ab40867dac2edc7",
    "wof:id": 2031979091,
    "wof:repo": "sfomuseum-data-flights-2026-07"
  },
  "bbox": [
    -122.39844,
    37.63275,
    -121.30132,
    37.99144
  ],
  "geometry": {"coordinates":[[-122.39844,37.63275],[-122.39788,37.65427],[-122.37836,37.67713],[-122.37328,37.68256],[-122.3654,37.6913],[-122.33927,37.74573],[-122.34264,37.7537],[-122.37196,37.81447],[-122.3849,37.88832],[-122.34071,37.94932],[-122.30869,37.95557],[-122.25418,37.96638],[-122.19144,37.97916],[-122.11783,37.98813],[-122.08803,37.98818],[-122.04761,37.98844],[-121.97145,37.98902],[-121.90576,37.9894],[-121.87089,37.98961],[-121.76352,37.99012],[-121.73246,37.9903],[-121.63622,37.99077],[-121.60949,37.99088],[-121.50115,37.99117],[-121.47918,37.99119],[-121.41216,37.99133],[-121.30132,37.99144]],"type":"LineString"}
}
