{
  "id": 2032031957,
  "type": "Feature",
  "properties": {
    "geom:area": 0,
    "geom:bbox": "-122.343333,37.445278,-79.563056,43.776111",
    "geom:latitude": 40.43994522898154,
    "geom:longitude": -100.96424599117462,
    "src:alt_label": "swim-path",
    "src:geom": "swim",
    "swim:altitudes": [
      "029",
      "044",
      "056",
      "069",
      "087",
      "106",
      "119",
      "135",
      "153",
      "169",
      "183",
      "195",
      "208",
      "219",
      "229",
      "239",
      "248",
      "255",
      "265",
      "272",
      "278",
      "285",
      "292",
      "296",
      "303",
      "321",
      "325",
      "331",
      "339C",
      "340C",
      "340C",
      "340C",
      "340C",
      "340C",
      "340C",
      "340C",
      "340C",
      "340C",
      "340C",
      "340C",
      "340C",
      "340C",
      "340C",
      "340C",
      "340C",
      "340C",
      "340C",
      "340C",
      "340C",
      "340C",
      "340C",
      "340C",
      "340C",
      "340C",
      "340C",
      "340C",
      "340C",
      "340C",
      "340C",
      "340C",
      "340C",
      "340C",
      "340C",
      "340C",
      "340C",
      "340C",
      "340C",
      "340C",
      "340C",
      "340C",
      "340C",
      "340C",
      "340C",
      "340C",
      "340C",
      "340C",
      "340C",
      "340C",
      "340C",
      "340C",
      "340C",
      "340C",
      "340C",
      "340C",
      "340C",
      "340C",
      "340C",
      "340C",
      "340C",
      "340C",
      "340C",
      "340C",
      "340C",
      "340C",
      "340C",
      "340C",
      "340C",
      "340C",
      "340C",
      "340C",
      "340C",
      "340C",
      "340C",
      "340C",
      "340C",
      "340C",
      "340C",
      "340C",
      "340C",
      "340C",
      "340C",
      "340C",
      "340C",
      "340C",
      "340C",
      "340C",
      "340C",
      "340C",
      "340C",
      "340C",
      "340C",
      "340C",
      "340C",
      "340C",
      "340C",
      "340C",
      "340C",
      "340C",
      "340C",
      "340C",
      "340C",
      "340C",
      "340C",
      "340C",
      "340C",
      "340C",
      "340C",
      "340C",
      "340C",
      "340C",
      "340C",
      "340C",
      "340C",
      "340C",
      "340C",
      "340C",
      "340C",
      "340C",
      "340C",
      "340C",
      "340C",
      "340C",
      "340C",
      "340C",
      "340C",
      "340C",
      "340C",
      "340C",
      "340C",
      "340C",
      "340C",
      "340C",
      "340C",
      "340C",
      "340C",
      "340C",
      "340C",
      "340C",
      "340C",
      "340C",
      "340C",
      "340C",
      "340C",
      "340C",
      "340C",
      "340C",
      "340C",
      "340C",
      "340C",
      "340C",
      "340C",
      "340C",
      "340C",
      "340C",
      "340C",
      "340C",
      "340C",
      "340C",
      "340C",
      "340C",
      "340C",
      "340C",
      "340C",
      "340C",
      "340C",
      "340C",
      "340C",
      "340C",
      "340C",
      "340C",
      "340C",
      "340C",
      "340C",
      "340C",
      "340C",
      "340C",
      "340C",
      "340C",
      "340C",
      "340C",
      "340C",
      "340C",
      "340C",
      "340C",
      "340C",
      "340C",
      "340C",
      "340C",
      "340C",
      "340C",
      "340C",
      "340C",
      "340C",
      "340C",
      "340C",
      "340C",
      "340C",
      "340",
      "340",
      "349",
      "355",
      "355",
      "359C",
      "359C",
      "360C",
      "360C",
      "360C",
      "360C",
      "360C",
      "360C",
      "360C",
      "360C",
      "360C",
      "360C",
      "360C",
      "360C",
      "360C",
      "360C",
      "360C",
      "360C",
      "360C",
      "360C",
      "360C",
      "360C",
      "360C",
      "360C",
      "360C",
      "360C",
      "360C",
      "360C",
      "360C",
      "360C",
      "360C",
      "360C",
      "360C",
      "360C",
      "360C",
      "360C",
      "360C",
      "360C",
      "360C",
      "360C",
      "360C",
      "360C",
      "360C",
      "360C",
      "360C",
      "360C",
      "360C",
      "360C",
      "360C",
      "360C",
      "360C",
      "360C",
      "360C",
      "360C",
      "360C",
      "360C",
      "360C",
      "360C",
      "360C",
      "360C",
      "360C",
      "360C",
      "360C",
      "360C",
      "360C",
      "360C",
      "360C",
      "360C",
      "360C",
      "360C",
      "360C",
      "360C",
      "360C",
      "360C",
      "360C",
      "360C",
      "360C",
      "360C",
      "360C",
      "360C",
      "360C",
      "360C",
      "360C",
      "360C",
      "360C",
      "360C",
      "360C",
      "360C",
      "360C",
      "360C",
      "360C",
      "360C",
      "360C",
      "360C",
      "360C",
      "360C",
      "360C",
      "360C",
      "360C",
      "360C",
      "360C",
      "360C",
      "360C",
      "360C",
      "360C",
      "360C",
      "360C",
      "360C",
      "360C",
      "360C",
      "360C",
      "360C",
      "360C",
      "360C",
      "360C",
      "360C",
      "360C",
      "360C",
      "360C",
      "360C",
      "360C",
      "360C",
      "360C",
      "360C",
      "360C",
      "360C",
      "360C",
      "360C",
      "360C",
      "360C",
      "360C",
      "360C",
      "360C",
      "360C",
      "360C",
      "360C",
      "360C",
      "360C",
      "359",
      "353",
      "345",
      "342C",
      "340C",
      "340C",
      "340C",
      "340C",
      "340C",
      "340C",
      "336",
      "333",
      "321C",
      "320C",
      "320C",
      "320C",
      "320C",
      "320C",
      "320C",
      "320C",
      "320C",
      "320",
      "320",
      "310",
      "291",
      "287",
      "272",
      "254",
      "237",
      "218",
      "201",
      "184",
      "168",
      "154",
      "139",
      "125",
      "100",
      "100",
      "091",
      "084",
      "080",
      "080",
      "068",
      "060",
      "049",
      "037",
      "027",
      "018",
      "009",
      "004"
    ],
    "swim:geom": "path",
    "swim:speeds": [
      169,
      182,
      223,
      273,
      281,
      292,
      337,
      353,
      356,
      364,
      369,
      379,
      387,
      394,
      403,
      407,
      414,
      416,
      421,
      424,
      436,
      441,
      446,
      453,
      458,
      435,
      432,
      437,
      426,
      426,
      426,
      429,
      432,
      435,
      437,
      436,
      439,
      438,
      440,
      440,
      444,
      443,
      441,
      439,
      438,
      440,
      440,
      443,
      443,
      444,
      442,
      438,
      431,
      423,
      423,
      423,
      424,
      425,
      424,
      425,
      425,
      425,
      430,
      432,
      438,
      440,
      442,
      442,
      442,
      443,
      443,
      439,
      442,
      442,
      442,
      444,
      445,
      444,
      444,
      443,
      443,
      440,
      440,
      439,
      436,
      437,
      431,
      434,
      433,
      434,
      438,
      440,
      440,
      439,
      438,
      437,
      437,
      438,
      439,
      440,
      440,
      440,
      437,
      437,
      437,
      437,
      438,
      438,
      438,
      438,
      438,
      439,
      443,
      443,
      444,
      444,
      444,
      443,
      443,
      442,
      442,
      437,
      436,
      442,
      441,
      443,
      443,
      443,
      440,
      439,
      438,
      433,
      433,
      432,
      432,
      432,
      432,
      432,
      431,
      431,
      432,
      433,
      432,
      429,
      428,
      428,
      427,
      427,
      428,
      429,
      428,
      427,
      427,
      421,
      426,
      427,
      425,
      426,
      425,
      425,
      425,
      425,
      425,
      425,
      425,
      425,
      425,
      425,
      425,
      426,
      429,
      431,
      440,
      431,
      422,
      421,
      422,
      428,
      429,
      416,
      411,
      409,
      405,
      401,
      398,
      398,
      402,
      404,
      414,
      418,
      419,
      421,
      421,
      419,
      420,
      420,
      418,
      419,
      420,
      421,
      420,
      419,
      417,
      416,
      416,
      415,
      414,
      415,
      414,
      415,
      415,
      415,
      416,
      415,
      419,
      415,
      421,
      416,
      422,
      416,
      421,
      416,
      420,
      416,
      418,
      416,
      418,
      417,
      421,
      411,
      418,
      404,
      404,
      403,
      403,
      403,
      408,
      411,
      414,
      418,
      415,
      420,
      422,
      422,
      422,
      418,
      416,
      417,
      416,
      417,
      413,
      413,
      413,
      414,
      416,
      414,
      415,
      414,
      414,
      414,
      413,
      413,
      413,
      414,
      414,
      414,
      414,
      414,
      415,
      414,
      417,
      416,
      417,
      418,
      419,
      418,
      418,
      418,
      419,
      421,
      421,
      424,
      424,
      423,
      423,
      422,
      422,
      421,
      421,
      421,
      421,
      422,
      422,
      423,
      423,
      423,
      423,
      423,
      424,
      424,
      424,
      424,
      425,
      425,
      425,
      424,
      423,
      422,
      424,
      425,
      426,
      426,
      430,
      433,
      429,
      428,
      429,
      429,
      431,
      431,
      428,
      427,
      429,
      429,
      427,
      428,
      426,
      426,
      427,
      426,
      425,
      424,
      412,
      414,
      412,
      410,
      409,
      409,
      408,
      409,
      409,
      409,
      410,
      409,
      410,
      409,
      411,
      410,
      412,
      412,
      413,
      412,
      413,
      412,
      412,
      411,
      411,
      411,
      412,
      413,
      415,
      415,
      415,
      416,
      415,
      414,
      413,
      413,
      415,
      415,
      413,
      420,
      423,
      423,
      422,
      422,
      425,
      425,
      425,
      425,
      430,
      430,
      430,
      424,
      424,
      426,
      427,
      427,
      426,
      424,
      423,
      422,
      422,
      423,
      418,
      413,
      411,
      401,
      390,
      369,
      362,
      359,
      335,
      320,
      312,
      304,
      262,
      248,
      240,
      249,
      242,
      241,
      240,
      229,
      228,
      216,
      185,
      171,
      135,
      132
    ],
    "swim:timestamps": [
      1785453443,
      1785453503,
      1785453563,
      1785453623,
      1785453683,
      1785453743,
      1785453803,
      1785453863,
      1785453923,
      1785453984,
      1785454044,
      1785454104,
      1785454164,
      1785454224,
      1785454284,
      1785454344,
      1785454404,
      1785454464,
      1785454524,
      1785454584,
      1785454645,
      1785454705,
      1785454765,
      1785454825,
      1785454885,
      1785454945,
      1785455005,
      1785455065,
      1785455125,
      1785455150,
      1785455185,
      1785455210,
      1785455245,
      1785455270,
      1785455306,
      1785455330,
      1785455366,
      1785455390,
      1785455426,
      1785455450,
      1785455486,
      1785455510,
      1785455546,
      1785455570,
      1785455606,
      1785455630,
      1785455666,
      1785455693,
      1785455726,
      1785455751,
      1785455786,
      1785455813,
      1785455846,
      1785455871,
      1785455907,
      1785455931,
      1785455967,
      1785455991,
      1785456027,
      1785456051,
      1785456087,
      1785456110,
      1785456147,
      1785456170,
      1785456231,
      1785456291,
      1785456351,
      1785456411,
      1785456471,
      1785456532,
      1785456592,
      1785456652,
      1785456772,
      1785456832,
      1785456892,
      1785456952,
      1785457012,
      1785457072,
      1785457192,
      1785457252,
      1785457312,
      1785457385,
      1785457445,
      1785457505,
      1785457553,
      1785457565,
      1785457625,
      1785457673,
      1785457685,
      1785457745,
      1785457805,
      1785457853,
      1785457865,
      1785457913,
      1785457925,
      1785457986,
      1785458033,
      1785458046,
      1785458106,
      1785458166,
      1785458214,
      1785458226,
      1785458274,
      1785458334,
      1785458346,
      1785458394,
      1785458454,
      1785458466,
      1785458514,
      1785458526,
      1785458586,
      1785458647,
      1785458694,
      1785458707,
      1785458767,
      1785458815,
      1785458827,
      1785458875,
      1785458887,
      1785458935,
      1785458947,
      1785458995,
      1785459067,
      1785459115,
      1785459127,
      1785459175,
      1785459187,
      1785459235,
      1785459247,
      1785459295,
      1785459307,
      1785459355,
      1785459368,
      1785459428,
      1785459488,
      1785459548,
      1785459608,
      1785459668,
      1785459728,
      1785459788,
      1785459848,
      1785459908,
      1785459968,
      1785460028,
      1785460088,
      1785460149,
      1785460209,
      1785460269,
      1785460329,
      1785460389,
      1785460449,
      1785460509,
      1785460569,
      1785460587,
      1785460629,
      1785460647,
      1785460689,
      1785460707,
      1785460749,
      1785460767,
      1785460809,
      1785460827,
      1785460870,
      1785460887,
      1785460930,
      1785460947,
      1785460990,
      1785461007,
      1785461050,
      1785461067,
      1785461110,
      1785461127,
      1785461170,
      1785461188,
      1785461230,
      1785461248,
      1785461290,
      1785461308,
      1785461350,
      1785461368,
      1785461410,
      1785461428,
      1785461470,
      1785461488,
      1785461530,
      1785461548,
      1785461591,
      1785461608,
      1785461651,
      1785461668,
      1785461711,
      1785461728,
      1785461788,
      1785461848,
      1785461909,
      1785461969,
      1785462029,
      1785462089,
      1785462149,
      1785462209,
      1785462269,
      1785462329,
      1785462389,
      1785462449,
      1785462499,
      1785462509,
      1785462569,
      1785462620,
      1785462630,
      1785462680,
      1785462690,
      1785462740,
      1785462750,
      1785462800,
      1785462810,
      1785462860,
      1785462870,
      1785462920,
      1785462930,
      1785462980,
      1785462990,
      1785463040,
      1785463050,
      1785463100,
      1785463110,
      1785463160,
      1785463170,
      1785463220,
      1785463230,
      1785463290,
      1785463341,
      1785463351,
      1785463401,
      1785463411,
      1785463461,
      1785463471,
      1785463521,
      1785463531,
      1785463581,
      1785463591,
      1785463641,
      1785463651,
      1785463701,
      1785463711,
      1785463761,
      1785463771,
      1785463821,
      1785463831,
      1785463881,
      1785463891,
      1785463951,
      1785464002,
      1785464011,
      1785464062,
      1785464072,
      1785464122,
      1785464132,
      1785464182,
      1785464192,
      1785464242,
      1785464252,
      1785464302,
      1785464312,
      1785464362,
      1785464372,
      1785464422,
      1785464432,
      1785464482,
      1785464492,
      1785464542,
      1785464552,
      1785464602,
      1785464612,
      1785464662,
      1785464672,
      1785464722,
      1785464732,
      1785464783,
      1785464792,
      1785464843,
      1785464853,
      1785464913,
      1785464973,
      1785465023,
      1785465033,
      1785465083,
      1785465093,
      1785465143,
      1785465153,
      1785465203,
      1785465213,
      1785465263,
      1785465273,
      1785465323,
      1785465333,
      1785465393,
      1785465443,
      1785465453,
      1785465513,
      1785465574,
      1785465624,
      1785465634,
      1785465694,
      1785465744,
      1785465754,
      1785465804,
      1785465864,
      1785465924,
      1785465984,
      1785466044,
      1785466104,
      1785466164,
      1785466225,
      1785466285,
      1785466345,
      1785466405,
      1785466465,
      1785466525,
      1785466585,
      1785466645,
      1785466705,
      1785466765,
      1785466825,
      1785466885,
      1785466945,
      1785467006,
      1785467066,
      1785467126,
      1785467186,
      1785467246,
      1785467306,
      1785467366,
      1785467426,
      1785467486,
      1785467546,
      1785467591,
      1785467606,
      1785467651,
      1785467666,
      1785467711,
      1785467727,
      1785467771,
      1785467787,
      1785467831,
      1785467847,
      1785467891,
      1785467907,
      1785467952,
      1785467967,
      1785468012,
      1785468027,
      1785468072,
      1785468087,
      1785468132,
      1785468147,
      1785468192,
      1785468207,
      1785468252,
      1785468267,
      1785468312,
      1785468327,
      1785468372,
      1785468387,
      1785468432,
      1785468447,
      1785468492,
      1785468508,
      1785468552,
      1785468568,
      1785468612,
      1785468672,
      1785468688,
      1785468732,
      1785468748,
      1785468793,
      1785468808,
      1785468853,
      1785468868,
      1785468913,
      1785468928,
      1785468973,
      1785468988,
      1785469033,
      1785469093,
      1785469153,
      1785469213,
      1785469273,
      1785469333,
      1785469393,
      1785469453,
      1785469513,
      1785469574,
      1785469634,
      1785469694,
      1785469754,
      1785469765,
      1785469813,
      1785469873,
      1785469927,
      1785469994,
      1785470054,
      1785470114,
      1785470174,
      1785470234,
      1785470294,
      1785470354,
      1785470473,
      1785470533,
      1785470593,
      1785470653,
      1785470715,
      1785470775,
      1785470835,
      1785470895,
      1785470955,
      1785471015,
      1785471075,
      1785471135,
      1785471194,
      1785471255
    ],
    "wof:geomhash": "1fbb700dd6139a0784f336f5c95e734e",
    "wof:id": 2032031957,
    "wof:repo": "sfomuseum-data-flights-2026-07"
  },
  "bbox": [
    -122.34333333333333,
    37.445277777777775,
    -79.56305555555555,
    43.77611111111111
  ],
  "geometry": {"coordinates":[[-79.6,43.72277777777778],[-79.56305555555555,43.76166666666666],[-79.63,43.77611111111111],[-79.73111111111112,43.76916666666666],[-79.8386111111111,43.7625],[-79.94861111111112,43.75555555555555],[-80.07416666666666,43.7475],[-80.21138888888889,43.73861111111111],[-80.34694444444445,43.733333333333334],[-80.49444444444444,43.73361111111111],[-80.64111111111112,43.73361111111111],[-80.78111111111112,43.733333333333334],[-80.93277777777779,43.73305555555556],[-81.08555555555554,43.7325],[-81.2475,43.73166666666667],[-81.40805555555556,43.73083333333334],[-81.56555555555555,43.72972222222222],[-81.72722222222222,43.72805555555556],[-81.88916666666667,43.72638888888889],[-82.05388888888889,43.72416666666667],[-82.21888888888888,43.7175],[-82.38666666666667,43.70611111111111],[-82.56,43.69416666666666],[-82.73361111111112,43.681666666666665],[-82.90805555555556,43.666666666666664],[-83.0761111111111,43.65],[-83.23833333333333,43.634166666666665],[-83.4038888888889,43.617222222222225],[-83.565,43.600833333333334],[-83.64194444444445,43.59277777777778],[-83.72,43.584722222222226],[-83.80138888888888,43.57611111111112],[-83.88555555555556,43.56722222222223],[-83.97111111111111,43.558055555555555],[-84.03333333333333,43.55138888888889],[-84.13472222222222,43.540277777777774],[-84.20027777777779,43.533055555555556],[-84.30333333333333,43.52194444444444],[-84.36694444444444,43.515],[-84.46972222222223,43.50333333333333],[-84.5363888888889,43.49583333333334],[-84.63861111111112,43.48444444444444],[-84.70083333333334,43.4775],[-84.80083333333333,43.46611111111111],[-84.86388888888888,43.45861111111111],[-84.96805555555555,43.447222222222216],[-85.02972222222222,43.442499999999995],[-85.13416666666667,43.433611111111105],[-85.20166666666667,43.427499999999995],[-85.30361111111111,43.41861111111111],[-85.39722222222223,43.41027777777778],[-85.46833333333333,43.40416666666667],[-85.56222222222222,43.39555555555555],[-85.6275,43.38972222222222],[-85.71944444444445,43.38138888888889],[-85.78833333333333,43.375],[-85.88194444444444,43.36638888888889],[-85.92666666666668,43.36222222222222],[-86.04055555555556,43.35138888888889],[-86.08638888888889,43.34722222222222],[-86.19722222222222,43.336666666666666],[-86.26444444444445,43.330000000000005],[-86.35944444444443,43.32083333333334],[-86.42666666666668,43.31444444444444],[-86.58972222222222,43.29527777777778],[-86.75194444444445,43.26361111111111],[-86.91527777777779,43.23111111111111],[-87.07666666666667,43.19888888888889],[-87.23833333333333,43.16638888888889],[-87.39861111111112,43.13361111111111],[-87.56,43.10055555555556],[-87.71972222222223,43.0675],[-88.04472222222222,42.99944444444444],[-88.19888888888889,42.96638888888889],[-88.36166666666666,42.92944444444444],[-88.5261111111111,42.89694444444444],[-88.69111111111111,42.861111111111114],[-88.85222222222221,42.82611111111112],[-89.17222222222223,42.75527777777778],[-89.33277777777778,42.71944444444445],[-89.4925,42.683611111111105],[-89.66638888888889,42.64055555555556],[-89.825,42.60472222222222],[-89.98194444444445,42.56944444444445],[-90.135,42.53638888888889],[-90.13666666666667,42.5325],[-90.32388888888889,42.492222222222225],[-90.44027777777778,42.452222222222225],[-90.47,42.439722222222215],[-90.58305555555555,42.390277777777776],[-90.75472222222223,42.316111111111105],[-90.86749999999999,42.2675],[-90.89722222222223,42.255],[-91.01055555555556,42.20722222222223],[-91.04027777777777,42.19499999999999],[-91.18472222222222,42.135],[-91.27027777777778,42.099444444444444],[-91.29805555555555,42.08777777777778],[-91.44527777777778,42.02916666666667],[-91.59333333333333,41.97666666666667],[-91.71138888888889,41.934999999999995],[-91.74361111111111,41.92333333333333],[-91.85972222222222,41.882222222222225],[-92.00666666666666,41.831388888888895],[-92.03833333333333,41.82055555555556],[-92.15444444444445,41.780277777777776],[-92.3025,41.728611111111114],[-92.3325,41.71805555555556],[-92.45222222222222,41.67611111111111],[-92.49194444444444,41.66222222222222],[-92.63972222222223,41.61027777777778],[-92.78555555555555,41.55833333333333],[-92.90361111111112,41.51583333333333],[-92.93472222222222,41.505],[-93.08361111111111,41.45138888888889],[-93.19944444444445,41.409444444444446],[-93.22888888888889,41.39805555555556],[-93.34527777777777,41.35472222222222],[-93.375,41.343611111111116],[-93.48944444444444,41.301944444444445],[-93.52194444444444,41.290277777777774],[-93.63583333333334,41.25083333333333],[-93.81083333333333,41.189722222222215],[-93.92777777777778,41.14888888888889],[-93.95972222222223,41.1375],[-94.07583333333334,41.09722222222222],[-94.10694444444444,41.08638888888889],[-94.22305555555556,41.045833333333334],[-94.25444444444445,41.035],[-94.36944444444444,40.99527777777778],[-94.4,40.985],[-94.51916666666666,40.95916666666667],[-94.54944444444445,40.953611111111115],[-94.69944444444445,40.92583333333333],[-94.85305555555556,40.89722222222222],[-95.00805555555556,40.86805555555556],[-95.16250000000001,40.83888888888889],[-95.31694444444445,40.80972222222222],[-95.47027777777778,40.78],[-95.62222222222222,40.75055555555556],[-95.77777777777777,40.72027777777778],[-95.93138888888889,40.69027777777777],[-96.08388888888888,40.66],[-96.2363888888889,40.629444444444445],[-96.38805555555557,40.59916666666667],[-96.53833333333333,40.56861111111112],[-96.68666666666667,40.538333333333334],[-96.83944444444444,40.50694444444444],[-96.98944444444444,40.475833333333334],[-97.14111111111112,40.44444444444444],[-97.29138888888889,40.41277777777778],[-97.44027777777778,40.38138888888889],[-97.59166666666667,40.34916666666667],[-97.64583333333334,40.335],[-97.73944444444444,40.31722222222223],[-97.79638888888888,40.305],[-97.88833333333334,40.28527777777778],[-97.94472222222223,40.27305555555555],[-98.03722222222223,40.25277777777778],[-98.09222222222222,40.240833333333335],[-98.18361111111112,40.22083333333334],[-98.24138888888889,40.20805555555556],[-98.33194444444445,40.18805555555555],[-98.38833333333334,40.175555555555555],[-98.48027777777779,40.155277777777776],[-98.53777777777778,40.1425],[-98.62777777777777,40.12222222222222],[-98.68583333333333,40.10916666666667],[-98.77666666666667,40.08888888888889],[-98.83583333333333,40.07555555555556],[-98.92666666666668,40.05472222222222],[-98.98472222222222,40.041666666666664],[-99.0786111111111,40.02722222222222],[-99.14111111111112,40.02444444444444],[-99.23111111111112,40.02333333333333],[-99.2936111111111,40.02305555555555],[-99.38527777777779,40.022777777777776],[-99.44722222222222,40.02333333333333],[-99.5436111111111,40.02444444444444],[-99.60222222222221,40.025277777777774],[-99.68777777777778,40.02638888888889],[-99.74722222222222,40.02611111111111],[-99.83388888888888,40.026666666666664],[-99.89361111111111,40.026944444444446],[-99.97666666666667,40.02777777777778],[-100.0363888888889,40.026666666666664],[-100.1261111111111,40.024166666666666],[-100.185,40.02111111111111],[-100.27666666666667,40.01638888888889],[-100.33527777777778,40.013333333333335],[-100.44638888888889,40.0075],[-100.49,40.00388888888889],[-100.64194444444445,39.994166666666665],[-100.79305555555555,39.98416666666667],[-100.94361111111111,39.973888888888894],[-101.0961111111111,39.96333333333334],[-101.24666666666667,39.95277777777778],[-101.39611111111111,39.94222222222222],[-101.55027777777778,39.93083333333333],[-101.70333333333333,39.91972222222222],[-101.85249999999999,39.90833333333333],[-102.00194444444445,39.89694444444444],[-102.1538888888889,39.885],[-102.30027777777778,39.873333333333335],[-102.42277777777778,39.86194444444445],[-102.44972222222222,39.86138888888889],[-102.59777777777778,39.84916666666667],[-102.71916666666667,39.83722222222222],[-102.75194444444445,39.83638888888889],[-102.86694444444444,39.82527777777778],[-102.87555555555555,39.825833333333335],[-103.01611111111112,39.81333333333333],[-103.02305555555556,39.81333333333333],[-103.16722222222222,39.80027777777777],[-103.1763888888889,39.8],[-103.31638888888888,39.786944444444444],[-103.32833333333333,39.78638888888889],[-103.46833333333333,39.77361111111111],[-103.47916666666667,39.77305555555555],[-103.61638888888888,39.76027777777778],[-103.6275,39.75944444444445],[-103.76722222222222,39.745555555555555],[-103.77694444444444,39.74583333333334],[-103.91583333333334,39.73222222222223],[-103.92611111111111,39.73166666666667],[-104.06638888888888,39.717777777777776],[-104.07722222222222,39.717222222222226],[-104.21805555555555,39.70333333333333],[-104.2275,39.70277777777778],[-104.37527777777777,39.68833333333333],[-104.51416666666667,39.675],[-104.54638888888888,39.671388888888885],[-104.65472222222223,39.66027777777778],[-104.68527777777778,39.6575],[-104.80361111111111,39.64527777777778],[-104.82388888888889,39.64361111111111],[-104.95111111111112,39.63],[-104.97027777777778,39.62833333333333],[-105.10055555555554,39.61388888888889],[-105.11944444444444,39.61277777777778],[-105.24944444444445,39.59805555555556],[-105.2675,39.59722222222222],[-105.40138888888889,39.58222222222223],[-105.41972222222223,39.58083333333334],[-105.55055555555555,39.566111111111105],[-105.56638888888888,39.565],[-105.69666666666667,39.55],[-105.71472222222222,39.54888888888889],[-105.8461111111111,39.53333333333333],[-105.86138888888888,39.5325],[-106.00805555555556,39.51611111111111],[-106.13777777777779,39.50138888888889],[-106.15555555555557,39.49944444444444],[-106.28583333333333,39.483333333333334],[-106.28944444444444,39.48388888888889],[-106.4325,39.466944444444444],[-106.43833333333333,39.46666666666667],[-106.57972222222222,39.44944444444444],[-106.60972222222222,39.446666666666665],[-106.72500000000001,39.4325],[-106.75555555555556,39.42916666666667],[-106.87222222222222,39.415],[-106.90166666666667,39.41166666666666],[-107.01916666666666,39.39666666666667],[-107.05,39.39361111111111],[-107.16638888888889,39.37777777777778],[-107.19611111111111,39.37583333333333],[-107.31222222222222,39.36083333333333],[-107.33833333333332,39.35805555555556],[-107.46083333333334,39.3425],[-107.4863888888889,39.339444444444446],[-107.61,39.32361111111111],[-107.63361111111112,39.32083333333334],[-107.75833333333334,39.30472222222222],[-107.78333333333333,39.30166666666666],[-107.90555555555557,39.28527777777778],[-107.93166666666667,39.2825],[-108.05416666666666,39.26583333333333],[-108.07944444444443,39.26305555555555],[-108.19916666666667,39.24722222222222],[-108.23055555555555,39.24305555555556],[-108.38583333333334,39.222500000000004],[-108.50527777777778,39.20638888888889],[-108.65694444444445,39.18583333333333],[-108.65444444444445,39.18611111111111],[-108.80527777777777,39.165277777777774],[-108.80527777777777,39.165277777777774],[-108.95527777777778,39.144444444444446],[-108.95527777777778,39.144444444444446],[-109.10333333333332,39.12388888888889],[-109.10333333333332,39.12388888888889],[-109.25305555555556,39.10277777777778],[-109.25305555555556,39.1025],[-109.40222222222222,39.081388888888895],[-109.40222222222222,39.081388888888895],[-109.55138888888888,39.05972222222222],[-109.69833333333334,39.038333333333334],[-109.69833333333334,39.038333333333334],[-109.84666666666666,39.016666666666666],[-109.99694444444445,38.99444444444445],[-110.14666666666668,38.971944444444446],[-110.1463888888889,38.971944444444446],[-110.29444444444444,38.94972222222222],[-110.44333333333334,38.926944444444445],[-110.44333333333334,38.926944444444445],[-110.59305555555555,38.903888888888886],[-110.73944444444444,38.88111111111111],[-110.88527777777779,38.85861111111111],[-111.01527777777778,38.838055555555556],[-111.16277777777778,38.81444444444444],[-111.3111111111111,38.79083333333333],[-111.45805555555556,38.76694444444444],[-111.60916666666667,38.7425],[-111.75944444444444,38.7175],[-111.90833333333335,38.69305555555555],[-112.05666666666666,38.668055555555554],[-112.20361111111112,38.64333333333333],[-112.35222222222221,38.61805555555556],[-112.50305555555556,38.592222222222226],[-112.65111111111112,38.56666666666667],[-112.79638888888888,38.54138888888889],[-112.94361111111111,38.51555555555556],[-113.0911111111111,38.489444444444445],[-113.26833333333333,38.45777777777778],[-113.41472222222222,38.43138888888889],[-113.56194444444444,38.40472222222222],[-113.70777777777778,38.378055555555555],[-113.85499999999999,38.35111111111111],[-113.99916666666667,38.324444444444445],[-114.14666666666668,38.29666666666667],[-114.29194444444444,38.269444444444446],[-114.43805555555556,38.24777777777778],[-114.58166666666666,38.23916666666667],[-114.72611111111111,38.23027777777778],[-114.87083333333332,38.221111111111114],[-114.9786111111111,38.215],[-115.01555555555555,38.21194444444445],[-115.12194444444444,38.20527777777778],[-115.1563888888889,38.20305555555556],[-115.26472222222222,38.19694444444444],[-115.3025,38.19333333333333],[-115.40972222222223,38.18611111111111],[-115.43833333333333,38.18416666666666],[-115.55527777777777,38.17666666666666],[-115.58222222222221,38.17444444444444],[-115.70055555555555,38.16638888888889],[-115.72805555555556,38.16444444444444],[-115.83833333333332,38.156388888888884],[-115.87472222222222,38.153888888888886],[-115.99222222222222,38.14555555555555],[-116.01944444444445,38.14361111111111],[-116.13666666666667,38.135],[-116.16361111111112,38.13305555555556],[-116.28,38.12444444444444],[-116.30722222222222,38.12222222222222],[-116.42583333333334,38.11333333333334],[-116.4525,38.11138888888889],[-116.57027777777778,38.102222222222224],[-116.5961111111111,38.10027777777778],[-116.71611111111112,38.090833333333336],[-116.74361111111111,38.08861111111111],[-116.86277777777777,38.07916666666667],[-116.89083333333333,38.07694444444445],[-117.0075,38.0675],[-117.03722222222223,38.06527777777777],[-117.12722222222222,38.05777777777777],[-117.18555555555555,38.05305555555555],[-117.27638888888889,38.04555555555555],[-117.33527777777778,38.04055555555556],[-117.42472222222223,38.033055555555556],[-117.56805555555555,38.020833333333336],[-117.62666666666667,38.01555555555556],[-117.71861111111112,38.007777777777775],[-117.745,38.00555555555555],[-117.865,37.99333333333333],[-117.89333333333335,37.99027777777778],[-118.01527777777778,37.9775],[-118.04166666666667,37.974722222222226],[-118.16416666666667,37.961666666666666],[-118.19194444444445,37.95861111111111],[-118.31361111111111,37.94555555555555],[-118.34194444444444,37.942499999999995],[-118.46388888888889,37.928888888888885],[-118.6111111111111,37.91277777777778],[-118.75888888888889,37.89611111111111],[-118.90666666666667,37.879444444444445],[-119.06527777777778,37.86138888888889],[-119.21305555555556,37.844166666666666],[-119.36083333333333,37.82666666666667],[-119.50944444444444,37.80916666666666],[-119.65611111111112,37.791666666666664],[-119.8025,37.77388888888889],[-119.94944444444445,37.75611111111111],[-120.095,37.738055555555555],[-120.24166666666667,37.719722222222224],[-120.26666666666667,37.71666666666667],[-120.38333333333334,37.7],[-120.51666666666667,37.68333333333333],[-120.65,37.666666666666664],[-120.78972222222222,37.653888888888886],[-120.91777777777779,37.638333333333335],[-121.04055555555556,37.6225],[-121.16000000000001,37.60638888888889],[-121.25972222222222,37.59305555555556],[-121.36805555555554,37.580555555555556],[-121.47277777777778,37.568333333333335],[-121.66666666666667,37.56666666666667],[-121.73333333333333,37.6],[-121.81666666666666,37.63333333333333],[-121.8,37.56666666666667],[-121.81166666666667,37.52055555555555],[-121.8536111111111,37.46333333333334],[-121.93111111111112,37.445277777777775],[-122.00722222222223,37.465],[-122.07777777777777,37.495555555555555],[-122.14444444444445,37.524166666666666],[-122.20527777777778,37.54944444444444],[-122.25805555555556,37.57194444444445],[-122.3,37.6],[-122.34333333333333,37.60777777777778]],"type":"LineString"}
}
