{
  "id": 2031960767,
  "type": "Feature",
  "properties": {
    "geom:area": 0,
    "geom:bbox": "-122.393670,37.626390,-122.215610,38.461960",
    "geom:latitude": 38.00304994290657,
    "geom:longitude": -122.24428030347158,
    "src:alt_label": "swim-takeoff",
    "src:geom": "swim",
    "swim:elevations": [
      305,
      1014,
      1200,
      1360,
      1578,
      1923,
      2314,
      2449,
      2676,
      2999,
      3162,
      3484,
      3547,
      3937,
      4589,
      4755,
      5597,
      5756,
      6191,
      6386,
      6523,
      6668
    ],
    "swim:geom": "takeoff",
    "swim:timestamps": [
      1784927580,
      1784927641,
      1784927667,
      1784927691,
      1784927723,
      1784927747,
      1784927773,
      1784927781,
      1784927793,
      1784927815,
      1784927828,
      1784927875,
      1784927881,
      1784927912,
      1784927963,
      1784927981,
      1784928056,
      1784928071,
      1784928117,
      1784928147,
      1784928162,
      1784928182
    ],
    "wof:geomhash": "2f4b7f33a9d8050226a2df6bf14f004c",
    "wof:id": 2031960767,
    "wof:repo": "sfomuseum-data-flights-2026-07"
  },
  "bbox": [
    -122.39367,
    37.62639,
    -122.21561,
    38.46196
  ],
  "geometry": {"coordinates":[[-122.39367,37.62639],[-122.37797,37.6585],[-122.35168,37.66639],[-122.32411,37.67536],[-122.28112,37.69229],[-122.24464,37.70679],[-122.21777,37.73465],[-122.21561,37.74598],[-122.21584,37.76252],[-122.21659,37.79264],[-122.21687,37.81099],[-122.21875,37.88612],[-122.21903,37.89637],[-122.22045,37.94932],[-122.22267,38.03983],[-122.22361,38.0723],[-122.22733,38.21305],[-122.22806,38.24164],[-122.23039,38.33095],[-122.23497,38.39081],[-122.23812,38.42119],[-122.24236,38.46196]],"type":"LineString"}
}
