{
  "id": 2031978097,
  "type": "Feature",
  "properties": {
    "geom:area": 0,
    "geom:bbox": "-122.358270,37.439920,-121.256640,37.614150",
    "geom:latitude": 37.52888547510205,
    "geom:longitude": -121.8156021195795,
    "src:alt_label": "swim-approach",
    "src:geom": "swim",
    "swim:elevations": [
      4650,
      4439,
      4290,
      4017,
      3648,
      3493,
      3469,
      3192,
      3053,
      2989,
      2929,
      2926,
      2828,
      2672,
      2627,
      2568,
      2460,
      2134,
      2133,
      2135,
      2134,
      2134,
      2134,
      2045,
      1922,
      1702,
      1577,
      1302,
      1156,
      1108,
      1056,
      913,
      839,
      732,
      578,
      540,
      341,
      212,
      77,
      0
    ],
    "swim:geom": "approach",
    "swim:timestamps": [
      1785055554,
      1785055577,
      1785055593,
      1785055621,
      1785055661,
      1785055676,
      1785055680,
      1785055718,
      1785055760,
      1785055789,
      1785055810,
      1785055820,
      1785055843,
      1785055863,
      1785055872,
      1785055881,
      1785055896,
      1785055947,
      1785055952,
      1785055956,
      1785055964,
      1785055977,
      1785055982,
      1785056027,
      1785056045,
      1785056087,
      1785056100,
      1785056149,
      1785056173,
      1785056185,
      1785056196,
      1785056218,
      1785056239,
      1785056264,
      1785056301,
      1785056314,
      1785056357,
      1785056394,
      1785056426,
      1785056442
    ],
    "wof:geomhash": "a1bb9d647e96d50f822a9e4ea0d991c8",
    "wof:id": 2031978097,
    "wof:repo": "sfomuseum-data-flights-2026-07"
  },
  "bbox": [
    -122.35827,
    37.43992,
    -121.25664,
    37.61415
  ],
  "geometry": {"coordinates":[[-121.25664,37.59353],[-121.30141,37.58783],[-121.33483,37.58422],[-121.38953,37.57825],[-121.4671,37.56942],[-121.4961,37.56591],[-121.5035,37.56505],[-121.57563,37.5566],[-121.64801,37.54512],[-121.69304,37.53444],[-121.72139,37.52252],[-121.73211,37.51393],[-121.75432,37.4956],[-121.77313,37.4806],[-121.78119,37.47379],[-121.78979,37.46682],[-121.8033,37.45558],[-121.86566,37.44229],[-121.8732,37.44198],[-121.87774,37.4418],[-121.88803,37.44135],[-121.90585,37.44038],[-121.91282,37.43992],[-121.96809,37.4494],[-121.98948,37.45852],[-122.03922,37.47951],[-122.05479,37.48598],[-122.11177,37.51015],[-122.13844,37.52135],[-122.15132,37.52681],[-122.1629,37.53179],[-122.18381,37.54062],[-122.20176,37.5481],[-122.22214,37.55677],[-122.24964,37.56845],[-122.2596,37.57253],[-122.29405,37.58706],[-122.32194,37.59877],[-122.34601,37.60879],[-122.35827,37.61415]],"type":"LineString"}
}
