{
  "id": 2032039607,
  "type": "Feature",
  "properties": {
    "geom:area": 0,
    "geom:bbox": "-122.524940,37.625390,-122.115980,38.463260",
    "geom:latitude": 38.01392670602703,
    "geom:longitude": -122.33507543475935,
    "src:alt_label": "swim-takeoff",
    "src:geom": "swim",
    "swim:elevations": [
      122,
      574,
      743,
      936,
      1209,
      1343,
      2190,
      2336,
      2642,
      2974,
      3109,
      3244,
      3431,
      3529,
      3706,
      3763,
      3969,
      4185,
      4662,
      4964,
      5135,
      5243,
      5471
    ],
    "swim:geom": "takeoff",
    "swim:timestamps": [
      1785448165,
      1785448196,
      1785448215,
      1785448230,
      1785448283,
      1785448299,
      1785448371,
      1785448382,
      1785448405,
      1785448433,
      1785448454,
      1785448481,
      1785448515,
      1785448538,
      1785448570,
      1785448580,
      1785448600,
      1785448623,
      1785448682,
      1785448724,
      1785448758,
      1785448770,
      1785448800
    ],
    "wof:geomhash": "72ea1a0261d6eb2ccfc45b3d890fbea1",
    "wof:id": 2032039607,
    "wof:repo": "sfomuseum-data-flights-2026-07"
  },
  "bbox": [
    -122.52494,
    37.62539,
    -122.11598,
    38.46326
  ],
  "geometry": {"coordinates":[[-122.39103,37.62539],[-122.41779,37.63698],[-122.43498,37.64398],[-122.44897,37.64938],[-122.5077,37.67515],[-122.5247,37.69007],[-122.52494,37.78117],[-122.51966,37.79583],[-122.49942,37.82295],[-122.47275,37.85581],[-122.45366,37.8803],[-122.42675,37.91649],[-122.38991,37.96692],[-122.36478,38.00222],[-122.32546,38.05372],[-122.31384,38.06874],[-122.28863,38.10117],[-122.26017,38.13913],[-122.18769,38.23919],[-122.13434,38.31255],[-122.11677,38.3779],[-122.11598,38.4027],[-122.11907,38.46326]],"type":"LineString"}
}
