{
  "id": 2031969819,
  "type": "Feature",
  "properties": {
    "geom:area": 0,
    "geom:bbox": "-122.527230,37.632390,-122.058180,38.485920",
    "geom:latitude": 38.032980246120964,
    "geom:longitude": -122.32094292130859,
    "src:alt_label": "swim-takeoff",
    "src:geom": "swim",
    "swim:elevations": [
      323,
      510,
      691,
      795,
      1068,
      1237,
      1336,
      1600,
      1887,
      2348,
      2671,
      2778,
      2815,
      3141,
      3354,
      3848,
      4068,
      4215,
      4608,
      5166,
      5419,
      5740,
      5807
    ],
    "swim:geom": "takeoff",
    "swim:timestamps": [
      1785004401,
      1785004414,
      1785004433,
      1785004442,
      1785004489,
      1785004507,
      1785004525,
      1785004550,
      1785004574,
      1785004617,
      1785004643,
      1785004653,
      1785004659,
      1785004690,
      1785004749,
      1785004818,
      1785004838,
      1785004857,
      1785004901,
      1785004967,
      1785004998,
      1785005037,
      1785005051
    ],
    "wof:geomhash": "7228add4e65c9b99d64bb237250e215f",
    "wof:id": 2031969819,
    "wof:repo": "sfomuseum-data-flights-2026-07"
  },
  "bbox": [
    -122.52723,
    37.63239,
    -122.05818,
    38.48592
  ],
  "geometry": {"coordinates":[[-122.40089,37.63239],[-122.41286,37.63722],[-122.43018,37.64402],[-122.43875,37.64739],[-122.4868,37.66755],[-122.50769,37.67639],[-122.52388,37.69204],[-122.52723,37.72358],[-122.52681,37.75375],[-122.51094,37.80798],[-122.48003,37.83249],[-122.47114,37.8452],[-122.46686,37.85291],[-122.44382,37.8927],[-122.3837,37.97516],[-122.30337,38.08216],[-122.27939,38.11462],[-122.25678,38.14485],[-122.20329,38.21595],[-122.12225,38.32602],[-122.09518,38.38416],[-122.06768,38.45964],[-122.05818,38.48592]],"type":"LineString"}
}
