{
  "id": 2031996149,
  "type": "Feature",
  "properties": {
    "geom:area": 0,
    "geom:bbox": "-150.133333,38.300000,-123.166667,61.466667",
    "geom:latitude": 51.66377364420367,
    "geom:longitude": -135.40493026449747,
    "src:alt_label": "swim-path",
    "src:geom": "swim",
    "swim:altitudes": [
      "227C",
      "251",
      "257",
      "259C",
      "266",
      "272",
      "280",
      "287C",
      "296",
      "299C",
      "304",
      "309",
      "310C",
      "316",
      "327",
      "331",
      "338C",
      "340C",
      "340",
      "340C",
      "340",
      "340C",
      "340",
      "340C",
      "340C",
      "340C",
      "340C",
      "340C",
      "340C",
      "340",
      "340",
      "340",
      "340",
      "347",
      "352",
      "356",
      "361",
      "364",
      "368",
      "371C",
      "375",
      "377",
      "380C",
      "380C",
      "380C",
      "380C",
      "380C",
      "380C",
      "380C",
      "380C",
      "380C",
      "380C",
      "380C",
      "380C",
      "380C",
      "380C",
      "380C",
      "380C",
      "380C",
      "380C",
      "380C",
      "380C",
      "380C",
      "380C",
      "380C",
      "380C",
      "380",
      "380",
      "380",
      "380",
      "380",
      "380",
      "380",
      "380",
      "380",
      "380",
      "380",
      "380",
      "380",
      "380",
      "380",
      "380",
      "380",
      "380",
      "380",
      "380",
      "380",
      "380",
      "380",
      "380",
      "380",
      "380",
      "380",
      "380",
      "380",
      "380",
      "380",
      "380",
      "380",
      "380",
      "380",
      "380",
      "380",
      "380",
      "380",
      "380",
      "380",
      "380",
      "380",
      "380",
      "380",
      "380",
      "380",
      "380",
      "380",
      "380",
      "380",
      "380",
      "380",
      "380",
      "380",
      "380",
      "380",
      "380",
      "380",
      "380",
      "380",
      "380",
      "380",
      "380",
      "380",
      "380",
      "380",
      "380",
      "380",
      "380",
      "380",
      "380",
      "380",
      "380",
      "380",
      "380",
      "380",
      "380",
      "380",
      "380",
      "380",
      "380",
      "380",
      "380",
      "380",
      "380",
      "380",
      "380",
      "380",
      "380",
      "380",
      "380",
      "380",
      "380",
      "380",
      "380T",
      "380",
      "375T",
      "347T",
      "317T",
      "295T",
      "274T",
      "253T",
      "233T",
      "211T",
      "191T",
      "132",
      "113",
      "100",
      "082",
      "064",
      "050",
      "036",
      "031",
      "030",
      "027",
      "016",
      "008",
      "001"
    ],
    "swim:geom": "path",
    "swim:speeds": [
      390,
      407,
      411,
      410,
      413,
      421,
      425,
      430,
      437,
      440,
      439,
      446,
      450,
      448,
      454,
      460,
      460,
      469,
      470,
      468,
      470,
      466,
      460,
      463,
      463,
      462,
      463,
      462,
      462,
      462,
      462,
      461,
      461,
      466,
      467,
      468,
      470,
      470,
      471,
      480,
      473,
      473,
      474,
      475,
      476,
      475,
      475,
      475,
      475,
      475,
      475,
      476,
      476,
      476,
      476,
      474,
      471,
      468,
      466,
      463,
      462,
      461,
      462,
      464,
      466,
      468,
      480,
      470,
      470,
      470,
      460,
      470,
      470,
      470,
      470,
      470,
      470,
      460,
      470,
      460,
      470,
      460,
      460,
      460,
      470,
      470,
      470,
      470,
      470,
      460,
      460,
      460,
      460,
      460,
      460,
      460,
      460,
      460,
      460,
      460,
      460,
      450,
      450,
      450,
      450,
      440,
      450,
      450,
      450,
      450,
      450,
      450,
      450,
      440,
      440,
      440,
      440,
      440,
      440,
      440,
      450,
      450,
      450,
      450,
      450,
      440,
      440,
      440,
      430,
      430,
      430,
      430,
      430,
      430,
      430,
      430,
      440,
      440,
      440,
      440,
      440,
      440,
      440,
      440,
      440,
      440,
      440,
      440,
      440,
      440,
      440,
      440,
      440,
      440,
      440,
      440,
      440,
      440,
      440,
      440,
      440,
      440,
      440,
      440,
      440,
      450,
      440,
      420,
      410,
      400,
      390,
      380,
      340,
      330,
      300,
      290,
      280,
      250,
      220,
      200,
      210,
      180,
      170,
      150,
      130
    ],
    "swim:timestamps": [
      1785204925,
      1785205021,
      1785205031,
      1785205045,
      1785205081,
      1785205091,
      1785205141,
      1785205165,
      1785205211,
      1785205226,
      1785205261,
      1785205271,
      1785205285,
      1785205321,
      1785205382,
      1785205391,
      1785205442,
      1785205502,
      1785205525,
      1785205562,
      1785205586,
      1785205622,
      1785205646,
      1785205691,
      1785205742,
      1785205812,
      1785205862,
      1785205872,
      1785205944,
      1785205982,
      1785206004,
      1785206042,
      1785206064,
      1785206124,
      1785206162,
      1785206184,
      1785206222,
      1785206244,
      1785206282,
      1785206307,
      1785206343,
      1785206364,
      1785206403,
      1785206424,
      1785206463,
      1785206484,
      1785206523,
      1785206544,
      1785206583,
      1785206605,
      1785206643,
      1785206665,
      1785206703,
      1785206725,
      1785206763,
      1785206883,
      1785206943,
      1785207003,
      1785207063,
      1785207123,
      1785207183,
      1785207243,
      1785207364,
      1785207424,
      1785207484,
      1785207544,
      1785211157,
      1785211217,
      1785211277,
      1785211337,
      1785211397,
      1785211578,
      1785211638,
      1785211698,
      1785211758,
      1785211818,
      1785211878,
      1785211938,
      1785211998,
      1785212058,
      1785212118,
      1785212178,
      1785212238,
      1785212299,
      1785212359,
      1785212426,
      1785212479,
      1785212539,
      1785212546,
      1785212599,
      1785212659,
      1785212779,
      1785212839,
      1785212899,
      1785212908,
      1785213260,
      1785213319,
      1785213332,
      1785213379,
      1785213393,
      1785213439,
      1785213560,
      1785213620,
      1785213634,
      1785213680,
      1785213800,
      1785213860,
      1785213920,
      1785213981,
      1785214041,
      1785214100,
      1785214161,
      1785214221,
      1785214298,
      1785214341,
      1785214401,
      1785214461,
      1785214521,
      1785214581,
      1785214641,
      1785214701,
      1785214761,
      1785214821,
      1785214882,
      1785214960,
      1785215062,
      1785215122,
      1785215182,
      1785215602,
      1785215663,
      1785215723,
      1785215783,
      1785215843,
      1785215903,
      1785215963,
      1785216023,
      1785216083,
      1785216143,
      1785216203,
      1785216263,
      1785216323,
      1785216383,
      1785216444,
      1785216503,
      1785216564,
      1785216624,
      1785216684,
      1785216744,
      1785216804,
      1785216864,
      1785216924,
      1785216984,
      1785217045,
      1785217105,
      1785217165,
      1785217225,
      1785217285,
      1785217345,
      1785217405,
      1785217435,
      1785217465,
      1785217525,
      1785217555,
      1785217585,
      1785217645,
      1785217705,
      1785217765,
      1785217825,
      1785217885,
      1785217945,
      1785218005,
      1785218066,
      1785218265,
      1785218326,
      1785218386,
      1785218447,
      1785218508,
      1785218568,
      1785218629,
      1785218689,
      1785218749,
      1785218810,
      1785218870,
      1785218931,
      1785218992
    ],
    "wof:geomhash": "4f6817a7ba69653f0c2cf4f790f46122",
    "wof:id": 2031996149,
    "wof:repo": "sfomuseum-data-flights-2026-07"
  },
  "bbox": [
    -150.13333333333333,
    38.3,
    -123.16666666666667,
    61.46666666666667
  ],
  "geometry": {"coordinates":[[-123.16666666666667,38.3],[-123.28388888888888,38.45722222222223],[-123.31388888888888,38.48916666666667],[-123.31666666666666,38.5],[-123.36694444444444,38.55361111111111],[-123.39722222222223,38.58694444444445],[-123.4525,38.653055555555554],[-123.48333333333333,38.7],[-123.56777777777778,38.78722222222222],[-123.56666666666666,38.8],[-123.62527777777777,38.85666666666667],[-123.6575,38.89222222222222],[-123.66666666666667,38.9],[-123.71694444444445,38.96027777777778],[-123.79555555555555,39.07222222222222],[-123.81888888888888,39.11194444444445],[-123.86555555555555,39.189722222222215],[-123.93861111111111,39.306666666666665],[-123.96666666666667,39.35],[-124.0111111111111,39.42305555555555],[-124.03333333333333,39.46666666666667],[-124.08444444444444,39.53944444444444],[-124.11666666666666,39.583333333333336],[-124.1713888888889,39.67861111111111],[-124.23055555555555,39.77222222222222],[-124.3175,39.91027777777778],[-124.3761111111111,40.00277777777778],[-124.3913888888889,40.026666666666664],[-124.46527777777779,40.14333333333333],[-124.525,40.23694444444445],[-124.55555555555556,40.28444444444444],[-124.59972222222221,40.35305555555556],[-124.63,40.4],[-124.70555555555556,40.51777777777777],[-124.75166666666667,40.58888888888889],[-124.78277777777778,40.636944444444445],[-124.82805555555555,40.70666666666667],[-124.85944444444443,40.755],[-124.90444444444445,40.824444444444445],[-124.93333333333334,40.86666666666667],[-124.9825,40.94305555555555],[-125.01416666666667,40.99138888888889],[-125.06055555555555,41.06222222222222],[-125.09194444444444,41.11],[-125.1388888888889,41.18138888888889],[-125.16972222222223,41.22833333333333],[-125.21638888888889,41.29861111111111],[-125.24777777777778,41.346111111111114],[-125.29555555555555,41.41777777777777],[-125.32666666666667,41.465],[-125.37416666666665,41.53638888888889],[-125.40583333333333,41.58305555555556],[-125.45305555555557,41.65361111111111],[-125.48611111111111,41.70305555555556],[-125.53305555555555,41.77305555555555],[-125.69222222222223,42.00805555555556],[-125.77111111111111,42.12388888888889],[-125.84944444444444,42.23777777777778],[-125.92777777777778,42.35194444444445],[-126.00638888888889,42.466944444444444],[-126.08555555555554,42.58083333333334],[-126.165,42.69499999999999],[-126.31972222222223,42.93083333333333],[-126.39750000000001,43.04944444444444],[-126.47555555555556,43.1675],[-126.5525,43.28361111111111],[-132,50.333333333333336],[-132.11666666666667,50.43333333333333],[-132.23333333333332,50.55],[-132.35,50.666666666666664],[-132.45,50.766666666666666],[-132.78333333333333,51.1],[-132.9,51.2],[-133,51.31666666666667],[-133.11666666666667,51.43333333333333],[-133.23333333333332,51.53333333333333],[-133.35,51.65],[-133.46666666666667,51.75],[-133.58333333333334,51.86666666666667],[-133.7,51.96666666666667],[-133.81666666666666,52.083333333333336],[-133.93333333333334,52.18333333333333],[-134.05,52.3],[-134.16666666666666,52.4],[-134.28333333333333,52.5],[-134.41666666666666,52.63333333333333],[-134.51666666666668,52.71666666666667],[-134.63333333333333,52.833333333333336],[-134.65,52.85],[-134.76666666666668,52.93333333333333],[-134.88333333333333,53.03333333333333],[-135.11666666666667,53.25],[-135.25,53.35],[-135.36666666666667,53.46666666666667],[-135.38333333333333,53.483333333333334],[-136.11666666666667,54.083333333333336],[-136.26666666666668,54.166666666666664],[-136.3,54.18333333333333],[-136.41666666666666,54.266666666666666],[-136.45,54.28333333333333],[-136.56666666666666,54.35],[-136.85,54.55],[-137,54.63333333333333],[-137.03333333333333,54.65],[-137.15,54.733333333333334],[-137.43333333333334,54.9],[-137.58333333333334,55],[-137.73333333333332,55.083333333333336],[-137.88333333333333,55.18333333333333],[-138.03333333333333,55.266666666666666],[-138.18333333333334,55.35],[-138.33333333333334,55.45],[-138.48333333333332,55.53333333333333],[-138.68333333333334,55.65],[-138.8,55.71666666666667],[-138.95,55.8],[-139.1,55.88333333333333],[-139.26666666666668,55.96666666666667],[-139.41666666666666,56.06666666666667],[-139.56666666666666,56.15],[-139.73333333333332,56.233333333333334],[-139.88333333333333,56.31666666666667],[-140.05,56.4],[-140.2,56.5],[-140.4,56.61666666666667],[-140.63333333333333,56.78333333333333],[-140.78333333333333,56.86666666666667],[-140.91666666666666,56.96666666666667],[-141.93333333333334,57.61666666666667],[-142.08333333333334,57.7],[-142.23333333333332,57.8],[-142.38333333333333,57.88333333333333],[-142.53333333333333,57.96666666666667],[-142.68333333333334,58.06666666666667],[-142.83333333333334,58.15],[-142.98333333333332,58.25],[-143.13333333333333,58.333333333333336],[-143.28333333333333,58.416666666666664],[-143.43333333333334,58.516666666666666],[-143.6,58.6],[-143.75,58.7],[-143.91666666666666,58.78333333333333],[-144.06666666666666,58.88333333333333],[-144.23333333333332,58.96666666666667],[-144.38333333333333,59.05],[-144.55,59.15],[-144.71666666666667,59.233333333333334],[-144.88333333333333,59.333333333333336],[-145.05,59.416666666666664],[-145.21666666666667,59.5],[-145.38333333333333,59.6],[-145.55,59.68333333333333],[-145.71666666666667,59.766666666666666],[-145.88333333333333,59.86666666666667],[-146.05,59.95],[-146.21666666666667,60.03333333333333],[-146.4,60.11666666666667],[-146.56666666666666,60.21666666666667],[-146.73333333333332,60.3],[-146.83333333333334,60.333333333333336],[-146.91666666666666,60.38333333333333],[-147.1,60.46666666666667],[-147.18333333333334,60.516666666666666],[-147.26666666666668,60.55],[-147.45,60.65],[-147.63333333333333,60.733333333333334],[-147.8,60.81666666666667],[-147.98333333333332,60.9],[-148.15,60.983333333333334],[-148.31666666666666,61.05],[-148.48333333333332,61.13333333333333],[-148.68333333333334,61.166666666666664],[-149.33333333333334,61.25],[-149.51666666666668,61.266666666666666],[-149.7,61.266666666666666],[-149.85,61.31666666666667],[-149.96666666666667,61.36666666666667],[-150,61.43333333333333],[-150.1,61.46666666666667],[-150.13333333333333,61.416666666666664],[-150.1,61.35],[-150.06666666666666,61.3],[-150.05,61.25],[-150.01666666666668,61.21666666666667],[-150,61.18333333333333]],"type":"LineString"}
}
