{
  "id": 2031955991,
  "type": "Feature",
  "properties": {
    "geom:area": 0,
    "geom:bbox": "-122.352130,36.784920,-121.906050,37.609060",
    "geom:latitude": 37.256987930466245,
    "geom:longitude": -122.07072178017445,
    "src:alt_label": "swim-approach",
    "src:geom": "swim",
    "swim:elevations": [
      5208,
      5008,
      4665,
      4353,
      4244,
      4101,
      3738,
      3451,
      3404,
      3331,
      3051,
      2898,
      2761,
      2675,
      2631,
      2530,
      2270,
      2191,
      2000,
      1915,
      1829,
      1829,
      1685,
      1518,
      1417,
      1211,
      1018,
      1008,
      912,
      913,
      914,
      883,
      787,
      591,
      564,
      541,
      397,
      349,
      274,
      104,
      37
    ],
    "swim:geom": "approach",
    "swim:timestamps": [
      1784923094,
      1784923114,
      1784923153,
      1784923188,
      1784923201,
      1784923214,
      1784923250,
      1784923283,
      1784923290,
      1784923299,
      1784923345,
      1784923365,
      1784923388,
      1784923405,
      1784923416,
      1784923432,
      1784923462,
      1784923473,
      1784923505,
      1784923525,
      1784923553,
      1784923563,
      1784923587,
      1784923617,
      1784923636,
      1784923673,
      1784923702,
      1784923706,
      1784923724,
      1784923736,
      1784923757,
      1784923785,
      1784923809,
      1784923858,
      1784923867,
      1784923874,
      1784923914,
      1784923928,
      1784923950,
      1784923995,
      1784924012
    ],
    "wof:geomhash": "bcdeef5e4ca3552c90f797c4b0dc63a8",
    "wof:id": 2031955991,
    "wof:repo": "sfomuseum-data-flights-2026-07"
  },
  "bbox": [
    -122.35213,
    36.78492,
    -121.90605,
    37.60906
  ],
  "geometry": {"coordinates":[[-121.90605,36.78492],[-121.91469,36.81537],[-121.93164,36.87554],[-121.94648,36.92893],[-121.95165,36.94725],[-121.95883,36.96671],[-121.9791,37.0185],[-121.99747,37.06587],[-122.00143,37.07611],[-122.00677,37.08957],[-122.03176,37.15356],[-122.04223,37.18036],[-122.05466,37.21247],[-122.06329,37.23444],[-122.06871,37.24806],[-122.07632,37.26712],[-122.09026,37.30181],[-122.09529,37.31471],[-122.08585,37.3477],[-122.07295,37.36704],[-122.06394,37.39356],[-122.06072,37.4024],[-122.05263,37.42438],[-122.05228,37.45227],[-122.06411,37.46645],[-122.0861,37.49174],[-122.10964,37.50664],[-122.1127,37.50801],[-122.12842,37.51498],[-122.13875,37.51941],[-122.15584,37.52653],[-122.17934,37.53637],[-122.19989,37.5452],[-122.24093,37.56232],[-122.24702,37.56499],[-122.25268,37.56734],[-122.28045,37.57898],[-122.29003,37.583],[-122.30586,37.58976],[-122.33915,37.60371],[-122.35213,37.60906]],"type":"LineString"}
}
