{
  "id": 2031966131,
  "type": "Feature",
  "properties": {
    "geom:area": 0,
    "geom:bbox": "-122.256940,37.702150,-121.257210,38.418430",
    "geom:latitude": 38.07305978719109,
    "geom:longitude": -121.76835113114743,
    "src:alt_label": "swim-takeoff",
    "src:geom": "swim",
    "swim:elevations": [
      1551,
      1956,
      2521,
      2614,
      3081,
      3142,
      3628,
      3789,
      4000,
      4196,
      4650,
      4895,
      5136,
      5172,
      5991,
      6164,
      6495,
      6605,
      7141,
      7312
    ],
    "swim:geom": "takeoff",
    "swim:timestamps": [
      1784999190,
      1784999228,
      1784999276,
      1784999286,
      1784999332,
      1784999346,
      1784999400,
      1784999421,
      1784999450,
      1784999469,
      1784999508,
      1784999530,
      1784999552,
      1784999555,
      1784999634,
      1784999654,
      1784999696,
      1784999706,
      1784999770,
      1784999791
    ],
    "wof:geomhash": "713ae2c31b6804c09a51ff9b23cbd41c",
    "wof:id": 2031966131,
    "wof:repo": "sfomuseum-data-flights-2026-07"
  },
  "bbox": [
    -122.25694,
    37.70215,
    -121.25721,
    38.41843
  ],
  "geometry": {"coordinates":[[-122.25694,37.70215],[-122.2046,37.72837],[-122.15601,37.78183],[-122.14622,37.79253],[-122.09683,37.8466],[-122.08124,37.86421],[-122.00127,37.92417],[-121.96733,37.94701],[-121.91695,37.98103],[-121.88441,38.00298],[-121.81465,38.05005],[-121.77505,38.0766],[-121.73475,38.10325],[-121.72922,38.10698],[-121.58155,38.20776],[-121.5424,38.23416],[-121.45896,38.28982],[-121.43725,38.30433],[-121.30262,38.39088],[-121.25721,38.41843]],"type":"LineString"}
}
