{
  "id": 2032035529,
  "type": "Feature",
  "properties": {
    "geom:area": 0,
    "geom:bbox": "-122.353056,37.383333,-122.100000,37.611944",
    "geom:latitude": 37.49244073706157,
    "geom:longitude": -122.19574339990719,
    "src:alt_label": "swim-path",
    "src:geom": "swim",
    "swim:altitudes": [
      "052",
      "049",
      "042",
      "040",
      "037",
      "033",
      "027",
      "026",
      "019",
      "016",
      "011",
      "004",
      "001"
    ],
    "swim:geom": "path",
    "swim:speeds": [
      238,
      245,
      200,
      198,
      186,
      190,
      181,
      167,
      159,
      159,
      139,
      141,
      142
    ],
    "swim:timestamps": [
      1785445322,
      1785445382,
      1785445447,
      1785445529,
      1785445562,
      1785445589,
      1785445622,
      1785445649,
      1785445682,
      1785445709,
      1785445742,
      1785445802,
      1785445829
    ],
    "wof:geomhash": "38a341925f5d1942f64b5fe3968afb97",
    "wof:id": 2032035529,
    "wof:repo": "sfomuseum-data-flights-2026-07"
  },
  "bbox": [
    -122.35305555555556,
    37.38333333333333,
    -122.1,
    37.61194444444445
  ],
  "geometry": {"coordinates":[[-122.25,37.4],[-122.16666666666667,37.38333333333333],[-122.1,37.43333333333333],[-122.115,37.49388888888889],[-122.15,37.516666666666666],[-122.16166666666668,37.53055555555555],[-122.2,37.55],[-122.21638888888889,37.553888888888885],[-122.25,37.56666666666667],[-122.26555555555555,37.575],[-122.3,37.583333333333336],[-122.33333333333333,37.6],[-122.35305555555556,37.61194444444445]],"type":"LineString"}
}
