{
  "id": 2031965033,
  "type": "Feature",
  "properties": {
    "geom:area": 0,
    "geom:bbox": "-122.358333,29.882222,-95.338889,38.128889",
    "geom:latitude": 35.0470743594165,
    "geom:longitude": -108.60752676101443,
    "src:alt_label": "swim-path",
    "src:geom": "swim",
    "swim:altitudes": [
      "012",
      "051",
      "078",
      "103",
      "118",
      "134",
      "156",
      "170",
      "187",
      "207",
      "220",
      "234",
      "247",
      "260",
      "270",
      "279",
      "288",
      "298",
      "311",
      "321",
      "331",
      "340C",
      "340C",
      "340C",
      "340C",
      "340C",
      "340C",
      "340C",
      "340C",
      "340C",
      "340C",
      "340C",
      "340C",
      "340C",
      "340C",
      "340C",
      "340C",
      "340C",
      "340C",
      "340C",
      "340C",
      "340C",
      "340C",
      "340C",
      "340C",
      "340C",
      "340C",
      "340C",
      "340C",
      "340C",
      "340C",
      "340C",
      "340C",
      "340C",
      "340C",
      "340C",
      "340C",
      "340C",
      "340C",
      "340C",
      "340C",
      "340C",
      "340C",
      "340C",
      "340C",
      "340C",
      "340C",
      "340C",
      "340C",
      "340C",
      "340C",
      "340C",
      "340C",
      "340C",
      "340C",
      "340C",
      "340C",
      "340C",
      "340C",
      "340C",
      "340C",
      "340C",
      "340C",
      "340C",
      "340C",
      "340C",
      "340C",
      "340C",
      "340C",
      "340C",
      "340C",
      "340C",
      "340C",
      "340C",
      "340C",
      "340C",
      "340C",
      "340C",
      "340C",
      "340C",
      "340C",
      "340C",
      "340C",
      "340C",
      "340C",
      "340C",
      "340C",
      "340C",
      "340C",
      "340C",
      "340C",
      "340C",
      "340C",
      "340C",
      "340C",
      "340C",
      "340",
      "341",
      "344",
      "351",
      "355",
      "360C",
      "360C",
      "360C",
      "360C",
      "360C",
      "360C",
      "360C",
      "360C",
      "360C",
      "360C",
      "360C",
      "360C",
      "360C",
      "360C",
      "360C",
      "360C",
      "360C",
      "360C",
      "360C",
      "360C",
      "360C",
      "360C",
      "360C",
      "360C",
      "360C",
      "360C",
      "360C",
      "360C",
      "360C",
      "360C",
      "360C",
      "360C",
      "360C",
      "360C",
      "360C",
      "360C",
      "360C",
      "360C",
      "360C",
      "360C",
      "360C",
      "360C",
      "360C",
      "360C",
      "360C",
      "360C",
      "360C",
      "360C",
      "360C",
      "360C",
      "360C",
      "360C",
      "360C",
      "360C",
      "360C",
      "360C",
      "360C",
      "360C",
      "360C",
      "360C",
      "360C",
      "360C",
      "360C",
      "360C",
      "360C",
      "360C",
      "360C",
      "360C",
      "360C",
      "360C",
      "360C",
      "360C",
      "360C",
      "360C",
      "360C",
      "360C",
      "360C",
      "360C",
      "360C",
      "360C",
      "360C",
      "360C",
      "360C",
      "360C",
      "360C",
      "360C",
      "360",
      "360",
      "360",
      "354",
      "335",
      "316",
      "300",
      "274",
      "249",
      "221",
      "211",
      "192",
      "177",
      "158",
      "145",
      "131",
      "113",
      "104",
      "100",
      "087",
      "080",
      "071",
      "060",
      "052",
      "044",
      "031",
      "022",
      "014",
      "007",
      "001"
    ],
    "swim:geom": "path",
    "swim:speeds": [
      174,
      272,
      288,
      296,
      302,
      349,
      372,
      384,
      395,
      407,
      420,
      431,
      438,
      445,
      455,
      465,
      473,
      480,
      480,
      479,
      477,
      472,
      469,
      464,
      461,
      460,
      459,
      459,
      460,
      461,
      462,
      463,
      462,
      461,
      460,
      459,
      459,
      459,
      462,
      463,
      465,
      467,
      469,
      469,
      469,
      468,
      468,
      468,
      468,
      467,
      467,
      467,
      467,
      469,
      465,
      464,
      462,
      461,
      461,
      461,
      462,
      463,
      464,
      465,
      466,
      466,
      466,
      465,
      464,
      464,
      463,
      461,
      460,
      459,
      459,
      460,
      459,
      460,
      460,
      460,
      461,
      461,
      464,
      467,
      466,
      467,
      467,
      463,
      464,
      471,
      464,
      463,
      464,
      463,
      463,
      462,
      461,
      458,
      459,
      460,
      461,
      462,
      462,
      463,
      463,
      464,
      464,
      464,
      463,
      466,
      463,
      461,
      464,
      461,
      464,
      465,
      464,
      462,
      470,
      465,
      469,
      467,
      467,
      466,
      466,
      474,
      468,
      471,
      470,
      468,
      469,
      469,
      468,
      469,
      469,
      468,
      468,
      467,
      467,
      466,
      466,
      466,
      466,
      465,
      465,
      456,
      455,
      455,
      456,
      456,
      455,
      454,
      453,
      454,
      454,
      447,
      445,
      443,
      442,
      441,
      440,
      439,
      439,
      440,
      439,
      441,
      440,
      441,
      440,
      441,
      444,
      442,
      443,
      442,
      442,
      441,
      440,
      439,
      438,
      437,
      431,
      420,
      419,
      418,
      417,
      416,
      414,
      414,
      413,
      412,
      412,
      414,
      414,
      414,
      415,
      415,
      415,
      414,
      414,
      415,
      414,
      412,
      409,
      407,
      407,
      406,
      404,
      404,
      402,
      401,
      401,
      406,
      409,
      422,
      431,
      416,
      402,
      391,
      388,
      360,
      357,
      336,
      298,
      302,
      296,
      249,
      240,
      237,
      235,
      231,
      232,
      211,
      177,
      167,
      148,
      138,
      143
    ],
    "swim:timestamps": [
      1785021652,
      1785021772,
      1785021833,
      1785021893,
      1785021955,
      1785022015,
      1785022073,
      1785022133,
      1785022193,
      1785022253,
      1785022315,
      1785022373,
      1785022433,
      1785022496,
      1785022556,
      1785022616,
      1785022676,
      1785022736,
      1785022796,
      1785022856,
      1785022916,
      1785022976,
      1785023034,
      1785023094,
      1785023154,
      1785023215,
      1785023275,
      1785023335,
      1785023395,
      1785023457,
      1785023517,
      1785023577,
      1785023637,
      1785023697,
      1785023757,
      1785023817,
      1785023878,
      1785023938,
      1785024058,
      1785024118,
      1785024178,
      1785024236,
      1785024298,
      1785024358,
      1785024404,
      1785024464,
      1785024521,
      1785024599,
      1785024657,
      1785024717,
      1785024779,
      1785024839,
      1785024899,
      1785024942,
      1785025019,
      1785025079,
      1785025139,
      1785025182,
      1785025259,
      1785025320,
      1785025362,
      1785025440,
      1785025500,
      1785025543,
      1785025620,
      1785025680,
      1785025740,
      1785025800,
      1785025843,
      1785025860,
      1785025920,
      1785025980,
      1785026041,
      1785026101,
      1785026161,
      1785026204,
      1785026221,
      1785026281,
      1785026324,
      1785026341,
      1785026384,
      1785026444,
      1785026620,
      1785026680,
      1785026740,
      1785026801,
      1785026861,
      1785026921,
      1785026981,
      1785027041,
      1785027101,
      1785027161,
      1785027221,
      1785027281,
      1785027341,
      1785027401,
      1785027461,
      1785027522,
      1785027582,
      1785027642,
      1785027702,
      1785027762,
      1785027822,
      1785027882,
      1785027942,
      1785028002,
      1785028062,
      1785028122,
      1785028182,
      1785028216,
      1785028242,
      1785028276,
      1785028303,
      1785028336,
      1785028363,
      1785028396,
      1785028423,
      1785028456,
      1785028483,
      1785028516,
      1785028543,
      1785028576,
      1785028603,
      1785028672,
      1785028732,
      1785028792,
      1785028843,
      1785028852,
      1785028912,
      1785028963,
      1785028973,
      1785029033,
      1785029084,
      1785029144,
      1785029153,
      1785029204,
      1785029213,
      1785029264,
      1785029273,
      1785029324,
      1785029333,
      1785029384,
      1785029393,
      1785029444,
      1785029453,
      1785029513,
      1785029657,
      1785029718,
      1785029778,
      1785029838,
      1785029898,
      1785029958,
      1785030018,
      1785030078,
      1785030138,
      1785030198,
      1785030258,
      1785030318,
      1785030378,
      1785030438,
      1785030499,
      1785030559,
      1785030619,
      1785030679,
      1785030717,
      1785030739,
      1785030777,
      1785030799,
      1785030837,
      1785030859,
      1785030897,
      1785030919,
      1785030957,
      1785030979,
      1785031017,
      1785031039,
      1785031099,
      1785031137,
      1785031159,
      1785031197,
      1785031220,
      1785031257,
      1785031280,
      1785031317,
      1785031340,
      1785031377,
      1785031400,
      1785031437,
      1785031460,
      1785031497,
      1785031520,
      1785031558,
      1785031618,
      1785031640,
      1785031678,
      1785031700,
      1785031760,
      1785031798,
      1785031820,
      1785031858,
      1785031880,
      1785031918,
      1785031978,
      1785032038,
      1785032098,
      1785032158,
      1785032218,
      1785032278,
      1785032338,
      1785032398,
      1785032458,
      1785032579,
      1785032639,
      1785032699,
      1785032759,
      1785032819,
      1785032879,
      1785032889,
      1785032939,
      1785032999,
      1785033058,
      1785033119,
      1785033178,
      1785033237,
      1785033299,
      1785033359,
      1785033419,
      1785033479,
      1785033540,
      1785033592,
      1785033660,
      1785033720,
      1785033778,
      1785033838,
      1785033898,
      1785033958,
      1785034020
    ],
    "wof:geomhash": "282210f7ded7c2c130f00db32dec26e6",
    "wof:id": 2031965033,
    "wof:repo": "sfomuseum-data-flights-2026-07"
  },
  "bbox": [
    -122.35833333333333,
    29.88222222222222,
    -95.33888888888889,
    38.12888888888889
  ],
  "geometry": {"coordinates":[[-95.33888888888889,29.949722222222224],[-95.47333333333333,29.88222222222222],[-95.55805555555555,29.911666666666665],[-95.64833333333334,29.939722222222223],[-95.73694444444445,29.968055555555555],[-95.84555555555555,30.003333333333334],[-95.96388888888889,30.039444444444445],[-96.05749999999999,30.06833333333333],[-96.18416666666667,30.089444444444442],[-96.33666666666666,30.11277777777778],[-96.465,30.1325],[-96.60055555555554,30.153055555555554],[-96.74277777777777,30.174444444444447],[-96.88305555555554,30.195555555555554],[-97.02583333333334,30.21638888888889],[-97.17583333333334,30.23888888888889],[-97.32555555555555,30.261388888888888],[-97.47694444444444,30.283333333333335],[-97.63194444444444,30.305833333333332],[-97.78166666666667,30.33111111111111],[-97.93111111111112,30.3625],[-98.07972222222222,30.394444444444446],[-98.22472222222223,30.424722222222222],[-98.36555555555555,30.464444444444442],[-98.49055555555556,30.535833333333336],[-98.6125,30.606944444444444],[-98.73444444444445,30.678055555555556],[-98.85694444444444,30.749166666666667],[-98.98222222222222,30.82138888888889],[-99.09194444444444,30.884722222222223],[-99.24083333333333,30.970555555555553],[-99.36444444444444,31.041111111111114],[-99.48722222222223,31.11138888888889],[-99.61166666666666,31.182222222222222],[-99.73555555555555,31.2525],[-99.8586111111111,31.322222222222223],[-99.98388888888888,31.392777777777777],[-100.10749999999999,31.4625],[-100.35888888888888,31.603055555555557],[-100.47916666666667,31.67],[-100.60749999999999,31.741111111111113],[-100.73083333333334,31.809166666666666],[-100.86583333333333,31.883888888888887],[-100.99527777777777,31.954722222222223],[-101.0925,32.00805555555556],[-101.20861111111111,32.07166666666667],[-101.33638888888889,32.141666666666666],[-101.5175,32.23916666666667],[-101.6261111111111,32.29805555555556],[-101.75527777777778,32.36666666666667],[-101.90472222222223,32.44777777777777],[-102.03583333333333,32.51777777777777],[-102.16555555555556,32.58694444444445],[-102.24777777777778,32.63055555555555],[-102.42416666666666,32.72361111111111],[-102.54472222222222,32.78722222222222],[-102.67111111111112,32.853611111111114],[-102.77277777777778,32.90694444444444],[-102.92916666666667,32.98861111111111],[-103.05944444444444,33.05611111111111],[-103.16333333333334,33.11027777777778],[-103.31972222222223,33.191111111111105],[-103.45138888888889,33.25861111111111],[-103.55777777777777,33.31333333333333],[-103.71583333333334,33.39388888888889],[-103.84916666666666,33.461666666666666],[-103.98055555555555,33.52833333333333],[-104.11166666666666,33.59444444444445],[-104.21972222222223,33.64888888888889],[-104.24416666666667,33.66111111111111],[-104.37583333333333,33.72694444444445],[-104.50361111111111,33.79833333333333],[-104.62472222222222,33.876666666666665],[-104.745,33.95416666666667],[-104.86722222222221,34.032777777777774],[-104.96916666666667,34.09777777777778],[-104.98722222222223,34.10944444444445],[-105.11027777777777,34.1875],[-105.21444444444445,34.25361111111111],[-105.23416666666667,34.26611111111111],[-105.33749999999999,34.33166666666667],[-105.46027777777778,34.40888888888889],[-105.82055555555556,34.63583333333333],[-105.94888888888889,34.71472222222223],[-106.08444444444444,34.78527777777778],[-106.22805555555556,34.844166666666666],[-106.3611111111111,34.89805555555556],[-106.50222222222222,34.95805555555556],[-106.64472222222223,35.0175],[-106.78805555555556,35.08027777777778],[-106.91166666666668,35.14527777777778],[-107.01833333333333,35.213055555555556],[-107.16333333333334,35.31222222222222],[-107.28444444444445,35.39416666666666],[-107.40055555555556,35.473333333333336],[-107.52888888888889,35.55583333333333],[-107.66000000000001,35.62388888888889],[-107.80138888888888,35.677499999999995],[-107.94666666666667,35.72833333333333],[-108.09083333333332,35.77972222222222],[-108.235,35.83083333333334],[-108.37944444444443,35.88194444444444],[-108.52666666666667,35.93388888888889],[-108.67111111111112,35.98416666666667],[-108.81944444444444,36.03583333333333],[-108.94805555555556,36.080555555555556],[-109.09527777777777,36.13138888888889],[-109.2425,36.18194444444444],[-109.38777777777779,36.23166666666667],[-109.47611111111111,36.25861111111111],[-109.53611111111111,36.28194444444444],[-109.62249999999999,36.309999999999995],[-109.6825,36.33166666666667],[-109.76972222222223,36.359722222222224],[-109.83027777777778,36.38138888888889],[-109.91777777777779,36.41],[-109.97805555555556,36.43083333333333],[-110.06527777777778,36.46027777777778],[-110.12805555555555,36.48083333333334],[-110.21583333333334,36.50944444444445],[-110.27583333333334,36.53],[-110.36583333333333,36.559444444444445],[-110.42500000000001,36.57916666666667],[-110.60166666666666,36.63611111111111],[-110.74861111111112,36.68472222222222],[-110.87888888888888,36.764722222222225],[-110.97833333333334,36.83027777777778],[-111.00333333333333,36.84666666666667],[-111.13,36.93055555555555],[-111.22944444444444,36.99583333333334],[-111.255,37.0125],[-111.38055555555555,37.09444444444445],[-111.48111111111112,37.16027777777778],[-111.6086111111111,37.24305555555556],[-111.6325,37.25861111111111],[-111.735,37.325],[-111.75972222222222,37.340833333333336],[-111.8611111111111,37.40611111111111],[-111.88611111111112,37.42222222222222],[-111.98694444444445,37.486666666666665],[-112.01027777777777,37.501666666666665],[-112.11527777777778,37.56916666666667],[-112.13722222222223,37.583333333333336],[-112.24138888888889,37.64944444444444],[-112.26333333333334,37.663333333333334],[-112.4075,37.715],[-112.76722222222222,37.80583333333333],[-112.94805555555556,37.850833333333334],[-113.09944444444444,37.88805555555555],[-113.25111111111111,37.92527777777777],[-113.40444444444445,37.96277777777778],[-113.55527777777777,37.99916666666667],[-113.70694444444445,38.035555555555554],[-113.8586111111111,38.07222222222222],[-114.01305555555555,38.10888888888889],[-114.16916666666667,38.12888888888889],[-114.32305555555556,38.12361111111111],[-114.47805555555556,38.11833333333333],[-114.63444444444445,38.11277777777778],[-114.78722222222223,38.106944444444444],[-114.94222222222223,38.10111111111111],[-115.09527777777777,38.095],[-115.25055555555555,38.08916666666667],[-115.39750000000001,38.083333333333336],[-115.49111111111111,38.080000000000005],[-115.55277777777778,38.07666666666667],[-115.64750000000001,38.073888888888895],[-115.70694444444445,38.07],[-115.80194444444444,38.0675],[-115.86361111111111,38.06305555555555],[-115.95777777777778,38.058611111111105],[-116.01916666666666,38.05583333333333],[-116.11361111111111,38.05138888888889],[-116.17416666666666,38.04861111111111],[-116.27,38.04388888888889],[-116.33,38.04083333333333],[-116.485,38.033055555555556],[-116.57833333333333,38.02833333333333],[-116.63722222222223,38.025277777777774],[-116.73055555555555,38.02055555555555],[-116.78916666666666,38.0175],[-116.88138888888888,38.0125],[-116.93722222222223,38.00944444444445],[-117.02638888888889,38.004444444444445],[-117.08583333333333,38.00111111111111],[-117.17555555555556,37.99638888888889],[-117.23416666666667,37.99277777777778],[-117.32333333333332,37.98777777777778],[-117.37916666666666,37.98444444444444],[-117.46972222222223,37.97916666666667],[-117.52638888888889,37.975833333333334],[-117.61666666666666,37.970555555555556],[-117.76166666666667,37.961666666666666],[-117.81805555555555,37.95805555555556],[-117.90805555555556,37.9525],[-117.96527777777779,37.94888888888889],[-118.11194444444443,37.939722222222215],[-118.19805555555556,37.93388888888889],[-118.25583333333333,37.930277777777775],[-118.34444444444443,37.92444444444444],[-118.40166666666667,37.92055555555555],[-118.48805555555556,37.914722222222224],[-118.63027777777778,37.905],[-118.77416666666666,37.89472222222222],[-118.91472222222222,37.87861111111111],[-119.03083333333333,37.86527777777778],[-119.17527777777778,37.84861111111111],[-119.31555555555555,37.83222222222223],[-119.45472222222223,37.81583333333333],[-119.59472222222222,37.799166666666665],[-119.73361111111112,37.7825],[-120.01694444444445,37.7475],[-120.16083333333334,37.72972222222222],[-120.30638888888889,37.711666666666666],[-120.45555555555556,37.69333333333333],[-120.60194444444444,37.67638888888889],[-120.74222222222222,37.65972222222222],[-120.78333333333333,37.65],[-120.87916666666666,37.64361111111111],[-121.00277777777778,37.62861111111111],[-121.13333333333334,37.61666666666667],[-121.2363888888889,37.59638888888889],[-121.36666666666666,37.583333333333336],[-121.46666666666667,37.56666666666667],[-121.54944444444445,37.55972222222222],[-121.64194444444445,37.54694444444444],[-121.72194444444445,37.527499999999996],[-121.80027777777778,37.50861111111111],[-121.87888888888888,37.49166666666667],[-121.96666666666667,37.483333333333334],[-122.03888888888889,37.48416666666667],[-122.11,37.50861111111111],[-122.18333333333334,37.53333333333333],[-122.23333333333333,37.56666666666667],[-122.28333333333333,37.583333333333336],[-122.31666666666666,37.6],[-122.35833333333333,37.61388888888889]],"type":"LineString"}
}
