{
  "id": 2032021479,
  "type": "Feature",
  "properties": {
    "geom:area": 0,
    "geom:bbox": "-114.340556,32.902500,-97.050000,38.397222",
    "geom:latitude": 36.05440219523574,
    "geom:longitude": -105.47245338888776,
    "src:alt_label": "swim-path",
    "src:geom": "swim",
    "swim:altitudes": [
      "350C",
      "350C",
      "350C",
      "351C",
      "350C",
      "350C",
      "350C",
      "350C",
      "350C",
      "350C",
      "351C",
      "351C",
      "350C",
      "350C",
      "350C",
      "350C",
      "350C",
      "350C",
      "350C",
      "350C",
      "350C",
      "350C",
      "351C",
      "351C",
      "350C",
      "350C",
      "350C",
      "350C",
      "350C",
      "350C",
      "350C",
      "350C",
      "350C",
      "350C",
      "350C",
      "350C",
      "350C",
      "350C",
      "350C",
      "350C",
      "350C",
      "350C",
      "350C",
      "350C",
      "350C",
      "350C",
      "350C",
      "350C",
      "350C",
      "350C",
      "350C",
      "350C",
      "350C",
      "350C",
      "350C",
      "350C",
      "350C",
      "350C",
      "350C",
      "350C",
      "350C",
      "350C",
      "350C",
      "350C",
      "350C",
      "350C",
      "350C",
      "350C",
      "350C",
      "350C",
      "350C",
      "350C",
      "350C",
      "350C",
      "350C",
      "350C",
      "350C",
      "350C",
      "350C",
      "350C",
      "350C",
      "350C",
      "350C",
      "350C",
      "350C",
      "350C",
      "350C",
      "350C",
      "350C",
      "350C",
      "350C",
      "350C",
      "350C",
      "350C",
      "350C",
      "350C",
      "350C",
      "350C",
      "350C",
      "350C",
      "350C",
      "350C",
      "350C",
      "350C",
      "350C",
      "350C",
      "350C",
      "350C",
      "350C",
      "350C",
      "350C",
      "350C",
      "350C",
      "350C",
      "350C",
      "349",
      "346",
      "339",
      "336",
      "330",
      "330",
      "330",
      "330",
      "321",
      "288",
      "260",
      "234",
      "206",
      "183",
      "155",
      "132",
      "124",
      "116",
      "108",
      "087",
      "059",
      "050",
      "046",
      "036",
      "030",
      "028",
      "019",
      "011",
      "006"
    ],
    "swim:geom": "path",
    "swim:speeds": [
      481,
      473,
      470,
      469,
      465,
      462,
      463,
      465,
      472,
      473,
      475,
      475,
      474,
      473,
      472,
      470,
      470,
      470,
      470,
      470,
      471,
      471,
      473,
      473,
      473,
      473,
      473,
      473,
      473,
      473,
      471,
      470,
      467,
      464,
      461,
      461,
      459,
      457,
      457,
      457,
      457,
      457,
      457,
      456,
      456,
      455,
      455,
      454,
      453,
      454,
      453,
      453,
      450,
      449,
      447,
      447,
      446,
      448,
      446,
      447,
      446,
      447,
      447,
      447,
      447,
      448,
      449,
      450,
      450,
      450,
      451,
      452,
      453,
      456,
      458,
      459,
      460,
      461,
      461,
      458,
      462,
      459,
      462,
      462,
      459,
      459,
      460,
      459,
      459,
      459,
      459,
      459,
      459,
      460,
      460,
      461,
      462,
      462,
      462,
      462,
      461,
      461,
      460,
      460,
      459,
      459,
      459,
      458,
      458,
      457,
      457,
      457,
      457,
      456,
      456,
      456,
      457,
      469,
      470,
      472,
      473,
      473,
      473,
      474,
      477,
      482,
      473,
      455,
      440,
      430,
      402,
      392,
      376,
      325,
      283,
      277,
      264,
      251,
      250,
      220,
      187,
      185,
      147,
      144
    ],
    "swim:timestamps": [
      1785341157,
      1785341217,
      1785341277,
      1785341337,
      1785341457,
      1785341518,
      1785341578,
      1785341638,
      1785341746,
      1785341818,
      1785341878,
      1785341926,
      1785341938,
      1785341986,
      1785341998,
      1785342058,
      1785342106,
      1785342178,
      1785342239,
      1785342299,
      1785342347,
      1785342359,
      1785342407,
      1785342419,
      1785342479,
      1785342527,
      1785342587,
      1785342647,
      1785342659,
      1785342719,
      1785342767,
      1785342779,
      1785342839,
      1785342899,
      1785342947,
      1785342960,
      1785343008,
      1785343068,
      1785343128,
      1785343188,
      1785343248,
      1785343308,
      1785343368,
      1785343428,
      1785343472,
      1785343532,
      1785343548,
      1785343608,
      1785343668,
      1785343713,
      1785343773,
      1785343833,
      1785343849,
      1785343909,
      1785343969,
      1785344029,
      1785344089,
      1785344133,
      1785344149,
      1785344194,
      1785344209,
      1785344254,
      1785344269,
      1785344329,
      1785344389,
      1785344449,
      1785344510,
      1785344554,
      1785344674,
      1785344735,
      1785344795,
      1785344855,
      1785344915,
      1785345035,
      1785345095,
      1785345155,
      1785345215,
      1785345275,
      1785345335,
      1785345358,
      1785345396,
      1785345418,
      1785345456,
      1785345516,
      1785345538,
      1785345598,
      1785345636,
      1785345658,
      1785345696,
      1785345718,
      1785345778,
      1785345838,
      1785345876,
      1785345936,
      1785345959,
      1785345997,
      1785346079,
      1785346117,
      1785346139,
      1785346177,
      1785346237,
      1785346259,
      1785346297,
      1785346319,
      1785346379,
      1785346417,
      1785346439,
      1785346537,
      1785346559,
      1785346620,
      1785346658,
      1785346718,
      1785346778,
      1785346838,
      1785346860,
      1785346898,
      1785346920,
      1785346958,
      1785346980,
      1785347040,
      1785347160,
      1785347220,
      1785347341,
      1785347401,
      1785347461,
      1785347521,
      1785347581,
      1785347641,
      1785347701,
      1785347761,
      1785347821,
      1785347843,
      1785347881,
      1785347939,
      1785348062,
      1785348179,
      1785348239,
      1785348302,
      1785348362,
      1785348482,
      1785348540,
      1785348602,
      1785348660,
      1785348722
    ],
    "wof:geomhash": "3d1283d46d8051a777354fb610bc61f3",
    "wof:id": 2032021479,
    "wof:repo": "sfomuseum-data-flights-2026-07"
  },
  "bbox": [
    -114.34055555555555,
    32.902499999999996,
    -97.05,
    38.39722222222222
  ],
  "geometry": {"coordinates":[[-114.34055555555555,38.39722222222222],[-114.17861111111111,38.36361111111111],[-114.02083333333333,38.32666666666667],[-113.86361111111111,38.28944444444444],[-113.54916666666666,38.21416666666667],[-113.39333333333335,38.17638888888889],[-113.23777777777778,38.138333333333335],[-113.08277777777778,38.10055555555556],[-112.79472222222222,38.02916666666667],[-112.60111111111111,37.98083333333334],[-112.43861111111111,37.94],[-112.31166666666667,37.907777777777774],[-112.27805555555555,37.89944444444444],[-112.15305555555557,37.8675],[-112.12277777777777,37.859722222222224],[-111.96388888888889,37.82027777777778],[-111.83749999999999,37.79138888888889],[-111.64833333333334,37.74861111111111],[-111.48833333333333,37.711666666666666],[-111.33138888888888,37.67527777777777],[-111.2025,37.64527777777778],[-111.17055555555557,37.63777777777778],[-111.04666666666667,37.60861111111111],[-111.0111111111111,37.6],[-110.85194444444444,37.56305555555555],[-110.72527777777778,37.5325],[-110.56638888888888,37.494166666666665],[-110.40833333333335,37.456944444444446],[-110.37694444444443,37.44972222222222],[-110.2225,37.411944444444444],[-110.115,37.38583333333333],[-110.06972222222223,37.374722222222225],[-109.91055555555556,37.33527777777778],[-109.76138888888889,37.29861111111111],[-109.62388888888889,37.26416666666667],[-109.60694444444444,37.26],[-109.48416666666667,37.22916666666667],[-109.33416666666666,37.19138888888889],[-109.18333333333334,37.15333333333333],[-109.02027777777778,37.11194444444445],[-108.86999999999999,37.07333333333334],[-108.71777777777778,37.034166666666664],[-108.5675,36.99527777777778],[-108.41777777777779,36.95611111111111],[-108.32666666666667,36.93222222222222],[-108.17666666666668,36.89277777777778],[-108.135,36.88166666666667],[-107.9863888888889,36.8425],[-107.83777777777777,36.80277777777778],[-107.73111111111112,36.774166666666666],[-107.58,36.73361111111111],[-107.43333333333334,36.693888888888885],[-107.37333333333332,36.677499999999995],[-107.22833333333334,36.63777777777778],[-107.08111111111111,36.597500000000004],[-106.9363888888889,36.5575],[-106.78972222222222,36.51694444444444],[-106.70166666666667,36.492222222222225],[-106.6438888888889,36.476111111111116],[-106.55666666666666,36.45166666666667],[-106.50166666666667,36.436388888888885],[-106.40277777777779,36.40833333333333],[-106.35694444444444,36.39555555555555],[-106.21000000000001,36.35388888888889],[-106.07222222222222,36.31444444444444],[-105.92444444444445,36.27388888888889],[-105.77277777777778,36.23972222222222],[-105.66666666666667,36.21555555555556],[-105.3761111111111,36.149166666666666],[-105.2286111111111,36.115],[-105.08055555555555,36.08027777777778],[-104.93027777777779,36.04527777777778],[-104.78805555555556,36.01166666666666],[-104.48944444444444,35.940555555555555],[-104.3386111111111,35.904444444444444],[-104.18805555555556,35.86805555555556],[-104.0363888888889,35.83111111111111],[-103.88555555555556,35.79416666666666],[-103.72416666666666,35.75472222222222],[-103.66583333333334,35.74111111111111],[-103.57444444444444,35.7175],[-103.51472222222222,35.7025],[-103.42222222222223,35.67972222222222],[-103.27277777777778,35.6425],[-103.21388888888889,35.62694444444445],[-103.06416666666667,35.58972222222222],[-102.97333333333333,35.566944444444445],[-102.91583333333334,35.55222222222222],[-102.82472222222222,35.528888888888886],[-102.76666666666667,35.51416666666667],[-102.61611111111111,35.47555555555556],[-102.46833333333333,35.43722222222222],[-102.37722222222222,35.41361111111111],[-102.22833333333334,35.374722222222225],[-102.16916666666667,35.35916666666667],[-102.08,35.33583333333333],[-101.87194444444444,35.28111111111111],[-101.78805555555556,35.25861111111111],[-101.72416666666666,35.24138888888889],[-101.63333333333334,35.20777777777778],[-101.50361111111111,35.153888888888886],[-101.42666666666668,35.12166666666667],[-101.36611111111111,35.09638888888889],[-101.28861111111111,35.064166666666665],[-101.15166666666667,35.006388888888885],[-101.06805555555555,34.971111111111114],[-101.01444444444445,34.948611111111106],[-100.79277777777777,34.85472222222222],[-100.73777777777778,34.83111111111111],[-100.60027777777778,34.7725],[-100.51833333333333,34.737500000000004],[-100.38194444444444,34.678888888888885],[-100.24472222222222,34.61944444444445],[-100.10944444444443,34.56083333333333],[-100.06194444444444,34.540277777777774],[-99.9675,34.49916666666667],[-99.92416666666666,34.48027777777778],[-99.82666666666667,34.437777777777775],[-99.78444444444445,34.41916666666666],[-99.63333333333334,34.35277777777778],[-99.3561111111111,34.22277777777778],[-99.21916666666667,34.1575],[-98.96333333333334,34.03444444444444],[-98.82527777777777,33.967777777777776],[-98.68666666666667,33.90083333333333],[-98.5475,33.83222222222223],[-98.41361111111112,33.766666666666666],[-98.26222222222222,33.692499999999995],[-98.14111111111112,33.63305555555556],[-98.01305555555555,33.56944444444445],[-97.89583333333334,33.51083333333333],[-97.85,33.483333333333334],[-97.78694444444444,33.456944444444446],[-97.68333333333334,33.416666666666664],[-97.53,33.31583333333333],[-97.36666666666666,33.266666666666666],[-97.26666666666667,33.25],[-97.19333333333334,33.231388888888894],[-97.11916666666666,33.202222222222225],[-97.05388888888889,33.08722222222222],[-97.05,33.03333333333333],[-97.05444444444444,32.98583333333333],[-97.05,32.95],[-97.05472222222222,32.902499999999996]],"type":"LineString"}
}
