{
  "id": 2032039093,
  "type": "Feature",
  "properties": {
    "geom:area": 0,
    "geom:bbox": "-122.550890,36.732620,-121.516680,37.666020",
    "geom:latitude": 37.227333860215786,
    "geom:longitude": -122.1038282397793,
    "src:alt_label": "swim-takeoff",
    "src:geom": "swim",
    "swim:elevations": [
      152,
      467,
      573,
      887,
      1178,
      1358,
      1701,
      2203,
      2568,
      2714,
      3195,
      3393,
      4019,
      4128,
      4376,
      4737,
      4854,
      4950,
      5071,
      5206,
      5582,
      5985,
      6165,
      6309,
      6526,
      6820,
      6926,
      7209,
      7417,
      7730,
      7869,
      8034,
      8157,
      8546,
      8645,
      8816,
      9084,
      9297
    ],
    "swim:geom": "takeoff",
    "swim:timestamps": [
      1785478347,
      1785478370,
      1785478382,
      1785478415,
      1785478436,
      1785478451,
      1785478484,
      1785478523,
      1785478552,
      1785478564,
      1785478604,
      1785478627,
      1785478677,
      1785478686,
      1785478706,
      1785478733,
      1785478742,
      1785478751,
      1785478763,
      1785478775,
      1785478812,
      1785478853,
      1785478871,
      1785478885,
      1785478907,
      1785478935,
      1785478947,
      1785478974,
      1785478995,
      1785479028,
      1785479046,
      1785479066,
      1785479078,
      1785479122,
      1785479134,
      1785479161,
      1785479198,
      1785479223
    ],
    "wof:geomhash": "0f0c7719848823527c44cbc7f4276634",
    "wof:id": 2032039093,
    "wof:repo": "sfomuseum-data-flights-2026-07"
  },
  "bbox": [
    -122.55089,
    36.73262,
    -121.51668,
    37.66602
  ],
  "geometry": {"coordinates":[[-122.38133,37.62139],[-122.39958,37.6292],[-122.40949,37.63356],[-122.44222,37.64816],[-122.46537,37.65844],[-122.48355,37.66602],[-122.52829,37.66314],[-122.55089,37.62184],[-122.53213,37.58716],[-122.52298,37.5727],[-122.49286,37.52193],[-122.4725,37.49219],[-122.40368,37.43797],[-122.39066,37.42834],[-122.36148,37.40689],[-122.32123,37.37715],[-122.30785,37.36722],[-122.29465,37.35755],[-122.27607,37.34396],[-122.25761,37.33036],[-122.20112,37.28838],[-122.136,37.23809],[-122.10832,37.21493],[-122.08742,37.19754],[-122.05243,37.16867],[-122.00793,37.13239],[-121.9885,37.11661],[-121.94403,37.08048],[-121.90972,37.05258],[-121.85546,37.00805],[-121.82503,36.98357],[-121.79159,36.95684],[-121.77067,36.94018],[-121.69478,36.87922],[-121.67494,36.86263],[-121.62657,36.82382],[-121.56096,36.77019],[-121.51668,36.73262]],"type":"LineString"}
}
