{
  "id": 2032040143,
  "type": "Feature",
  "properties": {
    "geom:area": 0,
    "geom:bbox": "-122.550300,37.625500,-121.528400,38.505620",
    "geom:latitude": 38.070957397533114,
    "geom:longitude": -122.11514700400114,
    "src:alt_label": "swim-takeoff",
    "src:geom": "swim",
    "swim:elevations": [
      122,
      464,
      784,
      1131,
      1174,
      1219,
      1219,
      1847,
      2145,
      2237,
      2841,
      3109,
      3295,
      3360,
      3666,
      3668,
      4085,
      4169,
      4531,
      4778,
      5913,
      5994,
      6302
    ],
    "swim:geom": "takeoff",
    "swim:timestamps": [
      1785424809,
      1785424832,
      1785424863,
      1785424911,
      1785424921,
      1785424974,
      1785425011,
      1785425062,
      1785425093,
      1785425102,
      1785425154,
      1785425174,
      1785425198,
      1785425222,
      1785425248,
      1785425284,
      1785425335,
      1785425348,
      1785425391,
      1785425419,
      1785425577,
      1785425584,
      1785425633
    ],
    "wof:geomhash": "49479f77af5f14d6a8ca3a0ecc093f87",
    "wof:id": 2032040143,
    "wof:repo": "sfomuseum-data-flights-2026-07"
  },
  "bbox": [
    -122.5503,
    37.6255,
    -121.5284,
    38.50562
  ],
  "geometry": {"coordinates":[[-122.39119,37.6255],[-122.41267,37.63432],[-122.44142,37.64583],[-122.48991,37.66798],[-122.50089,37.67281],[-122.5503,37.72084],[-122.54485,37.76763],[-122.51977,37.83099],[-122.49522,37.86702],[-122.48453,37.87509],[-122.41156,37.91999],[-122.38286,37.93825],[-122.34715,37.96032],[-122.31085,37.9821],[-122.26648,38.00952],[-122.20235,38.04884],[-122.1068,38.10728],[-122.0832,38.12172],[-121.99784,38.17375],[-121.94341,38.20687],[-121.61414,38.40611],[-121.5983,38.4162],[-121.5284,38.50562]],"type":"LineString"}
}
