{
  "id": 2031990151,
  "type": "Feature",
  "properties": {
    "geom:area": 0,
    "geom:bbox": "-122.343611,37.466667,-73.550000,41.279167",
    "geom:latitude": 39.34796885953727,
    "geom:longitude": -97.58769336774422,
    "src:alt_label": "swim-path",
    "src:geom": "swim",
    "swim:altitudes": [
      "031",
      "049",
      "063",
      "082",
      "094",
      "111",
      "118",
      "137",
      "162",
      "177",
      "189",
      "191",
      "213",
      "236",
      "270",
      "286",
      "304",
      "357",
      "360C",
      "360C",
      "360C",
      "360C",
      "360C",
      "361",
      "371",
      "377",
      "380C",
      "380C",
      "380C",
      "380C",
      "380C",
      "380C",
      "380C",
      "380C",
      "380C",
      "380C",
      "380C",
      "380C",
      "380C",
      "380C",
      "380C",
      "380C",
      "380C",
      "380C",
      "380C",
      "380C",
      "380C",
      "380C",
      "380C",
      "380C",
      "380C",
      "380C",
      "380C",
      "380C",
      "380C",
      "380C",
      "380C",
      "380C",
      "380C",
      "380C",
      "380C",
      "380C",
      "380C",
      "380C",
      "380C",
      "380C",
      "380C",
      "380C",
      "380C",
      "380C",
      "380C",
      "380C",
      "380C",
      "380C",
      "380C",
      "380C",
      "380C",
      "380C",
      "380C",
      "380C",
      "380C",
      "380C",
      "380C",
      "380C",
      "380C",
      "380C",
      "380C",
      "380C",
      "380C",
      "380C",
      "380C",
      "380C",
      "380C",
      "380C",
      "380C",
      "380C",
      "380C",
      "380C",
      "380C",
      "380C",
      "380C",
      "380C",
      "380C",
      "380C",
      "380C",
      "380C",
      "380C",
      "380C",
      "380C",
      "380C",
      "380C",
      "380C",
      "380C",
      "380C",
      "380C",
      "380C",
      "380C",
      "380C",
      "380C",
      "380C",
      "380C",
      "380C",
      "380C",
      "380C",
      "380C",
      "380C",
      "380C",
      "380C",
      "380C",
      "380C",
      "380C",
      "380C",
      "380C",
      "380C",
      "380C",
      "380C",
      "380C",
      "380C",
      "380C",
      "380C",
      "380C",
      "380C",
      "380C",
      "380C",
      "380C",
      "380C",
      "380C",
      "380C",
      "380C",
      "380C",
      "380C",
      "380C",
      "380C",
      "380C",
      "380C",
      "380C",
      "380C",
      "380C",
      "380C",
      "380C",
      "380C",
      "380C",
      "380C",
      "380C",
      "380C",
      "380C",
      "380C",
      "380C",
      "380C",
      "380C",
      "380C",
      "380C",
      "380C",
      "380C",
      "380C",
      "380C",
      "380C",
      "380C",
      "380C",
      "380C",
      "380C",
      "380C",
      "380C",
      "380C",
      "380C",
      "380C",
      "380C",
      "380C",
      "380C",
      "380C",
      "380C",
      "380C",
      "380C",
      "380C",
      "380C",
      "380C",
      "380C",
      "380C",
      "380C",
      "380C",
      "380C",
      "380C",
      "380C",
      "380C",
      "380C",
      "380C",
      "380C",
      "380C",
      "380C",
      "380C",
      "380C",
      "380C",
      "380C",
      "380C",
      "380C",
      "380C",
      "380C",
      "380C",
      "380C",
      "380C",
      "380C",
      "380C",
      "380C",
      "380C",
      "380C",
      "380C",
      "380C",
      "380C",
      "380C",
      "380C",
      "380C",
      "380C",
      "380C",
      "380C",
      "380C",
      "380C",
      "380C",
      "380C",
      "380C",
      "380C",
      "380C",
      "380C",
      "380C",
      "380C",
      "380C",
      "380C",
      "380C",
      "380C",
      "380C",
      "380C",
      "380C",
      "380C",
      "380C",
      "380C",
      "380C",
      "380C",
      "380C",
      "380C",
      "380C",
      "380C",
      "380C",
      "380C",
      "380C",
      "380C",
      "380C",
      "380C",
      "380C",
      "380C",
      "380C",
      "380C",
      "380C",
      "380C",
      "380C",
      "380C",
      "380C",
      "380C",
      "380C",
      "380C",
      "386",
      "397",
      "400C",
      "400C",
      "400C",
      "400C",
      "400C",
      "400C",
      "400C",
      "400C",
      "400C",
      "400C",
      "400C",
      "400C",
      "400C",
      "400C",
      "400C",
      "400C",
      "400C",
      "400C",
      "400C",
      "400C",
      "400C",
      "400C",
      "400C",
      "400C",
      "400C",
      "400C",
      "400C",
      "400C",
      "400C",
      "400C",
      "400C",
      "400C",
      "400C",
      "400C",
      "400C",
      "400C",
      "400",
      "397",
      "360C",
      "360C",
      "360C",
      "360C",
      "360",
      "360",
      "356",
      "326",
      "321",
      "295",
      "277",
      "249",
      "240",
      "227",
      "222",
      "206",
      "192",
      "187",
      "176",
      "169",
      "160",
      "144",
      "139",
      "109",
      "101",
      "097",
      "089",
      "079",
      "076",
      "070",
      "068",
      "061",
      "058",
      "055",
      "046",
      "043",
      "025",
      "023",
      "015",
      "009",
      "008",
      "002"
    ],
    "swim:geom": "path",
    "swim:speeds": [
      230,
      263,
      284,
      289,
      290,
      298,
      342,
      375,
      398,
      404,
      401,
      409,
      409,
      436,
      460,
      471,
      473,
      460,
      460,
      461,
      461,
      466,
      461,
      460,
      457,
      447,
      452,
      438,
      433,
      429,
      429,
      429,
      429,
      429,
      429,
      430,
      432,
      434,
      434,
      438,
      437,
      437,
      436,
      435,
      435,
      435,
      434,
      434,
      435,
      434,
      433,
      431,
      430,
      426,
      425,
      424,
      424,
      424,
      426,
      428,
      428,
      430,
      431,
      433,
      434,
      440,
      440,
      442,
      442,
      444,
      444,
      446,
      446,
      448,
      448,
      450,
      449,
      450,
      451,
      450,
      447,
      445,
      443,
      439,
      439,
      435,
      432,
      435,
      427,
      430,
      426,
      454,
      457,
      456,
      462,
      457,
      461,
      457,
      455,
      457,
      457,
      456,
      459,
      461,
      464,
      470,
      469,
      471,
      471,
      470,
      470,
      470,
      469,
      468,
      468,
      467,
      466,
      466,
      466,
      466,
      466,
      468,
      469,
      470,
      471,
      472,
      473,
      473,
      473,
      472,
      472,
      471,
      471,
      471,
      471,
      472,
      472,
      473,
      467,
      461,
      457,
      457,
      455,
      455,
      456,
      458,
      461,
      462,
      462,
      461,
      460,
      459,
      459,
      459,
      459,
      460,
      461,
      464,
      465,
      465,
      466,
      466,
      466,
      466,
      464,
      464,
      465,
      464,
      464,
      464,
      464,
      464,
      464,
      465,
      465,
      466,
      465,
      461,
      465,
      462,
      464,
      464,
      465,
      464,
      463,
      463,
      462,
      462,
      462,
      462,
      462,
      462,
      463,
      463,
      464,
      464,
      467,
      467,
      468,
      469,
      468,
      469,
      469,
      469,
      468,
      468,
      468,
      468,
      468,
      468,
      468,
      468,
      468,
      468,
      470,
      470,
      467,
      465,
      463,
      461,
      460,
      459,
      461,
      464,
      466,
      468,
      470,
      473,
      473,
      476,
      474,
      476,
      474,
      476,
      475,
      475,
      476,
      476,
      476,
      476,
      476,
      476,
      476,
      476,
      476,
      476,
      477,
      478,
      477,
      476,
      476,
      476,
      476,
      475,
      475,
      474,
      474,
      474,
      475,
      476,
      477,
      478,
      481,
      481,
      480,
      479,
      477,
      476,
      475,
      475,
      474,
      474,
      474,
      475,
      475,
      474,
      474,
      473,
      469,
      463,
      461,
      459,
      454,
      458,
      455,
      456,
      457,
      457,
      455,
      455,
      454,
      454,
      453,
      453,
      447,
      447,
      445,
      445,
      445,
      445,
      446,
      447,
      447,
      448,
      448,
      449,
      449,
      449,
      449,
      450,
      449,
      450,
      450,
      449,
      449,
      449,
      450,
      449,
      453,
      454,
      455,
      454,
      452,
      452,
      451,
      447,
      449,
      431,
      424,
      384,
      363,
      345,
      339,
      335,
      335,
      330,
      332,
      328,
      311,
      309,
      305,
      271,
      263,
      259,
      257,
      244,
      237,
      241,
      242,
      234,
      197,
      190,
      192,
      198,
      177,
      178,
      139,
      140,
      135,
      131
    ],
    "swim:timestamps": [
      1785159747,
      1785159789,
      1785159813,
      1785159849,
      1785159867,
      1785159909,
      1785159933,
      1785159987,
      1785160048,
      1785160113,
      1785160149,
      1785160209,
      1785160269,
      1785160390,
      1785160510,
      1785160570,
      1785160630,
      1785160810,
      1785160870,
      1785160930,
      1785160991,
      1785161109,
      1785161169,
      1785161229,
      1785161289,
      1785161349,
      1785161470,
      1785161530,
      1785161590,
      1785161651,
      1785161710,
      1785161770,
      1785161830,
      1785161890,
      1785161950,
      1785162071,
      1785162191,
      1785162251,
      1785162312,
      1785162431,
      1785162551,
      1785162611,
      1785162672,
      1785162732,
      1785162792,
      1785162852,
      1785162912,
      1785162972,
      1785163032,
      1785163092,
      1785163152,
      1785163212,
      1785163272,
      1785163393,
      1785163453,
      1785163573,
      1785163633,
      1785163693,
      1785163753,
      1785163813,
      1785163837,
      1785163873,
      1785163897,
      1785163934,
      1785163957,
      1785164054,
      1785164078,
      1785164114,
      1785164138,
      1785164174,
      1785164198,
      1785164231,
      1785164258,
      1785164291,
      1785164318,
      1785164351,
      1785164378,
      1785164438,
      1785164471,
      1785164532,
      1785164592,
      1785164618,
      1785164678,
      1785164728,
      1785164772,
      1785164799,
      1785164832,
      1785164848,
      1785164859,
      1785164892,
      1785164908,
      1785164952,
      1785164968,
      1785165012,
      1785165029,
      1785165039,
      1785165089,
      1785165099,
      1785165149,
      1785165159,
      1785165219,
      1785165269,
      1785165279,
      1785165340,
      1785165400,
      1785165449,
      1785165520,
      1785165569,
      1785165629,
      1785165640,
      1785165700,
      1785165750,
      1785165760,
      1785165810,
      1785165820,
      1785165870,
      1785165881,
      1785165930,
      1785165941,
      1785165990,
      1785166001,
      1785166061,
      1785166110,
      1785166121,
      1785166170,
      1785166241,
      1785166301,
      1785166351,
      1785166361,
      1785166421,
      1785166482,
      1785166531,
      1785166542,
      1785166591,
      1785166602,
      1785166662,
      1785166722,
      1785166782,
      1785166831,
      1785166842,
      1785166891,
      1785166902,
      1785166962,
      1785167012,
      1785167022,
      1785167072,
      1785167132,
      1785167192,
      1785167252,
      1785167372,
      1785167432,
      1785167492,
      1785167552,
      1785167613,
      1785167673,
      1785167733,
      1785167790,
      1785167970,
      1785168030,
      1785168091,
      1785168151,
      1785168211,
      1785168271,
      1785168331,
      1785168451,
      1785168511,
      1785168571,
      1785168631,
      1785168691,
      1785168752,
      1785168812,
      1785168872,
      1785168932,
      1785168992,
      1785169052,
      1785169112,
      1785169172,
      1785169208,
      1785169232,
      1785169268,
      1785169292,
      1785169389,
      1785169412,
      1785169449,
      1785169509,
      1785169533,
      1785169569,
      1785169593,
      1785169629,
      1785169653,
      1785169689,
      1785169713,
      1785169776,
      1785169809,
      1785169836,
      1785169896,
      1785170016,
      1785170050,
      1785170076,
      1785170136,
      1785170170,
      1785170197,
      1785170257,
      1785170317,
      1785170350,
      1785170377,
      1785170410,
      1785170437,
      1785170497,
      1785170530,
      1785170557,
      1785170590,
      1785170650,
      1785170737,
      1785170831,
      1785170891,
      1785171071,
      1785171131,
      1785171191,
      1785171251,
      1785171311,
      1785171371,
      1785171503,
      1785171624,
      1785171684,
      1785171804,
      1785171924,
      1785172044,
      1785172104,
      1785172170,
      1785172224,
      1785172230,
      1785172284,
      1785172290,
      1785172405,
      1785172465,
      1785172525,
      1785172585,
      1785172651,
      1785172705,
      1785172711,
      1785172771,
      1785172831,
      1785172891,
      1785172951,
      1785173011,
      1785173126,
      1785173186,
      1785173366,
      1785173426,
      1785173432,
      1785173492,
      1785173552,
      1785173606,
      1785173612,
      1785173672,
      1785173732,
      1785173852,
      1785173912,
      1785173972,
      1785174032,
      1785174092,
      1785174333,
      1785174393,
      1785174453,
      1785174513,
      1785174573,
      1785174633,
      1785174693,
      1785174753,
      1785174813,
      1785174873,
      1785174934,
      1785175054,
      1785175114,
      1785175174,
      1785175234,
      1785175294,
      1785175354,
      1785175414,
      1785175474,
      1785175534,
      1785175555,
      1785175594,
      1785175615,
      1785175675,
      1785175735,
      1785175775,
      1785175835,
      1785175855,
      1785175895,
      1785175915,
      1785175955,
      1785175975,
      1785176015,
      1785176035,
      1785176075,
      1785176135,
      1785176156,
      1785176216,
      1785176276,
      1785176315,
      1785176336,
      1785176396,
      1785176436,
      1785176456,
      1785176496,
      1785176516,
      1785176556,
      1785176576,
      1785176616,
      1785176636,
      1785176676,
      1785176736,
      1785176756,
      1785176796,
      1785176817,
      1785176856,
      1785177057,
      1785177117,
      1785177177,
      1785177237,
      1785177357,
      1785177417,
      1785177477,
      1785177538,
      1785177546,
      1785177612,
      1785177658,
      1785177718,
      1785177732,
      1785177778,
      1785177792,
      1785177847,
      1785177898,
      1785177912,
      1785177958,
      1785177972,
      1785178018,
      1785178078,
      1785178087,
      1785178207,
      1785178259,
      1785178267,
      1785178319,
      1785178379,
      1785178387,
      1785178439,
      1785178447,
      1785178499,
      1785178559,
      1785178573,
      1785178619,
      1785178628,
      1785178739,
      1785178748,
      1785178808,
      1785178859,
      1785178868,
      1785178920
    ],
    "wof:geomhash": "fe016cd3e746bab19695b6846124be66",
    "wof:id": 2031990151,
    "wof:repo": "sfomuseum-data-flights-2026-07"
  },
  "bbox": [
    -122.3436111111111,
    37.46666666666667,
    -73.55,
    41.27916666666667
  ],
  "geometry": {"coordinates":[[-73.81666666666666,40.56666666666667],[-73.84277777777777,40.525555555555556],[-73.81666666666666,40.5],[-73.75861111111111,40.50833333333333],[-73.73333333333333,40.516666666666666],[-73.66916666666667,40.55166666666666],[-73.63333333333334,40.56666666666667],[-73.56666666666666,40.65],[-73.55,40.766666666666666],[-73.6,40.86666666666667],[-73.63277777777778,40.92472222222222],[-73.71416666666667,41.031666666666666],[-73.80805555555555,41.11694444444444],[-74.11694444444444,41.168055555555554],[-74.42666666666668,41.19499999999999],[-74.58277777777778,41.144444444444446],[-74.73166666666667,41.07638888888889],[-75.22027777777778,40.91],[-75.38083333333333,40.87277777777778],[-75.54194444444444,40.834722222222226],[-75.67277777777778,40.80361111111111],[-75.99555555555555,40.72555555555556],[-76.15444444444445,40.68694444444444],[-76.3125,40.644444444444446],[-76.48111111111112,40.621944444444445],[-76.63277777777778,40.63777777777778],[-76.95972222222223,40.67361111111111],[-77.11888888888888,40.69027777777777],[-77.27333333333333,40.70666666666667],[-77.43611111111112,40.72361111111111],[-77.58222222222221,40.73833333333334],[-77.73277777777778,40.75361111111111],[-77.91444444444446,40.77166666666667],[-78.07055555555556,40.786944444444444],[-78.22583333333334,40.801944444444445],[-78.53916666666666,40.83166666666667],[-78.85305555555556,40.86027777777778],[-79.01138888888889,40.874722222222225],[-79.1763888888889,40.88916666666667],[-79.4875,40.91583333333333],[-79.80416666666666,40.94194444444444],[-79.96166666666667,40.95472222222222],[-80.12027777777777,40.9675],[-80.27694444444444,40.980000000000004],[-80.43555555555555,40.99194444444444],[-80.59305555555555,41.00388888888889],[-80.75138888888888,41.01555555555556],[-80.90916666666668,41.026944444444446],[-81.06722222222221,41.038333333333334],[-81.21638888888889,41.04888888888889],[-81.37388888888889,41.05972222222222],[-81.53388888888888,41.07055555555556],[-81.69194444444445,41.08083333333334],[-82.00833333333334,41.10111111111111],[-82.16250000000001,41.11055555555556],[-82.47611111111111,41.12916666666667],[-82.63055555555555,41.13805555555555],[-82.78583333333333,41.14666666666667],[-82.94444444444444,41.15555555555555],[-83.10222222222221,41.163888888888884],[-83.16972222222223,41.16861111111111],[-83.25972222222222,41.17194444444444],[-83.32944444444443,41.175555555555555],[-83.4213888888889,41.180277777777775],[-83.49,41.183611111111105],[-83.74777777777778,41.19583333333333],[-83.81611111111111,41.19916666666666],[-83.90916666666668,41.203611111111115],[-83.98,41.20666666666667],[-84.07583333333334,41.211111111111116],[-84.14111111111112,41.21388888888889],[-84.24083333333333,41.21805555555556],[-84.30916666666667,41.221111111111114],[-84.405,41.225],[-84.47722222222222,41.22805555555556],[-84.57305555555556,41.23166666666667],[-84.63916666666667,41.23444444444444],[-84.80944444444444,41.24],[-84.90472222222223,41.24305555555556],[-85.06694444444445,41.24805555555556],[-85.23166666666667,41.25277777777778],[-85.30305555555556,41.255],[-85.46388888888889,41.259166666666665],[-85.59916666666666,41.26361111111111],[-85.71833333333333,41.26583333333333],[-85.78472222222221,41.26722222222222],[-85.87888888888888,41.270833333333336],[-85.91555555555556,41.27388888888889],[-85.94305555555556,41.27583333333333],[-86.03555555555555,41.27861111111111],[-86.05583333333333,41.27916666666667],[-86.19333333333334,41.24166666666667],[-86.21694444444445,41.23583333333333],[-86.35472222222222,41.197222222222216],[-86.375,41.19166666666666],[-86.42083333333333,41.17916666666667],[-86.53333333333333,41.14888888888889],[-86.58388888888888,41.13472222222222],[-86.68861111111111,41.10527777777778],[-86.74111111111111,41.09166666666667],[-86.89888888888889,41.04805555555556],[-87.00638888888889,41.018055555555556],[-87.05888888888889,41.00361111111111],[-87.21722222222222,40.95944444444445],[-87.37777777777777,40.91416666666667],[-87.52,40.87388888888889],[-87.70333333333333,40.82166666666667],[-87.8436111111111,40.78138888888889],[-88.00555555555556,40.73444444444444],[-88.025,40.72888888888889],[-88.18666666666667,40.68194444444444],[-88.32416666666666,40.641666666666666],[-88.34527777777777,40.635555555555555],[-88.485,40.59444444444445],[-88.50555555555556,40.58833333333334],[-88.64194444444445,40.54805555555556],[-88.66277777777778,40.54194444444444],[-88.80111111111111,40.50055555555556],[-88.82249999999999,40.49444444444445],[-88.95916666666668,40.45333333333333],[-88.99055555555556,40.443888888888885],[-89.15083333333334,40.39555555555555],[-89.24722222222222,40.36638888888889],[-89.31,40.347500000000004],[-89.40722222222223,40.31777777777778],[-89.60194444444444,40.25805555555556],[-89.7625,40.20861111111111],[-89.88944444444445,40.16916666666666],[-89.92111111111112,40.159444444444446],[-90.07888888888888,40.11],[-90.23833333333333,40.059999999999995],[-90.36555555555555,40.019999999999996],[-90.39722222222223,40.00972222222222],[-90.52472222222222,39.96944444444445],[-90.55361111111111,39.96027777777778],[-90.71333333333334,39.909166666666664],[-90.86944444444444,39.85888888888889],[-91.02722222222222,39.808055555555555],[-91.15583333333333,39.7725],[-91.18861111111111,39.769999999999996],[-91.31916666666666,39.76861111111111],[-91.35194444444444,39.76861111111111],[-91.51472222222222,39.76916666666666],[-91.64833333333334,39.77027777777778],[-91.68111111111112,39.76888888888889],[-91.8125,39.75972222222222],[-91.98111111111112,39.74472222222222],[-92.14694444444446,39.72916666666667],[-92.31388888888888,39.71333333333334],[-92.6463888888889,39.681666666666665],[-92.80944444444444,39.66555555555556],[-92.97361111111111,39.649166666666666],[-93.1375,39.632777777777775],[-93.3025,39.615833333333335],[-93.46805555555555,39.598888888888894],[-93.63138888888888,39.581944444444446],[-93.80083333333333,39.564166666666665],[-94.3,39.51],[-94.46722222222222,39.49138888888889],[-94.63083333333333,39.473055555555554],[-94.79638888888888,39.45388888888889],[-94.95916666666668,39.43527777777778],[-95.1363888888889,39.41444444444444],[-95.29444444444444,39.39555555555555],[-95.60805555555555,39.35777777777778],[-95.77111111111111,39.337500000000006],[-95.93722222222223,39.316944444444445],[-96.10027777777778,39.296388888888885],[-96.28222222222222,39.27305555555555],[-96.42555555555556,39.25472222222222],[-96.58944444444444,39.233333333333334],[-96.75305555555556,39.211666666666666],[-96.91638888888889,39.19],[-97.08083333333333,39.16777777777777],[-97.245,39.14527777777778],[-97.40861111111111,39.12277777777778],[-97.60277777777777,39.095555555555556],[-97.685,39.08388888888889],[-97.76555555555555,39.07277777777778],[-97.85111111111111,39.06055555555555],[-97.91333333333334,39.05166666666666],[-98.17916666666667,39.01305555555555],[-98.23694444444445,39.00472222222222],[-98.34027777777777,38.989444444444445],[-98.50027777777778,38.965833333333336],[-98.5611111111111,38.95666666666667],[-98.6613888888889,38.94166666666666],[-98.71916666666667,38.933055555555555],[-98.82055555555556,38.91777777777777],[-98.88305555555554,38.90833333333333],[-98.98222222222222,38.893055555555556],[-99.0436111111111,38.88361111111111],[-99.20472222222223,38.85888888888889],[-99.30666666666666,38.84],[-99.36555555555555,38.83166666666667],[-99.52722222222222,38.80888888888889],[-99.87388888888889,38.75222222222222],[-99.97333333333333,38.73583333333333],[-100.02027777777778,38.72805555555556],[-100.18416666666667,38.70111111111111],[-100.27805555555555,38.68527777777778],[-100.34777777777778,38.67388888888889],[-100.50694444444444,38.64694444444444],[-100.69083333333333,38.615833333333335],[-100.79027777777777,38.598888888888894],[-100.84916666666666,38.58861111111111],[-100.95055555555555,38.57138888888889],[-100.98777777777778,38.56472222222222],[-101.14888888888889,38.53666666666666],[-101.27027777777778,38.51555555555556],[-101.31,38.50833333333333],[-101.43166666666667,38.48694444444445],[-101.59333333333333,38.45805555555556],[-101.79777777777778,38.421388888888885],[-102.07472222222222,38.37083333333334],[-102.24111111111111,38.34027777777778],[-102.7225,38.25],[-102.88,38.22],[-103.03694444444444,38.189722222222215],[-103.19333333333334,38.15972222222222],[-103.34888888888888,38.129444444444445],[-103.50722222222223,38.098333333333336],[-103.81916666666666,38.03638888888889],[-104.17222222222223,38.001666666666665],[-104.33444444444444,38.00388888888889],[-104.66166666666668,38.007222222222225],[-104.99333333333334,38.00944444444445],[-105.32444444444444,38.01083333333333],[-105.49305555555556,38.01111111111111],[-105.6763888888889,38.01166666666666],[-105.82444444444444,38.01138888888889],[-105.84333333333333,38.01138888888889],[-105.99055555555556,38.01416666666667],[-106.01027777777777,38.013888888888886],[-106.32527777777777,38.01833333333333],[-106.4925,38.019999999999996],[-106.68055555555556,38.021388888888886],[-106.84777777777778,38.022777777777776],[-107.01555555555555,38.02333333333333],[-107.18277777777779,38.024166666666666],[-107.18416666666667,38.02388888888889],[-107.3175,38.02444444444444],[-107.51833333333333,38.02388888888889],[-107.6863888888889,38.02388888888889],[-107.85333333333332,38.024166666666666],[-108.02111111111111,38.02333333333333],[-108.33888888888889,38.0225],[-108.50694444444444,38.021388888888886],[-109.01555555555555,38.01611111111111],[-109.18444444444445,38.013888888888886],[-109.19833333333334,38.013888888888886],[-109.36805555555554,38.01138888888889],[-109.53472222222221,38.00861111111111],[-109.68472222222222,38.00611111111111],[-109.70222222222222,38.005833333333335],[-109.86833333333333,38.00277777777778],[-110.03472222222221,38.00138888888889],[-110.36805555555554,38.01361111111111],[-110.53416666666666,38.02722222222222],[-110.70277777777778,38.04333333333333],[-110.8711111111111,38.05916666666666],[-111.05194444444444,38.07555555555556],[-111.72416666666666,38.13388888888889],[-111.89111111111112,38.147777777777776],[-112.05833333333334,38.16111111111111],[-112.22527777777778,38.17472222222222],[-112.39166666666668,38.1875],[-112.55555555555556,38.20027777777778],[-112.72194444444445,38.21277777777778],[-112.88555555555556,38.225],[-113.05333333333333,38.23722222222222],[-113.21888888888888,38.24888888888889],[-113.38416666666667,38.260555555555555],[-113.71638888888889,38.283055555555556],[-113.8825,38.29388888888889],[-114.04833333333333,38.30444444444444],[-114.21472222222222,38.315],[-114.38222222222221,38.32527777777778],[-114.54555555555555,38.335],[-114.70777777777778,38.34444444444445],[-114.86861111111111,38.353611111111114],[-115.03,38.362500000000004],[-115.0775,38.36638888888889],[-115.19166666666668,38.37138888888889],[-115.23944444444444,38.37444444444444],[-115.40166666666667,38.38333333333333],[-115.56305555555555,38.39194444444444],[-115.68861111111111,38.39694444444444],[-115.85027777777778,38.40472222222222],[-115.90944444444445,38.4075],[-116.00916666666667,38.41222222222222],[-116.04305555555555,38.413888888888884],[-116.16944444444445,38.41861111111111],[-116.20222222222222,38.416666666666664],[-116.32416666666666,38.3975],[-116.35583333333332,38.39138888888889],[-116.47444444444444,38.367777777777775],[-116.62888888888888,38.33694444444445],[-116.66055555555556,38.33083333333334],[-116.81138888888889,38.301111111111105],[-116.96472222222222,38.270833333333336],[-117.08583333333333,38.24638888888889],[-117.11611111111111,38.24055555555556],[-117.28222222222222,38.21055555555556],[-117.38583333333334,38.19611111111111],[-117.45027777777779,38.18666666666666],[-117.54138888888889,38.172777777777775],[-117.60555555555555,38.16305555555555],[-117.69666666666667,38.14861111111111],[-117.75972222222222,38.138888888888886],[-117.85222222222221,38.12416666666667],[-117.91722222222222,38.11416666666667],[-118.005,38.10027777777778],[-118.16027777777778,38.075833333333335],[-118.22666666666667,38.065],[-118.31833333333333,38.050555555555555],[-118.3825,38.040277777777774],[-118.47111111111111,38.02583333333333],[-119.00333333333333,37.93888888888888],[-119.15916666666668,37.91305555555555],[-119.31222222222222,37.88777777777778],[-119.46944444444445,37.861111111111114],[-119.77972222222222,37.80833333333333],[-119.93416666666667,37.781666666666666],[-120.08944444444444,37.75472222222222],[-120.24138888888889,37.72777777777778],[-120.26666666666667,37.71666666666667],[-120.43333333333334,37.7],[-120.54222222222222,37.683055555555555],[-120.68194444444445,37.66638888888889],[-120.71666666666667,37.666666666666664],[-120.80305555555556,37.65222222222222],[-120.83333333333333,37.65],[-120.95,37.63333333333333],[-121.03583333333333,37.623333333333335],[-121.06666666666666,37.61666666666667],[-121.15027777777779,37.60777777777778],[-121.18333333333334,37.6],[-121.25111111111111,37.59444444444445],[-121.35833333333333,37.58166666666667],[-121.38333333333334,37.583333333333336],[-121.6,37.55],[-121.6563888888889,37.543055555555554],[-121.68333333333334,37.53333333333333],[-121.74222222222222,37.5225],[-121.79944444444445,37.473055555555554],[-121.81666666666666,37.46666666666667],[-121.88222222222221,37.474722222222226],[-121.9,37.483333333333334],[-121.96527777777779,37.478611111111114],[-122.03916666666666,37.4825],[-122.06666666666666,37.483333333333334],[-122.10111111111111,37.50527777777778],[-122.11666666666666,37.516666666666666],[-122.21472222222222,37.55333333333333],[-122.23333333333333,37.56666666666667],[-122.26666666666667,37.583333333333336],[-122.30555555555556,37.59166666666667],[-122.31666666666666,37.6],[-122.3436111111111,37.60777777777778]],"type":"LineString"}
}
