{
  "id": 2032046131,
  "type": "Feature",
  "properties": {
    "geom:area": 0,
    "geom:bbox": "-122.342222,37.493056,-87.839167,42.174444",
    "geom:latitude": 39.89887028385946,
    "geom:longitude": -105.16369601130401,
    "src:alt_label": "swim-path",
    "src:geom": "swim",
    "swim:altitudes": [
      "034",
      "052",
      "078",
      "110",
      "130",
      "146",
      "162",
      "179",
      "195",
      "210",
      "225",
      "238",
      "250",
      "257",
      "261",
      "263",
      "269",
      "272",
      "281",
      "286",
      "294",
      "298",
      "301",
      "305",
      "311",
      "316",
      "324",
      "330",
      "338C",
      "340C",
      "340C",
      "340C",
      "340C",
      "340C",
      "340C",
      "340C",
      "340C",
      "340C",
      "340C",
      "340C",
      "340C",
      "340C",
      "340C",
      "340C",
      "340C",
      "340C",
      "340C",
      "340C",
      "340C",
      "340C",
      "340C",
      "340C",
      "340C",
      "340C",
      "340C",
      "340C",
      "340C",
      "340C",
      "340C",
      "340C",
      "340C",
      "340C",
      "340C",
      "340C",
      "340C",
      "340C",
      "340C",
      "340C",
      "340C",
      "340C",
      "340C",
      "340C",
      "340C",
      "340C",
      "340C",
      "340C",
      "340C",
      "340C",
      "340C",
      "340C",
      "340C",
      "340C",
      "340C",
      "340C",
      "340C",
      "340C",
      "340C",
      "340C",
      "340C",
      "340C",
      "340C",
      "340C",
      "340C",
      "340C",
      "340C",
      "340C",
      "340C",
      "340C",
      "340C",
      "340C",
      "340C",
      "340C",
      "340C",
      "340C",
      "340C",
      "340C",
      "340C",
      "340C",
      "340C",
      "340C",
      "340C",
      "340C",
      "340C",
      "340C",
      "340C",
      "340C",
      "340C",
      "340C",
      "340C",
      "340C",
      "340C",
      "340C",
      "340C",
      "340C",
      "340C",
      "340C",
      "340C",
      "340C",
      "340C",
      "340C",
      "340C",
      "340C",
      "340C",
      "340C",
      "340C",
      "340C",
      "340C",
      "340C",
      "340C",
      "341",
      "350",
      "359C",
      "360C",
      "360C",
      "360C",
      "360C",
      "360C",
      "360C",
      "360C",
      "360C",
      "360C",
      "360C",
      "360C",
      "360C",
      "360C",
      "360C",
      "360C",
      "360C",
      "360C",
      "360C",
      "360C",
      "360C",
      "360C",
      "360C",
      "360C",
      "360C",
      "360C",
      "360C",
      "360C",
      "360C",
      "360C",
      "360C",
      "360C",
      "360C",
      "360C",
      "360C",
      "360C",
      "360C",
      "360C",
      "360C",
      "360C",
      "360C",
      "360C",
      "360C",
      "360C",
      "360C",
      "360C",
      "360C",
      "360C",
      "360C",
      "360C",
      "360C",
      "360C",
      "360C",
      "360C",
      "360C",
      "360C",
      "360C",
      "360C",
      "360C",
      "360C",
      "360C",
      "360C",
      "360C",
      "360C",
      "360C",
      "360C",
      "360C",
      "360C",
      "360C",
      "360C",
      "360C",
      "360C",
      "360C",
      "360C",
      "360C",
      "360C",
      "360C",
      "360C",
      "360C",
      "360C",
      "360C",
      "360C",
      "360C",
      "360C",
      "360C",
      "360C",
      "360C",
      "360C",
      "360C",
      "360C",
      "360C",
      "360C",
      "360C",
      "360C",
      "360C",
      "360C",
      "360C",
      "360C",
      "360C",
      "360C",
      "360C",
      "360C",
      "360C",
      "360C",
      "360C",
      "360C",
      "360C",
      "360C",
      "360C",
      "360C",
      "360C",
      "360C",
      "360C",
      "360C",
      "360C",
      "360C",
      "360C",
      "360C",
      "360C",
      "360C",
      "360C",
      "360C",
      "360C",
      "360C",
      "360C",
      "360C",
      "360C",
      "360C",
      "360C",
      "360C",
      "360C",
      "360C",
      "360C",
      "360C",
      "360C",
      "360C",
      "360C",
      "360C",
      "360C",
      "360C",
      "360C",
      "360C",
      "360C",
      "360C",
      "360C",
      "360C",
      "360C",
      "360C",
      "360C",
      "360C",
      "360C",
      "360C",
      "360C",
      "360C",
      "360C",
      "360C",
      "360C",
      "360C",
      "360C",
      "360C",
      "360C",
      "360C",
      "360C",
      "360C",
      "360C",
      "360C",
      "360C",
      "360C",
      "360C",
      "360C",
      "360C",
      "360C",
      "360C",
      "360C",
      "360C",
      "360C",
      "360C",
      "360C",
      "360C",
      "360C",
      "360C",
      "360C",
      "360C",
      "360C",
      "360C",
      "360C",
      "360C",
      "360C",
      "360C",
      "360C",
      "360C",
      "360C",
      "360C",
      "360C",
      "360C",
      "360C",
      "360C",
      "360",
      "360",
      "356",
      "346",
      "340C",
      "340C",
      "340C",
      "340C",
      "340C",
      "340C",
      "340C",
      "340C",
      "340C",
      "340C",
      "335",
      "300",
      "295",
      "273",
      "271",
      "261",
      "257",
      "242",
      "237",
      "223",
      "216",
      "208",
      "199",
      "191",
      "181",
      "173",
      "164",
      "155",
      "149",
      "139",
      "133",
      "124",
      "116",
      "109",
      "105",
      "096",
      "091",
      "084",
      "072",
      "062",
      "058",
      "048",
      "042",
      "039",
      "032",
      "020",
      "016",
      "009",
      "003"
    ],
    "swim:geom": "path",
    "swim:speeds": [
      284,
      300,
      312,
      277,
      287,
      321,
      351,
      363,
      377,
      383,
      392,
      400,
      409,
      424,
      446,
      431,
      454,
      437,
      457,
      448,
      451,
      452,
      447,
      452,
      448,
      452,
      441,
      448,
      423,
      430,
      421,
      419,
      421,
      420,
      420,
      419,
      419,
      419,
      418,
      418,
      417,
      416,
      415,
      414,
      414,
      414,
      413,
      414,
      413,
      413,
      412,
      412,
      412,
      412,
      411,
      411,
      410,
      410,
      409,
      409,
      408,
      407,
      406,
      406,
      405,
      404,
      404,
      403,
      403,
      404,
      405,
      406,
      407,
      408,
      407,
      408,
      407,
      407,
      406,
      406,
      406,
      405,
      403,
      404,
      405,
      405,
      405,
      405,
      404,
      404,
      405,
      406,
      409,
      409,
      408,
      407,
      405,
      403,
      402,
      395,
      400,
      398,
      400,
      401,
      400,
      400,
      400,
      401,
      401,
      402,
      402,
      403,
      404,
      405,
      406,
      407,
      407,
      408,
      408,
      409,
      409,
      408,
      408,
      408,
      407,
      406,
      406,
      405,
      405,
      405,
      405,
      405,
      405,
      405,
      405,
      406,
      405,
      406,
      407,
      408,
      409,
      409,
      406,
      405,
      403,
      401,
      397,
      396,
      400,
      396,
      399,
      395,
      399,
      395,
      399,
      396,
      399,
      399,
      397,
      399,
      398,
      399,
      401,
      399,
      403,
      401,
      405,
      402,
      405,
      402,
      405,
      402,
      405,
      402,
      404,
      404,
      405,
      403,
      406,
      403,
      406,
      403,
      405,
      403,
      407,
      408,
      407,
      408,
      407,
      408,
      407,
      408,
      406,
      408,
      406,
      408,
      407,
      408,
      409,
      409,
      410,
      409,
      411,
      410,
      412,
      411,
      414,
      411,
      415,
      417,
      416,
      419,
      415,
      418,
      415,
      417,
      414,
      417,
      414,
      417,
      415,
      417,
      418,
      418,
      421,
      420,
      423,
      424,
      424,
      427,
      424,
      426,
      423,
      419,
      423,
      419,
      422,
      420,
      422,
      422,
      423,
      423,
      424,
      425,
      425,
      426,
      426,
      426,
      427,
      428,
      429,
      430,
      430,
      431,
      431,
      431,
      427,
      423,
      421,
      423,
      423,
      424,
      425,
      426,
      428,
      429,
      430,
      430,
      431,
      433,
      435,
      435,
      434,
      433,
      431,
      429,
      429,
      429,
      429,
      429,
      429,
      429,
      428,
      429,
      429,
      430,
      431,
      431,
      432,
      432,
      434,
      435,
      438,
      437,
      438,
      439,
      439,
      441,
      440,
      441,
      440,
      441,
      440,
      440,
      440,
      439,
      439,
      437,
      437,
      436,
      436,
      435,
      435,
      435,
      436,
      436,
      437,
      438,
      439,
      440,
      441,
      442,
      442,
      443,
      443,
      443,
      444,
      443,
      443,
      443,
      442,
      435,
      431,
      431,
      431,
      431,
      431,
      430,
      430,
      430,
      419,
      416,
      417,
      417,
      417,
      417,
      418,
      419,
      420,
      420,
      420,
      422,
      423,
      444,
      448,
      457,
      453,
      424,
      418,
      413,
      405,
      400,
      391,
      388,
      379,
      381,
      371,
      368,
      357,
      356,
      346,
      343,
      336,
      330,
      318,
      309,
      298,
      289,
      276,
      261,
      241,
      236,
      232,
      228,
      228,
      224,
      227,
      217,
      191,
      150,
      137
    ],
    "swim:timestamps": [
      1785530001,
      1785530061,
      1785530121,
      1785530181,
      1785530242,
      1785530302,
      1785530362,
      1785530422,
      1785530482,
      1785530542,
      1785530602,
      1785530662,
      1785530722,
      1785530782,
      1785530843,
      1785530864,
      1785530903,
      1785530924,
      1785530963,
      1785530984,
      1785531023,
      1785531044,
      1785531083,
      1785531104,
      1785531143,
      1785531164,
      1785531203,
      1785531224,
      1785531263,
      1785531284,
      1785531323,
      1785531344,
      1785531383,
      1785531404,
      1785531444,
      1785531464,
      1785531504,
      1785531525,
      1785531564,
      1785531585,
      1785531624,
      1785531645,
      1785531684,
      1785531705,
      1785531744,
      1785531765,
      1785531804,
      1785531825,
      1785531864,
      1785531885,
      1785531924,
      1785531945,
      1785531984,
      1785532005,
      1785532045,
      1785532065,
      1785532105,
      1785532125,
      1785532165,
      1785532185,
      1785532225,
      1785532246,
      1785532285,
      1785532306,
      1785532345,
      1785532366,
      1785532405,
      1785532426,
      1785532465,
      1785532486,
      1785532525,
      1785532546,
      1785532585,
      1785532606,
      1785532646,
      1785532666,
      1785532706,
      1785532726,
      1785532766,
      1785532786,
      1785532846,
      1785532906,
      1785532979,
      1785533039,
      1785533099,
      1785533159,
      1785533219,
      1785533279,
      1785533339,
      1785533399,
      1785533459,
      1785533519,
      1785533640,
      1785533700,
      1785533760,
      1785533820,
      1785533880,
      1785533940,
      1785534000,
      1785534030,
      1785534060,
      1785534090,
      1785534120,
      1785534150,
      1785534180,
      1785534210,
      1785534240,
      1785534270,
      1785534300,
      1785534330,
      1785534361,
      1785534390,
      1785534421,
      1785534451,
      1785534481,
      1785534511,
      1785534541,
      1785534571,
      1785534601,
      1785534631,
      1785534661,
      1785534691,
      1785534721,
      1785534751,
      1785534781,
      1785534811,
      1785534841,
      1785534871,
      1785534901,
      1785534931,
      1785534961,
      1785534991,
      1785535021,
      1785535051,
      1785535082,
      1785535111,
      1785535142,
      1785535171,
      1785535232,
      1785535292,
      1785535352,
      1785535412,
      1785535472,
      1785535532,
      1785535592,
      1785535652,
      1785535712,
      1785535772,
      1785535800,
      1785535832,
      1785535860,
      1785535892,
      1785535920,
      1785535953,
      1785535980,
      1785536013,
      1785536040,
      1785536100,
      1785536133,
      1785536160,
      1785536193,
      1785536220,
      1785536253,
      1785536281,
      1785536313,
      1785536341,
      1785536373,
      1785536401,
      1785536433,
      1785536461,
      1785536493,
      1785536521,
      1785536553,
      1785536581,
      1785536613,
      1785536673,
      1785536734,
      1785536761,
      1785536794,
      1785536821,
      1785536854,
      1785536881,
      1785536914,
      1785536941,
      1785536974,
      1785537002,
      1785537034,
      1785537062,
      1785537094,
      1785537122,
      1785537154,
      1785537182,
      1785537214,
      1785537242,
      1785537274,
      1785537302,
      1785537334,
      1785537362,
      1785537394,
      1785537422,
      1785537454,
      1785537494,
      1785537515,
      1785537554,
      1785537575,
      1785537614,
      1785537635,
      1785537674,
      1785537695,
      1785537734,
      1785537755,
      1785537795,
      1785537815,
      1785537855,
      1785537875,
      1785537915,
      1785537935,
      1785537975,
      1785537995,
      1785538035,
      1785538055,
      1785538095,
      1785538115,
      1785538155,
      1785538175,
      1785538215,
      1785538236,
      1785538275,
      1785538296,
      1785538335,
      1785538356,
      1785538395,
      1785538416,
      1785538455,
      1785538476,
      1785538516,
      1785538536,
      1785538576,
      1785538596,
      1785538636,
      1785538656,
      1785538696,
      1785538716,
      1785538756,
      1785538776,
      1785538816,
      1785538836,
      1785538876,
      1785538896,
      1785538936,
      1785538956,
      1785538996,
      1785539017,
      1785539056,
      1785539077,
      1785539116,
      1785539137,
      1785539176,
      1785539197,
      1785539237,
      1785539257,
      1785539297,
      1785539317,
      1785539357,
      1785539377,
      1785539417,
      1785539477,
      1785539537,
      1785539597,
      1785539657,
      1785539717,
      1785539777,
      1785539837,
      1785539897,
      1785539957,
      1785540078,
      1785540138,
      1785540198,
      1785540258,
      1785540318,
      1785540378,
      1785540438,
      1785540498,
      1785540558,
      1785540618,
      1785540678,
      1785540739,
      1785540799,
      1785540859,
      1785540919,
      1785540979,
      1785541039,
      1785541067,
      1785541099,
      1785541127,
      1785541159,
      1785541188,
      1785541219,
      1785541248,
      1785541279,
      1785541308,
      1785541339,
      1785541368,
      1785541399,
      1785541428,
      1785541459,
      1785541488,
      1785541520,
      1785541548,
      1785541580,
      1785541608,
      1785541640,
      1785541668,
      1785541700,
      1785541728,
      1785541760,
      1785541788,
      1785541820,
      1785541848,
      1785541880,
      1785541909,
      1785541940,
      1785541969,
      1785542000,
      1785542029,
      1785542060,
      1785542089,
      1785542120,
      1785542149,
      1785542180,
      1785542209,
      1785542241,
      1785542269,
      1785542301,
      1785542329,
      1785542361,
      1785542389,
      1785542421,
      1785542449,
      1785542481,
      1785542509,
      1785542569,
      1785542629,
      1785542690,
      1785542750,
      1785542810,
      1785542870,
      1785542930,
      1785542990,
      1785543050,
      1785543110,
      1785543170,
      1785543230,
      1785543290,
      1785543299,
      1785543350,
      1785543365,
      1785543410,
      1785543425,
      1785543471,
      1785543486,
      1785543531,
      1785543551,
      1785543591,
      1785543611,
      1785543651,
      1785543671,
      1785543711,
      1785543732,
      1785543771,
      1785543786,
      1785543831,
      1785543846,
      1785543891,
      1785543911,
      1785543951,
      1785543966,
      1785544011,
      1785544026,
      1785544071,
      1785544131,
      1785544192,
      1785544206,
      1785544266,
      1785544312,
      1785544326,
      1785544372,
      1785544432,
      1785544446,
      1785544501,
      1785544552
    ],
    "wof:geomhash": "daa3d7b8f5e555ed145c206d5cc477d2",
    "wof:id": 2032046131,
    "wof:repo": "sfomuseum-data-flights-2026-07"
  },
  "bbox": [
    -122.34222222222222,
    37.49305555555556,
    -87.83916666666666,
    42.17444444444444
  ],
  "geometry": {"coordinates":[[-87.83916666666666,42.05166666666666],[-87.91416666666667,42.11416666666667],[-87.99777777777778,42.17388888888889],[-88.10333333333332,42.17444444444444],[-88.20472222222223,42.156388888888884],[-88.32111111111111,42.14138888888889],[-88.44888888888889,42.126111111111115],[-88.58583333333333,42.10944444444445],[-88.72305555555556,42.09305555555556],[-88.8561111111111,42.07694444444445],[-89.00888888888889,42.0575],[-89.15444444444445,42.03916666666667],[-89.30499999999999,42.01972222222222],[-89.45777777777778,42.000277777777775],[-89.61999999999999,41.97916666666667],[-89.67777777777778,41.97138888888889],[-89.78722222222223,41.956944444444446],[-89.84388888888888,41.950833333333335],[-89.94722222222222,41.93555555555555],[-90.01388888888889,41.92777777777778],[-90.11361111111111,41.9125],[-90.17888888888889,41.903055555555554],[-90.27805555555555,41.89],[-90.34388888888888,41.87972222222222],[-90.44194444444445,41.867777777777775],[-90.50805555555556,41.8575],[-90.60249999999999,41.845555555555556],[-90.66777777777779,41.836111111111116],[-90.75916666666667,41.82333333333334],[-90.82166666666666,41.814166666666665],[-90.91166666666668,41.80083333333333],[-90.97500000000001,41.791666666666664],[-91.0675,41.778888888888886],[-91.12916666666666,41.77027777777778],[-91.22,41.757222222222225],[-91.28055555555555,41.748333333333335],[-91.37333333333332,41.734722222222224],[-91.43277777777779,41.725833333333334],[-91.52472222222222,41.71222222222222],[-91.58611111111111,41.70305555555556],[-91.67500000000001,41.689722222222215],[-91.73527777777778,41.67972222222222],[-91.82722222222222,41.666666666666664],[-91.87305555555555,41.65888888888889],[-91.97666666666667,41.64361111111111],[-92.0225,41.63611111111111],[-92.12722222222222,41.620555555555555],[-92.17277777777778,41.61361111111111],[-92.2761111111111,41.597500000000004],[-92.32166666666666,41.59055555555556],[-92.42666666666668,41.573888888888895],[-92.47222222222223,41.56666666666667],[-92.575,41.55027777777777],[-92.61722222222221,41.54361111111111],[-92.72611111111111,41.52638888888889],[-92.7675,41.51972222222222],[-92.88416666666667,41.50083333333333],[-92.91305555555556,41.49611111111111],[-93.03027777777778,41.477222222222224],[-93.05972222222222,41.472500000000004],[-93.17777777777778,41.45305555555556],[-93.20694444444445,41.448055555555555],[-93.32138888888889,41.428888888888885],[-93.35055555555554,41.424166666666665],[-93.46694444444445,41.405],[-93.4961111111111,41.400555555555556],[-93.61305555555555,41.385],[-93.64222222222223,41.38111111111111],[-93.75833333333334,41.365833333333335],[-93.78833333333333,41.361666666666665],[-93.90611111111112,41.345555555555556],[-93.9375,41.34138888888889],[-94.05472222222222,41.32555555555556],[-94.11444444444444,41.31722222222223],[-94.20305555555557,41.305],[-94.25416666666666,41.29805555555556],[-94.35027777777778,41.28472222222222],[-94.40333333333334,41.27722222222222],[-94.49666666666667,41.26416666666667],[-94.54916666666666,41.25666666666667],[-94.69638888888889,41.23555555555556],[-94.84138888888889,41.215],[-95.01722222222222,41.18944444444444],[-95.165,41.16777777777777],[-95.31138888888889,41.14611111111111],[-95.45833333333334,41.12416666666667],[-95.60333333333332,41.102222222222224],[-95.75166666666667,41.07972222222222],[-95.9,41.05694444444444],[-96.04666666666667,41.034166666666664],[-96.19388888888889,41.01138888888889],[-96.3411111111111,40.98777777777778],[-96.60833333333333,40.94555555555555],[-96.755,40.9225],[-96.90305555555557,40.90861111111111],[-97.05055555555555,40.894444444444446],[-97.19722222222222,40.88027777777778],[-97.34388888888888,40.865833333333335],[-97.48666666666666,40.85166666666667],[-97.56833333333333,40.84055555555556],[-97.6325,40.83694444444445],[-97.72611111111111,40.8275],[-97.77638888888889,40.82222222222222],[-97.8611111111111,40.81361111111111],[-97.95222222222222,40.80416666666667],[-98.00555555555556,40.79861111111111],[-98.06722222222221,40.79194444444444],[-98.15083333333334,40.783055555555556],[-98.24222222222222,40.77333333333333],[-98.29527777777777,40.76777777777777],[-98.3888888888889,40.7575],[-98.44166666666668,40.75194444444445],[-98.53527777777778,40.74166666666667],[-98.5911111111111,40.73555555555556],[-98.68472222222222,40.72527777777778],[-98.73861111111111,40.719166666666666],[-98.83138888888888,40.70888888888889],[-98.88694444444445,40.7025],[-98.98083333333334,40.69194444444444],[-99.03416666666666,40.68583333333333],[-99.12583333333333,40.67527777777777],[-99.18222222222222,40.66888888888889],[-99.27333333333333,40.65833333333333],[-99.32916666666667,40.651944444444446],[-99.41888888888889,40.64138888888889],[-99.47583333333334,40.63444444444444],[-99.565,40.62388888888889],[-99.62083333333332,40.617222222222225],[-99.70916666666668,40.60666666666667],[-99.7675,40.599722222222226],[-99.8561111111111,40.58888888888889],[-99.91388888888889,40.581944444444446],[-100.00361111111111,40.57083333333334],[-100.05972222222222,40.564166666666665],[-100.14805555555556,40.55305555555555],[-100.20611111111111,40.545833333333334],[-100.2825,40.53638888888889],[-100.35222222222221,40.527499999999996],[-100.49944444444445,40.50888888888889],[-100.65055555555556,40.489444444444445],[-100.79777777777778,40.470555555555556],[-100.9475,40.45166666666667],[-101.09388888888888,40.43805555555555],[-101.24,40.42388888888889],[-101.385,40.41],[-101.52944444444444,40.395833333333336],[-101.67194444444445,40.38166666666667],[-101.81472222222222,40.367222222222225],[-101.87083333333332,40.36],[-101.95583333333333,40.35277777777778],[-102.01194444444444,40.34527777777778],[-102.09888888888888,40.338055555555556],[-102.155,40.33111111111111],[-102.24222222222222,40.323055555555555],[-102.29916666666666,40.31527777777777],[-102.38361111111112,40.308055555555555],[-102.44166666666668,40.29972222222222],[-102.58444444444444,40.28444444444444],[-102.67083333333333,40.27722222222222],[-102.72888888888889,40.26777777777777],[-102.8175,40.26111111111111],[-102.87277777777777,40.253055555555555],[-102.96055555555556,40.24527777777778],[-103.01916666666666,40.23722222222222],[-103.10527777777777,40.22888888888889],[-103.16638888888889,40.219722222222224],[-103.25305555555556,40.21222222222222],[-103.31055555555555,40.203611111111115],[-103.39861111111112,40.19555555555555],[-103.455,40.18805555555555],[-103.54194444444444,40.17861111111111],[-103.59944444444444,40.170833333333334],[-103.68777777777778,40.16166666666666],[-103.74555555555555,40.153888888888886],[-103.83083333333333,40.14472222222222],[-103.97638888888889,40.12694444444445],[-104.12083333333332,40.109722222222224],[-104.18111111111112,40.10166666666667],[-104.26472222222222,40.09166666666667],[-104.32555555555555,40.083333333333336],[-104.4088888888889,40.073888888888895],[-104.47083333333333,40.065555555555555],[-104.55388888888889,40.05583333333333],[-104.61166666666666,40.04805555555556],[-104.69805555555556,40.0375],[-104.76,40.028888888888886],[-104.84138888888889,40.01916666666666],[-104.90472222222223,40.01027777777778],[-104.98611111111111,40.00055555555556],[-105.05333333333333,39.99111111111111],[-105.13111111111111,39.981388888888894],[-105.1975,39.971944444444446],[-105.27416666666666,39.962500000000006],[-105.34222222222222,39.95333333333333],[-105.41666666666667,39.94361111111111],[-105.48666666666666,39.93333333333333],[-105.56361111111111,39.92388888888889],[-105.63361111111112,39.91305555555555],[-105.70944444444444,39.903888888888886],[-105.77833333333334,39.89416666666666],[-105.85388888888889,39.884166666666665],[-105.95472222222223,39.86888888888889],[-106.00083333333333,39.86361111111111],[-106.10194444444444,39.848888888888894],[-106.14888888888889,39.84305555555556],[-106.24888888888889,39.82805555555556],[-106.29527777777777,39.822500000000005],[-106.39611111111111,39.808055555555555],[-106.44277777777778,39.80138888888889],[-106.54555555555555,39.78638888888889],[-106.60083333333333,39.78111111111111],[-106.69305555555556,39.76833333333333],[-106.74777777777778,39.765],[-106.84055555555555,39.754444444444445],[-106.8963888888889,39.74861111111111],[-106.98805555555556,39.73777777777778],[-107.04027777777777,39.73277777777778],[-107.13555555555556,39.72166666666667],[-107.18777777777778,39.71611111111111],[-107.28361111111111,39.70472222222222],[-107.34444444444443,39.698055555555555],[-107.43222222222222,39.68694444444444],[-107.49361111111111,39.68083333333333],[-107.58222222222221,39.669999999999995],[-107.63972222222223,39.663888888888884],[-107.73333333333333,39.651944444444446],[-107.79166666666667,39.645833333333336],[-107.8875,39.63444444444444],[-107.94277777777778,39.62777777777778],[-108.03805555555556,39.61638888888889],[-108.09694444444445,39.60916666666667],[-108.18916666666667,39.59777777777778],[-108.24916666666667,39.59055555555556],[-108.35388888888889,39.5775],[-108.39777777777779,39.57222222222222],[-108.49194444444444,39.56027777777778],[-108.54944444444445,39.55305555555555],[-108.63944444444445,39.541666666666664],[-108.70027777777779,39.534166666666664],[-108.79583333333333,39.52194444444444],[-108.85555555555555,39.51416666666667],[-108.94777777777779,39.5025],[-109.00861111111111,39.49444444444445],[-109.10111111111111,39.4825],[-109.15944444444445,39.474722222222226],[-109.25222222222222,39.46277777777778],[-109.31194444444444,39.45472222222222],[-109.40361111111112,39.442499999999995],[-109.46277777777777,39.43472222222222],[-109.55444444444444,39.42222222222222],[-109.61638888888888,39.413888888888884],[-109.70916666666668,39.401111111111106],[-109.76861111111111,39.393055555555556],[-109.8611111111111,39.38055555555555],[-109.92083333333333,39.37222222222222],[-110.01305555555555,39.359722222222224],[-110.07194444444444,39.35166666666667],[-110.16027777777778,39.34],[-110.22111111111111,39.331944444444446],[-110.31027777777777,39.319722222222225],[-110.37055555555555,39.31166666666666],[-110.46083333333334,39.299166666666665],[-110.5213888888889,39.29083333333333],[-110.61194444444443,39.27833333333333],[-110.67166666666667,39.269999999999996],[-110.76472222222222,39.25694444444444],[-110.91583333333334,39.23583333333333],[-111.06583333333333,39.214444444444446],[-111.22027777777778,39.19194444444444],[-111.37805555555555,39.16916666666666],[-111.53305555555555,39.14666666666667],[-111.68527777777778,39.12416666666667],[-111.83694444444444,39.10166666666667],[-111.98805555555556,39.07888888888889],[-112.13722222222223,39.05611111111111],[-112.4363888888889,39.01],[-112.58472222222221,38.98694444444445],[-112.7363888888889,38.96277777777778],[-112.88444444444445,38.93944444444444],[-113.03333333333333,38.91555555555556],[-113.18333333333334,38.89138888888889],[-113.33138888888888,38.867222222222225],[-113.48055555555555,38.8425],[-113.63027777777778,38.81777777777778],[-113.77666666666667,38.79333333333333],[-113.92722222222223,38.768055555555556],[-114.0786111111111,38.742222222222225],[-114.22527777777778,38.716944444444444],[-114.37555555555555,38.691111111111105],[-114.52694444444444,38.664722222222224],[-114.67555555555556,38.63861111111111],[-114.82805555555555,38.611666666666665],[-114.88861111111112,38.60055555555556],[-114.97888888888889,38.584722222222226],[-115.04083333333332,38.57472222222223],[-115.13222222222221,38.55722222222222],[-115.19361111111111,38.54666666666667],[-115.28333333333333,38.52972222222222],[-115.35666666666665,38.51694444444444],[-115.4475,38.499722222222225],[-115.50916666666667,38.48888888888889],[-115.59833333333333,38.471944444444446],[-115.66000000000001,38.46055555555556],[-115.75111111111111,38.44333333333333],[-115.81222222222222,38.43277777777777],[-115.87027777777777,38.42111111111111],[-115.96222222222222,38.403888888888886],[-116.05027777777778,38.38722222222222],[-116.11305555555555,38.375277777777775],[-116.19916666666667,38.35888888888889],[-116.26055555555556,38.34722222222222],[-116.34833333333333,38.330000000000005],[-116.40972222222223,38.316111111111105],[-116.49694444444445,38.29666666666667],[-116.55833333333334,38.2825],[-116.6463888888889,38.26166666666666],[-116.70861111111111,38.248333333333335],[-116.79694444444445,38.228611111111114],[-116.85666666666665,38.21527777777778],[-116.94611111111111,38.19472222222222],[-117.00805555555556,38.180277777777775],[-117.09805555555555,38.159444444444446],[-117.16861111111112,38.14333333333333],[-117.22361111111111,38.13055555555555],[-117.31722222222221,38.10861111111111],[-117.38305555555554,38.093611111111116],[-117.4738888888889,38.07277777777778],[-117.53138888888888,38.05916666666666],[-117.62249999999999,38.03777777777778],[-117.6825,38.02388888888889],[-117.77416666666666,38.00388888888889],[-117.83277777777778,38.00277777777778],[-117.91888888888889,38.025555555555556],[-117.96527777777779,38.055277777777775],[-118.0325,38.108333333333334],[-118.0736111111111,38.14111111111111],[-118.13388888888889,38.189166666666665],[-118.18055555555556,38.22638888888889],[-118.24027777777778,38.27333333333333],[-118.29083333333332,38.3075],[-118.3711111111111,38.319722222222225],[-118.51083333333334,38.28638888888889],[-118.64972222222222,38.24472222222222],[-118.78777777777778,38.20333333333333],[-118.92583333333334,38.16166666666666],[-119.06972222222223,38.117777777777775],[-119.2038888888889,38.07666666666667],[-119.34027777777777,38.03444444444444],[-119.48,37.99111111111111],[-119.61583333333333,37.94888888888889],[-119.75638888888889,37.90472222222222],[-119.89416666666668,37.86138888888889],[-120.03361111111111,37.81777777777778],[-120.17722222222223,37.77194444444444],[-120.2,37.766666666666666],[-120.3261111111111,37.724722222222226],[-120.36666666666666,37.71666666666667],[-120.47222222222223,37.69166666666666],[-120.5,37.68333333333333],[-120.61527777777778,37.67472222222222],[-120.65,37.666666666666664],[-120.75333333333333,37.658055555555556],[-120.8,37.65],[-120.86277777777777,37.644999999999996],[-120.93333333333334,37.63333333333333],[-120.99305555555556,37.62916666666667],[-121.06666666666666,37.61666666666667],[-121.12277777777777,37.611666666666665],[-121.18333333333334,37.6],[-121.25444444444445,37.593611111111116],[-121.3,37.583333333333336],[-121.37444444444444,37.580000000000005],[-121.41666666666667,37.583333333333336],[-121.4888888888889,37.566944444444445],[-121.53333333333333,37.56666666666667],[-121.59583333333333,37.55416666666667],[-121.63333333333334,37.55],[-121.69500000000001,37.53388888888889],[-121.73333333333333,37.53333333333333],[-121.78444444444445,37.51222222222222],[-121.86638888888888,37.49305555555556],[-121.94666666666667,37.49472222222222],[-121.96666666666667,37.5],[-122.05,37.5],[-122.10694444444444,37.50805555555556],[-122.13333333333334,37.516666666666666],[-122.1763888888889,37.53722222222222],[-122.24361111111111,37.56583333333333],[-122.26666666666667,37.56666666666667],[-122.31666666666666,37.6],[-122.34222222222222,37.60722222222223]],"type":"LineString"}
}
