{
  "id": 2031991627,
  "type": "Feature",
  "properties": {
    "geom:area": 0,
    "geom:bbox": "-122.812730,37.370420,-122.066990,38.498500",
    "geom:latitude": 37.78167004109361,
    "geom:longitude": -122.46509646841922,
    "src:alt_label": "swim-approach",
    "src:geom": "swim",
    "swim:elevations": [
      7433,
      7243,
      7215,
      6699,
      6678,
      6467,
      6287,
      5969,
      5610,
      5194,
      4961,
      4689,
      4452,
      4242,
      3997,
      3694,
      3447,
      3353,
      3353,
      3353,
      3353,
      3353,
      3353,
      3353,
      3353,
      3353,
      3353,
      3170,
      3069,
      2793,
      2743,
      2302,
      2181,
      1904,
      1856,
      1754,
      1734,
      1677,
      1560,
      1418,
      1250,
      1215,
      1219,
      1219,
      1219,
      960,
      851,
      739,
      598,
      473,
      453,
      284,
      184,
      105,
      58,
      0
    ],
    "swim:geom": "approach",
    "swim:timestamps": [
      1785145670,
      1785145707,
      1785145715,
      1785145768,
      1785145772,
      1785145791,
      1785145807,
      1785145839,
      1785145874,
      1785145918,
      1785145944,
      1785145972,
      1785146000,
      1785146020,
      1785146041,
      1785146076,
      1785146118,
      1785146151,
      1785146167,
      1785146194,
      1785146212,
      1785146234,
      1785146256,
      1785146265,
      1785146282,
      1785146299,
      1785146322,
      1785146361,
      1785146377,
      1785146421,
      1785146430,
      1785146479,
      1785146497,
      1785146542,
      1785146557,
      1785146586,
      1785146594,
      1785146604,
      1785146619,
      1785146646,
      1785146682,
      1785146692,
      1785146707,
      1785146752,
      1785146767,
      1785146839,
      1785146876,
      1785146903,
      1785146937,
      1785146962,
      1785146976,
      1785147023,
      1785147051,
      1785147072,
      1785147084,
      1785147098
    ],
    "wof:geomhash": "8db5c3e54cc37eb2ba3184b318bbca5a",
    "wof:id": 2031991627,
    "wof:repo": "sfomuseum-data-flights-2026-07"
  },
  "bbox": [
    -122.81273,
    37.37042,
    -122.06699,
    38.4985
  ],
  "geometry": {"coordinates":[[-122.81273,38.4985],[-122.80143,38.43044],[-122.79896,38.41559],[-122.78294,38.31925],[-122.78181,38.31235],[-122.77617,38.27842],[-122.77136,38.24956],[-122.75781,38.19218],[-122.7404,38.13248],[-122.71918,38.05898],[-122.70731,38.01791],[-122.69399,37.97204],[-122.68156,37.92875],[-122.66778,37.89717],[-122.64254,37.87058],[-122.59548,37.82649],[-122.54411,37.77787],[-122.50795,37.74364],[-122.4914,37.72797],[-122.46442,37.70264],[-122.44682,37.68612],[-122.42492,37.66542],[-122.4037,37.64549],[-122.39471,37.63698],[-122.37788,37.62119],[-122.36497,37.6041],[-122.35036,37.5784],[-122.32469,37.53669],[-122.31471,37.52046],[-122.28583,37.4735],[-122.28037,37.46399],[-122.28726,37.41019],[-122.28369,37.39091],[-122.2304,37.37042],[-122.21059,37.37434],[-122.17517,37.38275],[-122.16608,37.38478],[-122.154,37.38748],[-122.13714,37.39131],[-122.11098,37.40442],[-122.082,37.4272],[-122.07559,37.43438],[-122.06699,37.44532],[-122.08453,37.47998],[-122.09455,37.4906],[-122.15586,37.5265],[-122.18946,37.54075],[-122.21317,37.55075],[-122.2418,37.56273],[-122.26245,37.57156],[-122.27346,37.5761],[-122.30716,37.59027],[-122.32662,37.59843],[-122.34045,37.60428],[-122.34842,37.60754],[-122.35767,37.61162]],"type":"LineString"}
}
