{
  "id": 2031944703,
  "type": "Feature",
  "properties": {
    "geom:area": 0,
    "geom:bbox": "-122.544110,36.721130,-121.462060,37.664960",
    "geom:latitude": 37.202136324821154,
    "geom:longitude": -122.08759829134871,
    "src:alt_label": "swim-takeoff",
    "src:geom": "swim",
    "swim:elevations": [
      183,
      566,
      1262,
      1423,
      2155,
      2319,
      2644,
      3213,
      3296,
      3388,
      3442,
      4120,
      4370,
      4588,
      4804,
      5282,
      5433,
      5914,
      6202,
      6439,
      6673,
      6970,
      7042,
      7348,
      7735,
      8038,
      8382
    ],
    "swim:geom": "takeoff",
    "swim:timestamps": [
      1784828262,
      1784828307,
      1784828381,
      1784828395,
      1784828452,
      1784828469,
      1784828500,
      1784828547,
      1784828563,
      1784828581,
      1784828589,
      1784828663,
      1784828692,
      1784828710,
      1784828737,
      1784828785,
      1784828799,
      1784828843,
      1784828875,
      1784828904,
      1784828928,
      1784828964,
      1784828971,
      1784829009,
      1784829055,
      1784829097,
      1784829151
    ],
    "wof:geomhash": "5d810b88b690962e646a9f68c8763e9f",
    "wof:id": 2031944703,
    "wof:repo": "sfomuseum-data-flights-2026-07"
  },
  "bbox": [
    -122.54411,
    36.72113,
    -121.46206,
    37.66496
  ],
  "geometry": {"coordinates":[[-122.39286,37.62633],[-122.43421,37.64403],[-122.52862,37.66496],[-122.54411,37.65283],[-122.53044,37.58388],[-122.51817,37.56379],[-122.49524,37.52694],[-122.45754,37.47137],[-122.44417,37.45192],[-122.42784,37.42892],[-122.42028,37.41838],[-122.3178,37.33076],[-122.2718,37.2985],[-122.24305,37.27833],[-122.19955,37.24759],[-122.11858,37.19041],[-122.09581,37.17431],[-122.01971,37.12045],[-121.96462,37.08149],[-121.91443,37.04587],[-121.87164,37.01552],[-121.80614,36.9688],[-121.79389,36.96004],[-121.72539,36.91097],[-121.64049,36.84992],[-121.56373,36.79407],[-121.46206,36.72113]],"type":"LineString"}
}
