{
  "id": 2032048271,
  "type": "Feature",
  "properties": {
    "geom:area": 0,
    "geom:bbox": "-122.754550,37.357440,-122.109330,38.336900",
    "geom:latitude": 37.74568789367882,
    "geom:longitude": -122.44894361701358,
    "src:alt_label": "swim-approach",
    "src:geom": "swim",
    "swim:elevations": [
      7354,
      7195,
      6810,
      6652,
      6162,
      5884,
      5833,
      5517,
      5261,
      4739,
      4507,
      4357,
      4255,
      3826,
      3783,
      3537,
      3380,
      3354,
      3353,
      3353,
      3269,
      3245,
      2842,
      2814,
      2453,
      2360,
      2138,
      2073,
      2006,
      1956,
      1857,
      1829,
      1829,
      1730,
      1653,
      1505,
      1485,
      1340,
      1314,
      1090,
      933,
      732,
      729,
      523,
      489,
      460,
      234,
      166,
      61
    ],
    "swim:geom": "approach",
    "swim:timestamps": [
      1785497638,
      1785497652,
      1785497691,
      1785497710,
      1785497756,
      1785497786,
      1785497790,
      1785497823,
      1785497850,
      1785497907,
      1785497933,
      1785497954,
      1785497983,
      1785498027,
      1785498031,
      1785498055,
      1785498088,
      1785498105,
      1785498148,
      1785498152,
      1785498208,
      1785498212,
      1785498269,
      1785498273,
      1785498324,
      1785498337,
      1785498372,
      1785498398,
      1785498425,
      1785498437,
      1785498477,
      1785498508,
      1785498512,
      1785498568,
      1785498589,
      1785498621,
      1785498632,
      1785498682,
      1785498694,
      1785498738,
      1785498764,
      1785498807,
      1785498810,
      1785498860,
      1785498870,
      1785498913,
      1785498944,
      1785498962,
      1785498993
    ],
    "wof:geomhash": "116f5007ad97e319b05e0eff2bbb8d11",
    "wof:id": 2032048271,
    "wof:repo": "sfomuseum-data-flights-2026-07"
  },
  "bbox": [
    -122.75455,
    37.35744,
    -122.10933,
    38.3369
  ],
  "geometry": {"coordinates":[[-122.58101,38.3369],[-122.60651,38.32159],[-122.67598,38.27965],[-122.71005,38.25925],[-122.75455,38.19048],[-122.74144,38.13874],[-122.7395,38.1319],[-122.72431,38.07667],[-122.71083,38.03025],[-122.68415,37.93798],[-122.66783,37.89634],[-122.64188,37.87035],[-122.60417,37.83492],[-122.55403,37.78727],[-122.54953,37.78299],[-122.52343,37.75813],[-122.48761,37.72431],[-122.47058,37.70833],[-122.42837,37.66872],[-122.42448,37.66502],[-122.37031,37.6132],[-122.36724,37.60918],[-122.33265,37.54962],[-122.33009,37.54545],[-122.30959,37.4906],[-122.31322,37.47643],[-122.32243,37.43893],[-122.32944,37.41139],[-122.33427,37.38286],[-122.32841,37.37007],[-122.27892,37.35744],[-122.24025,37.37261],[-122.23513,37.37468],[-122.16845,37.4011],[-122.14563,37.40965],[-122.11769,37.42822],[-122.11188,37.43759],[-122.10933,37.4795],[-122.11729,37.48833],[-122.1464,37.51876],[-122.1697,37.53192],[-122.20906,37.54894],[-122.21199,37.55017],[-122.25379,37.56766],[-122.26174,37.57112],[-122.29648,37.58507],[-122.31729,37.5944],[-122.32984,37.59969],[-122.3502,37.60823]],"type":"LineString"}
}
