{
  "id": 2031978117,
  "type": "Feature",
  "properties": {
    "geom:area": 0,
    "geom:bbox": "-122.416620,36.719620,-121.876760,37.611520",
    "geom:latitude": 37.187971727394796,
    "geom:longitude": -122.15488306636854,
    "src:alt_label": "swim-approach",
    "src:geom": "swim",
    "swim:elevations": [
      5194,
      4990,
      4441,
      4106,
      3935,
      3702,
      3520,
      3658,
      3658,
      3658,
      3658,
      3658,
      3658,
      3658,
      3658,
      3658,
      3655,
      3488,
      3299,
      3104,
      3048,
      3048,
      3048,
      3048,
      3048,
      3048,
      3048,
      3000,
      2708,
      2520,
      2356,
      2300,
      2180,
      1957,
      1828,
      1829,
      1829,
      1792,
      1431,
      1405,
      1275,
      1257,
      1217,
      1220,
      1110,
      962,
      894,
      792,
      792,
      792,
      792,
      792,
      612,
      481,
      348,
      217,
      85,
      37
    ],
    "swim:geom": "approach",
    "swim:timestamps": [
      1785077544,
      1785077565,
      1785077638,
      1785077669,
      1785077683,
      1785077705,
      1785077724,
      1785077750,
      1785077782,
      1785077800,
      1785077810,
      1785077820,
      1785077860,
      1785077884,
      1785077916,
      1785077959,
      1785077998,
      1785078025,
      1785078057,
      1785078087,
      1785078117,
      1785078143,
      1785078167,
      1785078183,
      1785078229,
      1785078258,
      1785078270,
      1785078306,
      1785078352,
      1785078380,
      1785078399,
      1785078407,
      1785078420,
      1785078451,
      1785078497,
      1785078535,
      1785078552,
      1785078582,
      1785078627,
      1785078631,
      1785078645,
      1785078648,
      1785078660,
      1785078696,
      1785078737,
      1785078761,
      1785078788,
      1785078834,
      1785078842,
      1785078845,
      1785078848,
      1785078857,
      1785078902,
      1785078934,
      1785078971,
      1785079009,
      1785079045,
      1785079068
    ],
    "wof:geomhash": "a4941e6a695c6456f6cfa2890164255d",
    "wof:id": 2031978117,
    "wof:repo": "sfomuseum-data-flights-2026-07"
  },
  "bbox": [
    -122.41662,
    36.71962,
    -121.87676,
    37.61152
  ],
  "geometry": {"coordinates":[[-121.87676,36.71962],[-121.89551,36.74967],[-121.92763,36.86175],[-121.94009,36.90639],[-121.94606,36.92739],[-121.95572,36.95874],[-121.96641,36.98562],[-121.97878,37.01794],[-121.99854,37.05483],[-122.02092,37.06559],[-122.03565,37.06654],[-122.05025,37.06469],[-122.10438,37.05437],[-122.13753,37.04792],[-122.16599,37.02312],[-122.17638,36.97649],[-122.14119,36.94445],[-122.0998,36.95147],[-122.07969,36.98662],[-122.08895,37.02276],[-122.0996,37.05766],[-122.10876,37.08851],[-122.12126,37.11388],[-122.13926,37.1269],[-122.19239,37.1585],[-122.22536,37.17844],[-122.23905,37.18675],[-122.28026,37.21196],[-122.33242,37.24303],[-122.36404,37.26126],[-122.38482,37.27313],[-122.39402,37.27827],[-122.40697,37.28809],[-122.41662,37.32058],[-122.36982,37.35297],[-122.32089,37.3705],[-122.30007,37.37816],[-122.26185,37.3921],[-122.20618,37.41309],[-122.20134,37.41491],[-122.18414,37.42135],[-122.18045,37.42269],[-122.16604,37.42795],[-122.12468,37.44649],[-122.10497,37.47906],[-122.11433,37.49788],[-122.13234,37.51459],[-122.17422,37.53414],[-122.18174,37.53742],[-122.18459,37.53862],[-122.18742,37.53981],[-122.19596,37.54337],[-122.23839,37.56129],[-122.26647,37.57313],[-122.29375,37.58467],[-122.31875,37.59499],[-122.34248,37.60506],[-122.35802,37.61152]],"type":"LineString"}
}
