{
  "id": 2032021967,
  "type": "Feature",
  "properties": {
    "geom:area": 0,
    "geom:bbox": "-122.526440,37.628100,-122.115910,38.444750",
    "geom:latitude": 38.00906534540042,
    "geom:longitude": -122.33315944292247,
    "src:alt_label": "swim-takeoff",
    "src:geom": "swim",
    "swim:elevations": [
      318,
      445,
      869,
      1373,
      1814,
      2149,
      2241,
      2557,
      3003,
      3202,
      3329,
      3631,
      3711,
      4346,
      4475,
      4654,
      4993,
      5152,
      5168,
      5326,
      5493,
      5722
    ],
    "swim:geom": "takeoff",
    "swim:timestamps": [
      1785330623,
      1785330638,
      1785330695,
      1785330765,
      1785330807,
      1785330838,
      1785330847,
      1785330875,
      1785330914,
      1785330942,
      1785330968,
      1785331010,
      1785331025,
      1785331104,
      1785331122,
      1785331143,
      1785331193,
      1785331214,
      1785331218,
      1785331239,
      1785331263,
      1785331290
    ],
    "wof:geomhash": "28f4d0bc80eeea1e1315e88645cb7347",
    "wof:id": 2032021967,
    "wof:repo": "sfomuseum-data-flights-2026-07"
  },
  "bbox": [
    -122.52644,
    37.6281,
    -122.11591,
    38.44475
  ],
  "geometry": {"coordinates":[[-122.39165,37.6281],[-122.40258,37.63268],[-122.4529,37.65342],[-122.5234,37.69866],[-122.52644,37.7506],[-122.51151,37.78928],[-122.50436,37.7994],[-122.48104,37.83155],[-122.44735,37.8781],[-122.42279,37.91207],[-122.39866,37.94528],[-122.3562,38.00367],[-122.34116,38.02435],[-122.2565,38.1404],[-122.23646,38.16762],[-122.21318,38.1994],[-122.15694,38.27605],[-122.13356,38.30791],[-122.12859,38.31546],[-122.11591,38.35176],[-122.11682,38.39535],[-122.12029,38.44475]],"type":"LineString"}
}
