{
  "id": 2031960459,
  "type": "Feature",
  "properties": {
    "geom:area": 0,
    "geom:bbox": "-122.398450,37.629600,-122.176650,38.492590",
    "geom:latitude": 38.049508608037385,
    "geom:longitude": -122.2770140581643,
    "src:alt_label": "swim-takeoff",
    "src:geom": "swim",
    "swim:elevations": [
      439,
      621,
      657,
      752,
      1006,
      1100,
      1395,
      1436,
      1906,
      2623,
      3061,
      3174,
      3321,
      3626,
      3816,
      4694,
      4939,
      5584,
      5733,
      5883,
      6391,
      6780,
      7222,
      7361
    ],
    "swim:geom": "takeoff",
    "swim:timestamps": [
      1784931507,
      1784931522,
      1784931528,
      1784931537,
      1784931567,
      1784931598,
      1784931627,
      1784931630,
      1784931667,
      1784931717,
      1784931748,
      1784931759,
      1784931777,
      1784931831,
      1784931843,
      1784931891,
      1784931906,
      1784931947,
      1784931957,
      1784931969,
      1784932003,
      1784932037,
      1784932074,
      1784932089
    ],
    "wof:geomhash": "9188e29f8ec94e1dbe736e3c35d03418",
    "wof:id": 2031960459,
    "wof:repo": "sfomuseum-data-flights-2026-07"
  },
  "bbox": [
    -122.39845,
    37.6296,
    -122.17665,
    38.49259
  ],
  "geometry": {"coordinates":[[-122.39592,37.6296],[-122.39845,37.6392],[-122.39711,37.64347],[-122.3932,37.64986],[-122.37777,37.67021],[-122.3581,37.69671],[-122.33926,37.729],[-122.33855,37.73268],[-122.35278,37.77739],[-122.38266,37.8426],[-122.38353,37.88544],[-122.38252,37.90088],[-122.37543,37.92703],[-122.3126,38.00403],[-122.29682,38.02257],[-122.23297,38.09774],[-122.2132,38.12096],[-122.18607,38.19849],[-122.18551,38.2171],[-122.18489,38.24117],[-122.18263,38.31145],[-122.1803,38.38258],[-122.1777,38.46064],[-122.17665,38.49259]],"type":"LineString"}
}
