{
  "id": 2031977953,
  "type": "Feature",
  "properties": {
    "geom:area": 0,
    "geom:bbox": "-122.754444,37.436667,-88.118889,41.959444",
    "geom:latitude": 40.78590579106021,
    "geom:longitude": -106.26162006919479,
    "src:alt_label": "swim-path",
    "src:geom": "swim",
    "swim:altitudes": [
      "051",
      "092",
      "109",
      "132",
      "156",
      "171",
      "201",
      "215",
      "229",
      "241",
      "267",
      "272",
      "275",
      "275",
      "285",
      "297",
      "305",
      "315",
      "320C",
      "320C",
      "320C",
      "320C",
      "320C",
      "320C",
      "320C",
      "320C",
      "320C",
      "320C",
      "320C",
      "320C",
      "320C",
      "320C",
      "320C",
      "320C",
      "320C",
      "320C",
      "320C",
      "320C",
      "320C",
      "320C",
      "320C",
      "320C",
      "320C",
      "320C",
      "320C",
      "320C",
      "320C",
      "320C",
      "320C",
      "320C",
      "320C",
      "320C",
      "320C",
      "320C",
      "320C",
      "320C",
      "320C",
      "320C",
      "320C",
      "320C",
      "320C",
      "320C",
      "320C",
      "320C",
      "320C",
      "320C",
      "320C",
      "320C",
      "320C",
      "320C",
      "320C",
      "320C",
      "320C",
      "320C",
      "320C",
      "320C",
      "320C",
      "320C",
      "320C",
      "320C",
      "320C",
      "320C",
      "320C",
      "320C",
      "320C",
      "320C",
      "320C",
      "320C",
      "320C",
      "320C",
      "320C",
      "320C",
      "320C",
      "320C",
      "320C",
      "320C",
      "320C",
      "320C",
      "320C",
      "320C",
      "320C",
      "320C",
      "320C",
      "320C",
      "320C",
      "320C",
      "320C",
      "320C",
      "320C",
      "320C",
      "320C",
      "320C",
      "320C",
      "320C",
      "320C",
      "320C",
      "320C",
      "320C",
      "320C",
      "320C",
      "320C",
      "320C",
      "320C",
      "320C",
      "320C",
      "320C",
      "320C",
      "325",
      "334",
      "334",
      "340C",
      "340C",
      "340C",
      "340C",
      "340C",
      "340C",
      "340C",
      "340C",
      "340C",
      "340C",
      "340C",
      "340C",
      "340C",
      "340C",
      "340C",
      "340C",
      "340C",
      "340C",
      "340C",
      "340C",
      "340C",
      "340C",
      "340C",
      "340C",
      "340C",
      "340C",
      "340C",
      "340C",
      "340C",
      "340C",
      "340C",
      "340C",
      "340C",
      "340C",
      "340C",
      "340C",
      "340C",
      "340C",
      "340C",
      "340C",
      "340C",
      "340C",
      "340C",
      "340C",
      "340C",
      "340C",
      "340C",
      "340C",
      "340C",
      "340C",
      "340C",
      "340C",
      "340C",
      "340C",
      "340C",
      "340C",
      "340C",
      "340C",
      "340C",
      "340C",
      "340C",
      "340C",
      "340C",
      "340C",
      "340C",
      "340C",
      "340C",
      "340C",
      "340C",
      "340C",
      "340C",
      "340C",
      "340C",
      "340C",
      "340C",
      "340C",
      "340C",
      "340C",
      "340C",
      "340C",
      "340C",
      "340C",
      "340C",
      "340C",
      "340C",
      "336",
      "310C",
      "310C",
      "310C",
      "310",
      "310",
      "283",
      "253",
      "231",
      "212",
      "194",
      "181",
      "158",
      "123",
      "111",
      "090",
      "064",
      "051",
      "030",
      "004",
      "001"
    ],
    "swim:geom": "path",
    "swim:speeds": [
      248,
      283,
      306,
      324,
      386,
      397,
      417,
      424,
      427,
      435,
      408,
      415,
      426,
      440,
      449,
      448,
      442,
      444,
      444,
      443,
      443,
      442,
      439,
      440,
      438,
      437,
      437,
      437,
      438,
      439,
      441,
      440,
      442,
      442,
      443,
      443,
      444,
      444,
      446,
      452,
      455,
      455,
      453,
      453,
      454,
      454,
      455,
      455,
      455,
      453,
      450,
      448,
      445,
      436,
      436,
      436,
      434,
      433,
      430,
      432,
      436,
      432,
      432,
      433,
      432,
      433,
      433,
      433,
      434,
      435,
      435,
      435,
      436,
      436,
      436,
      437,
      438,
      437,
      438,
      438,
      438,
      438,
      438,
      439,
      438,
      439,
      439,
      442,
      442,
      441,
      442,
      442,
      442,
      443,
      443,
      443,
      443,
      443,
      442,
      442,
      443,
      442,
      443,
      443,
      442,
      438,
      442,
      442,
      437,
      437,
      439,
      437,
      438,
      437,
      438,
      439,
      439,
      438,
      437,
      438,
      435,
      436,
      437,
      438,
      440,
      440,
      439,
      441,
      441,
      441,
      438,
      437,
      437,
      435,
      435,
      434,
      434,
      432,
      432,
      432,
      434,
      435,
      435,
      436,
      436,
      438,
      440,
      441,
      443,
      443,
      442,
      441,
      439,
      440,
      442,
      443,
      442,
      440,
      439,
      439,
      439,
      437,
      435,
      434,
      432,
      429,
      430,
      431,
      430,
      429,
      426,
      426,
      426,
      427,
      427,
      427,
      427,
      426,
      426,
      423,
      422,
      421,
      419,
      422,
      422,
      422,
      422,
      422,
      425,
      425,
      425,
      426,
      426,
      426,
      426,
      425,
      421,
      419,
      419,
      418,
      418,
      418,
      419,
      418,
      418,
      418,
      417,
      417,
      416,
      416,
      416,
      416,
      419,
      416,
      406,
      404,
      412,
      414,
      414,
      414,
      413,
      411,
      365,
      366,
      366,
      360,
      356,
      352,
      344,
      311,
      249,
      246,
      240,
      212,
      147,
      91
    ],
    "swim:timestamps": [
      1785096846,
      1785096966,
      1785097027,
      1785097099,
      1785097219,
      1785097279,
      1785097399,
      1785097459,
      1785097519,
      1785097580,
      1785097640,
      1785097694,
      1785097754,
      1785097760,
      1785097820,
      1785097874,
      1785097934,
      1785098000,
      1785098120,
      1785098174,
      1785098180,
      1785098241,
      1785098294,
      1785098301,
      1785098415,
      1785098421,
      1785098481,
      1785098541,
      1785098595,
      1785098661,
      1785098715,
      1785098721,
      1785098775,
      1785098842,
      1785098902,
      1785098962,
      1785099015,
      1785099022,
      1785099076,
      1785099142,
      1785099262,
      1785099316,
      1785099376,
      1785099496,
      1785099556,
      1785099616,
      1785099676,
      1785099736,
      1785099797,
      1785099857,
      1785099917,
      1785099977,
      1785100037,
      1785100169,
      1785100229,
      1785100289,
      1785100409,
      1785100469,
      1785100501,
      1785100529,
      1785100561,
      1785100590,
      1785100650,
      1785100682,
      1785100710,
      1785100742,
      1785100770,
      1785100830,
      1785100862,
      1785100922,
      1785100950,
      1785100982,
      1785101010,
      1785101042,
      1785101130,
      1785101162,
      1785101222,
      1785101250,
      1785101282,
      1785101343,
      1785101371,
      1785101403,
      1785101431,
      1785101463,
      1785101491,
      1785101551,
      1785101583,
      1785101694,
      1785101754,
      1785101763,
      1785101823,
      1785101874,
      1785101883,
      1785101934,
      1785102063,
      1785102124,
      1785102244,
      1785102294,
      1785102364,
      1785102424,
      1785102475,
      1785102484,
      1785102535,
      1785102595,
      1785102655,
      1785102664,
      1785102715,
      1785102775,
      1785102784,
      1785102845,
      1785102895,
      1785102965,
      1785103025,
      1785103085,
      1785103145,
      1785103265,
      1785103325,
      1785103385,
      1785103445,
      1785103496,
      1785103565,
      1785103626,
      1785103686,
      1785103746,
      1785103796,
      1785103856,
      1785103866,
      1785103926,
      1785103977,
      1785103986,
      1785104106,
      1785104157,
      1785104166,
      1785104226,
      1785104277,
      1785104347,
      1785104397,
      1785104467,
      1785104517,
      1785104577,
      1785104638,
      1785104698,
      1785104758,
      1785104827,
      1785104878,
      1785104938,
      1785105058,
      1785105118,
      1785105178,
      1785105238,
      1785105298,
      1785105358,
      1785105479,
      1785105539,
      1785105659,
      1785105779,
      1785105839,
      1785105959,
      1785106019,
      1785106079,
      1785106140,
      1785106260,
      1785106320,
      1785106380,
      1785106440,
      1785106560,
      1785106620,
      1785106680,
      1785106740,
      1785106860,
      1785106981,
      1785107046,
      1785107161,
      1785107221,
      1785107281,
      1785107461,
      1785107521,
      1785107581,
      1785107654,
      1785107714,
      1785107767,
      1785107827,
      1785107894,
      1785108007,
      1785108014,
      1785108067,
      1785108074,
      1785108134,
      1785108254,
      1785108307,
      1785108314,
      1785108367,
      1785108375,
      1785108427,
      1785108435,
      1785108488,
      1785108555,
      1785108608,
      1785108615,
      1785108668,
      1785108675,
      1785108735,
      1785108788,
      1785108848,
      1785108908,
      1785108968,
      1785109028,
      1785109088,
      1785109148,
      1785109209,
      1785109269,
      1785109329,
      1785109449,
      1785109509,
      1785109569,
      1785109629,
      1785109749,
      1785109869,
      1785109930,
      1785109990,
      1785110050,
      1785110170,
      1785110290,
      1785110350,
      1785110410,
      1785110470,
      1785110511,
      1785110590,
      1785110711,
      1785110776,
      1785111011,
      1785111131,
      1785111191,
      1785111311,
      1785111492,
      1785111552
    ],
    "wof:geomhash": "6ed887d5e448a7dc315fdfd2d64dcb82",
    "wof:id": 2031977953,
    "wof:repo": "sfomuseum-data-flights-2026-07"
  },
  "bbox": [
    -122.75444444444445,
    37.43666666666666,
    -88.11888888888888,
    41.95944444444445
  ],
  "geometry": {"coordinates":[[-88.11888888888888,41.95944444444445],[-88.32055555555556,41.94611111111111],[-88.43,41.939166666666665],[-88.56916666666666,41.92972222222222],[-88.83611111111111,41.91138888888889],[-88.97416666666666,41.908055555555556],[-89.28027777777778,41.89361111111111],[-89.43527777777778,41.87833333333333],[-89.59472222222222,41.86277777777778],[-89.75333333333333,41.84666666666667],[-89.90666666666667,41.83083333333334],[-90.06055555555555,41.812777777777775],[-90.22055555555556,41.796388888888885],[-90.21972222222223,41.79805555555556],[-90.39555555555556,41.77916666666667],[-90.55472222222222,41.76027777777778],[-90.68138888888889,41.74666666666667],[-90.845,41.72972222222222],[-91.20333333333333,41.689166666666665],[-91.36611111111111,41.669999999999995],[-91.36666666666666,41.669999999999995],[-91.52805555555555,41.651111111111106],[-91.68722222222223,41.63111111111111],[-91.68861111111111,41.63194444444444],[-91.99166666666667,41.595],[-92.0075,41.593333333333334],[-92.16666666666667,41.57361111111111],[-92.32638888888889,41.55361111111111],[-92.45083333333334,41.53805555555555],[-92.64861111111112,41.51277777777778],[-92.82416666666666,41.49],[-92.82138888888889,41.49055555555556],[-92.98333333333333,41.469166666666666],[-93.14361111111111,41.448055555555555],[-93.30472222222222,41.42638888888889],[-93.46444444444445,41.40472222222222],[-93.62666666666667,41.38305555555556],[-93.62666666666667,41.38333333333333],[-93.78999999999999,41.36138888888889],[-93.94888888888889,41.32888888888889],[-94.26555555555555,41.24472222222222],[-94.42277777777778,41.21638888888889],[-94.58666666666666,41.19972222222222],[-94.91722222222222,41.17027777777778],[-95.08527777777778,41.155],[-95.2525,41.13916666666667],[-95.41805555555555,41.12361111111111],[-95.58611111111111,41.10722222222223],[-95.75111111111111,41.09111111111111],[-95.91888888888889,41.074444444444445],[-96.08388888888888,41.05777777777777],[-96.24777777777778,41.04083333333333],[-96.40944444444445,41.024166666666666],[-96.76166666666667,41.03722222222222],[-96.92027777777778,41.052499999999995],[-97.0786111111111,41.06777777777778],[-97.36472222222221,41.095],[-97.55333333333333,41.112500000000004],[-97.60694444444444,41.11194444444445],[-97.68083333333334,41.12444444444444],[-97.76611111111112,41.13194444444444],[-97.86972222222222,41.14138888888889],[-98.02638888888889,41.155277777777776],[-98.11527777777778,41.16305555555555],[-98.15416666666667,41.16638888888889],[-98.2725,41.17666666666666],[-98.3425,41.1825],[-98.50222222222222,41.19611111111111],[-98.58888888888889,41.20333333333333],[-98.74944444444445,41.21666666666667],[-98.82,41.22222222222222],[-98.90777777777778,41.22916666666667],[-98.98138888888889,41.23527777777778],[-99.0675,41.24194444444444],[-99.26916666666666,41.257777777777775],[-99.38972222222223,41.26694444444444],[-99.54916666666666,41.278888888888886],[-99.59194444444444,41.28194444444444],[-99.71000000000001,41.29083333333333],[-99.87027777777777,41.30222222222222],[-99.94111111111111,41.30722222222222],[-100.03111111111112,41.31361111111111],[-100.10305555555556,41.31861111111112],[-100.19194444444445,41.32222222222222],[-100.26944444444445,41.32166666666667],[-100.41555555555556,41.32027777777778],[-100.51138888888889,41.32],[-100.78861111111111,41.316944444444445],[-100.95222222222222,41.31805555555556],[-100.9975,41.321111111111115],[-101.15916666666668,41.32638888888889],[-101.27694444444444,41.330555555555556],[-101.32027777777778,41.33722222222222],[-101.44111111111111,41.3425],[-101.80916666666667,41.36888888888889],[-101.96916666666667,41.37888888888889],[-102.29527777777777,41.39805555555556],[-102.41694444444445,41.404444444444444],[-102.62027777777777,41.41638888888889],[-102.77555555555556,41.425],[-102.90777777777778,41.430277777777775],[-102.94027777777778,41.433611111111105],[-103.06916666666666,41.43833333333333],[-103.23027777777779,41.44611111111111],[-103.39277777777778,41.45444444444445],[-103.42416666666666,41.45805555555556],[-103.55416666666666,41.462500000000006],[-103.71583333333334,41.46944444444445],[-103.74666666666667,41.473055555555554],[-103.90666666666667,41.480000000000004],[-104.03805555555556,41.48388888888889],[-104.23138888888889,41.49388888888889],[-104.39361111111111,41.500277777777775],[-104.55638888888889,41.50666666666667],[-104.71861111111112,41.51277777777778],[-105.045,41.52444444444444],[-105.20694444444445,41.52972222222222],[-105.36944444444444,41.535],[-105.53055555555555,41.53972222222222],[-105.65805555555556,41.54277777777778],[-105.85249999999999,41.54888888888889],[-106.01333333333334,41.55305555555555],[-106.17666666666668,41.55694444444444],[-106.33777777777777,41.56083333333333],[-106.49388888888889,41.564166666666665],[-106.6563888888889,41.56777777777778],[-106.6563888888889,41.5675],[-106.85194444444444,41.57138888888889],[-106.98472222222222,41.571111111111115],[-106.98222222222222,41.57138888888889],[-107.33166666666666,41.532222222222224],[-107.46305555555556,41.51555555555556],[-107.495,41.51138888888889],[-107.65,41.49138888888889],[-107.7775,41.474722222222226],[-107.96833333333333,41.45],[-108.095,41.433055555555555],[-108.28277777777778,41.408055555555556],[-108.4063888888889,41.39111111111111],[-108.56583333333333,41.36944444444445],[-108.72500000000001,41.347500000000004],[-108.88194444444444,41.32555555555556],[-109.04444444444444,41.30277777777778],[-109.2075,41.27972222222222],[-109.33611111111111,41.26138888888889],[-109.49638888888889,41.23833333333334],[-109.81416666666667,41.19194444444444],[-109.97583333333334,41.168055555555554],[-110.13555555555556,41.14416666666666],[-110.2925,41.11027777777778],[-110.4413888888889,41.06194444444444],[-110.58972222222222,41.01305555555555],[-110.88333333333334,40.915277777777774],[-111.0411111111111,40.888888888888886],[-111.38027777777778,40.85111111111111],[-111.70138888888889,40.815],[-111.86055555555555,40.79666666666667],[-112.18472222222222,40.75888888888889],[-112.34277777777777,40.74],[-112.50055555555555,40.721111111111114],[-112.66000000000001,40.70166666666667],[-112.97500000000001,40.6625],[-113.13138888888888,40.64277777777778],[-113.28722222222223,40.62305555555555],[-113.4225,40.605555555555554],[-113.72972222222222,40.56527777777777],[-113.88388888888889,40.54472222222222],[-114.03833333333333,40.52388888888889],[-114.19250000000001,40.503055555555555],[-114.50083333333333,40.46027777777778],[-114.80416666666666,40.4175],[-114.9786111111111,40.39277777777778],[-115.26083333333334,40.35166666666667],[-115.41444444444446,40.32888888888889],[-115.56611111111111,40.30638888888888],[-116.02527777777777,40.236666666666665],[-116.17694444444444,40.21333333333334],[-116.3286111111111,40.189722222222215],[-116.51,40.16111111111111],[-116.66111111111111,40.13722222222222],[-116.81583333333333,40.11222222222222],[-116.96444444444445,40.08833333333334],[-117.11222222222221,40.064166666666665],[-117.38777777777779,40.01861111111111],[-117.41194444444444,40.014722222222225],[-117.5425,39.99305555555556],[-117.56138888888889,39.98972222222222],[-117.7125,39.96416666666667],[-118.0175,39.91222222222222],[-118.13916666666667,39.89111111111111],[-118.16833333333334,39.88611111111111],[-118.28999999999999,39.865],[-118.31777777777778,39.86],[-118.43972222222223,39.83861111111111],[-118.46583333333334,39.83388888888889],[-118.58583333333333,39.812777777777775],[-118.76083333333334,39.781666666666666],[-118.9063888888889,39.75527777777778],[-118.90416666666667,39.755833333333335],[-119.05111111111111,39.72916666666667],[-119.04888888888888,39.72944444444445],[-119.19555555555556,39.70277777777778],[-119.34444444444443,39.67527777777777],[-119.48833333333333,39.64861111111111],[-119.63583333333334,39.62111111111111],[-119.78055555555555,39.593611111111116],[-119.92500000000001,39.566111111111105],[-120.07,39.53861111111111],[-120.21527777777779,39.510555555555555],[-120.36083333333333,39.48222222222223],[-120.50527777777778,39.45416666666667],[-120.64888888888889,39.42583333333333],[-120.9413888888889,39.367777777777775],[-121.08638888888889,39.33527777777778],[-121.20555555555556,39.27388888888889],[-121.31972222222223,39.20666666666667],[-121.55333333333333,39.07],[-121.78805555555556,38.931666666666665],[-121.9038888888889,38.863055555555555],[-122.02027777777778,38.79388888888889],[-122.13666666666667,38.724444444444444],[-122.35888888888888,38.59138888888889],[-122.54222222222222,38.443888888888885],[-122.6388888888889,38.349722222222226],[-122.71972222222223,38.270833333333336],[-122.75444444444445,38.17944444444444],[-122.73333333333333,38.11666666666667],[-122.69916666666667,37.99],[-122.59833333333333,37.82805555555556],[-122.5,37.75],[-122.31694444444445,37.52166666666667],[-122.19861111111112,37.43666666666666],[-122.11972222222222,37.45861111111111],[-122.18555555555555,37.54111111111111],[-122.34222222222222,37.60722222222223],[-122.3775,37.621944444444445]],"type":"LineString"}
}
