{
  "id": 2031982613,
  "type": "Feature",
  "properties": {
    "geom:area": 0,
    "geom:bbox": "-122.491670,37.623440,-122.108490,38.439270",
    "geom:latitude": 38.00931910668137,
    "geom:longitude": -122.30894681096122,
    "src:alt_label": "swim-takeoff",
    "src:geom": "swim",
    "swim:elevations": [
      244,
      723,
      772,
      951,
      1176,
      1567,
      1984,
      2477,
      2659,
      2741,
      2862,
      3284,
      3374,
      3768,
      3990,
      4249,
      4379,
      4910,
      5085,
      5271,
      5414,
      6168,
      6449,
      6508
    ],
    "swim:geom": "takeoff",
    "swim:timestamps": [
      1785062539,
      1785062569,
      1785062574,
      1785062591,
      1785062619,
      1785062653,
      1785062686,
      1785062722,
      1785062739,
      1785062771,
      1785062810,
      1785062848,
      1785062857,
      1785062897,
      1785062916,
      1785062934,
      1785062946,
      1785062992,
      1785063008,
      1785063025,
      1785063037,
      1785063114,
      1785063145,
      1785063162
    ],
    "wof:geomhash": "7b5116c5e8fcf98a794864f926ee1e57",
    "wof:id": 2031982613,
    "wof:repo": "sfomuseum-data-flights-2026-07"
  },
  "bbox": [
    -122.49167,
    37.62344,
    -122.10849,
    38.43927
  ],
  "geometry": {"coordinates":[[-122.38606,37.62344],[-122.41126,37.63413],[-122.41661,37.63633],[-122.43308,37.64338],[-122.46288,37.65736],[-122.48203,37.69225],[-122.49167,37.73096],[-122.4664,37.77535],[-122.45263,37.79563],[-122.42866,37.83482],[-122.39879,37.88395],[-122.36689,37.93357],[-122.35896,37.94581],[-122.32304,38.00301],[-122.30582,38.03073],[-122.28795,38.05908],[-122.27699,38.0765],[-122.23168,38.14846],[-122.21611,38.17305],[-122.19831,38.20119],[-122.18613,38.22035],[-122.11508,38.3489],[-122.11013,38.40663],[-122.10849,38.43927]],"type":"LineString"}
}
