{
  "id": 2032034929,
  "type": "Feature",
  "properties": {
    "geom:area": 0,
    "geom:bbox": "-122.919070,37.374110,-122.088660,38.510550",
    "geom:latitude": 37.808580965398015,
    "geom:longitude": -122.487914359585,
    "src:alt_label": "swim-approach",
    "src:geom": "swim",
    "swim:elevations": [
      7582,
      7478,
      7054,
      6884,
      6490,
      6420,
      6334,
      6123,
      5740,
      5561,
      5135,
      5073,
      4969,
      4592,
      4390,
      4281,
      4181,
      3963,
      3536,
      3438,
      3361,
      3356,
      3353,
      3353,
      3353,
      3235,
      3102,
      2753,
      2491,
      2298,
      2283,
      2162,
      2135,
      2134,
      2134,
      2100,
      2038,
      1985,
      1814,
      1717,
      1407,
      1352,
      1159,
      1151,
      1106,
      1079,
      779,
      683,
      651,
      494,
      305,
      172,
      59,
      21
    ],
    "swim:geom": "approach",
    "swim:timestamps": [
      1785403404,
      1785403415,
      1785403462,
      1785403481,
      1785403524,
      1785403533,
      1785403544,
      1785403567,
      1785403611,
      1785403631,
      1785403677,
      1785403684,
      1785403695,
      1785403734,
      1785403754,
      1785403766,
      1785403775,
      1785403800,
      1785403846,
      1785403881,
      1785403904,
      1785403929,
      1785403947,
      1785403954,
      1785403986,
      1785404022,
      1785404042,
      1785404087,
      1785404127,
      1785404152,
      1785404155,
      1785404173,
      1785404191,
      1785404221,
      1785404258,
      1785404298,
      1785404311,
      1785404320,
      1785404359,
      1785404376,
      1785404428,
      1785404439,
      1785404480,
      1785404484,
      1785404491,
      1785404495,
      1785404555,
      1785404576,
      1785404585,
      1785404615,
      1785404658,
      1785404695,
      1785404724,
      1785404732
    ],
    "wof:geomhash": "584cff3363bad53192fd3f54eb914e21",
    "wof:id": 2032034929,
    "wof:repo": "sfomuseum-data-flights-2026-07"
  },
  "bbox": [
    -122.91907,
    37.37411,
    -122.08866,
    38.51055
  ],
  "geometry": {"coordinates":[[-122.91907,38.51055],[-122.90881,38.49134],[-122.86513,38.40927],[-122.8476,38.37635],[-122.80943,38.30448],[-122.80108,38.28874],[-122.7914,38.27042],[-122.77189,38.23305],[-122.74848,38.16003],[-122.73918,38.1281],[-122.71725,38.05318],[-122.71381,38.0414],[-122.70904,38.02467],[-122.69031,37.95997],[-122.68101,37.92766],[-122.67452,37.9091],[-122.66555,37.895],[-122.63435,37.86365],[-122.57316,37.80571],[-122.52969,37.76468],[-122.50149,37.73811],[-122.47357,37.71166],[-122.45423,37.69331],[-122.44676,37.68626],[-122.41495,37.6563],[-122.37906,37.62235],[-122.36404,37.60131],[-122.33495,37.55386],[-122.30934,37.51218],[-122.29342,37.48624],[-122.29156,37.48315],[-122.28066,37.4654],[-122.26929,37.44687],[-122.25061,37.41633],[-122.21339,37.38932],[-122.15988,37.37411],[-122.14093,37.37753],[-122.13058,37.38311],[-122.09458,37.41428],[-122.0892,37.43313],[-122.08866,37.48857],[-122.09677,37.49799],[-122.13733,37.5206],[-122.14131,37.52235],[-122.14845,37.52546],[-122.15188,37.52696],[-122.20942,37.55131],[-122.22966,37.55988],[-122.23724,37.56309],[-122.26587,37.57517],[-122.30082,37.58991],[-122.32932,37.60177],[-122.35022,37.61061],[-122.35605,37.61305]],"type":"LineString"}
}
