{
  "id": 2032049737,
  "type": "Feature",
  "properties": {
    "geom:area": 0,
    "geom:bbox": "-122.355930,37.455570,-121.255280,37.612990",
    "geom:latitude": 37.53343443144947,
    "geom:longitude": -121.81348729869765,
    "src:alt_label": "swim-approach",
    "src:geom": "swim",
    "swim:elevations": [
      4907,
      4907,
      4684,
      4510,
      4215,
      4013,
      3873,
      3775,
      3500,
      3359,
      3290,
      3021,
      2744,
      2631,
      2434,
      2344,
      2249,
      2164,
      2115,
      1959,
      1858,
      1826,
      1686,
      1581,
      1186,
      1006,
      889,
      754,
      534,
      431,
      312,
      215,
      168,
      0
    ],
    "swim:geom": "approach",
    "swim:timestamps": [
      1785508897,
      1785508922,
      1785508973,
      1785508996,
      1785509038,
      1785509066,
      1785509083,
      1785509101,
      1785509141,
      1785509161,
      1785509173,
      1785509205,
      1785509245,
      1785509257,
      1785509290,
      1785509323,
      1785509345,
      1785509365,
      1785509397,
      1785509425,
      1785509442,
      1785509464,
      1785509513,
      1785509521,
      1785509568,
      1785509591,
      1785509624,
      1785509644,
      1785509693,
      1785509713,
      1785509744,
      1785509768,
      1785509791,
      1785509826
    ],
    "wof:geomhash": "72b17d1949e1c758c6ac7d8b17b3fd38",
    "wof:id": 2032049737,
    "wof:repo": "sfomuseum-data-flights-2026-07"
  },
  "bbox": [
    -122.35593,
    37.45557,
    -121.25528,
    37.61299
  ],
  "geometry": {"coordinates":[[-121.25528,37.59358],[-121.29873,37.5881],[-121.37963,37.57911],[-121.41446,37.57504],[-121.47673,37.56798],[-121.51728,37.56325],[-121.54199,37.56035],[-121.56816,37.55721],[-121.62392,37.55045],[-121.65123,37.54416],[-121.66742,37.54021],[-121.71093,37.54319],[-121.75781,37.52634],[-121.76474,37.51377],[-121.78299,37.48101],[-121.8227,37.46634],[-121.85394,37.46433],[-121.88067,37.46227],[-121.92402,37.45859],[-121.96064,37.45557],[-121.98331,37.45755],[-122.01037,37.46728],[-122.06756,37.49147],[-122.07784,37.49579],[-122.1336,37.5194],[-122.16008,37.53056],[-122.19613,37.5458],[-122.21564,37.55401],[-122.26208,37.57355],[-122.27969,37.581],[-122.30298,37.59079],[-122.32009,37.59799],[-122.33488,37.60421],[-122.35593,37.61299]],"type":"LineString"}
}
