{
  "id": 2032003185,
  "type": "Feature",
  "properties": {
    "geom:area": 0,
    "geom:bbox": "-122.357480,37.430520,-121.274480,37.631690",
    "geom:latitude": 37.54256126094479,
    "geom:longitude": -121.81930414253739,
    "src:alt_label": "swim-approach",
    "src:geom": "swim",
    "swim:elevations": [
      5116,
      4929,
      4847,
      4702,
      4660,
      4329,
      4273,
      3978,
      3800,
      3616,
      3577,
      3321,
      3257,
      3121,
      3045,
      2983,
      2768,
      2591,
      2490,
      2468,
      2197,
      2135,
      2135,
      2078,
      1958,
      1828,
      1765,
      1589,
      1473,
      1097,
      1039,
      873,
      785,
      643,
      476,
      378,
      365,
      280,
      170,
      100,
      46
    ],
    "swim:geom": "approach",
    "swim:timestamps": [
      1785237830,
      1785237865,
      1785237876,
      1785237896,
      1785237905,
      1785237955,
      1785237962,
      1785238008,
      1785238039,
      1785238073,
      1785238081,
      1785238136,
      1785238152,
      1785238174,
      1785238192,
      1785238209,
      1785238253,
      1785238286,
      1785238317,
      1785238321,
      1785238375,
      1785238396,
      1785238433,
      1785238444,
      1785238465,
      1785238496,
      1785238521,
      1785238551,
      1785238569,
      1785238614,
      1785238628,
      1785238672,
      1785238695,
      1785238726,
      1785238766,
      1785238792,
      1785238796,
      1785238815,
      1785238852,
      1785238874,
      1785238901
    ],
    "wof:geomhash": "1d68d5fbbf3d6ae669ce791ba4444a0e",
    "wof:id": 2032003185,
    "wof:repo": "sfomuseum-data-flights-2026-07"
  },
  "bbox": [
    -122.35748,
    37.43052,
    -121.27448,
    37.63169
  ],
  "geometry": {"coordinates":[[-121.27448,37.59121],[-121.32948,37.58512],[-121.34714,37.58312],[-121.37899,37.57943],[-121.39278,37.57779],[-121.47012,37.56886],[-121.48179,37.56746],[-121.55308,37.55914],[-121.59973,37.55369],[-121.64727,37.56415],[-121.65646,37.57119],[-121.71494,37.61746],[-121.73654,37.62532],[-121.76739,37.63169],[-121.79151,37.62782],[-121.80472,37.6118],[-121.7791,37.56561],[-121.78272,37.52867],[-121.79196,37.49442],[-121.79322,37.48995],[-121.83893,37.44771],[-121.86711,37.44025],[-121.91544,37.43052],[-121.93017,37.43306],[-121.95758,37.44106],[-121.99414,37.45503],[-122.0229,37.46852],[-122.05513,37.48435],[-122.07578,37.49382],[-122.12764,37.51482],[-122.1435,37.5211],[-122.18586,37.53894],[-122.2058,37.54756],[-122.23276,37.55905],[-122.26639,37.5731],[-122.28739,37.58188],[-122.29049,37.58318],[-122.30367,37.58878],[-122.32751,37.59876],[-122.34144,37.60459],[-122.35748,37.61135]],"type":"LineString"}
}
