{
  "id": 2031965297,
  "type": "Feature",
  "properties": {
    "geom:area": 0,
    "geom:bbox": "-122.357940,37.470770,-121.272970,37.614280",
    "geom:latitude": 37.53443482942746,
    "geom:longitude": -121.82298509962102,
    "src:alt_label": "swim-approach",
    "src:geom": "swim",
    "swim:elevations": [
      4715,
      4582,
      4113,
      3972,
      3889,
      3738,
      3427,
      3270,
      3122,
      2921,
      2864,
      2804,
      2707,
      2438,
      2438,
      2366,
      2289,
      2253,
      2039,
      1857,
      1742,
      1568,
      1320,
      1111,
      949,
      796,
      688,
      578,
      456,
      312,
      144,
      126,
      3,
      0
    ],
    "swim:geom": "approach",
    "swim:timestamps": [
      1785015376,
      1785015391,
      1785015448,
      1785015467,
      1785015478,
      1785015496,
      1785015535,
      1785015559,
      1785015580,
      1785015625,
      1785015635,
      1785015648,
      1785015669,
      1785015718,
      1785015724,
      1785015752,
      1785015777,
      1785015786,
      1785015828,
      1785015863,
      1785015883,
      1785015910,
      1785015950,
      1785015984,
      1785016015,
      1785016046,
      1785016070,
      1785016092,
      1785016119,
      1785016156,
      1785016198,
      1785016201,
      1785016227,
      1785016232
    ],
    "wof:geomhash": "6e04afbcdba36e824552096fbbcc2c22",
    "wof:id": 2031965297,
    "wof:repo": "sfomuseum-data-flights-2026-07"
  },
  "bbox": [
    -122.35794,
    37.47077,
    -121.27297,
    37.61428
  ],
  "geometry": {"coordinates":[[-121.27297,37.59139],[-121.30082,37.58798],[-121.40259,37.57678],[-121.43669,37.57273],[-121.45616,37.57046],[-121.48782,37.56684],[-121.55517,37.55909],[-121.59545,37.55431],[-121.63051,37.54924],[-121.69465,37.52643],[-121.70643,37.51955],[-121.72082,37.51105],[-121.74419,37.49728],[-121.80771,37.48366],[-121.8159,37.48311],[-121.8543,37.48061],[-121.88734,37.47837],[-121.89907,37.4776],[-121.95624,37.4738],[-122.0037,37.47077],[-122.02852,37.47481],[-122.05953,37.48802],[-122.10552,37.5075],[-122.14355,37.52357],[-122.17735,37.53785],[-122.20796,37.55074],[-122.23014,37.56014],[-122.24981,37.56843],[-122.27266,37.57801],[-122.30195,37.59039],[-122.33295,37.6034],[-122.33524,37.60439],[-122.35512,37.61278],[-122.35794,37.61428]],"type":"LineString"}
}
