{
  "id": 2031982675,
  "type": "Feature",
  "properties": {
    "geom:area": 0,
    "geom:bbox": "-122.528770,37.633680,-121.275110,38.405630",
    "geom:latitude": 38.04411145125043,
    "geom:longitude": -121.9816263535678,
    "src:alt_label": "swim-takeoff",
    "src:geom": "swim",
    "swim:elevations": [
      490,
      686,
      1069,
      1583,
      2228,
      3081,
      3319,
      3448,
      3565,
      4023,
      4521,
      4998,
      5758,
      6200,
      6488,
      6877,
      7136,
      7250,
      7506,
      7621,
      8056,
      8181
    ],
    "swim:geom": "takeoff",
    "swim:timestamps": [
      1785113068,
      1785113083,
      1785113119,
      1785113182,
      1785113226,
      1785113296,
      1785113323,
      1785113335,
      1785113347,
      1785113398,
      1785113449,
      1785113490,
      1785113560,
      1785113601,
      1785113626,
      1785113666,
      1785113699,
      1785113711,
      1785113741,
      1785113753,
      1785113802,
      1785113828
    ],
    "wof:geomhash": "12a21fa3f9d1e642422244199bde6710",
    "wof:id": 2031982675,
    "wof:repo": "sfomuseum-data-flights-2026-07"
  },
  "bbox": [
    -122.52877,
    37.63368,
    -121.27511,
    38.40563
  ],
  "geometry": {"coordinates":[[-122.40969,37.63368],[-122.42228,37.63916],[-122.4544,37.65283],[-122.52458,37.69108],[-122.52877,37.74704],[-122.47738,37.82883],[-122.43297,37.85163],[-122.41168,37.86176],[-122.38988,37.87193],[-122.29117,37.91865],[-122.18441,37.96845],[-122.09353,38.01118],[-121.93309,38.08564],[-121.83898,38.12933],[-121.77877,38.15723],[-121.68238,38.20168],[-121.60108,38.23909],[-121.5711,38.25296],[-121.49449,38.28817],[-121.46375,38.30228],[-121.33736,38.367],[-121.27511,38.40563]],"type":"LineString"}
}
