{
  "id": 2032031357,
  "type": "Feature",
  "properties": {
    "geom:area": 0,
    "geom:bbox": "-122.351740,37.491800,-121.245350,37.611290",
    "geom:latitude": 37.54267208339965,
    "geom:longitude": -121.80547236894931,
    "src:alt_label": "swim-approach",
    "src:geom": "swim",
    "swim:elevations": [
      5053,
      4911,
      4783,
      4722,
      4533,
      4174,
      3873,
      3730,
      3429,
      3228,
      3016,
      2740,
      2436,
      2438,
      2370,
      2133,
      1961,
      1864,
      1787,
      1552,
      1503,
      1217,
      1129,
      1006,
      975,
      823,
      732,
      575,
      489,
      396,
      211,
      180,
      60
    ],
    "swim:geom": "approach",
    "swim:timestamps": [
      1785456546,
      1785456564,
      1785456590,
      1785456602,
      1785456630,
      1785456669,
      1785456699,
      1785456723,
      1785456768,
      1785456792,
      1785456815,
      1785456845,
      1785456885,
      1785456914,
      1785456941,
      1785456986,
      1785457016,
      1785457035,
      1785457064,
      1785457101,
      1785457110,
      1785457168,
      1785457184,
      1785457223,
      1785457242,
      1785457277,
      1785457296,
      1785457340,
      1785457361,
      1785457383,
      1785457434,
      1785457442,
      1785457478
    ],
    "wof:geomhash": "f07db8ae796fb1ad16fb9367abec6607",
    "wof:id": 2032031357,
    "wof:repo": "sfomuseum-data-flights-2026-07"
  },
  "bbox": [
    -122.35174,
    37.4918,
    -121.24535,
    37.61129
  ],
  "geometry": {"coordinates":[[-121.24535,37.59502],[-121.27716,37.59087],[-121.32257,37.58559],[-121.34167,37.58344],[-121.38591,37.57836],[-121.44823,37.57119],[-121.49434,37.56583],[-121.53023,37.56171],[-121.59225,37.55441],[-121.62483,37.55027],[-121.65471,37.54344],[-121.69459,37.53395],[-121.74499,37.522],[-121.78185,37.51315],[-121.81752,37.50457],[-121.87471,37.4918],[-121.91388,37.49325],[-121.93763,37.49453],[-121.97489,37.49665],[-122.02119,37.49925],[-122.03226,37.49989],[-122.09795,37.50554],[-122.11465,37.51143],[-122.1516,37.52703],[-122.16878,37.53426],[-122.20066,37.5477],[-122.2179,37.55496],[-122.253,37.56982],[-122.26787,37.57601],[-122.2835,37.58258],[-122.32152,37.59852],[-122.32716,37.60086],[-122.35174,37.61129]],"type":"LineString"}
}
