{
  "id": 2032006021,
  "type": "Feature",
  "properties": {
    "geom:area": 0,
    "geom:bbox": "-122.753370,37.572080,-122.345560,38.422080",
    "geom:latitude": 37.98961198497394,
    "geom:longitude": -122.61105086751773,
    "src:alt_label": "swim-approach",
    "src:geom": "swim",
    "swim:elevations": [
      7437,
      6810,
      6614,
      6217,
      6035,
      5582,
      5258,
      5170,
      5047,
      4967,
      4607,
      4470,
      4108,
      3855,
      3606,
      3431,
      3363,
      3353,
      3353,
      3353,
      3348,
      3278,
      3198,
      3051,
      2901
    ],
    "swim:geom": "approach",
    "swim:timestamps": [
      1785256401,
      1785256461,
      1785256480,
      1785256520,
      1785256539,
      1785256585,
      1785256616,
      1785256628,
      1785256642,
      1785256652,
      1785256696,
      1785256712,
      1785256750,
      1785256778,
      1785256805,
      1785256840,
      1785256868,
      1785256897,
      1785256928,
      1785256938,
      1785256964,
      1785256978,
      1785256988,
      1785257007,
      1785257031
    ],
    "wof:geomhash": "114d0a8edf9a50b07ff1d08becceca8f",
    "wof:id": 2032006021,
    "wof:repo": "sfomuseum-data-flights-2026-07"
  },
  "bbox": [
    -122.75337,
    37.57208,
    -122.34556,
    38.42208
  ],
  "geometry": {"coordinates":[[-122.56494,38.42208],[-122.65309,38.33586],[-122.68166,38.30801],[-122.73739,38.25218],[-122.75337,38.22097],[-122.74382,38.14045],[-122.72824,38.08831],[-122.72207,38.06808],[-122.71525,38.04531],[-122.71019,38.02844],[-122.69026,37.95997],[-122.68304,37.93487],[-122.65174,37.87934],[-122.61608,37.84454],[-122.58107,37.81222],[-122.53538,37.76981],[-122.50242,37.73877],[-122.47008,37.7081],[-122.43444,37.67452],[-122.42365,37.6644],[-122.39803,37.64019],[-122.38397,37.62696],[-122.37434,37.61793],[-122.35853,37.59951],[-122.34556,37.57208]],"type":"LineString"}
}
