{
  "id": 2031991703,
  "type": "Feature",
  "properties": {
    "geom:area": 0,
    "geom:bbox": "-123.481100,36.974510,-122.104770,37.614050",
    "geom:latitude": 37.26183889292189,
    "geom:longitude": -122.75646466443476,
    "src:alt_label": "swim-approach",
    "src:geom": "swim",
    "swim:elevations": [
      6671,
      6382,
      5841,
      5364,
      5105,
      4938,
      4839,
      4617,
      4309,
      3821,
      3686,
      3656,
      3657,
      3658,
      3658,
      3658,
      3658,
      3658,
      3658,
      3652,
      3536,
      3378,
      3351,
      3351,
      3353,
      3355,
      3374,
      3351,
      3260,
      3157,
      3050,
      3048,
      3048,
      3046,
      3081,
      3064,
      3048,
      3048,
      3021,
      2825,
      2713,
      2619,
      2399,
      2214,
      2163,
      1949,
      1837,
      1850,
      1833,
      1832,
      1829,
      1829,
      1829,
      1829,
      1829,
      1839,
      1830,
      1830,
      1830,
      1828,
      1829,
      1709,
      1673,
      1445,
      1364,
      1281,
      1101,
      1070,
      913,
      937,
      924,
      787,
      760,
      690,
      519,
      424,
      342,
      273,
      206,
      122,
      0
    ],
    "swim:geom": "approach",
    "swim:timestamps": [
      1785194663,
      1785194706,
      1785194770,
      1785194828,
      1785194907,
      1785194937,
      1785194955,
      1785194988,
      1785195024,
      1785195083,
      1785195104,
      1785195116,
      1785195128,
      1785195177,
      1785195192,
      1785195223,
      1785195251,
      1785195295,
      1785195319,
      1785195331,
      1785195362,
      1785195406,
      1785195418,
      1785195421,
      1785195446,
      1785195471,
      1785195475,
      1785195484,
      1785195505,
      1785195525,
      1785195555,
      1785195586,
      1785195607,
      1785195631,
      1785195655,
      1785195661,
      1785195684,
      1785195715,
      1785195739,
      1785195778,
      1785195799,
      1785195818,
      1785195864,
      1785195896,
      1785195905,
      1785195950,
      1785195972,
      1785196008,
      1785196014,
      1785196023,
      1785196048,
      1785196068,
      1785196089,
      1785196118,
      1785196150,
      1785196194,
      1785196215,
      1785196237,
      1785196246,
      1785196278,
      1785196302,
      1785196346,
      1785196353,
      1785196402,
      1785196417,
      1785196429,
      1785196465,
      1785196474,
      1785196526,
      1785196548,
      1785196568,
      1785196611,
      1785196620,
      1785196635,
      1785196678,
      1785196706,
      1785196722,
      1785196742,
      1785196762,
      1785196782,
      1785196817
    ],
    "wof:geomhash": "2e96b845e284cdbfbed47973fc3ae116",
    "wof:id": 2031991703,
    "wof:repo": "sfomuseum-data-flights-2026-07"
  },
  "bbox": [
    -123.4811,
    36.97451,
    -122.10477,
    37.61405
  ],
  "geometry": {"coordinates":[[-123.4811,36.97451],[-123.39901,37.01226],[-123.28122,37.06633],[-123.17583,37.11475],[-123.04454,37.17487],[-122.9986,37.19587],[-122.97123,37.2084],[-122.922,37.23097],[-122.86831,37.25533],[-122.78763,37.23572],[-122.78107,37.2102],[-122.78551,37.19575],[-122.79505,37.1831],[-122.86385,37.15777],[-122.88638,37.15208],[-122.93372,37.14089],[-122.97662,37.14702],[-123.0044,37.19556],[-122.98588,37.22272],[-122.96963,37.23119],[-122.92037,37.24366],[-122.85137,37.25963],[-122.83232,37.25774],[-122.82786,37.25635],[-122.80029,37.2341],[-122.79871,37.2046],[-122.80135,37.19943],[-122.80826,37.19071],[-122.83555,37.17673],[-122.86507,37.16949],[-122.90922,37.16269],[-122.9465,37.1839],[-122.95454,37.20871],[-122.94146,37.23612],[-122.90971,37.24941],[-122.90059,37.24919],[-122.86648,37.24278],[-122.8235,37.23035],[-122.79409,37.2149],[-122.74604,37.18993],[-122.71707,37.18369],[-122.68897,37.18222],[-122.64453,37.21493],[-122.63981,37.25017],[-122.63844,37.25994],[-122.63208,37.3086],[-122.62897,37.33243],[-122.6232,37.36907],[-122.62058,37.37506],[-122.61366,37.38287],[-122.58107,37.39021],[-122.55394,37.38419],[-122.52495,37.37826],[-122.4838,37.37984],[-122.43956,37.38255],[-122.38311,37.3856],[-122.3574,37.38702],[-122.33136,37.3886],[-122.32049,37.38924],[-122.28152,37.39177],[-122.25352,37.39397],[-122.20093,37.39808],[-122.19183,37.39965],[-122.14336,37.42326],[-122.12795,37.43101],[-122.11561,37.43733],[-122.10477,37.46554],[-122.10977,37.47189],[-122.13839,37.5063],[-122.1504,37.52056],[-122.16551,37.52993],[-122.20198,37.54606],[-122.20953,37.54922],[-122.22207,37.55448],[-122.25749,37.56916],[-122.27802,37.57789],[-122.28997,37.58303],[-122.3054,37.58952],[-122.32043,37.59577],[-122.33569,37.60222],[-122.36298,37.61405]],"type":"LineString"}
}
