{
  "id": 2032037453,
  "type": "Feature",
  "properties": {
    "geom:area": 0,
    "geom:bbox": "-122.527260,37.625560,-122.013960,38.458810",
    "geom:latitude": 38.02779825705827,
    "geom:longitude": -122.31941580657008,
    "src:alt_label": "swim-takeoff",
    "src:geom": "swim",
    "swim:elevations": [
      183,
      535,
      614,
      990,
      1343,
      1525,
      1532,
      1684,
      1972,
      2296,
      2609,
      2963,
      3209,
      3307,
      3609,
      3748,
      4140,
      4318,
      4791,
      4955,
      5261,
      5608,
      5951,
      6237
    ],
    "swim:geom": "takeoff",
    "swim:timestamps": [
      1785416657,
      1785416695,
      1785416711,
      1785416750,
      1785416783,
      1785416816,
      1785416837,
      1785416859,
      1785416883,
      1785416911,
      1785416932,
      1785416966,
      1785416994,
      1785417016,
      1785417055,
      1785417071,
      1785417114,
      1785417130,
      1785417174,
      1785417192,
      1785417215,
      1785417257,
      1785417296,
      1785417324
    ],
    "wof:geomhash": "40348cba5cc0bc056cdb3a6e5730d8cf",
    "wof:id": 2032037453,
    "wof:repo": "sfomuseum-data-flights-2026-07"
  },
  "bbox": [
    -122.52726,
    37.62556,
    -122.01396,
    38.45881
  ],
  "geometry": {"coordinates":[[-122.39136,37.62556],[-122.42542,37.64046],[-122.44171,37.64731],[-122.48955,37.66777],[-122.52278,37.69481],[-122.52703,37.73665],[-122.52726,37.76379],[-122.52206,37.79093],[-122.50341,37.8202],[-122.47859,37.85227],[-122.45917,37.87787],[-122.42991,37.91838],[-122.40525,37.95169],[-122.38369,37.98032],[-122.34095,38.0356],[-122.32352,38.05814],[-122.27526,38.12208],[-122.25643,38.14671],[-122.20475,38.21497],[-122.1836,38.2428],[-122.15504,38.28024],[-122.10342,38.34644],[-122.05145,38.41173],[-122.01396,38.45881]],"type":"LineString"}
}
