{
  "id": 2032023063,
  "type": "Feature",
  "properties": {
    "geom:area": 0,
    "geom:bbox": "-123.923333,37.629444,-122.399444,47.912222",
    "geom:latitude": 42.540686052194495,
    "geom:longitude": -123.62484250360674,
    "src:alt_label": "swim-path",
    "src:geom": "swim",
    "swim:altitudes": [
      "011",
      "038",
      "055",
      "069",
      "103",
      "116",
      "133",
      "152",
      "169",
      "186",
      "201",
      "214",
      "230",
      "244",
      "257",
      "269",
      "279",
      "290",
      "296",
      "300C",
      "300C",
      "300C",
      "300C",
      "300C",
      "300C",
      "300C",
      "300C",
      "300C",
      "300C",
      "300C",
      "300C",
      "300C",
      "300C",
      "300C",
      "300C",
      "300C",
      "300C",
      "300C",
      "300C",
      "300C",
      "300C",
      "300C",
      "300C",
      "300C",
      "300C",
      "300C",
      "300C",
      "300C",
      "300C",
      "300C",
      "300C",
      "300C",
      "300C",
      "300C",
      "300C",
      "300C",
      "300C",
      "300C",
      "300C",
      "300C",
      "300C",
      "300C",
      "300C",
      "300C",
      "300C",
      "300C",
      "300C",
      "300C",
      "300C",
      "300C",
      "300C"
    ],
    "swim:geom": "path",
    "swim:speeds": [
      172,
      232,
      255,
      292,
      325,
      351,
      374,
      388,
      393,
      400,
      409,
      416,
      435,
      435,
      441,
      441,
      459,
      485,
      492,
      495,
      497,
      499,
      501,
      504,
      504,
      505,
      506,
      506,
      507,
      507,
      508,
      508,
      508,
      507,
      507,
      508,
      509,
      509,
      509,
      509,
      509,
      510,
      510,
      510,
      511,
      511,
      510,
      509,
      506,
      506,
      507,
      507,
      507,
      508,
      508,
      507,
      507,
      507,
      507,
      506,
      505,
      505,
      505,
      505,
      507,
      507,
      507,
      504,
      504,
      506,
      491
    ],
    "swim:timestamps": [
      1785356806,
      1785356926,
      1785356986,
      1785357046,
      1785357166,
      1785357224,
      1785357284,
      1785357347,
      1785357404,
      1785357464,
      1785357524,
      1785357584,
      1785357644,
      1785357704,
      1785357764,
      1785357824,
      1785357885,
      1785357945,
      1785358005,
      1785358065,
      1785358185,
      1785358245,
      1785358308,
      1785358425,
      1785358485,
      1785358545,
      1785358605,
      1785358668,
      1785358726,
      1785358786,
      1785358849,
      1785358906,
      1785358966,
      1785359029,
      1785359086,
      1785359146,
      1785359209,
      1785359266,
      1785359326,
      1785359386,
      1785359447,
      1785359567,
      1785359687,
      1785359747,
      1785359807,
      1785359867,
      1785359987,
      1785360047,
      1785360167,
      1785360227,
      1785360288,
      1785360348,
      1785360408,
      1785360468,
      1785360528,
      1785360588,
      1785360648,
      1785360708,
      1785360768,
      1785360828,
      1785360888,
      1785360948,
      1785361069,
      1785361129,
      1785361189,
      1785361249,
      1785361309,
      1785361429,
      1785361489,
      1785361549,
      1785361669
    ],
    "wof:geomhash": "e9a4bf0737cbdc84aac6699e1d3e0366",
    "wof:id": 2032023063,
    "wof:repo": "sfomuseum-data-flights-2026-07"
  },
  "bbox": [
    -123.92333333333333,
    37.629444444444445,
    -122.39944444444446,
    47.91222222222222
  ],
  "geometry": {"coordinates":[[-122.39944444444446,37.629444444444445],[-122.52166666666666,37.68555555555555],[-122.59305555555555,37.7275],[-122.67055555555557,37.777499999999996],[-122.76916666666666,37.91972222222222],[-122.84638888888888,38.00861111111111],[-122.92361111111111,38.09444444444445],[-122.99861111111112,38.176944444444445],[-123.08416666666666,38.2725],[-123.16555555555556,38.36527777777778],[-123.25111111111111,38.45861111111111],[-123.33749999999999,38.55444444444444],[-123.42777777777778,38.654444444444444],[-123.51944444444445,38.7525],[-123.61083333333333,38.853611111111114],[-123.70333333333333,38.953611111111115],[-123.75222222222222,39.075],[-123.76777777777778,39.217777777777776],[-123.77805555555555,39.34583333333334],[-123.78916666666666,39.48166666666667],[-123.81222222222222,39.75861111111111],[-123.8236111111111,39.89805555555556],[-123.83527777777778,40.03777777777778],[-123.85833333333333,40.31333333333333],[-123.86999999999999,40.45],[-123.88194444444444,40.59],[-123.89361111111111,40.72833333333333],[-123.90805555555556,40.89722222222222],[-123.9175,41.009166666666665],[-123.92333333333333,41.14861111111111],[-123.91555555555556,41.31916666666667],[-123.90861111111111,41.43083333333333],[-123.89944444444446,41.57361111111111],[-123.88861111111112,41.74305555555556],[-123.88194444444444,41.85444444444445],[-123.87333333333332,41.99444444444445],[-123.86305555555555,42.165277777777774],[-123.85444444444444,42.30083333333333],[-123.84583333333333,42.44194444444444],[-123.83694444444444,42.58388888888889],[-123.8286111111111,42.719166666666666],[-123.81083333333333,43.001666666666665],[-123.79277777777777,43.28583333333333],[-123.78361111111111,43.42944444444444],[-123.77472222222222,43.57027777777778],[-123.76555555555555,43.71194444444445],[-123.74833333333333,43.97916666666667],[-123.73916666666666,44.11972222222222],[-123.72055555555556,44.401666666666664],[-123.71111111111111,44.543055555555554],[-123.70194444444445,44.68333333333333],[-123.69250000000001,44.824444444444445],[-123.6825,44.973333333333336],[-123.67277777777778,45.117777777777775],[-123.66305555555556,45.2575],[-123.65361111111112,45.39972222222222],[-123.6438888888889,45.54],[-123.63416666666667,45.680277777777775],[-123.62444444444444,45.82027777777778],[-123.61472222222221,45.96027777777778],[-123.60472222222222,46.10194444444445],[-123.595,46.24138888888889],[-123.575,46.52472222222222],[-123.565,46.665277777777774],[-123.55472222222222,46.80638888888888],[-123.54444444444444,46.947222222222216],[-123.53444444444445,47.08777777777778],[-123.51388888888889,47.368611111111115],[-123.50361111111111,47.509166666666665],[-123.49305555555556,47.650555555555556],[-123.56805555555555,47.91222222222222]],"type":"LineString"}
}
