{
  "id": 2031942881,
  "type": "Feature",
  "properties": {
    "geom:area": 0,
    "geom:bbox": "-122.357510,37.413510,-122.064420,37.613590",
    "geom:latitude": 37.50162748540397,
    "geom:longitude": -122.20473669021098,
    "src:alt_label": "swim-approach",
    "src:geom": "swim",
    "swim:elevations": [
      3012,
      2822,
      2667,
      2463,
      2283,
      2192,
      2132,
      2113,
      1974,
      1840,
      1576,
      1434,
      1273,
      1219,
      1219,
      1141,
      950,
      789,
      685,
      526,
      506,
      483,
      315,
      203,
      106,
      8
    ],
    "swim:geom": "approach",
    "swim:timestamps": [
      1784833119,
      1784833163,
      1784833185,
      1784833215,
      1784833248,
      1784833269,
      1784833285,
      1784833291,
      1784833317,
      1784833331,
      1784833372,
      1784833396,
      1784833418,
      1784833457,
      1784833495,
      1784833513,
      1784833549,
      1784833580,
      1784833607,
      1784833644,
      1784833650,
      1784833653,
      1784833704,
      1784833735,
      1784833763,
      1784833786
    ],
    "wof:geomhash": "4e3e3854639059493cde7a48e450e1fc",
    "wof:id": 2031942881,
    "wof:repo": "sfomuseum-data-flights-2026-07"
  },
  "bbox": [
    -122.35751,
    37.41351,
    -122.06442,
    37.61359
  ],
  "geometry": {"coordinates":[[-122.32919,37.55033],[-122.30293,37.50519],[-122.28921,37.48396],[-122.25977,37.46116],[-122.22665,37.43905],[-122.20329,37.4297],[-122.18532,37.42358],[-122.1783,37.42128],[-122.15028,37.41351],[-122.13401,37.41558],[-122.08925,37.43347],[-122.07262,37.45075],[-122.06442,37.46949],[-122.08668,37.49879],[-122.12345,37.51517],[-122.14175,37.52278],[-122.17678,37.53758],[-122.2059,37.54989],[-122.22938,37.55979],[-122.25726,37.5716],[-122.2616,37.57339],[-122.26396,37.57439],[-122.29898,37.58911],[-122.32084,37.59827],[-122.34064,37.60663],[-122.35751,37.61359]],"type":"LineString"}
}
