{
  "id": 2031977603,
  "type": "Feature",
  "properties": {
    "geom:area": 0,
    "geom:bbox": "-122.304444,37.466667,-122.116389,37.588889",
    "geom:latitude": 37.539174278878136,
    "geom:longitude": -122.19724654297121,
    "src:alt_label": "swim-path",
    "src:geom": "swim",
    "swim:altitudes": [
      "040",
      "039",
      "034",
      "030",
      "022",
      "015",
      "010"
    ],
    "swim:geom": "path",
    "swim:speeds": [
      202,
      179,
      168,
      158,
      156,
      130,
      116
    ],
    "swim:timestamps": [
      1785132816,
      1785132822,
      1785132876,
      1785132936,
      1785132996,
      1785133056,
      1785133116
    ],
    "wof:geomhash": "398b652a80f9b481d162134c9b898bb9",
    "wof:id": 2031977603,
    "wof:repo": "sfomuseum-data-flights-2026-07"
  },
  "bbox": [
    -122.30444444444444,
    37.46666666666667,
    -122.11638888888888,
    37.58888888888889
  ],
  "geometry": {"coordinates":[[-122.11638888888888,37.46666666666667],[-122.11666666666666,37.483333333333334],[-122.13,37.5125],[-122.17666666666668,37.53527777777778],[-122.22472222222223,37.55555555555555],[-122.26888888888888,37.57416666666667],[-122.30444444444444,37.58888888888889]],"type":"LineString"}
}
