{
  "id": 2031956151,
  "type": "Feature",
  "properties": {
    "geom:area": 0,
    "geom:bbox": "-122.366550,36.727330,-121.882330,37.615520",
    "geom:latitude": 37.24214083879907,
    "geom:longitude": -122.15499393209447,
    "src:alt_label": "swim-approach",
    "src:geom": "swim",
    "swim:elevations": [
      4878,
      4644,
      4505,
      4262,
      4154,
      3966,
      3874,
      3806,
      3724,
      3564,
      3415,
      3322,
      3053,
      2864,
      2724,
      2581,
      2415,
      2295,
      2212,
      2114,
      1885,
      1829,
      1829,
      1836,
      1829,
      1825,
      1737,
      1529,
      1523,
      1524,
      1524,
      1552,
      1524,
      1524,
      1524,
      1524,
      1353,
      1168,
      1065,
      865,
      789,
      647,
      530,
      461,
      425,
      327,
      261,
      122,
      38,
      396
    ],
    "swim:geom": "approach",
    "swim:timestamps": [
      1784935310,
      1784935343,
      1784935361,
      1784935398,
      1784935410,
      1784935447,
      1784935461,
      1784935476,
      1784935491,
      1784935521,
      1784935544,
      1784935563,
      1784935604,
      1784935638,
      1784935662,
      1784935683,
      1784935707,
      1784935728,
      1784935743,
      1784935781,
      1784935821,
      1784935858,
      1784935861,
      1784935876,
      1784935915,
      1784935936,
      1784935976,
      1784936007,
      1784936010,
      1784936025,
      1784936044,
      1784936065,
      1784936092,
      1784936122,
      1784936150,
      1784936188,
      1784936209,
      1784936244,
      1784936262,
      1784936308,
      1784936331,
      1784936366,
      1784936397,
      1784936412,
      1784936433,
      1784936452,
      1784936478,
      1784936515,
      1784936537,
      1784936551
    ],
    "wof:geomhash": "54de095651148daf796fe4ef86f5c037",
    "wof:id": 2031956151,
    "wof:repo": "sfomuseum-data-flights-2026-07"
  },
  "bbox": [
    -122.36655,
    36.72733,
    -121.88233,
    37.61552
  ],
  "geometry": {"coordinates":[[-121.88233,36.72733],[-121.90396,36.77721],[-121.91172,36.80492],[-121.92762,36.86109],[-121.93257,36.87894],[-121.94761,36.93321],[-121.95311,36.95209],[-121.96226,36.97216],[-121.9798,36.98708],[-122.02072,37.0119],[-122.05179,37.03018],[-122.0756,37.04409],[-122.12939,37.07614],[-122.15395,37.11349],[-122.16909,37.1413],[-122.18218,37.16545],[-122.20596,37.18798],[-122.22802,37.20654],[-122.24337,37.21943],[-122.28117,37.25173],[-122.31838,37.28418],[-122.35242,37.31236],[-122.35516,37.31464],[-122.36655,37.32769],[-122.36359,37.37037],[-122.35735,37.39369],[-122.30724,37.40415],[-122.26471,37.39613],[-122.26059,37.39536],[-122.23987,37.39287],[-122.21504,37.39977],[-122.18845,37.4097],[-122.15775,37.42151],[-122.12555,37.43385],[-122.09644,37.44726],[-122.09241,37.47977],[-122.10575,37.49476],[-122.13088,37.51527],[-122.14594,37.52253],[-122.18492,37.53877],[-122.20261,37.54616],[-122.22903,37.55732],[-122.25305,37.56739],[-122.26471,37.57228],[-122.27971,37.57875],[-122.29325,37.5845],[-122.31136,37.59194],[-122.33747,37.603],[-122.35333,37.60957],[-122.36181,37.61552]],"type":"LineString"}
}
