{
  "id": 2031960877,
  "type": "Feature",
  "properties": {
    "geom:area": 0,
    "geom:bbox": "-122.410278,37.638056,-74.083333,42.610278",
    "geom:latitude": 41.51696599256273,
    "geom:longitude": -98.47769138728641,
    "src:alt_label": "swim-path",
    "src:geom": "swim",
    "swim:altitudes": [
      "021",
      "040",
      "058",
      "080",
      "116",
      "158",
      "196",
      "211",
      "227",
      "243",
      "257",
      "273",
      "285",
      "286",
      "298",
      "298",
      "310",
      "311",
      "326",
      "340",
      "341",
      "351",
      "360",
      "367",
      "369C",
      "370C",
      "370C",
      "370C",
      "370C",
      "370C",
      "370C",
      "370C",
      "370C",
      "370C",
      "370C",
      "370C",
      "370C",
      "370C",
      "370C",
      "370C",
      "370C",
      "370C",
      "370C",
      "370C",
      "370C",
      "370C",
      "370C",
      "370C",
      "370C",
      "370C",
      "370C",
      "370C",
      "370C",
      "370C",
      "370C",
      "370C",
      "370C",
      "370C",
      "370C",
      "370C",
      "370C",
      "370C",
      "370C",
      "370C",
      "370C",
      "370C",
      "370C",
      "370C",
      "370C",
      "370C",
      "370C",
      "370C",
      "370C",
      "370C",
      "370C",
      "370C",
      "370C",
      "370C",
      "370C",
      "370C",
      "370C",
      "370C",
      "370C",
      "370C",
      "370C",
      "370C",
      "370C",
      "370C",
      "370C",
      "370C",
      "370C",
      "370C",
      "370C",
      "370C",
      "370C",
      "370C",
      "370C",
      "370C",
      "370C",
      "370C",
      "370C",
      "370C",
      "370C",
      "370C",
      "370C",
      "370C",
      "370C",
      "370C",
      "370C",
      "370C",
      "370C",
      "370C",
      "370C",
      "370C",
      "370C",
      "370C",
      "370C",
      "370C",
      "370C",
      "370C",
      "370C",
      "370C",
      "370C",
      "370C",
      "370C",
      "370C",
      "370C",
      "370C",
      "370C",
      "370C",
      "370C",
      "370C",
      "370C",
      "370C",
      "370C",
      "370C",
      "370C",
      "370C",
      "370C",
      "370C",
      "370C",
      "370C",
      "370C",
      "370C",
      "370C",
      "370C",
      "370C",
      "370C",
      "370C",
      "370C",
      "370C",
      "370C",
      "370C",
      "370C",
      "370C",
      "370C",
      "370C",
      "370C",
      "370C",
      "370C",
      "370C",
      "370C",
      "370C",
      "370C",
      "370C",
      "370C",
      "370C",
      "370C",
      "370C",
      "370C",
      "370C",
      "370C",
      "370C",
      "370C",
      "370C",
      "370C",
      "370C",
      "370C",
      "370C",
      "370C",
      "370C",
      "370C",
      "370C",
      "370C",
      "370C",
      "370C",
      "370C",
      "370C",
      "370C",
      "370C",
      "370C",
      "370C",
      "370C",
      "370C",
      "370C",
      "370C",
      "370C",
      "370C",
      "370C",
      "370C",
      "370C",
      "370C",
      "370C",
      "370C",
      "370C",
      "370C",
      "370C",
      "370C",
      "370C",
      "370C",
      "370C",
      "370C",
      "370C",
      "370C",
      "370C",
      "370C",
      "370C",
      "370C",
      "370C",
      "370C",
      "370C",
      "370C",
      "370C",
      "370C",
      "370C",
      "372",
      "390C",
      "390C",
      "390C",
      "390C",
      "390C",
      "390C",
      "390C",
      "390C",
      "390C",
      "390C",
      "390C",
      "390C",
      "390C",
      "390C",
      "390C",
      "390C",
      "390C",
      "390C",
      "390C",
      "390C",
      "390C",
      "390C",
      "390C",
      "390C",
      "390C",
      "390C",
      "390C",
      "390C",
      "390C",
      "390C",
      "390C",
      "390C",
      "390C",
      "390C",
      "390C",
      "390C",
      "390C",
      "390C",
      "390C",
      "390C",
      "390C",
      "390C",
      "390C",
      "390C",
      "390C",
      "390C",
      "390C",
      "390C",
      "390C",
      "390C",
      "390C",
      "390C",
      "390C",
      "390C",
      "390C",
      "390C",
      "390C",
      "390C",
      "390C",
      "390",
      "387",
      "378",
      "375",
      "367",
      "364",
      "355",
      "351",
      "341C",
      "340C",
      "340C",
      "340C",
      "340C",
      "340C",
      "340",
      "339",
      "335",
      "322",
      "315",
      "296",
      "280",
      "269",
      "254",
      "245",
      "228",
      "219",
      "196",
      "177",
      "153",
      "136",
      "121",
      "102",
      "093",
      "088",
      "083",
      "075",
      "070",
      "070C",
      "070",
      "070C",
      "067",
      "060",
      "060",
      "060",
      "060",
      "058",
      "050",
      "050",
      "047",
      "040",
      "040",
      "040",
      "037",
      "031",
      "026",
      "024",
      "019",
      "015",
      "005",
      "003"
    ],
    "swim:geom": "path",
    "swim:speeds": [
      160,
      206,
      261,
      282,
      356,
      390,
      416,
      430,
      445,
      456,
      469,
      479,
      489,
      489,
      499,
      492,
      507,
      503,
      506,
      505,
      506,
      503,
      504,
      507,
      502,
      513,
      509,
      513,
      510,
      512,
      509,
      511,
      509,
      510,
      509,
      509,
      513,
      510,
      512,
      510,
      512,
      511,
      512,
      512,
      513,
      513,
      514,
      515,
      515,
      516,
      516,
      517,
      517,
      517,
      518,
      518,
      519,
      519,
      520,
      520,
      520,
      520,
      520,
      519,
      519,
      518,
      518,
      517,
      517,
      516,
      515,
      515,
      514,
      514,
      513,
      508,
      507,
      506,
      506,
      505,
      504,
      502,
      501,
      501,
      501,
      500,
      501,
      501,
      501,
      502,
      502,
      502,
      503,
      503,
      503,
      507,
      503,
      505,
      503,
      504,
      503,
      504,
      503,
      503,
      502,
      502,
      501,
      501,
      501,
      500,
      499,
      499,
      499,
      499,
      499,
      499,
      498,
      498,
      497,
      496,
      495,
      495,
      495,
      495,
      494,
      495,
      494,
      494,
      494,
      494,
      493,
      493,
      493,
      493,
      492,
      493,
      492,
      492,
      493,
      493,
      493,
      493,
      492,
      489,
      484,
      482,
      481,
      480,
      480,
      480,
      481,
      482,
      483,
      477,
      484,
      481,
      486,
      482,
      487,
      485,
      488,
      489,
      490,
      487,
      490,
      489,
      491,
      490,
      492,
      491,
      493,
      492,
      494,
      493,
      493,
      494,
      495,
      495,
      495,
      495,
      495,
      495,
      495,
      496,
      496,
      495,
      495,
      495,
      496,
      496,
      498,
      499,
      500,
      501,
      502,
      502,
      502,
      507,
      505,
      507,
      508,
      509,
      508,
      507,
      506,
      505,
      504,
      504,
      504,
      507,
      509,
      512,
      514,
      515,
      515,
      516,
      516,
      516,
      514,
      512,
      510,
      508,
      506,
      505,
      504,
      505,
      521,
      521,
      524,
      520,
      521,
      521,
      520,
      523,
      520,
      522,
      521,
      522,
      522,
      523,
      523,
      523,
      523,
      523,
      521,
      521,
      520,
      519,
      514,
      511,
      510,
      508,
      508,
      506,
      505,
      508,
      509,
      511,
      513,
      515,
      517,
      519,
      520,
      521,
      521,
      521,
      521,
      521,
      522,
      522,
      521,
      521,
      521,
      520,
      519,
      519,
      519,
      519,
      519,
      519,
      520,
      519,
      520,
      520,
      520,
      523,
      521,
      522,
      521,
      522,
      521,
      522,
      520,
      512,
      502,
      491,
      490,
      493,
      496,
      498,
      502,
      501,
      501,
      501,
      501,
      500,
      500,
      500,
      499,
      488,
      467,
      446,
      431,
      416,
      402,
      391,
      299,
      294,
      292,
      283,
      283,
      277,
      280,
      281,
      280,
      284,
      277,
      279,
      277,
      276,
      276,
      271,
      270,
      274,
      231,
      218,
      201,
      194,
      193,
      198,
      194,
      184,
      188,
      150,
      147
    ],
    "swim:timestamps": [
      1784900486,
      1784900546,
      1784900606,
      1784900666,
      1784900786,
      1784900907,
      1784901027,
      1784901087,
      1784901147,
      1784901207,
      1784901267,
      1784901327,
      1784901387,
      1784901397,
      1784901447,
      1784901457,
      1784901507,
      1784901517,
      1784901577,
      1784901627,
      1784901637,
      1784901697,
      1784901757,
      1784901807,
      1784901818,
      1784901878,
      1784901928,
      1784901938,
      1784901988,
      1784901998,
      1784902048,
      1784902058,
      1784902108,
      1784902118,
      1784902168,
      1784902228,
      1784902238,
      1784902288,
      1784902298,
      1784902348,
      1784902358,
      1784902408,
      1784902418,
      1784902468,
      1784902478,
      1784902528,
      1784902538,
      1784902588,
      1784902599,
      1784902648,
      1784902659,
      1784902708,
      1784902719,
      1784902768,
      1784902828,
      1784902839,
      1784902888,
      1784902899,
      1784902959,
      1784903019,
      1784903079,
      1784903129,
      1784903139,
      1784903199,
      1784903259,
      1784903320,
      1784903380,
      1784903440,
      1784903500,
      1784903620,
      1784903680,
      1784903740,
      1784903800,
      1784903860,
      1784903920,
      1784904040,
      1784904101,
      1784904161,
      1784904221,
      1784904281,
      1784904341,
      1784904401,
      1784904461,
      1784904521,
      1784904581,
      1784904641,
      1784904701,
      1784904761,
      1784904821,
      1784904882,
      1784904942,
      1784905002,
      1784905062,
      1784905122,
      1784905182,
      1784905230,
      1784905242,
      1784905290,
      1784905302,
      1784905350,
      1784905362,
      1784905410,
      1784905471,
      1784905482,
      1784905531,
      1784905542,
      1784905591,
      1784905603,
      1784905651,
      1784905663,
      1784905723,
      1784905771,
      1784905783,
      1784905831,
      1784905891,
      1784905903,
      1784905951,
      1784905963,
      1784906023,
      1784906071,
      1784906131,
      1784906143,
      1784906191,
      1784906203,
      1784906263,
      1784906312,
      1784906323,
      1784906384,
      1784906432,
      1784906444,
      1784906504,
      1784906552,
      1784906612,
      1784906672,
      1784906732,
      1784906792,
      1784906852,
      1784906912,
      1784906973,
      1784907033,
      1784907093,
      1784907153,
      1784907213,
      1784907333,
      1784907453,
      1784907513,
      1784907573,
      1784907633,
      1784907694,
      1784907754,
      1784907814,
      1784907874,
      1784907934,
      1784907954,
      1784907994,
      1784908014,
      1784908054,
      1784908074,
      1784908114,
      1784908134,
      1784908174,
      1784908234,
      1784908254,
      1784908314,
      1784908354,
      1784908374,
      1784908415,
      1784908434,
      1784908475,
      1784908494,
      1784908535,
      1784908555,
      1784908595,
      1784908615,
      1784908675,
      1784908715,
      1784908795,
      1784908835,
      1784908855,
      1784908895,
      1784908915,
      1784908955,
      1784908975,
      1784909035,
      1784909095,
      1784909155,
      1784909215,
      1784909336,
      1784909456,
      1784909516,
      1784909636,
      1784909696,
      1784909756,
      1784909816,
      1784909936,
      1784909997,
      1784910057,
      1784910179,
      1784910357,
      1784910417,
      1784910477,
      1784910537,
      1784910657,
      1784910718,
      1784910778,
      1784910838,
      1784910898,
      1784910958,
      1784911018,
      1784911261,
      1784911318,
      1784911439,
      1784911559,
      1784911682,
      1784911742,
      1784911802,
      1784911862,
      1784911983,
      1784912043,
      1784912103,
      1784912163,
      1784912223,
      1784912283,
      1784912343,
      1784912464,
      1784912524,
      1784912656,
      1784912716,
      1784912729,
      1784912776,
      1784912789,
      1784912849,
      1784912896,
      1784912909,
      1784912956,
      1784912969,
      1784913016,
      1784913029,
      1784913077,
      1784913089,
      1784913149,
      1784913197,
      1784913209,
      1784913257,
      1784913329,
      1784913377,
      1784913390,
      1784913450,
      1784913510,
      1784913570,
      1784913618,
      1784913630,
      1784913678,
      1784913690,
      1784913750,
      1784913930,
      1784913990,
      1784914050,
      1784914111,
      1784914171,
      1784914231,
      1784914291,
      1784914351,
      1784914390,
      1784914411,
      1784914450,
      1784914471,
      1784914510,
      1784914531,
      1784914591,
      1784914630,
      1784914651,
      1784914690,
      1784914711,
      1784914771,
      1784914832,
      1784914892,
      1784914931,
      1784914952,
      1784915012,
      1784915051,
      1784915072,
      1784915111,
      1784915132,
      1784915192,
      1784915231,
      1784915252,
      1784915291,
      1784915312,
      1784915351,
      1784915372,
      1784915412,
      1784915432,
      1784915472,
      1784915492,
      1784915532,
      1784915553,
      1784915613,
      1784915652,
      1784915673,
      1784915712,
      1784915733,
      1784915772,
      1784915793,
      1784915853,
      1784915892,
      1784915913,
      1784915952,
      1784915973,
      1784916033,
      1784916072,
      1784916133,
      1784916193,
      1784916253,
      1784916313,
      1784916373,
      1784916516,
      1784916577,
      1784916613,
      1784916637,
      1784916673,
      1784916698,
      1784916733,
      1784916758,
      1784916794,
      1784916817,
      1784916878,
      1784916914,
      1784916937,
      1784916974,
      1784916997,
      1784917057,
      1784917094,
      1784917118,
      1784917183,
      1784917214,
      1784917243,
      1784917274,
      1784917303,
      1784917363,
      1784917394,
      1784917423,
      1784917455,
      1784917515,
      1784917575
    ],
    "wof:geomhash": "0efa7372b762c21254f88867312bca4e",
    "wof:id": 2031960877,
    "wof:repo": "sfomuseum-data-flights-2026-07"
  },
  "bbox": [
    -122.41027777777778,
    37.63805555555555,
    -74.08333333333333,
    42.61027777777778
  ],
  "geometry": {"coordinates":[[-122.41027777777778,37.63805555555555],[-122.37916666666666,37.68416666666666],[-122.33666666666666,37.74027777777778],[-122.37055555555555,37.81194444444444],[-122.33444444444444,37.973888888888894],[-122.11638888888888,38.103611111111114],[-121.88833333333334,38.24138888888889],[-121.775,38.30972222222222],[-121.64555555555556,38.37916666666667],[-121.50694444444444,38.442499999999995],[-121.3611111111111,38.50416666666667],[-121.19722222222222,38.574444444444445],[-121.04305555555555,38.64083333333333],[-121.03388888888888,38.64222222222222],[-120.8875,38.706944444444446],[-120.87833333333333,38.70666666666667],[-120.72916666666667,38.77361111111111],[-120.71972222222223,38.77583333333333],[-120.56,38.84277777777778],[-120.41083333333334,38.907222222222224],[-120.4025,38.909166666666664],[-120.245,38.975],[-120.08583333333333,39.04111111111111],[-119.9563888888889,39.095],[-119.9263888888889,39.106944444444444],[-119.76277777777777,39.172777777777775],[-119.63111111111111,39.22777777777778],[-119.60138888888888,39.23916666666667],[-119.46972222222223,39.293055555555554],[-119.43916666666667,39.30416666666667],[-119.30749999999999,39.358333333333334],[-119.2775,39.36972222222222],[-119.14555555555556,39.42333333333333],[-119.11388888888888,39.43555555555555],[-118.98111111111112,39.48861111111111],[-118.81305555555555,39.555277777777775],[-118.78194444444445,39.5675],[-118.64500000000001,39.62138888888889],[-118.61666666666666,39.6325],[-118.48111111111112,39.68583333333333],[-118.45055555555555,39.69777777777777],[-118.315,39.75055555555556],[-118.28472222222221,39.76222222222222],[-118.14972222222222,39.81472222222222],[-118.11916666666666,39.82638888888889],[-117.9825,39.87916666666667],[-117.95138888888889,39.89111111111111],[-117.81444444444445,39.94361111111111],[-117.79138888888889,39.9525],[-117.64833333333334,40.00694444444444],[-117.62333333333332,40.01638888888889],[-117.48083333333334,40.07055555555556],[-117.45583333333333,40.07972222222222],[-117.31,40.13472222222222],[-117.15111111111112,40.19444444444444],[-117.1211111111111,40.205555555555556],[-116.98305555555555,40.25694444444444],[-116.95222222222222,40.26833333333333],[-116.78722222222223,40.32944444444445],[-116.58722222222222,40.403055555555554],[-116.41722222222222,40.46527777777778],[-116.28111111111112,40.514722222222225],[-116.24722222222222,40.526944444444446],[-116.07722222222222,40.58833333333334],[-115.90583333333333,40.65],[-115.73527777777778,40.71083333333333],[-115.56472222222222,40.771388888888886],[-115.39305555555556,40.831944444444446],[-115.22083333333333,40.89222222222222],[-114.87694444444443,41.01166666666666],[-114.705,41.07083333333334],[-114.53416666666666,41.12916666666667],[-114.36027777777777,41.18833333333333],[-114.18916666666667,41.24611111111111],[-114.01777777777778,41.303888888888885],[-113.6588888888889,41.37722222222222],[-113.47083333333333,41.38666666666666],[-113.28527777777778,41.39833333333333],[-113.10083333333333,41.410555555555554],[-112.9075,41.4225],[-112.7225,41.43388888888889],[-112.55166666666666,41.44361111111111],[-112.36555555555555,41.45416666666667],[-112.18027777777779,41.46416666666667],[-111.99722222222222,41.473888888888894],[-111.81083333333333,41.483333333333334],[-111.6261111111111,41.4925],[-111.44,41.50138888888889],[-111.2538888888889,41.51],[-111.0675,41.51833333333333],[-110.88083333333333,41.52638888888889],[-110.69638888888889,41.534166666666664],[-110.51166666666667,41.54138888888889],[-110.32388888888889,41.54861111111111],[-110.13805555555557,41.55555555555555],[-109.99666666666667,41.56055555555555],[-109.95166666666667,41.56194444444444],[-109.80222222222221,41.566944444444445],[-109.76444444444445,41.568333333333335],[-109.61777777777777,41.573055555555555],[-109.57805555555555,41.57416666666667],[-109.43055555555556,41.578611111111115],[-109.24,41.58416666666667],[-109.20055555555555,41.58527777777778],[-109.05055555555555,41.589444444444446],[-109.01083333333334,41.59138888888889],[-108.86222222222221,41.60194444444445],[-108.86222222222221,41.60194444444445],[-108.71638888888889,41.61333333333334],[-108.67805555555556,41.61638888888889],[-108.49138888888889,41.63055555555555],[-108.34638888888888,41.64138888888889],[-108.30722222222222,41.64416666666666],[-108.16055555555556,41.65472222222222],[-107.97888888888889,41.66777777777777],[-107.93805555555556,41.67055555555555],[-107.79222222222222,41.68055555555555],[-107.75722222222223,41.683055555555555],[-107.55777777777777,41.69638888888888],[-107.42777777777778,41.705000000000005],[-107.20861111111111,41.719166666666666],[-107.20861111111111,41.71888888888889],[-107.02583333333334,41.730555555555554],[-107.02583333333334,41.730555555555554],[-106.84138888888889,41.74166666666667],[-106.65944444444445,41.7525],[-106.65944444444445,41.7525],[-106.46361111111112,41.763888888888886],[-106.32222222222222,41.77166666666667],[-106.28138888888888,41.77388888888889],[-106.10111111111111,41.78388888888889],[-105.95416666666667,41.791666666666664],[-105.77305555555556,41.80083333333333],[-105.59222222222222,41.809999999999995],[-105.40833333333335,41.81888888888889],[-105.22833333333334,41.827222222222225],[-105.04527777777777,41.83555555555556],[-104.8625,41.843611111111116],[-104.68055555555556,41.85111111111111],[-104.50083333333333,41.858333333333334],[-104.28333333333333,41.86666666666667],[-104.10083333333333,41.87361111111111],[-103.91805555555555,41.88],[-103.55527777777777,41.89194444444444],[-103.2038888888889,41.933055555555555],[-103.02777777777777,41.95777777777778],[-102.85194444444444,41.981944444444444],[-102.67777777777778,42.00555555555555],[-102.50083333333333,42.029444444444444],[-102.32416666666666,42.05277777777778],[-102.16833333333334,42.073055555555555],[-101.99138888888889,42.09583333333334],[-101.81472222222222,42.118611111111115],[-101.73472222222222,42.12694444444445],[-101.63416666666667,42.14138888888889],[-101.55722222222222,42.15],[-101.45277777777778,42.163888888888884],[-101.37777777777777,42.17166666666667],[-101.2725,42.18583333333333],[-101.19527777777778,42.19416666666666],[-101.09194444444444,42.20777777777778],[-100.91027777777778,42.22944444444445],[-100.82972222222222,42.23694444444445],[-100.6525,42.25972222222222],[-100.54694444444445,42.27194444444444],[-100.4725,42.28055555555555],[-100.36166666666666,42.293055555555554],[-100.28944444444444,42.30138888888889],[-100.17833333333334,42.31388888888888],[-100.10722222222222,42.32166666666667],[-99.99694444444445,42.33388888888889],[-99.92694444444444,42.34166666666667],[-99.81194444444444,42.35416666666667],[-99.74305555555556,42.361666666666665],[-99.575,42.379444444444445],[-99.44555555555556,42.39333333333333],[-99.20555555555556,42.41833333333333],[-99.07472222222222,42.431666666666665],[-98.98694444444445,42.440555555555555],[-98.89666666666668,42.44972222222222],[-98.80305555555556,42.45888888888889],[-98.71277777777777,42.4675],[-98.61666666666666,42.47416666666667],[-98.46833333333333,42.48166666666667],[-98.24472222222222,42.492222222222225],[-98.06,42.50083333333333],[-97.87277777777777,42.509166666666665],[-97.5,42.525],[-97.16694444444445,42.538333333333334],[-96.98027777777779,42.54527777777778],[-96.6036111111111,42.558055555555555],[-96.41527777777779,42.564166666666665],[-96.22555555555556,42.57],[-96.03583333333333,42.57555555555556],[-95.65666666666667,42.58555555555556],[-95.46638888888889,42.59],[-95.2775,42.59444444444445],[-94.88722222222223,42.60527777777778],[-94.31722222222221,42.61027777777778],[-94.12555555555555,42.60388888888889],[-93.93555555555555,42.59527777777778],[-93.74305555555556,42.586111111111116],[-93.3625,42.5675],[-93.17416666666666,42.55777777777777],[-92.98333333333333,42.5475],[-92.7961111111111,42.53722222222222],[-92.60777777777777,42.526666666666664],[-92.41777777777779,42.51555555555556],[-92.23111111111112,42.504444444444445],[-91.44583333333334,42.45388888888889],[-91.25444444444445,42.44083333333333],[-90.87222222222222,42.41361111111111],[-90.52694444444444,42.39138888888889],[-90.1061111111111,42.36805555555556],[-89.9113888888889,42.35638888888889],[-89.7388888888889,42.34583333333334],[-89.54583333333333,42.33361111111111],[-89.12527777777777,42.30611111111111],[-88.9363888888889,42.29333333333333],[-88.77944444444444,42.2825],[-88.58833333333332,42.26888888888889],[-88.39916666666667,42.25527777777778],[-88.21333333333334,42.24138888888889],[-88.02305555555556,42.22694444444445],[-87.64805555555556,42.205555555555556],[-87.45972222222223,42.19555555555555],[-87.03583333333333,42.17111111111111],[-86.8411111111111,42.159166666666664],[-86.78333333333333,42.155],[-86.64944444444446,42.1475],[-86.5911111111111,42.143055555555556],[-86.38972222222223,42.13055555555555],[-86.25444444444445,42.121944444444445],[-86.20722222222223,42.11888888888889],[-86.06083333333333,42.10916666666667],[-86.0225,42.10638888888889],[-85.85555555555555,42.095],[-85.82777777777777,42.09305555555556],[-85.66361111111112,42.081388888888895],[-85.64250000000001,42.080000000000005],[-85.43916666666667,42.065],[-85.275,42.05305555555555],[-85.24833333333333,42.051111111111105],[-85.08222222222221,42.03972222222222],[-84.84888888888888,42.03916666666667],[-84.69888888888889,42.04111111111111],[-84.65222222222222,42.041666666666664],[-84.46027777777778,42.04361111111111],[-84.26972222222223,42.04527777777778],[-84.08555555555554,42.046388888888885],[-83.93694444444445,42.04694444444444],[-83.89861111111112,42.04722222222222],[-83.74944444444445,42.047777777777775],[-83.71166666666667,42.047777777777775],[-83.52555555555556,42.04805555555556],[-82.92916666666667,42.00833333333333],[-82.74111111111111,41.99333333333333],[-82.54972222222221,41.97805555555556],[-82.35777777777777,41.962500000000006],[-82.16888888888889,41.946666666666665],[-82.00305555555556,41.9325],[-81.80666666666666,41.91555555555556],[-81.61416666666666,41.89833333333333],[-81.48555555555555,41.88444444444444],[-81.41888888888889,41.880833333333335],[-81.2925,41.86694444444444],[-81.22444444444444,41.86277777777778],[-81.09944444444444,41.85027777777778],[-81.03,41.844722222222224],[-80.83888888888889,41.82638888888889],[-80.71527777777779,41.81222222222222],[-80.64416666666668,41.8075],[-80.52416666666666,41.79361111111111],[-80.45583333333333,41.788888888888884],[-80.26416666666667,41.769444444444446],[-80.07277777777777,41.75],[-79.87888888888888,41.72972222222222],[-79.75944444444444,41.71611111111111],[-79.69083333333333,41.709722222222226],[-79.49166666666667,41.68833333333333],[-79.37722222222222,41.675555555555555],[-79.30194444444444,41.66777777777777],[-79.19250000000001,41.65472222222222],[-79.1086111111111,41.64611111111111],[-78.91833333333334,41.624722222222225],[-78.77805555555555,41.60666666666667],[-78.72472222222223,41.59777777777778],[-78.58749999999999,41.575],[-78.53722222222223,41.56666666666667],[-78.39833333333334,41.54416666666666],[-78.34444444444443,41.535555555555554],[-78.21666666666667,41.515277777777776],[-78.15722222222223,41.505833333333335],[-78.02833333333334,41.485],[-77.9713888888889,41.47555555555556],[-77.85472222222222,41.45666666666667],[-77.79527777777777,41.44694444444444],[-77.61777777777777,41.4175],[-77.50805555555556,41.39888888888889],[-77.43444444444445,41.38666666666666],[-77.32416666666666,41.367777777777775],[-77.25472222222223,41.35583333333334],[-77.14583333333334,41.33722222222222],[-77.07416666666666,41.325],[-76.89500000000001,41.29388888888889],[-76.78527777777778,41.27472222222222],[-76.71083333333334,41.26166666666666],[-76.60694444444444,41.24333333333333],[-76.53333333333333,41.23027777777778],[-76.35944444444443,41.19944444444444],[-76.24861111111112,41.17944444444444],[-76.08333333333333,41.149166666666666],[-75.9375,41.11194444444445],[-75.78833333333333,41.07083333333334],[-75.65416666666667,41.03361111111111],[-75.51611111111112,40.99527777777778],[-75.21666666666667,40.916666666666664],[-75.11666666666666,40.88333333333333],[-75.05611111111111,40.86555555555556],[-75.01666666666667,40.85],[-74.96305555555556,40.83916666666667],[-74.91666666666667,40.833333333333336],[-74.87083333333332,40.81305555555555],[-74.83333333333333,40.8],[-74.77944444444444,40.776944444444446],[-74.73333333333333,40.766666666666666],[-74.63333333333334,40.78333333333333],[-74.59194444444444,40.80305555555555],[-74.55,40.833333333333336],[-74.51694444444445,40.853611111111114],[-74.48333333333333,40.88333333333333],[-74.4,40.916666666666664],[-74.35249999999999,40.933055555555555],[-74.3,40.93333333333333],[-74.2,40.95],[-74.17222222222223,40.93472222222222],[-74.13333333333334,40.93333333333333],[-74.10694444444444,40.911944444444444],[-74.08333333333333,40.88333333333333],[-74.08333333333333,40.833333333333336],[-74.09083333333332,40.80833333333333],[-74.1,40.78333333333333],[-74.11833333333333,40.765],[-74.14583333333334,40.72222222222222],[-74.16638888888889,40.689722222222215]],"type":"LineString"}
}
