{
  "id": 2032031411,
  "type": "Feature",
  "properties": {
    "geom:area": 0,
    "geom:bbox": "-122.351389,37.493889,-75.283333,40.026389",
    "geom:latitude": 39.10966849536168,
    "geom:longitude": -98.95461725030964,
    "src:alt_label": "swim-path",
    "src:geom": "swim",
    "swim:altitudes": [
      "007",
      "024",
      "047",
      "074",
      "098",
      "111",
      "124",
      "142",
      "161",
      "176",
      "190",
      "205",
      "220",
      "232",
      "243",
      "253",
      "264",
      "273",
      "284",
      "295",
      "303",
      "320C",
      "320C",
      "320C",
      "320C",
      "320C",
      "320C",
      "320C",
      "320C",
      "320C",
      "320C",
      "321C",
      "320C",
      "320C",
      "320C",
      "320C",
      "320C",
      "320C",
      "320C",
      "321C",
      "321C",
      "320C",
      "320C",
      "320C",
      "320C",
      "320C",
      "320C",
      "320C",
      "321C",
      "320C",
      "320C",
      "320C",
      "320C",
      "320C",
      "320C",
      "321C",
      "321C",
      "320C",
      "320C",
      "320C",
      "320C",
      "320C",
      "320C",
      "320C",
      "320C",
      "320C",
      "320C",
      "320C",
      "320C",
      "320C",
      "320C",
      "320C",
      "320C",
      "320C",
      "320C",
      "320C",
      "320C",
      "320C",
      "320C",
      "320C",
      "320C",
      "321C",
      "320C",
      "320C",
      "320C",
      "320C",
      "320C",
      "320C",
      "320C",
      "320C",
      "320C",
      "320C",
      "320C",
      "320C",
      "320C",
      "320C",
      "320C",
      "320C",
      "320C",
      "320C",
      "320C",
      "320C",
      "320C",
      "320C",
      "320C",
      "320C",
      "320C",
      "320C",
      "320C",
      "320C",
      "320C",
      "320C",
      "320C",
      "320C",
      "320C",
      "320C",
      "320C",
      "320C",
      "320C",
      "320C",
      "320C",
      "320C",
      "320C",
      "320C",
      "320C",
      "320C",
      "320C",
      "320C",
      "320C",
      "320C",
      "320C",
      "320C",
      "320C",
      "320C",
      "320C",
      "320C",
      "320C",
      "320C",
      "320C",
      "320C",
      "320C",
      "320C",
      "320C",
      "320C",
      "320C",
      "320C",
      "320C",
      "320C",
      "320C",
      "320C",
      "320C",
      "320C",
      "320C",
      "320C",
      "321C",
      "320C",
      "320C",
      "320C",
      "320C",
      "320C",
      "320C",
      "320C",
      "320C",
      "320C",
      "320C",
      "320C",
      "320C",
      "320C",
      "320C",
      "320C",
      "320C",
      "320C",
      "320C",
      "321C",
      "320C",
      "320C",
      "320C",
      "320C",
      "320C",
      "321C",
      "321C",
      "320C",
      "320C",
      "320C",
      "321C",
      "320C",
      "320C",
      "320C",
      "320C",
      "320C",
      "321C",
      "320C",
      "320C",
      "320C",
      "321C",
      "321C",
      "320C",
      "320C",
      "320C",
      "320C",
      "320C",
      "320C",
      "320C",
      "320C",
      "320C",
      "320C",
      "320C",
      "320C",
      "320C",
      "321C",
      "321C",
      "320C",
      "320C",
      "320C",
      "320C",
      "320C",
      "320C",
      "320C",
      "320C",
      "320C",
      "320C",
      "320C",
      "320C",
      "320C",
      "320C",
      "320C",
      "320C",
      "320C",
      "320C",
      "320C",
      "320C",
      "321C",
      "321C",
      "321C",
      "320C",
      "320C",
      "320C",
      "320C",
      "320C",
      "320C",
      "320C",
      "320C",
      "320C",
      "320C",
      "320C",
      "320C",
      "320C",
      "320C",
      "320C",
      "320C",
      "320C",
      "320C",
      "320C",
      "320C",
      "320C",
      "320C",
      "320C",
      "320C",
      "320C",
      "320C",
      "320C",
      "320C",
      "320C",
      "320C",
      "320C",
      "320C",
      "320C",
      "320C",
      "320C",
      "320C",
      "320C",
      "320C",
      "320C",
      "320C",
      "320C",
      "320C",
      "320C",
      "320C",
      "320C",
      "320C",
      "320C",
      "320C",
      "320C",
      "320C",
      "320C",
      "320C",
      "320C",
      "320C",
      "320C",
      "320C",
      "320C",
      "320C",
      "320C",
      "320C",
      "320C",
      "320C",
      "320C",
      "320C",
      "320C",
      "320C",
      "320C",
      "320C",
      "320C",
      "320C",
      "320C",
      "320C",
      "320C",
      "320C",
      "320C",
      "319C",
      "320C",
      "320C",
      "320C",
      "320C",
      "320C",
      "320C",
      "320C",
      "320C",
      "320C",
      "320C",
      "320C",
      "320C",
      "320C",
      "320C",
      "320C",
      "320C",
      "320C",
      "320C",
      "320C",
      "320C",
      "320C",
      "320C",
      "320C",
      "320C",
      "320C",
      "320C",
      "320C",
      "320C",
      "320C",
      "320C",
      "321C",
      "321C",
      "321C",
      "320C",
      "320C",
      "320C",
      "320C",
      "320C",
      "320C",
      "320C",
      "320C",
      "320C",
      "320C",
      "320C",
      "320C",
      "320C",
      "320",
      "320",
      "320",
      "311",
      "296",
      "280",
      "274",
      "267",
      "252",
      "244",
      "233",
      "227",
      "214",
      "207",
      "194",
      "187",
      "175",
      "168",
      "155",
      "148",
      "137",
      "133",
      "127",
      "123",
      "117",
      "111",
      "101",
      "094",
      "086",
      "084",
      "076",
      "072",
      "064",
      "060",
      "057",
      "054",
      "047",
      "043",
      "033",
      "030",
      "024",
      "022",
      "017",
      "015",
      "009",
      "006",
      "002"
    ],
    "swim:geom": "path",
    "swim:speeds": [
      180,
      224,
      262,
      272,
      288,
      330,
      376,
      386,
      397,
      405,
      412,
      421,
      427,
      428,
      438,
      447,
      451,
      454,
      455,
      455,
      452,
      451,
      451,
      451,
      451,
      450,
      449,
      449,
      450,
      451,
      454,
      457,
      457,
      457,
      457,
      458,
      458,
      459,
      460,
      461,
      461,
      459,
      456,
      453,
      452,
      452,
      453,
      453,
      453,
      452,
      449,
      447,
      445,
      444,
      446,
      446,
      447,
      445,
      444,
      441,
      440,
      439,
      438,
      439,
      438,
      439,
      439,
      441,
      442,
      443,
      444,
      444,
      447,
      446,
      447,
      447,
      447,
      447,
      447,
      447,
      448,
      449,
      450,
      450,
      450,
      450,
      450,
      451,
      453,
      454,
      455,
      455,
      454,
      453,
      451,
      449,
      447,
      445,
      444,
      445,
      446,
      447,
      448,
      449,
      449,
      447,
      446,
      444,
      443,
      442,
      441,
      441,
      441,
      441,
      442,
      443,
      443,
      443,
      443,
      442,
      441,
      440,
      441,
      443,
      444,
      444,
      445,
      444,
      444,
      443,
      443,
      443,
      443,
      443,
      443,
      442,
      442,
      443,
      443,
      443,
      443,
      439,
      443,
      441,
      444,
      443,
      444,
      444,
      445,
      445,
      445,
      445,
      445,
      445,
      445,
      445,
      443,
      441,
      438,
      437,
      438,
      442,
      441,
      441,
      441,
      441,
      441,
      441,
      441,
      441,
      441,
      439,
      439,
      439,
      438,
      428,
      427,
      426,
      425,
      426,
      426,
      426,
      427,
      429,
      430,
      431,
      431,
      432,
      432,
      433,
      435,
      435,
      428,
      429,
      435,
      437,
      434,
      431,
      428,
      426,
      425,
      425,
      425,
      425,
      425,
      426,
      425,
      427,
      425,
      427,
      425,
      427,
      425,
      427,
      426,
      427,
      426,
      428,
      426,
      428,
      426,
      429,
      430,
      430,
      430,
      431,
      431,
      432,
      433,
      434,
      435,
      437,
      437,
      438,
      438,
      437,
      438,
      436,
      437,
      437,
      437,
      438,
      438,
      440,
      439,
      441,
      439,
      441,
      440,
      442,
      440,
      441,
      440,
      440,
      439,
      439,
      439,
      440,
      440,
      441,
      441,
      442,
      442,
      443,
      443,
      442,
      442,
      442,
      441,
      441,
      442,
      442,
      442,
      442,
      443,
      443,
      443,
      442,
      441,
      440,
      439,
      438,
      439,
      440,
      441,
      442,
      443,
      442,
      442,
      441,
      439,
      438,
      439,
      440,
      440,
      439,
      439,
      437,
      435,
      434,
      433,
      433,
      433,
      429,
      433,
      431,
      433,
      431,
      432,
      431,
      431,
      432,
      431,
      432,
      433,
      434,
      433,
      433,
      433,
      434,
      433,
      434,
      434,
      434,
      434,
      434,
      434,
      430,
      416,
      401,
      401,
      405,
      410,
      421,
      422,
      422,
      422,
      421,
      421,
      410,
      404,
      403,
      402,
      402,
      405,
      420,
      420,
      421,
      423,
      424,
      425,
      426,
      426,
      427,
      428,
      428,
      428,
      427,
      426,
      425,
      425,
      409,
      411,
      405,
      403,
      394,
      387,
      373,
      372,
      365,
      364,
      356,
      355,
      347,
      347,
      339,
      339,
      319,
      307,
      288,
      277,
      266,
      267,
      265,
      266,
      264,
      265,
      260,
      261,
      254,
      235,
      226,
      228,
      230,
      227,
      209,
      169,
      162,
      132,
      133,
      137,
      140,
      134
    ],
    "swim:timestamps": [
      1785460855,
      1785460924,
      1785460984,
      1785461044,
      1785461104,
      1785461164,
      1785461225,
      1785461285,
      1785461345,
      1785461405,
      1785461465,
      1785461525,
      1785461585,
      1785461645,
      1785461705,
      1785461765,
      1785461825,
      1785461886,
      1785461946,
      1785462006,
      1785462066,
      1785462192,
      1785462252,
      1785462312,
      1785462369,
      1785462429,
      1785462492,
      1785462552,
      1785462613,
      1785462669,
      1785462733,
      1785462793,
      1785462853,
      1785462913,
      1785462973,
      1785463030,
      1785463090,
      1785463153,
      1785463213,
      1785463273,
      1785463334,
      1785463394,
      1785463451,
      1785463514,
      1785463571,
      1785463634,
      1785463694,
      1785463751,
      1785463814,
      1785463871,
      1785463931,
      1785463991,
      1785464052,
      1785464112,
      1785464172,
      1785464232,
      1785464292,
      1785464352,
      1785464415,
      1785464475,
      1785464535,
      1785464595,
      1785464656,
      1785464716,
      1785464776,
      1785464836,
      1785464896,
      1785464956,
      1785465016,
      1785465076,
      1785465136,
      1785465196,
      1785465256,
      1785465316,
      1785465377,
      1785465437,
      1785465497,
      1785465557,
      1785465617,
      1785465677,
      1785465737,
      1785465797,
      1785465857,
      1785465917,
      1785465977,
      1785466037,
      1785466097,
      1785466158,
      1785466218,
      1785466278,
      1785466338,
      1785466398,
      1785466458,
      1785466518,
      1785466578,
      1785466638,
      1785466698,
      1785466758,
      1785466819,
      1785466879,
      1785466939,
      1785466999,
      1785467059,
      1785467119,
      1785467179,
      1785467240,
      1785467300,
      1785467360,
      1785467420,
      1785467480,
      1785467540,
      1785467600,
      1785467660,
      1785467720,
      1785467780,
      1785467840,
      1785467900,
      1785467961,
      1785468021,
      1785468081,
      1785468141,
      1785468201,
      1785468261,
      1785468321,
      1785468381,
      1785468442,
      1785468502,
      1785468562,
      1785468622,
      1785468682,
      1785468742,
      1785468799,
      1785468859,
      1785468919,
      1785468979,
      1785469039,
      1785469103,
      1785469160,
      1785469220,
      1785469280,
      1785469340,
      1785469359,
      1785469401,
      1785469419,
      1785469461,
      1785469479,
      1785469521,
      1785469539,
      1785469581,
      1785469599,
      1785469641,
      1785469659,
      1785469701,
      1785469719,
      1785469779,
      1785469821,
      1785469881,
      1785469899,
      1785469941,
      1785469959,
      1785470019,
      1785470061,
      1785470080,
      1785470122,
      1785470140,
      1785470182,
      1785470242,
      1785470260,
      1785470302,
      1785470320,
      1785470362,
      1785470440,
      1785470500,
      1785470560,
      1785470620,
      1785470680,
      1785470740,
      1785470801,
      1785470861,
      1785470921,
      1785470981,
      1785471041,
      1785471101,
      1785471161,
      1785471221,
      1785471281,
      1785471341,
      1785471401,
      1785471461,
      1785471521,
      1785471581,
      1785471642,
      1785471702,
      1785471762,
      1785471822,
      1785471882,
      1785471942,
      1785472002,
      1785472062,
      1785472122,
      1785472160,
      1785472182,
      1785472220,
      1785472242,
      1785472280,
      1785472302,
      1785472340,
      1785472362,
      1785472400,
      1785472422,
      1785472461,
      1785472482,
      1785472521,
      1785472542,
      1785472581,
      1785472603,
      1785472641,
      1785472663,
      1785472701,
      1785472723,
      1785472761,
      1785472783,
      1785472821,
      1785472843,
      1785472881,
      1785472903,
      1785472941,
      1785472963,
      1785473001,
      1785473023,
      1785473061,
      1785473083,
      1785473121,
      1785473143,
      1785473181,
      1785473203,
      1785473241,
      1785473263,
      1785473301,
      1785473323,
      1785473362,
      1785473383,
      1785473422,
      1785473443,
      1785473482,
      1785473503,
      1785473542,
      1785473563,
      1785473602,
      1785473624,
      1785473662,
      1785473684,
      1785473722,
      1785473744,
      1785473782,
      1785473804,
      1785473842,
      1785473864,
      1785473902,
      1785473924,
      1785473962,
      1785473984,
      1785474022,
      1785474044,
      1785474082,
      1785474104,
      1785474142,
      1785474164,
      1785474202,
      1785474224,
      1785474262,
      1785474284,
      1785474323,
      1785474344,
      1785474383,
      1785474443,
      1785474503,
      1785474563,
      1785474623,
      1785474683,
      1785474743,
      1785474803,
      1785474863,
      1785474923,
      1785474983,
      1785475043,
      1785475103,
      1785475163,
      1785475223,
      1785475283,
      1785475344,
      1785475404,
      1785475464,
      1785475524,
      1785475584,
      1785475644,
      1785475704,
      1785475764,
      1785475824,
      1785475884,
      1785475944,
      1785476004,
      1785476064,
      1785476084,
      1785476124,
      1785476144,
      1785476184,
      1785476204,
      1785476256,
      1785476264,
      1785476324,
      1785476376,
      1785476385,
      1785476437,
      1785476445,
      1785476505,
      1785476557,
      1785476565,
      1785476617,
      1785476625,
      1785476677,
      1785476737,
      1785476745,
      1785476797,
      1785476805,
      1785476857,
      1785476865,
      1785476917,
      1785476925,
      1785476977,
      1785476985,
      1785477037,
      1785477045,
      1785477097,
      1785477105,
      1785477157,
      1785477165,
      1785477217,
      1785477225,
      1785477285,
      1785477337,
      1785477345,
      1785477397,
      1785477405,
      1785477465,
      1785477529,
      1785477586,
      1785477646,
      1785477706,
      1785477766,
      1785477826,
      1785477886,
      1785477946,
      1785478006,
      1785478066,
      1785478126,
      1785478186,
      1785478246,
      1785478306,
      1785478366,
      1785478426,
      1785478464,
      1785478486,
      1785478500,
      1785478546,
      1785478560,
      1785478606,
      1785478620,
      1785478666,
      1785478680,
      1785478726,
      1785478740,
      1785478786,
      1785478800,
      1785478847,
      1785478866,
      1785478907,
      1785478926,
      1785478967,
      1785478986,
      1785479027,
      1785479046,
      1785479087,
      1785479106,
      1785479147,
      1785479160,
      1785479207,
      1785479221,
      1785479267,
      1785479286,
      1785479327,
      1785479341,
      1785479387,
      1785479401,
      1785479447,
      1785479460,
      1785479507,
      1785479520,
      1785479567,
      1785479581,
      1785479627,
      1785479647,
      1785479687
    ],
    "wof:geomhash": "91d4ca67da1701244bcf5e0c52b313ea",
    "wof:id": 2032031411,
    "wof:repo": "sfomuseum-data-flights-2026-07"
  },
  "bbox": [
    -122.35138888888888,
    37.49388888888889,
    -75.28333333333333,
    40.02638888888889
  ],
  "geometry": {"coordinates":[[-75.28333333333333,39.86666666666667],[-75.35388888888889,39.87361111111111],[-75.44388888888889,39.884166666666665],[-75.5475,39.88805555555555],[-75.65055555555556,39.89138888888889],[-75.76388888888889,39.89527777777778],[-75.89944444444446,39.899166666666666],[-76.03305555555555,39.90277777777778],[-76.18611111111112,39.907222222222224],[-76.3275,39.913333333333334],[-76.47111111111111,39.919444444444444],[-76.62805555555555,39.92583333333333],[-76.78361111111111,39.93194444444444],[-76.92027777777778,39.93722222222222],[-77.07888888888888,39.94305555555555],[-77.23972222222223,39.948611111111106],[-77.40416666666667,39.95416666666667],[-77.56805555555555,39.95944444444445],[-77.73138888888889,39.964444444444446],[-77.89555555555556,39.96944444444445],[-78.05416666666666,39.97416666666667],[-78.4213888888889,39.98305555555556],[-78.585,39.98694444444445],[-78.74111111111111,39.990833333333335],[-78.90194444444445,39.99444444444445],[-79.05083333333333,39.99777777777778],[-79.22888888888889,40.001666666666665],[-79.39083333333333,40.00472222222222],[-79.55416666666666,40.007777777777775],[-79.7088888888889,40.010555555555555],[-79.88583333333334,40.013333333333335],[-80.05083333333333,40.01555555555556],[-80.21638888888889,40.01777777777777],[-80.38333333333334,40.01972222222222],[-80.55499999999999,40.021388888888886],[-80.71666666666667,40.022777777777776],[-80.88361111111112,40.02388888888889],[-81.05416666666666,40.025],[-81.22194444444445,40.02583333333333],[-81.3875,40.02638888888889],[-81.55444444444444,40.02638888888889],[-81.72166666666666,40.02638888888889],[-81.86333333333333,40.02638888888889],[-82.05583333333333,40.02583333333333],[-82.18833333333333,40.025277777777774],[-82.38194444444444,40.024166666666666],[-82.54527777777777,40.02305555555555],[-82.67972222222222,40.02194444444444],[-82.87083333333332,40.019999999999996],[-83.00611111111111,40.01861111111111],[-83.16055555555556,40.016666666666666],[-83.32,40.01444444444444],[-83.50194444444445,40.01166666666666],[-83.6613888888889,40.009166666666665],[-83.82416666666666,40.00611111111111],[-83.99222222222222,40.00277777777778],[-84.15027777777779,39.99944444444444],[-84.31333333333333,39.99583333333334],[-84.47222222222223,39.992222222222225],[-84.63,39.98833333333334],[-84.78833333333333,39.98416666666667],[-84.93777777777778,39.980000000000004],[-85.09444444444443,39.97555555555556],[-85.25888888888889,39.97027777777778],[-85.42583333333334,39.965],[-85.58361111111111,39.96],[-85.74277777777777,39.95444444444445],[-85.91444444444446,39.94833333333333],[-86.07305555555556,39.94222222222222],[-86.235,39.93611111111111],[-86.39333333333335,39.92972222222222],[-86.5525,39.92305555555555],[-86.69916666666667,39.91722222222222],[-86.87138888888889,39.909166666666664],[-87.03305555555555,39.901666666666664],[-87.19333333333334,39.89416666666666],[-87.35444444444444,39.88638888888889],[-87.51527777777778,39.87833333333333],[-87.67555555555556,39.87],[-87.83472222222221,39.861666666666665],[-87.99777777777778,39.85305555555556],[-88.15972222222223,39.84388888888889],[-88.32249999999999,39.834722222222226],[-88.47083333333333,39.82611111111112],[-88.6325,39.81638888888889],[-88.7925,39.806666666666665],[-88.95361111111112,39.796388888888885],[-89.11694444444444,39.78611111111111],[-89.27916666666667,39.775555555555556],[-89.44305555555556,39.764722222222225],[-89.62944444444443,39.75194444444445],[-89.79222222222222,39.74055555555556],[-89.9563888888889,39.72888888888889],[-90.09416666666667,39.71888888888889],[-90.25305555555556,39.70722222222223],[-90.41444444444446,39.695277777777775],[-90.57111111111111,39.683055555555555],[-90.73138888888889,39.67055555555555],[-90.88805555555557,39.658055555555556],[-91.0461111111111,39.64555555555555],[-91.2063888888889,39.6325],[-91.36611111111111,39.619166666666665],[-91.52777777777777,39.60527777777778],[-91.68694444444445,39.59166666666667],[-91.8475,39.5775],[-92.00861111111111,39.56305555555555],[-92.16638888888889,39.54888888888889],[-92.32388888888889,39.53444444444444],[-92.48361111111112,39.519444444444446],[-92.64083333333333,39.504444444444445],[-92.79944444444445,39.489444444444445],[-92.9575,39.473888888888894],[-93.11361111111111,39.458333333333336],[-93.27083333333333,39.44277777777778],[-93.42972222222222,39.42666666666666],[-93.5886111111111,39.41027777777778],[-93.74472222222222,39.39388888888889],[-93.91277777777778,39.37638888888889],[-94.06861111111111,39.35944444444445],[-94.22583333333334,39.342222222222226],[-94.38055555555555,39.32527777777778],[-94.53722222222223,39.30777777777777],[-94.69305555555556,39.290277777777774],[-94.85194444444444,39.2875],[-95.01333333333334,39.29],[-95.17750000000001,39.29277777777778],[-95.34472222222222,39.294999999999995],[-95.50833333333334,39.29722222222222],[-95.66694444444445,39.29888888888889],[-95.82472222222222,39.300555555555555],[-95.98166666666667,39.301944444444445],[-96.14194444444445,39.30305555555555],[-96.2875,39.303888888888885],[-96.44500000000001,39.30472222222222],[-96.61444444444444,39.305277777777775],[-96.77361111111111,39.30555555555555],[-96.93277777777779,39.30555555555555],[-97.09083333333332,39.30555555555555],[-97.25,39.305],[-97.40722222222223,39.30472222222222],[-97.56888888888888,39.303888888888885],[-97.60805555555555,39.30361111111111],[-97.72166666666666,39.30277777777778],[-97.77277777777778,39.302499999999995],[-97.87527777777777,39.30166666666666],[-97.93166666666667,39.301111111111105],[-98.04472222222222,39.3],[-98.0925,39.29972222222222],[-98.20444444444445,39.29833333333333],[-98.25222222222222,39.297777777777775],[-98.3611111111111,39.29666666666667],[-98.4113888888889,39.29611111111111],[-98.5275,39.294444444444444],[-98.57055555555556,39.29388888888889],[-98.71861111111112,39.29194444444444],[-98.84055555555555,39.28972222222222],[-98.97694444444444,39.2875],[-99.04527777777777,39.28611111111111],[-99.13388888888889,39.28444444444444],[-99.20138888888889,39.283055555555556],[-99.3586111111111,39.28],[-99.44527777777778,39.278055555555554],[-99.51611111111112,39.276666666666664],[-99.60277777777777,39.27472222222222],[-99.67361111111111,39.27305555555555],[-99.76277777777777,39.270833333333336],[-99.91777777777779,39.26694444444444],[-99.99166666666667,39.265],[-100.0775,39.26277777777778],[-100.14833333333334,39.26083333333333],[-100.23472222222222,39.25833333333333],[-100.46333333333334,39.24611111111111],[-100.61861111111111,39.237500000000004],[-100.77638888888889,39.228611111111114],[-100.93194444444445,39.219722222222224],[-101.08277777777778,39.21083333333333],[-101.23444444444445,39.20166666666667],[-101.38805555555557,39.19222222222222],[-101.53861111111111,39.18277777777777],[-101.69111111111111,39.17305555555555],[-101.81972222222223,39.16444444444444],[-101.97166666666666,39.154444444444444],[-102.12527777777777,39.14416666666666],[-102.27694444444444,39.13361111111111],[-102.42916666666667,39.12277777777778],[-102.58333333333333,39.111666666666665],[-102.73583333333333,39.10055555555556],[-102.90305555555557,39.088055555555556],[-103.05749999999999,39.07638888888889],[-103.20972222222223,39.06444444444444],[-103.36722222222221,39.05222222222222],[-103.52166666666666,39.04],[-103.67222222222223,39.027499999999996],[-103.82722222222222,39.01444444444444],[-103.98222222222222,39.001666666666665],[-104.1375,38.98833333333334],[-104.2911111111111,38.975],[-104.44416666666667,38.96138888888889],[-104.59583333333333,38.948055555555555],[-104.74805555555555,38.94083333333333],[-104.85222222222221,38.936388888888885],[-104.89916666666667,38.93527777777778],[-105.00305555555556,38.933055555555555],[-105.0525,38.92972222222222],[-105.155,38.92777777777778],[-105.20444444444445,38.92388888888889],[-105.30805555555555,38.921388888888885],[-105.35777777777777,38.91777777777777],[-105.4588888888889,38.91583333333333],[-105.50833333333334,38.91166666666666],[-105.61166666666666,38.90833333333333],[-105.66194444444444,38.905277777777776],[-105.76416666666667,38.901666666666664],[-105.81416666666667,38.89888888888889],[-105.91555555555556,38.894444444444446],[-105.96583333333334,38.89222222222222],[-106.06722222222221,38.88805555555555],[-106.11749999999999,38.88527777777778],[-106.21916666666667,38.88194444444444],[-106.25888888888889,38.87861111111111],[-106.37277777777777,38.873333333333335],[-106.41194444444444,38.87111111111111],[-106.52694444444444,38.864444444444445],[-106.56527777777778,38.86361111111111],[-106.67861111111111,38.85777777777778],[-106.71972222222223,38.85583333333334],[-106.83333333333333,38.849444444444444],[-106.87472222222222,38.847500000000004],[-106.98833333333333,38.84055555555556],[-107.03416666666666,38.83916666666667],[-107.14500000000001,38.8325],[-107.19,38.830555555555556],[-107.30194444444444,38.82333333333334],[-107.33166666666666,38.822500000000005],[-107.4563888888889,38.814166666666665],[-107.48611111111111,38.81388888888888],[-107.61083333333333,38.805277777777775],[-107.63944444444445,38.80472222222222],[-107.76583333333333,38.79666666666667],[-107.79583333333333,38.79527777777778],[-107.92194444444445,38.78722222222222],[-107.95333333333333,38.785555555555554],[-108.07944444444443,38.776944444444446],[-108.11083333333333,38.77583333333333],[-108.23694444444445,38.76722222222222],[-108.26694444444445,38.76583333333333],[-108.36222222222221,38.75888888888889],[-108.42333333333333,38.75555555555555],[-108.51916666666666,38.74861111111111],[-108.58166666666666,38.745],[-108.67527777777778,38.737500000000004],[-108.73916666666666,38.73416666666667],[-108.8536111111111,38.72638888888889],[-108.89416666666668,38.723333333333336],[-109.01805555555555,38.714444444444446],[-109.04888888888888,38.712500000000006],[-109.14500000000001,38.705555555555556],[-109.20527777777778,38.70111111111111],[-109.29972222222221,38.69416666666666],[-109.36305555555555,38.689722222222215],[-109.45777777777778,38.6825],[-109.52027777777778,38.67777777777778],[-109.61305555555555,38.670833333333334],[-109.6763888888889,38.66583333333333],[-109.76972222222223,38.65833333333333],[-109.83222222222221,38.65361111111111],[-109.92777777777778,38.64611111111111],[-109.98694444444445,38.64138888888889],[-110.08333333333333,38.63388888888889],[-110.14527777777778,38.62888888888889],[-110.23861111111111,38.62111111111111],[-110.30027777777778,38.61611111111111],[-110.39416666666668,38.608333333333334],[-110.45722222222223,38.60305555555556],[-110.55055555555555,38.59527777777778],[-110.7088888888889,38.58166666666667],[-110.86277777777777,38.568333333333335],[-111.02972222222222,38.55361111111111],[-111.18555555555555,38.53972222222222],[-111.33888888888889,38.52583333333333],[-111.4925,38.51166666666666],[-111.64555555555556,38.4975],[-111.80055555555555,38.48277777777778],[-111.95416666666667,38.467777777777776],[-112.11055555555555,38.45277777777778],[-112.26527777777778,38.43722222222222],[-112.41861111111112,38.42194444444444],[-112.57305555555556,38.40611111111111],[-112.7275,38.390277777777776],[-112.88083333333333,38.37444444444444],[-113.03333333333333,38.35861111111111],[-113.18527777777778,38.347500000000004],[-113.34166666666667,38.33555555555556],[-113.495,38.32361111111111],[-113.64861111111112,38.31166666666666],[-113.8025,38.299166666666665],[-113.955,38.286944444444444],[-114.10888888888888,38.274166666666666],[-114.29027777777777,38.25888888888889],[-114.44222222222223,38.24638888888889],[-114.59333333333333,38.237500000000004],[-114.74555555555555,38.22777777777778],[-114.8963888888889,38.217777777777776],[-114.93194444444445,38.215833333333336],[-115.04972222222221,38.2075],[-115.08527777777778,38.205000000000005],[-115.20027777777779,38.197222222222216],[-115.23722222222223,38.195277777777775],[-115.35222222222221,38.18666666666666],[-115.35833333333333,38.18611111111111],[-115.54027777777777,38.17333333333333],[-115.66000000000001,38.16444444444444],[-115.69194444444445,38.16222222222222],[-115.81361111111111,38.153055555555554],[-115.83638888888889,38.15138888888889],[-115.9961111111111,38.13944444444444],[-116.11694444444444,38.13],[-116.15,38.1275],[-116.26861111111111,38.11833333333333],[-116.30194444444444,38.115833333333335],[-116.42111111111112,38.10638888888889],[-116.57472222222222,38.09388888888889],[-116.60722222222222,38.09111111111111],[-116.7275,38.081388888888895],[-116.75944444444444,38.078611111111115],[-116.88083333333333,38.06861111111112],[-116.91055555555556,38.066111111111105],[-117.03138888888888,38.05611111111111],[-117.06277777777777,38.05333333333333],[-117.17777777777778,38.04333333333333],[-117.20611111111111,38.04111111111111],[-117.30916666666667,38.005833333333335],[-117.33027777777778,37.98722222222222],[-117.375,37.90222222222222],[-117.38416666666667,37.87888888888889],[-117.41916666666667,37.78972222222222],[-117.42777777777778,37.76722222222222],[-117.4625,37.67861111111111],[-117.47166666666666,37.65416666666667],[-117.55472222222222,37.56305555555555],[-117.66083333333334,37.53972222222222],[-117.68805555555556,37.54138888888889],[-117.80027777777778,37.54861111111111],[-117.83055555555555,37.55083333333333],[-117.97,37.559999999999995],[-118.11694444444444,37.569722222222225],[-118.23611111111111,37.5775],[-118.38277777777778,37.58694444444445],[-118.53111111111112,37.59638888888889],[-118.68138888888889,37.60583333333334],[-118.83333333333333,37.615],[-118.98333333333333,37.62388888888889],[-119.13305555555554,37.632777777777775],[-119.28166666666667,37.64111111111111],[-119.43138888888889,37.64944444444444],[-119.5825,37.657777777777774],[-119.73166666666667,37.66583333333333],[-119.87916666666666,37.67333333333333],[-120.0286111111111,37.68111111111111],[-120.17861111111111,37.68833333333333],[-120.32722222222222,37.69555555555555],[-120.43333333333334,37.7],[-120.47055555555556,37.69138888888889],[-120.51666666666667,37.68333333333333],[-120.61166666666666,37.675],[-120.66666666666667,37.666666666666664],[-120.7461111111111,37.659166666666664],[-120.8,37.65],[-120.87583333333333,37.64333333333333],[-120.91666666666667,37.63333333333333],[-121.00138888888888,37.628055555555555],[-121.05,37.61666666666667],[-121.12277777777777,37.611666666666665],[-121.16666666666667,37.6],[-121.24972222222222,37.59444444444445],[-121.3,37.583333333333336],[-121.36749999999999,37.580555555555556],[-121.41666666666667,37.583333333333336],[-121.47638888888889,37.56777777777778],[-121.51666666666667,37.56666666666667],[-121.57333333333332,37.55638888888888],[-121.6,37.55],[-121.66333333333334,37.54111111111111],[-121.7,37.53333333333333],[-121.75277777777778,37.519999999999996],[-121.78333333333333,37.516666666666666],[-121.84166666666667,37.49861111111111],[-121.86666666666666,37.5],[-121.92944444444444,37.49388888888889],[-121.96666666666667,37.5],[-122.01416666666667,37.49861111111111],[-122.03333333333333,37.5],[-122.09222222222222,37.50388888888889],[-122.11666666666666,37.516666666666666],[-122.16388888888889,37.53194444444444],[-122.18333333333334,37.53333333333333],[-122.2225,37.55694444444444],[-122.23333333333333,37.56666666666667],[-122.26694444444445,37.57555555555556],[-122.28333333333333,37.583333333333336],[-122.30944444444444,37.593611111111116],[-122.31666666666666,37.6],[-122.35138888888888,37.611111111111114]],"type":"LineString"}
}
