{
  "id": 2031991843,
  "type": "Feature",
  "properties": {
    "geom:area": 0,
    "geom:bbox": "-122.354780,37.449410,-121.258230,37.643750",
    "geom:latitude": 37.53530464544716,
    "geom:longitude": -121.82656166295743,
    "src:alt_label": "swim-approach",
    "src:geom": "swim",
    "swim:elevations": [
      4838,
      4566,
      4342,
      4181,
      4148,
      3961,
      3753,
      3671,
      3593,
      3528,
      3407,
      3352,
      3353,
      3353,
      3353,
      3351,
      3185,
      3004,
      2758,
      2743,
      2743,
      2743,
      2743,
      2713,
      2588,
      2485,
      2438,
      2438,
      2406,
      2290,
      2105,
      2092,
      2017,
      1917,
      1828,
      1793,
      1564,
      1535,
      1414,
      1324,
      1096,
      1027,
      963,
      879,
      808,
      796,
      763,
      731,
      665,
      543,
      467,
      304,
      248,
      148,
      55,
      33
    ],
    "swim:geom": "approach",
    "swim:timestamps": [
      1785193002,
      1785193040,
      1785193075,
      1785193097,
      1785193102,
      1785193128,
      1785193153,
      1785193166,
      1785193187,
      1785193201,
      1785193222,
      1785193246,
      1785193267,
      1785193282,
      1785193291,
      1785193318,
      1785193346,
      1785193371,
      1785193406,
      1785193436,
      1785193455,
      1785193467,
      1785193473,
      1785193498,
      1785193526,
      1785193552,
      1785193579,
      1785193591,
      1785193633,
      1785193663,
      1785193706,
      1785193712,
      1785193727,
      1785193753,
      1785193789,
      1785193804,
      1785193828,
      1785193831,
      1785193849,
      1785193882,
      1785193917,
      1785193937,
      1785193950,
      1785193976,
      1785193991,
      1785193994,
      1785194004,
      1785194014,
      1785194029,
      1785194060,
      1785194079,
      1785194116,
      1785194134,
      1785194171,
      1785194189,
      1785194192
    ],
    "wof:geomhash": "53f861a31ec474843559ebb08f4f4e6f",
    "wof:id": 2031991843,
    "wof:repo": "sfomuseum-data-flights-2026-07"
  },
  "bbox": [
    -122.35478,
    37.44941,
    -121.25823,
    37.64375
  ],
  "geometry": {"coordinates":[[-121.25823,37.46454],[-121.32079,37.47913],[-121.3783,37.49279],[-121.41404,37.50141],[-121.42279,37.50349],[-121.46449,37.51359],[-121.50444,37.52309],[-121.52502,37.52792],[-121.55639,37.53529],[-121.57727,37.53993],[-121.60688,37.54669],[-121.64045,37.54669],[-121.66976,37.54253],[-121.69009,37.54844],[-121.70041,37.55394],[-121.73357,37.57226],[-121.76669,37.5909],[-121.7959,37.60728],[-121.83723,37.63004],[-121.87552,37.64116],[-121.90252,37.64375],[-121.91795,37.63883],[-121.92444,37.63452],[-121.93502,37.60864],[-121.91521,37.5829],[-121.88703,37.56242],[-121.85867,37.54176],[-121.84627,37.53272],[-121.82479,37.49321],[-121.84196,37.46311],[-121.89869,37.45224],[-121.90681,37.45161],[-121.92699,37.45004],[-121.96155,37.44941],[-122.00701,37.46539],[-122.02498,37.47319],[-122.05404,37.48585],[-122.05775,37.48741],[-122.07956,37.49682],[-122.11449,37.51132],[-122.14679,37.52495],[-122.16315,37.53195],[-122.1735,37.53629],[-122.19377,37.54484],[-122.20533,37.54965],[-122.20764,37.55062],[-122.21473,37.55359],[-122.22257,37.5569],[-122.23396,37.56178],[-122.25765,37.57165],[-122.2724,37.57792],[-122.29888,37.58919],[-122.31191,37.59449],[-122.33921,37.60616],[-122.35261,37.61164],[-122.35478,37.61252]],"type":"LineString"}
}
