{
  "id": 2032054341,
  "type": "Feature",
  "properties": {
    "geom:area": 0,
    "geom:bbox": "-122.639000,36.746420,-122.198410,37.667010",
    "geom:latitude": 37.23959393970023,
    "geom:longitude": -122.49079092478279,
    "src:alt_label": "swim-takeoff",
    "src:geom": "swim",
    "swim:elevations": [
      369,
      827,
      871,
      971,
      1245,
      1690,
      2186,
      3434,
      3587,
      4218,
      4961,
      5675,
      6604,
      6759,
      6862,
      7167,
      7433,
      8203,
      8485,
      8608,
      9034,
      9215
    ],
    "swim:geom": "takeoff",
    "swim:timestamps": [
      1785540085,
      1785540118,
      1785540124,
      1785540165,
      1785540184,
      1785540213,
      1785540249,
      1785540326,
      1785540336,
      1785540384,
      1785540437,
      1785540494,
      1785540568,
      1785540582,
      1785540611,
      1785540655,
      1785540671,
      1785540718,
      1785540748,
      1785540767,
      1785540807,
      1785540822
    ],
    "wof:geomhash": "572ba04f04bd412360f196e860d79901",
    "wof:id": 2032054341,
    "wof:repo": "sfomuseum-data-flights-2026-07"
  },
  "bbox": [
    -122.639,
    36.74642,
    -122.19841,
    37.66701
  ],
  "geometry": {"coordinates":[[-122.3942,37.62713],[-122.41964,37.63877],[-122.42498,37.64113],[-122.4691,37.65909],[-122.49276,37.66701],[-122.53224,37.65955],[-122.57203,37.62698],[-122.639,37.54089],[-122.63637,37.52668],[-122.62375,37.45112],[-122.60978,37.36499],[-122.59837,37.26976],[-122.56919,37.14378],[-122.55088,37.12272],[-122.51092,37.0806],[-122.44291,37.00853],[-122.41867,36.98283],[-122.35164,36.91055],[-122.3081,36.86449],[-122.27936,36.8337],[-122.22065,36.77052],[-122.19841,36.74642]],"type":"LineString"}
}
