{
  "id": 2032020593,
  "type": "Feature",
  "properties": {
    "geom:area": 0,
    "geom:bbox": "-122.360080,37.431560,-121.266640,37.633160",
    "geom:latitude": 37.535293544099034,
    "geom:longitude": -121.81690241293326,
    "src:alt_label": "swim-approach",
    "src:geom": "swim",
    "swim:elevations": [
      4087,
      3993,
      3837,
      3488,
      3325,
      3321,
      3322,
      3325,
      3353,
      3353,
      3220,
      3046,
      3041,
      2856,
      2776,
      2766,
      2724,
      2743,
      2743,
      2645,
      2486,
      2438,
      2438,
      2438,
      2438,
      2383,
      2134,
      2134,
      2050,
      1897,
      1829,
      1591,
      1433,
      1325,
      1160,
      1042,
      874,
      703,
      578,
      348,
      269,
      181,
      78,
      0
    ],
    "swim:geom": "approach",
    "swim:timestamps": [
      1785328605,
      1785328630,
      1785328659,
      1785328717,
      1785328755,
      1785328772,
      1785328821,
      1785328836,
      1785328873,
      1785328900,
      1785328932,
      1785328970,
      1785328984,
      1785329026,
      1785329037,
      1785329042,
      1785329073,
      1785329118,
      1785329154,
      1785329178,
      1785329209,
      1785329238,
      1785329277,
      1785329290,
      1785329312,
      1785329331,
      1785329386,
      1785329404,
      1785329433,
      1785329475,
      1785329507,
      1785329572,
      1785329607,
      1785329631,
      1785329655,
      1785329674,
      1785329704,
      1785329737,
      1785329766,
      1785329813,
      1785329832,
      1785329868,
      1785329883,
      1785329903
    ],
    "wof:geomhash": "b6f54216335ef576487fe9c3f7fa8b09",
    "wof:id": 2032020593,
    "wof:repo": "sfomuseum-data-flights-2026-07"
  },
  "bbox": [
    -122.36008,
    37.43156,
    -121.26664,
    37.63316
  ],
  "geometry": {"coordinates":[[-121.26664,37.4977],[-121.30115,37.48478],[-121.33918,37.49731],[-121.38656,37.55402],[-121.43934,37.56281],[-121.46515,37.56121],[-121.53707,37.55678],[-121.55831,37.55527],[-121.61232,37.55141],[-121.65063,37.5449],[-121.6942,37.55409],[-121.73527,37.58265],[-121.74995,37.59323],[-121.79307,37.62473],[-121.80714,37.6316],[-121.81397,37.63316],[-121.85686,37.63112],[-121.91512,37.61514],[-121.91698,37.57621],[-121.88929,37.55939],[-121.84677,37.54435],[-121.80867,37.53109],[-121.762,37.50708],[-121.75654,37.49312],[-121.76047,37.46831],[-121.77571,37.45171],[-121.84987,37.4383],[-121.87453,37.43567],[-121.91373,37.43156],[-121.96425,37.44735],[-121.99833,37.46211],[-122.06408,37.48995],[-122.09947,37.505],[-122.12429,37.51545],[-122.14682,37.52496],[-122.16593,37.53304],[-122.19377,37.54479],[-122.22488,37.5579],[-122.25212,37.56939],[-122.2947,37.5873],[-122.30955,37.59351],[-122.33554,37.6045],[-122.34594,37.60888],[-122.36008,37.61495]],"type":"LineString"}
}
