{
  "id": 2031991649,
  "type": "Feature",
  "properties": {
    "geom:area": 0,
    "geom:bbox": "-123.497160,37.271800,-122.077710,37.613340",
    "geom:latitude": 37.36923651140423,
    "geom:longitude": -122.67202164437434,
    "src:alt_label": "swim-approach",
    "src:geom": "swim",
    "swim:elevations": [
      5849,
      5671,
      5628,
      5534,
      5235,
      4753,
      4456,
      4096,
      3792,
      3715,
      3618,
      3489,
      3452,
      3409,
      3260,
      3159,
      2922,
      2895,
      2754,
      2555,
      2438,
      2438,
      2438,
      2438,
      2438,
      2435,
      2290,
      2044,
      1970,
      1722,
      1471,
      1384,
      1172,
      979,
      900,
      891,
      914,
      899,
      816,
      638,
      630,
      380,
      302,
      151,
      29,
      46
    ],
    "swim:geom": "approach",
    "swim:timestamps": [
      1785218656,
      1785218691,
      1785218701,
      1785218716,
      1785218746,
      1785218788,
      1785218815,
      1785218847,
      1785218878,
      1785218889,
      1785218907,
      1785218937,
      1785218948,
      1785218963,
      1785218989,
      1785219003,
      1785219058,
      1785219061,
      1785219085,
      1785219109,
      1785219142,
      1785219170,
      1785219202,
      1785219235,
      1785219256,
      1785219283,
      1785219316,
      1785219353,
      1785219368,
      1785219404,
      1785219431,
      1785219442,
      1785219468,
      1785219491,
      1785219526,
      1785219529,
      1785219563,
      1785219572,
      1785219589,
      1785219626,
      1785219631,
      1785219684,
      1785219706,
      1785219748,
      1785219778,
      1785219783
    ],
    "wof:geomhash": "47e59f615185cbeaa55232b8688271e5",
    "wof:id": 2031991649,
    "wof:repo": "sfomuseum-data-flights-2026-07"
  },
  "bbox": [
    -123.49716,
    37.2718,
    -122.07771,
    37.61334
  ],
  "geometry": {"coordinates":[[-123.49716,37.30377],[-123.41575,37.29806],[-123.39348,37.29639],[-123.35937,37.294],[-123.29194,37.28925],[-123.19833,37.28248],[-123.13865,37.27813],[-123.06701,37.27288],[-123.00199,37.2718],[-122.97678,37.27365],[-122.94031,37.27825],[-122.88033,37.28766],[-122.85978,37.29112],[-122.83192,37.29603],[-122.78622,37.30428],[-122.76174,37.30876],[-122.66673,37.32559],[-122.66156,37.32649],[-122.62073,37.33359],[-122.58053,37.34068],[-122.52594,37.35014],[-122.47884,37.35829],[-122.42654,37.36747],[-122.37061,37.37704],[-122.33452,37.38326],[-122.29005,37.39093],[-122.23483,37.40307],[-122.17627,37.41645],[-122.15143,37.42215],[-122.10137,37.43358],[-122.07809,37.45392],[-122.07771,37.46533],[-122.08575,37.48937],[-122.10303,37.5066],[-122.13916,37.52161],[-122.14226,37.52299],[-122.17698,37.53772],[-122.18553,37.54128],[-122.2012,37.54792],[-122.23901,37.56391],[-122.2431,37.56558],[-122.28858,37.58468],[-122.30395,37.5912],[-122.3327,37.60326],[-122.35309,37.61184],[-122.35673,37.61334]],"type":"LineString"}
}
