{
  "id": 2031960197,
  "type": "Feature",
  "properties": {
    "geom:area": 0,
    "geom:bbox": "-122.556550,36.757080,-122.381310,37.667370",
    "geom:latitude": 37.26117967660277,
    "geom:longitude": -122.49701731733566,
    "src:alt_label": "swim-takeoff",
    "src:geom": "swim",
    "swim:elevations": [
      152,
      274,
      521,
      619,
      744,
      1097,
      1161,
      1398,
      1856,
      2425,
      2711,
      2779,
      3090,
      3570,
      3759,
      3836,
      3891,
      4114,
      4496,
      5214,
      5280,
      5505,
      5867,
      6154,
      6330,
      6459,
      6614,
      7008,
      7196,
      7628,
      7823,
      8045
    ],
    "swim:geom": "takeoff",
    "swim:timestamps": [
      1784915544,
      1784915551,
      1784915578,
      1784915588,
      1784915604,
      1784915636,
      1784915648,
      1784915672,
      1784915706,
      1784915741,
      1784915758,
      1784915762,
      1784915778,
      1784915805,
      1784915834,
      1784915841,
      1784915846,
      1784915862,
      1784915887,
      1784915954,
      1784915966,
      1784915992,
      1784916022,
      1784916046,
      1784916062,
      1784916077,
      1784916093,
      1784916135,
      1784916156,
      1784916200,
      1784916217,
      1784916235
    ],
    "wof:geomhash": "a0515993dd25c9788670293ab7f41320",
    "wof:id": 2031960197,
    "wof:repo": "sfomuseum-data-flights-2026-07"
  },
  "bbox": [
    -122.55655,
    36.75708,
    -122.38131,
    37.66737
  ],
  "geometry": {"coordinates":[[-122.38131,37.62406],[-122.38597,37.62639],[-122.40556,37.63428],[-122.41481,37.63784],[-122.43052,37.64414],[-122.46444,37.65839],[-122.47973,37.66463],[-122.51433,37.66737],[-122.54735,37.63742],[-122.53249,37.59563],[-122.52119,37.57472],[-122.51849,37.56967],[-122.5079,37.55044],[-122.48932,37.51671],[-122.47825,37.47742],[-122.47908,37.46644],[-122.48045,37.45915],[-122.48542,37.43417],[-122.49234,37.39535],[-122.51287,37.28428],[-122.51676,37.26348],[-122.52573,37.21554],[-122.53642,37.15834],[-122.54488,37.11216],[-122.55059,37.08112],[-122.55601,37.05165],[-122.55655,37.02081],[-122.51631,36.9416],[-122.4876,36.90214],[-122.42926,36.82228],[-122.40666,36.79028],[-122.38259,36.75708]],"type":"LineString"}
}
