{
  "id": 2031994717,
  "type": "Feature",
  "properties": {
    "geom:area": 0,
    "geom:bbox": "-122.367222,37.660833,-112.006111,40.967500",
    "geom:latitude": 39.89710864966847,
    "geom:longitude": -117.24244315462894,
    "src:alt_label": "swim-path",
    "src:geom": "swim",
    "swim:altitudes": [
      "033",
      "036",
      "044",
      "070",
      "097",
      "127",
      "144",
      "209",
      "234",
      "247",
      "255",
      "265",
      "267",
      "275",
      "275",
      "283",
      "284",
      "290",
      "299",
      "303",
      "306",
      "312",
      "319",
      "333",
      "340",
      "347",
      "350C",
      "350C",
      "350C",
      "350C",
      "350C",
      "350C",
      "350C",
      "350C",
      "350C",
      "350C",
      "350C",
      "350C",
      "351C",
      "350C",
      "350C",
      "350C",
      "350C",
      "350C",
      "350C",
      "349",
      "339",
      "330C",
      "330C",
      "330C",
      "330",
      "330",
      "330",
      "330",
      "318",
      "287",
      "271",
      "261",
      "246",
      "227",
      "209",
      "203",
      "183",
      "173",
      "172",
      "172C",
      "144",
      "129",
      "116",
      "112",
      "110",
      "111",
      "100",
      "088",
      "080",
      "066",
      "058",
      "054"
    ],
    "swim:geom": "path",
    "swim:speeds": [
      176,
      196,
      255,
      285,
      295,
      376,
      403,
      449,
      471,
      480,
      491,
      491,
      496,
      497,
      501,
      505,
      510,
      517,
      522,
      526,
      531,
      536,
      537,
      533,
      531,
      529,
      525,
      522,
      519,
      518,
      518,
      516,
      517,
      516,
      514,
      514,
      514,
      514,
      513,
      511,
      508,
      507,
      495,
      496,
      492,
      489,
      492,
      498,
      500,
      502,
      504,
      506,
      506,
      504,
      500,
      500,
      476,
      453,
      445,
      424,
      399,
      385,
      381,
      345,
      310,
      293,
      271,
      272,
      242,
      245,
      245,
      245,
      235,
      228,
      216,
      213,
      202,
      195
    ],
    "swim:timestamps": [
      1785175266,
      1785175277,
      1785175326,
      1785175387,
      1785175447,
      1785175567,
      1785175627,
      1785175867,
      1785175987,
      1785176047,
      1785176099,
      1785176159,
      1785176168,
      1785176219,
      1785176228,
      1785176279,
      1785176288,
      1785176348,
      1785176408,
      1785176460,
      1785176468,
      1785176528,
      1785176580,
      1785176648,
      1785176708,
      1785176768,
      1785176880,
      1785177000,
      1785177060,
      1785177069,
      1785177120,
      1785177189,
      1785177241,
      1785177249,
      1785177361,
      1785177369,
      1785177421,
      1785177429,
      1785177481,
      1785177550,
      1785177661,
      1785177721,
      1785177781,
      1785177790,
      1785177841,
      1785177901,
      1785177962,
      1785178022,
      1785178082,
      1785178202,
      1785178262,
      1785178322,
      1785178382,
      1785178502,
      1785178562,
      1785178622,
      1785178683,
      1785178743,
      1785178803,
      1785178863,
      1785178935,
      1785178965,
      1785179055,
      1785179115,
      1785179146,
      1785179175,
      1785179295,
      1785179355,
      1785179458,
      1785179476,
      1785179518,
      1785179536,
      1785179596,
      1785179656,
      1785179686,
      1785179753,
      1785179813,
      1785179836
    ],
    "wof:geomhash": "b52d8a37f332633961151bb1dced0f46",
    "wof:id": 2031994717,
    "wof:repo": "sfomuseum-data-flights-2026-07"
  },
  "bbox": [
    -122.36722222222221,
    37.66083333333333,
    -112.00611111111111,
    40.9675
  ],
  "geometry": {"coordinates":[[-122.36722222222221,37.66083333333333],[-122.35,37.666666666666664],[-122.29694444444445,37.68722222222222],[-122.21388888888889,37.72833333333333],[-122.1388888888889,37.78527777777778],[-121.96388888888889,37.915277777777774],[-121.86138888888888,37.990833333333335],[-121.40861111111111,38.32277777777778],[-121.15805555555556,38.480000000000004],[-121.02666666666667,38.56083333333333],[-120.91166666666668,38.63055555555555],[-120.77305555555556,38.71388888888889],[-120.75055555555555,38.730000000000004],[-120.63166666666666,38.79972222222222],[-120.6111111111111,38.815],[-120.4875,38.88722222222222],[-120.46694444444445,38.90222222222222],[-120.32083333333333,38.99027777777778],[-120.1713888888889,39.080000000000005],[-120.04333333333334,39.154444444444444],[-120.01166666666667,39.17527777777777],[-119.86,39.26555555555556],[-119.73666666666666,39.33722222222222],[-119.55083333333333,39.448055555555555],[-119.39944444444446,39.53666666666666],[-119.24722222222222,39.62555555555556],[-118.97666666666667,39.782222222222224],[-118.65833333333335,39.94138888888889],[-118.49388888888889,40.00833333333333],[-118.4563888888889,40.02361111111111],[-118.32888888888888,40.075],[-118.1236111111111,40.157777777777774],[-117.99833333333333,40.20277777777778],[-117.95222222222222,40.21527777777778],[-117.6388888888889,40.288333333333334],[-117.60083333333333,40.29722222222222],[-117.46166666666667,40.32916666666667],[-117.42222222222223,40.338055555555556],[-117.28388888888888,40.36972222222222],[-117.06694444444445,40.41916666666666],[-116.73861111111111,40.4925],[-116.55888888888889,40.531666666666666],[-116.37722222222222,40.54055555555556],[-116.37722222222222,40.54055555555556],[-116.20138888888889,40.52333333333333],[-116.0261111111111,40.50611111111111],[-115.84666666666666,40.496944444444445],[-115.66777777777779,40.5175],[-115.4875,40.53861111111111],[-115.1236111111111,40.58027777777778],[-114.94222222222223,40.60055555555556],[-114.75694444444444,40.62111111111111],[-114.57472222222222,40.64111111111111],[-114.20944444444444,40.68],[-114.03055555555555,40.69833333333333],[-113.85,40.717222222222226],[-113.67805555555556,40.74527777777778],[-113.52833333333334,40.80361111111111],[-113.38027777777778,40.85111111111111],[-113.22611111111111,40.82916666666667],[-113.06055555555555,40.8],[-112.98277777777778,40.7925],[-112.77388888888889,40.74888888888889],[-112.64666666666668,40.725833333333334],[-112.58972222222222,40.724722222222226],[-112.535,40.719722222222224],[-112.3536111111111,40.67833333333333],[-112.25611111111111,40.69166666666666],[-112.11638888888888,40.736666666666665],[-112.09805555555555,40.749722222222225],[-112.09861111111111,40.797777777777775],[-112.10027777777778,40.81777777777778],[-112.10666666666665,40.8775],[-112.11361111111111,40.94138888888889],[-112.08638888888889,40.9675],[-112.01861111111111,40.94138888888889],[-112.00916666666667,40.885555555555555],[-112.00611111111111,40.867777777777775]],"type":"LineString"}
}
