{
  "id": 2032034897,
  "type": "Feature",
  "properties": {
    "geom:area": 0,
    "geom:bbox": "-122.350730,37.493160,-121.278330,37.610910",
    "geom:latitude": 37.54120351839165,
    "geom:longitude": -121.8213019024695,
    "src:alt_label": "swim-approach",
    "src:geom": "swim",
    "swim:elevations": [
      4577,
      4211,
      3903,
      3631,
      3265,
      3138,
      3075,
      3018,
      2929,
      2701,
      2536,
      2437,
      2439,
      2229,
      2034,
      2010,
      1738,
      1688,
      1310,
      1215,
      1095,
      965,
      883,
      691,
      637,
      619,
      435,
      273,
      192,
      171,
      61
    ],
    "swim:geom": "approach",
    "swim:timestamps": [
      1785454160,
      1785454194,
      1785454224,
      1785454251,
      1785454286,
      1785454307,
      1785454321,
      1785454343,
      1785454356,
      1785454387,
      1785454407,
      1785454435,
      1785454445,
      1785454494,
      1785454526,
      1785454532,
      1785454583,
      1785454601,
      1785454648,
      1785454670,
      1785454688,
      1785454720,
      1785454745,
      1785454778,
      1785454794,
      1785454802,
      1785454835,
      1785454888,
      1785454910,
      1785454922,
      1785454955
    ],
    "wof:geomhash": "d53ac556c3562d5c3ab0f0132bd21730",
    "wof:id": 2032034897,
    "wof:repo": "sfomuseum-data-flights-2026-07"
  },
  "bbox": [
    -122.35073,
    37.49316,
    -121.27833,
    37.61091
  ],
  "geometry": {"coordinates":[[-121.27833,37.59073],[-121.34619,37.58307],[-121.40428,37.57643],[-121.45831,37.57024],[-121.52482,37.56239],[-121.56304,37.55789],[-121.58907,37.55486],[-121.62569,37.55025],[-121.6471,37.54544],[-121.69658,37.53349],[-121.7279,37.52613],[-121.7724,37.51552],[-121.78698,37.51197],[-121.85775,37.49509],[-121.90577,37.49316],[-121.9148,37.49365],[-121.99057,37.49744],[-122.01745,37.49901],[-122.08363,37.50282],[-122.11118,37.5107],[-122.13218,37.51884],[-122.16828,37.53406],[-122.195,37.5453],[-122.22671,37.55874],[-122.2403,37.56442],[-122.24744,37.56737],[-122.2743,37.57869],[-122.30963,37.59358],[-122.32392,37.5996],[-122.33121,37.60271],[-122.35073,37.61091]],"type":"LineString"}
}
