{
  "id": 2031952589,
  "type": "Feature",
  "properties": {
    "geom:area": 0,
    "geom:bbox": "-122.574444,33.392778,-112.050556,37.600000",
    "geom:latitude": 35.030658618915936,
    "geom:longitude": -117.92772450460055,
    "src:alt_label": "swim-path",
    "src:geom": "swim",
    "swim:altitudes": [
      "022",
      "032",
      "037",
      "058",
      "087",
      "106",
      "130",
      "149",
      "172",
      "194",
      "215",
      "234",
      "260",
      "260",
      "260",
      "260",
      "277",
      "292",
      "304",
      "313",
      "337",
      "349",
      "359C",
      "360C",
      "360C",
      "360C",
      "360C",
      "360C",
      "360C",
      "360C",
      "360C",
      "360C",
      "360C",
      "360C",
      "360C",
      "360C",
      "360C",
      "360C",
      "360C",
      "360C",
      "360C",
      "360C",
      "360C",
      "360C",
      "360C",
      "360C",
      "360C",
      "360C",
      "360C",
      "360C",
      "360C",
      "360C",
      "360C",
      "360C",
      "360C",
      "360C",
      "360C",
      "360C",
      "360C",
      "360C",
      "360C",
      "360C",
      "360C",
      "360C",
      "360C",
      "360C",
      "360C",
      "360C",
      "360",
      "359",
      "353",
      "349",
      "333",
      "305",
      "287",
      "267",
      "260",
      "213",
      "174",
      "153",
      "128",
      "115",
      "112",
      "102",
      "100",
      "100",
      "100",
      "100",
      "098",
      "090",
      "090",
      "088",
      "084",
      "080",
      "077",
      "069",
      "064",
      "060",
      "055",
      "050",
      "047",
      "040",
      "038",
      "034",
      "030",
      "025",
      "023",
      "019",
      "016",
      "011",
      "009",
      "002"
    ],
    "swim:geom": "path",
    "swim:speeds": [
      184,
      216,
      237,
      278,
      284,
      306,
      323,
      357,
      383,
      393,
      403,
      409,
      433,
      434,
      430,
      451,
      472,
      477,
      477,
      482,
      488,
      480,
      476,
      476,
      476,
      476,
      476,
      476,
      476,
      475,
      473,
      472,
      471,
      470,
      468,
      466,
      466,
      466,
      467,
      469,
      474,
      478,
      473,
      473,
      476,
      477,
      477,
      468,
      457,
      456,
      456,
      427,
      442,
      446,
      453,
      453,
      455,
      456,
      456,
      457,
      458,
      459,
      463,
      463,
      464,
      464,
      465,
      465,
      465,
      466,
      466,
      466,
      466,
      466,
      455,
      437,
      461,
      368,
      357,
      346,
      325,
      318,
      314,
      292,
      267,
      258,
      260,
      259,
      255,
      250,
      251,
      261,
      265,
      255,
      248,
      251,
      245,
      240,
      241,
      241,
      237,
      216,
      200,
      196,
      190,
      156,
      150,
      147,
      143,
      146,
      140,
      137
    ],
    "swim:timestamps": [
      1784918124,
      1784918150,
      1784918184,
      1784918244,
      1784918305,
      1784918364,
      1784918425,
      1784918485,
      1784918545,
      1784918605,
      1784918666,
      1784918726,
      1784918846,
      1784918966,
      1784919026,
      1784919086,
      1784919206,
      1784919266,
      1784919327,
      1784919387,
      1784919507,
      1784919567,
      1784919627,
      1784919687,
      1784919747,
      1784919807,
      1784919867,
      1784919927,
      1784919988,
      1784920048,
      1784920108,
      1784920168,
      1784920228,
      1784920288,
      1784920348,
      1784920408,
      1784920528,
      1784920588,
      1784920648,
      1784920709,
      1784920769,
      1784920817,
      1784920829,
      1784920937,
      1784921069,
      1784921117,
      1784921129,
      1784921189,
      1784921249,
      1784921298,
      1784921309,
      1784921370,
      1784921418,
      1784921430,
      1784921478,
      1784921490,
      1784921538,
      1784921598,
      1784921610,
      1784921670,
      1784921718,
      1784921730,
      1784921778,
      1784921790,
      1784921838,
      1784921850,
      1784921898,
      1784921910,
      1784921958,
      1784921970,
      1784922019,
      1784922030,
      1784922079,
      1784922139,
      1784922184,
      1784922259,
      1784922319,
      1784922502,
      1784922619,
      1784922679,
      1784922748,
      1784922800,
      1784922809,
      1784922869,
      1784922920,
      1784922929,
      1784922980,
      1784923040,
      1784923050,
      1784923109,
      1784923175,
      1784923220,
      1784923235,
      1784923280,
      1784923290,
      1784923340,
      1784923355,
      1784923415,
      1784923469,
      1784923521,
      1784923535,
      1784923595,
      1784923641,
      1784923655,
      1784923701,
      1784923761,
      1784923775,
      1784923821,
      1784923829,
      1784923881,
      1784923890,
      1784923949
    ],
    "wof:geomhash": "89bcd77fff68743acc59b988381e1b3b",
    "wof:id": 2031952589,
    "wof:repo": "sfomuseum-data-flights-2026-07"
  },
  "bbox": [
    -122.57444444444444,
    33.39277777777778,
    -112.05055555555555,
    37.6
  ],
  "geometry": {"coordinates":[[-112.05055555555555,33.43],[-112.08333333333333,33.416666666666664],[-112.11944444444444,33.411944444444444],[-112.20611111111111,33.39277777777778],[-112.31638888888888,33.40888888888889],[-112.4,33.420833333333334],[-112.52416666666666,33.43833333333333],[-112.64500000000001,33.452222222222225],[-112.77277777777778,33.4525],[-112.90194444444445,33.471944444444446],[-113.03305555555555,33.49638888888889],[-113.16555555555556,33.520833333333336],[-113.4525,33.57333333333334],[-113.7375,33.61944444444445],[-113.87805555555555,33.62555555555556],[-114.02666666666667,33.62833333333333],[-114.31944444444444,33.70444444444445],[-114.47111111111111,33.74444444444445],[-114.62166666666666,33.78388888888889],[-114.77777777777777,33.82472222222223],[-115.08916666666666,33.90555555555555],[-115.24083333333333,33.94472222222222],[-115.3913888888889,33.983333333333334],[-115.54277777777777,34.02166666666667],[-115.69555555555556,34.06055555555555],[-115.84722222222221,34.09805555555556],[-116.00444444444445,34.13805555555555],[-116.15777777777778,34.17638888888889],[-116.31083333333333,34.21416666666667],[-116.46277777777777,34.25138888888889],[-116.61388888888888,34.288333333333334],[-116.76583333333333,34.32527777777778],[-116.91583333333334,34.36138888888889],[-117.06777777777778,34.397777777777776],[-117.21888888888888,34.433611111111105],[-117.3711111111111,34.469722222222224],[-117.67361111111111,34.54111111111111],[-117.82694444444444,34.57666666666667],[-117.94777777777779,34.60472222222222],[-118.09472222222222,34.65333333333333],[-118.22,34.73527777777778],[-118.33111111111111,34.80833333333333],[-118.3461111111111,34.81805555555556],[-118.58583333333333,34.975833333333334],[-118.86,35.15472222222222],[-118.965,35.223055555555554],[-118.98555555555555,35.236111111111114],[-119.11166666666666,35.31777777777778],[-119.23305555555555,35.395833333333336],[-119.33444444444444,35.46083333333333],[-119.35583333333332,35.473888888888894],[-119.49555555555555,35.50222222222222],[-119.61694444444444,35.516666666666666],[-119.64111111111112,35.5225],[-119.76444444444445,35.550555555555555],[-119.79166666666667,35.556666666666665],[-119.91333333333334,35.584722222222226],[-120.0625,35.61888888888889],[-120.08999999999999,35.625],[-120.24055555555556,35.659444444444446],[-120.35888888888888,35.68888888888888],[-120.38472222222222,35.69833333333333],[-120.50222222222222,35.74333333333333],[-120.52666666666667,35.7525],[-120.64416666666668,35.79722222222222],[-120.66944444444445,35.80694444444444],[-120.78722222222223,35.85166666666667],[-120.83999999999999,35.871944444444445],[-120.93166666666667,35.906388888888884],[-120.98555555555555,35.92666666666666],[-121.07805555555555,35.96138888888889],[-121.13111111111111,35.981388888888894],[-121.22194444444445,36.015],[-121.365,36.06861111111112],[-121.5,36.11666666666667],[-121.64416666666668,36.170833333333334],[-121.71527777777779,36.276944444444446],[-121.81666666666666,36.65],[-121.91277777777778,36.8075],[-121.9388888888889,36.90138888888889],[-121.98333333333333,37.016666666666666],[-122.04888888888888,37.05],[-122.06666666666666,37.06666666666667],[-122.16666666666667,37.1],[-122.2286111111111,37.12555555555556],[-122.25,37.13333333333333],[-122.30805555555555,37.16],[-122.38583333333334,37.19416666666666],[-122.41666666666667,37.2],[-122.48333333333333,37.233333333333334],[-122.56666666666666,37.266666666666666],[-122.57444444444444,37.316111111111105],[-122.56666666666666,37.35],[-122.51694444444445,37.36361111111111],[-122.5,37.36666666666667],[-122.43444444444445,37.38305555555556],[-122.4,37.38333333333333],[-122.31666666666666,37.4],[-122.25,37.4],[-122.18472222222222,37.407222222222224],[-122.15,37.416666666666664],[-122.1,37.45],[-122.10416666666666,37.49],[-122.11666666666666,37.5],[-122.15166666666667,37.525],[-122.21138888888889,37.54972222222222],[-122.21666666666667,37.55],[-122.24944444444445,37.56583333333333],[-122.26666666666667,37.56666666666667],[-122.29388888888889,37.584722222222226],[-122.3,37.583333333333336],[-122.35,37.6]],"type":"LineString"}
}
