{
  "id": 2032018975,
  "type": "Feature",
  "properties": {
    "geom:area": 0,
    "geom:bbox": "-122.671667,37.357778,-112.063611,40.855278",
    "geom:latitude": 39.82872665019673,
    "geom:longitude": -118.11395248787517,
    "src:alt_label": "swim-path",
    "src:geom": "swim",
    "swim:altitudes": [
      "071",
      "098",
      "114",
      "135",
      "158",
      "180",
      "204",
      "254",
      "270",
      "280",
      "293",
      "308",
      "329",
      "339",
      "360C",
      "360C",
      "360C",
      "361C",
      "360C",
      "360C",
      "360C",
      "360C",
      "361C",
      "360C",
      "360C",
      "360C",
      "360C",
      "360C",
      "360C",
      "360C",
      "360C",
      "360C",
      "360C",
      "360C",
      "360C",
      "360C",
      "360C",
      "360C",
      "360C",
      "360C",
      "360C",
      "360C",
      "360C",
      "360C",
      "360C",
      "360C",
      "360C",
      "360C",
      "360C",
      "360C",
      "360C",
      "346",
      "325",
      "315",
      "305",
      "295",
      "266",
      "256",
      "246",
      "236",
      "226",
      "205",
      "183",
      "165",
      "162",
      "145",
      "140",
      "120",
      "111C",
      "110",
      "110C",
      "110",
      "096",
      "085",
      "067",
      "060",
      "060",
      "060",
      "060",
      "051",
      "048",
      "042",
      "040",
      "033",
      "030",
      "026",
      "020",
      "014",
      "007"
    ],
    "swim:geom": "path",
    "swim:speeds": [
      272,
      286,
      339,
      369,
      378,
      391,
      397,
      434,
      440,
      448,
      459,
      453,
      436,
      434,
      425,
      424,
      423,
      423,
      422,
      422,
      417,
      416,
      417,
      420,
      420,
      420,
      419,
      417,
      411,
      408,
      407,
      408,
      409,
      409,
      410,
      410,
      410,
      411,
      412,
      414,
      414,
      415,
      415,
      415,
      415,
      414,
      412,
      411,
      413,
      415,
      416,
      422,
      427,
      431,
      437,
      438,
      448,
      443,
      401,
      392,
      387,
      387,
      379,
      364,
      367,
      355,
      360,
      355,
      323,
      313,
      316,
      275,
      262,
      250,
      248,
      244,
      246,
      237,
      241,
      229,
      231,
      205,
      202,
      184,
      187,
      172,
      160,
      124,
      127
    ],
    "swim:timestamps": [
      1785334981,
      1785335034,
      1785335101,
      1785335161,
      1785335221,
      1785335281,
      1785335341,
      1785335522,
      1785335582,
      1785335642,
      1785335702,
      1785335762,
      1785335822,
      1785335882,
      1785336002,
      1785336062,
      1785336122,
      1785336182,
      1785336242,
      1785336305,
      1785336363,
      1785336423,
      1785336483,
      1785336663,
      1785336723,
      1785336783,
      1785336843,
      1785336903,
      1785336966,
      1785337024,
      1785337146,
      1785337264,
      1785337324,
      1785337384,
      1785337444,
      1785337504,
      1785337564,
      1785337624,
      1785337684,
      1785337807,
      1785337865,
      1785337925,
      1785337985,
      1785338047,
      1785338107,
      1785338168,
      1785338228,
      1785338348,
      1785338468,
      1785338588,
      1785338648,
      1785338768,
      1785338888,
      1785338949,
      1785339009,
      1785339069,
      1785339249,
      1785339309,
      1785339369,
      1785339429,
      1785339489,
      1785339610,
      1785339670,
      1785339713,
      1785339730,
      1785339773,
      1785339790,
      1785339850,
      1785339910,
      1785339953,
      1785339970,
      1785340008,
      1785340090,
      1785340133,
      1785340210,
      1785340253,
      1785340270,
      1785340313,
      1785340331,
      1785340373,
      1785340391,
      1785340433,
      1785340451,
      1785340493,
      1785340511,
      1785340554,
      1785340614,
      1785340674,
      1785340734
    ],
    "wof:geomhash": "beea8cf4915e3bd5fcb00213a10bfe85",
    "wof:id": 2032018975,
    "wof:repo": "sfomuseum-data-flights-2026-07"
  },
  "bbox": [
    -122.67166666666667,
    37.35777777777778,
    -112.06361111111111,
    40.85527777777778
  ],
  "geometry": {"coordinates":[[-112.06361111111111,40.76777777777777],[-112.1538888888889,40.79333333333333],[-112.27777777777777,40.81305555555555],[-112.40055555555556,40.833333333333336],[-112.53472222222221,40.85527777777778],[-112.67611111111111,40.85416666666667],[-112.82416666666666,40.8425],[-113.2875,40.84277777777778],[-113.45416666666667,40.84277777777778],[-113.62055555555555,40.8425],[-113.78777777777778,40.841944444444444],[-113.95333333333333,40.84111111111111],[-114.11722222222221,40.84],[-114.275,40.83861111111111],[-114.58583333333333,40.83527777777778],[-114.74222222222222,40.83305555555556],[-114.89361111111111,40.81722222222223],[-115.04666666666667,40.79972222222222],[-115.19861111111112,40.782222222222224],[-115.35138888888888,40.763888888888886],[-115.49972222222222,40.746944444444445],[-115.64944444444446,40.72916666666667],[-115.80194444444444,40.71083333333333],[-116.25472222222223,40.655],[-116.4075,40.635555555555555],[-116.55527777777777,40.61666666666667],[-116.70472222222223,40.597500000000004],[-116.85111111111111,40.57833333333333],[-116.99277777777777,40.54333333333333],[-117.12222222222222,40.49638888888889],[-117.38944444444445,40.39833333333333],[-117.65694444444445,40.303888888888885],[-117.79638888888888,40.26694444444444],[-117.9363888888889,40.230000000000004],[-118.07805555555555,40.19222222222222],[-118.21916666666667,40.154444444444444],[-118.35888888888888,40.11694444444444],[-118.49944444444445,40.078611111111115],[-118.64250000000001,40.03972222222222],[-118.95277777777778,39.95444444444445],[-119.08888888888889,39.916666666666664],[-119.22972222222222,39.87722222222222],[-119.37083333333332,39.83777777777778],[-119.51388888888889,39.7975],[-119.65361111111112,39.757777777777775],[-119.79055555555556,39.71888888888889],[-119.92888888888889,39.67916666666667],[-120.19111111111111,39.603611111111114],[-120.46777777777778,39.522777777777776],[-120.74777777777778,39.44027777777777],[-120.88694444444445,39.39888888888889],[-121.15944444444445,39.299166666666665],[-121.42833333333334,39.143055555555556],[-121.55138888888888,39.07083333333334],[-121.6763888888889,38.9975],[-121.80111111111111,38.924166666666665],[-122.18,38.698611111111106],[-122.30305555555556,38.625],[-122.41916666666667,38.55472222222222],[-122.51166666666667,38.473055555555554],[-122.59722222222221,38.390277777777776],[-122.66777777777779,38.202222222222225],[-122.66972222222223,38.09722222222222],[-122.66666666666667,38],[-122.67166666666667,37.99583333333334],[-122.66666666666667,37.916666666666664],[-122.65611111111112,37.88472222222222],[-122.57888888888888,37.81083333333333],[-122.50416666666666,37.74],[-122.45,37.68333333333333],[-122.43388888888889,37.67361111111111],[-122.38333333333334,37.63333333333333],[-122.32944444444443,37.54888888888889],[-122.3,37.5],[-122.30194444444444,37.41833333333333],[-122.3,37.36666666666667],[-122.2863888888889,37.35777777777778],[-122.21666666666667,37.36666666666667],[-122.2063888888889,37.365833333333335],[-122.15,37.4],[-122.14777777777779,37.40555555555555],[-122.13333333333334,37.45],[-122.14055555555557,37.461666666666666],[-122.15,37.5],[-122.15833333333335,37.51138888888889],[-122.18333333333334,37.53333333333333],[-122.23333333333333,37.56666666666667],[-122.28333333333333,37.583333333333336],[-122.31666666666666,37.6]],"type":"LineString"}
}
