{
  "id": 2031996207,
  "type": "Feature",
  "properties": {
    "geom:area": 0,
    "geom:bbox": "-122.400710,37.627110,-121.271570,38.409870",
    "geom:latitude": 38.07975775198552,
    "geom:longitude": -121.94285357655782,
    "src:alt_label": "swim-takeoff",
    "src:geom": "swim",
    "swim:elevations": [
      213,
      611,
      927,
      1133,
      1349,
      1421,
      1539,
      2052,
      2380,
      2441,
      2622,
      2918,
      3173,
      3198,
      3234,
      3447,
      3547,
      3777,
      4009,
      4124,
      4493,
      4651,
      4740,
      5063,
      5213,
      5484,
      5614,
      5805,
      5917,
      5995
    ],
    "swim:geom": "takeoff",
    "swim:timestamps": [
      1785203006,
      1785203036,
      1785203064,
      1785203091,
      1785203127,
      1785203151,
      1785203172,
      1785203217,
      1785203247,
      1785203253,
      1785203271,
      1785203301,
      1785203334,
      1785203351,
      1785203370,
      1785203423,
      1785203449,
      1785203481,
      1785203517,
      1785203529,
      1785203576,
      1785203601,
      1785203613,
      1785203657,
      1785203693,
      1785203727,
      1785203754,
      1785203786,
      1785203806,
      1785203821
    ],
    "wof:geomhash": "10a6ec3971e885cc86d2e8461833d9b7",
    "wof:id": 2031996207,
    "wof:repo": "sfomuseum-data-flights-2026-07"
  },
  "bbox": [
    -122.40071,
    37.62711,
    -121.27157,
    38.40987
  ],
  "geometry": {"coordinates":[[-122.38903,37.62711],[-122.40071,37.64706],[-122.3869,37.66741],[-122.36957,37.68651],[-122.34478,37.71502],[-122.33574,37.73939],[-122.34467,37.76359],[-122.37073,37.81548],[-122.38484,37.85281],[-122.38501,37.86069],[-122.38494,37.88466],[-122.38078,37.9255],[-122.34053,37.95746],[-122.31312,37.96884],[-122.27864,37.98241],[-122.17432,38.02479],[-122.12104,38.04654],[-122.05166,38.07412],[-121.97218,38.10572],[-121.94551,38.11657],[-121.83912,38.15847],[-121.78186,38.18149],[-121.75342,38.19303],[-121.6534,38.23303],[-121.56799,38.26604],[-121.48621,38.29856],[-121.41975,38.32473],[-121.34772,38.36283],[-121.30425,38.38988],[-121.27157,38.40987]],"type":"LineString"}
}
