{
  "id": 2031992167,
  "type": "Feature",
  "properties": {
    "geom:area": 0,
    "geom:bbox": "-122.333333,32.766389,-97.066667,38.335556",
    "geom:latitude": 36.3497120218814,
    "geom:longitude": -109.58196540469345,
    "src:alt_label": "swim-path",
    "src:geom": "swim",
    "swim:altitudes": [
      "034",
      "044",
      "051",
      "069",
      "078",
      "092",
      "118",
      "137",
      "155",
      "169",
      "185",
      "203",
      "217",
      "231",
      "243",
      "255",
      "265",
      "276",
      "287",
      "296",
      "306",
      "317",
      "322",
      "330",
      "348",
      "356",
      "358C",
      "359C",
      "359C",
      "359C",
      "360C",
      "359C",
      "359C",
      "359C",
      "359C",
      "359C",
      "359C",
      "360C",
      "359C",
      "359C",
      "359C",
      "360C",
      "360C",
      "359C",
      "359C",
      "359C",
      "359C",
      "360C",
      "360C",
      "360C",
      "359C",
      "359C",
      "359C",
      "359C",
      "359C",
      "359C",
      "359C",
      "359C",
      "359C",
      "359C",
      "359C",
      "359C",
      "360C",
      "360C",
      "360C",
      "360C",
      "360C",
      "359C",
      "359C",
      "359C",
      "360C",
      "360C",
      "360C",
      "359C",
      "359C",
      "359C",
      "359C",
      "359C",
      "359C",
      "360C",
      "359C",
      "359C",
      "359C",
      "359C",
      "359C",
      "359C",
      "359C",
      "359C",
      "359C",
      "359C",
      "359C",
      "359C",
      "360C",
      "359C",
      "360C",
      "360C",
      "360C",
      "360C",
      "360C",
      "360C",
      "359C",
      "359C",
      "359C",
      "359C",
      "359C",
      "359C",
      "359C",
      "360C",
      "359C",
      "359C",
      "359C",
      "359C",
      "359C",
      "359C",
      "360C",
      "360C",
      "360C",
      "360C",
      "359C",
      "359C",
      "359C",
      "360C",
      "359C",
      "359C",
      "359C",
      "360C",
      "360C",
      "360C",
      "359C",
      "360C",
      "359C",
      "359C",
      "359C",
      "359C",
      "360",
      "361",
      "367",
      "375",
      "380C",
      "379C",
      "379C",
      "379C",
      "379C",
      "380C",
      "380C",
      "379C",
      "379C",
      "379C",
      "379C",
      "380C",
      "380C",
      "380C",
      "379C",
      "379C",
      "379C",
      "380C",
      "379C",
      "380C",
      "380C",
      "380C",
      "379C",
      "379C",
      "380C",
      "380C",
      "380C",
      "379C",
      "379C",
      "379C",
      "379C",
      "379C",
      "379C",
      "379C",
      "379C",
      "379C",
      "379C",
      "379C",
      "380C",
      "380C",
      "379C",
      "380C",
      "380C",
      "379C",
      "379C",
      "379C",
      "379C",
      "379C",
      "379C",
      "380C",
      "380C",
      "380C",
      "379C",
      "380C",
      "380C",
      "379C",
      "379C",
      "379C",
      "379C",
      "379C",
      "379C",
      "380C",
      "380C",
      "380C",
      "380C",
      "380C",
      "380C",
      "380C",
      "380C",
      "379C",
      "379C",
      "379C",
      "379C",
      "380C",
      "380C",
      "380C",
      "379C",
      "379C",
      "379",
      "375",
      "359",
      "334",
      "309",
      "286",
      "267",
      "263",
      "255",
      "243",
      "235",
      "224",
      "216",
      "206",
      "198",
      "188",
      "171",
      "164",
      "158",
      "154",
      "146",
      "138",
      "130",
      "124",
      "116",
      "103",
      "092",
      "087",
      "080",
      "076",
      "071",
      "067",
      "062",
      "060",
      "053",
      "050",
      "048",
      "042",
      "035",
      "031",
      "026",
      "021",
      "016",
      "009",
      "006"
    ],
    "swim:geom": "path",
    "swim:speeds": [
      209,
      217,
      259,
      266,
      279,
      286,
      297,
      318,
      336,
      368,
      374,
      383,
      395,
      402,
      409,
      418,
      425,
      434,
      440,
      446,
      452,
      457,
      465,
      472,
      476,
      476,
      493,
      478,
      477,
      477,
      477,
      477,
      477,
      476,
      476,
      476,
      476,
      476,
      476,
      476,
      476,
      476,
      476,
      475,
      475,
      474,
      474,
      474,
      474,
      472,
      469,
      469,
      467,
      467,
      467,
      467,
      466,
      466,
      466,
      466,
      466,
      467,
      467,
      468,
      468,
      468,
      468,
      468,
      468,
      468,
      468,
      469,
      468,
      468,
      467,
      467,
      467,
      467,
      469,
      471,
      472,
      474,
      473,
      471,
      470,
      471,
      470,
      470,
      470,
      470,
      471,
      471,
      473,
      474,
      475,
      484,
      477,
      481,
      477,
      479,
      476,
      478,
      476,
      475,
      475,
      474,
      474,
      473,
      472,
      472,
      471,
      471,
      471,
      472,
      472,
      472,
      472,
      472,
      472,
      472,
      471,
      471,
      471,
      470,
      497,
      470,
      479,
      469,
      468,
      468,
      463,
      468,
      462,
      462,
      461,
      462,
      462,
      463,
      466,
      464,
      466,
      466,
      468,
      467,
      467,
      466,
      466,
      466,
      466,
      466,
      466,
      464,
      458,
      457,
      456,
      456,
      455,
      456,
      456,
      455,
      454,
      454,
      455,
      455,
      455,
      455,
      453,
      452,
      454,
      448,
      448,
      441,
      439,
      439,
      439,
      439,
      440,
      441,
      441,
      441,
      441,
      441,
      441,
      440,
      435,
      433,
      432,
      432,
      431,
      431,
      432,
      432,
      430,
      427,
      425,
      423,
      423,
      424,
      424,
      425,
      426,
      427,
      427,
      427,
      427,
      427,
      415,
      413,
      412,
      410,
      411,
      435,
      437,
      437,
      430,
      428,
      427,
      428,
      425,
      426,
      427,
      426,
      415,
      414,
      406,
      408,
      400,
      398,
      383,
      377,
      363,
      363,
      359,
      351,
      340,
      309,
      306,
      301,
      299,
      273,
      276,
      270,
      254,
      236,
      239,
      240,
      240,
      231,
      234,
      228,
      229,
      210,
      194,
      180,
      184,
      183,
      183,
      176,
      172,
      134,
      127
    ],
    "swim:timestamps": [
      1785150522,
      1785150552,
      1785150576,
      1785150612,
      1785150636,
      1785150672,
      1785150732,
      1785150792,
      1785150852,
      1785150912,
      1785150972,
      1785151032,
      1785151092,
      1785151152,
      1785151212,
      1785151272,
      1785151332,
      1785151392,
      1785151452,
      1785151513,
      1785151573,
      1785151633,
      1785151693,
      1785151753,
      1785151873,
      1785151933,
      1785151951,
      1785152011,
      1785152071,
      1785152113,
      1785152131,
      1785152173,
      1785152191,
      1785152233,
      1785152252,
      1785152293,
      1785152312,
      1785152353,
      1785152372,
      1785152413,
      1785152432,
      1785152473,
      1785152492,
      1785152534,
      1785152552,
      1785152594,
      1785152611,
      1785152654,
      1785152671,
      1785152734,
      1785152774,
      1785152792,
      1785152834,
      1785152852,
      1785152894,
      1785152912,
      1785152954,
      1785152972,
      1785153014,
      1785153032,
      1785153074,
      1785153091,
      1785153134,
      1785153153,
      1785153194,
      1785153213,
      1785153254,
      1785153271,
      1785153314,
      1785153334,
      1785153374,
      1785153394,
      1785153435,
      1785153451,
      1785153495,
      1785153514,
      1785153555,
      1785153572,
      1785153632,
      1785153693,
      1785153710,
      1785153770,
      1785153830,
      1785153890,
      1785153934,
      1785153950,
      1785153994,
      1785154010,
      1785154054,
      1785154070,
      1785154114,
      1785154130,
      1785154172,
      1785154190,
      1785154232,
      1785154250,
      1785154293,
      1785154310,
      1785154352,
      1785154370,
      1785154414,
      1785154430,
      1785154490,
      1785154532,
      1785154550,
      1785154592,
      1785154610,
      1785154670,
      1785154714,
      1785154730,
      1785154772,
      1785154791,
      1785154832,
      1785154851,
      1785154892,
      1785154911,
      1785154952,
      1785154971,
      1785155013,
      1785155031,
      1785155073,
      1785155091,
      1785155151,
      1785155194,
      1785155217,
      1785155254,
      1785155277,
      1785155337,
      1785155397,
      1785155457,
      1785155511,
      1785155517,
      1785155571,
      1785155637,
      1785155751,
      1785155757,
      1785155817,
      1785155877,
      1785155932,
      1785155997,
      1785156052,
      1785156112,
      1785156177,
      1785156232,
      1785156292,
      1785156357,
      1785156418,
      1785156472,
      1785156478,
      1785156538,
      1785156592,
      1785156658,
      1785156778,
      1785156838,
      1785156898,
      1785156958,
      1785157078,
      1785157198,
      1785157258,
      1785157318,
      1785157438,
      1785157498,
      1785157619,
      1785157679,
      1785157739,
      1785157799,
      1785157859,
      1785157919,
      1785157954,
      1785157979,
      1785158014,
      1785158039,
      1785158074,
      1785158099,
      1785158134,
      1785158159,
      1785158219,
      1785158279,
      1785158314,
      1785158339,
      1785158374,
      1785158434,
      1785158460,
      1785158494,
      1785158520,
      1785158554,
      1785158580,
      1785158614,
      1785158640,
      1785158674,
      1785158760,
      1785158794,
      1785158820,
      1785158854,
      1785158880,
      1785158974,
      1785159000,
      1785159034,
      1785159060,
      1785159094,
      1785159120,
      1785159155,
      1785159180,
      1785159215,
      1785159241,
      1785159275,
      1785159335,
      1785159361,
      1785159395,
      1785159455,
      1785159515,
      1785159575,
      1785159635,
      1785159695,
      1785159755,
      1785159815,
      1785159875,
      1785159935,
      1785159995,
      1785160055,
      1785160115,
      1785160175,
      1785160218,
      1785160235,
      1785160254,
      1785160295,
      1785160314,
      1785160356,
      1785160374,
      1785160416,
      1785160434,
      1785160476,
      1785160536,
      1785160554,
      1785160596,
      1785160614,
      1785160656,
      1785160675,
      1785160716,
      1785160735,
      1785160776,
      1785160836,
      1785160896,
      1785160915,
      1785160956,
      1785160975,
      1785161016,
      1785161034,
      1785161076,
      1785161094,
      1785161136,
      1785161155,
      1785161196,
      1785161215,
      1785161256,
      1785161275,
      1785161316,
      1785161335,
      1785161376,
      1785161437,
      1785161455
    ],
    "wof:geomhash": "634a0b9b2e891bd6cd142d808044cc56",
    "wof:id": 2031992167,
    "wof:repo": "sfomuseum-data-flights-2026-07"
  },
  "bbox": [
    -122.33333333333333,
    32.76638888888889,
    -97.06666666666666,
    38.33555555555556
  ],
  "geometry": {"coordinates":[[-97.06666666666666,32.81666666666667],[-97.07444444444444,32.794999999999995],[-97.1,32.766666666666666],[-97.14583333333334,32.76638888888889],[-97.18333333333334,32.766666666666666],[-97.23972222222223,32.77222222222222],[-97.33444444444444,32.79416666666666],[-97.43444444444445,32.818333333333335],[-97.54055555555556,32.84388888888889],[-97.65916666666668,32.87222222222222],[-97.76888888888888,32.90138888888889],[-97.88861111111112,32.94083333333333],[-98.01027777777777,32.980555555555554],[-98.13527777777779,33.021388888888886],[-98.25138888888888,33.05888888888889],[-98.3775,33.1075],[-98.50444444444445,33.15888888888889],[-98.63416666666667,33.21138888888889],[-98.76777777777778,33.265277777777776],[-98.90138888888889,33.31888888888889],[-99.03694444444444,33.373333333333335],[-99.17500000000001,33.42833333333333],[-99.31388888888888,33.483333333333334],[-99.4575,33.540277777777774],[-99.74527777777777,33.653055555555554],[-99.88666666666667,33.708333333333336],[-99.94666666666667,33.73166666666667],[-100.08999999999999,33.7875],[-100.21944444444445,33.837500000000006],[-100.34194444444444,33.88444444444444],[-100.36583333333333,33.89388888888889],[-100.48666666666666,33.94],[-100.5111111111111,33.94944444444444],[-100.62972222222221,33.99472222222222],[-100.65555555555557,34.004444444444445],[-100.77527777777777,34.05],[-100.8,34.059444444444445],[-100.91416666666667,34.1025],[-100.94611111111111,34.11472222222223],[-101.06055555555555,34.157777777777774],[-101.08944444444444,34.16861111111111],[-101.2063888888889,34.212500000000006],[-101.23722222222223,34.223888888888894],[-101.35083333333333,34.26638888888889],[-101.38027777777778,34.277499999999996],[-101.4975,34.321111111111115],[-101.52666666666667,34.331944444444446],[-101.64111111111112,34.37416666666667],[-101.67194444444445,34.385555555555555],[-101.81694444444445,34.43888888888888],[-101.92944444444444,34.48027777777778],[-101.96111111111111,34.49166666666667],[-102.07416666666666,34.533055555555556],[-102.10555555555555,34.544444444444444],[-102.21916666666667,34.58555555555556],[-102.24916666666667,34.59666666666667],[-102.36333333333333,34.63777777777778],[-102.39361111111111,34.64888888888889],[-102.50638888888889,34.68944444444444],[-102.53805555555556,34.700833333333335],[-102.65222222222222,34.74194444444444],[-102.68194444444445,34.7525],[-102.79777777777778,34.79388888888889],[-102.82888888888888,34.805],[-102.94277777777778,34.845555555555556],[-102.97194444444445,34.85583333333334],[-103.08805555555556,34.89694444444444],[-103.11694444444444,34.90694444444444],[-103.23361111111112,34.948055555555555],[-103.26277777777777,34.958333333333336],[-103.38222222222221,35.000277777777775],[-103.41000000000001,35.01],[-103.5261111111111,35.05027777777777],[-103.55472222222222,35.06027777777778],[-103.6713888888889,35.100833333333334],[-103.69972222222222,35.11083333333333],[-103.81888888888888,35.151944444444446],[-103.84638888888888,35.16138888888889],[-104.00666666666666,35.21638888888889],[-104.14611111111111,35.26416666666667],[-104.19250000000001,35.27777777777778],[-104.34305555555555,35.33027777777778],[-104.49388888888889,35.380833333333335],[-104.63277777777778,35.42805555555555],[-104.745,35.46638888888889],[-104.78277777777778,35.478611111111114],[-104.89166666666668,35.51555555555556],[-104.93388888888889,35.52777777777778],[-105.04027777777777,35.56472222222222],[-105.085,35.57777777777778],[-105.19083333333333,35.61472222222223],[-105.22500000000001,35.624722222222225],[-105.33999999999999,35.66361111111111],[-105.37805555555555,35.67666666666666],[-105.49194444444444,35.71333333333334],[-105.51416666666667,35.720555555555556],[-105.64416666666668,35.76277777777778],[-105.66472222222222,35.769444444444446],[-105.79388888888889,35.811388888888885],[-105.81666666666666,35.81861111111112],[-105.94666666666667,35.86055555555556],[-105.96888888888888,35.867777777777775],[-106.11833333333333,35.91555555555556],[-106.24083333333333,35.95472222222222],[-106.29666666666667,35.972500000000004],[-106.39527777777778,36.00361111111111],[-106.44444444444444,36.01916666666666],[-106.59694444444445,36.06722222222223],[-106.68805555555556,36.09583333333334],[-106.74722222222222,36.114444444444445],[-106.83805555555556,36.14277777777778],[-106.89861111111112,36.16166666666666],[-106.98777777777778,36.18944444444444],[-107.04888888888888,36.208333333333336],[-107.14055555555557,36.236666666666665],[-107.19972222222222,36.255],[-107.2911111111111,36.282777777777774],[-107.35194444444444,36.30166666666666],[-107.4413888888889,36.32888888888889],[-107.5025,36.347500000000004],[-107.59305555555555,36.375],[-107.65527777777778,36.39388888888889],[-107.80527777777777,36.439166666666665],[-107.89555555555556,36.46638888888889],[-107.95444444444445,36.48222222222223],[-108.04555555555555,36.51138888888889],[-108.10249999999999,36.52833333333333],[-108.24972222222222,36.57361111111111],[-108.40416666666667,36.6175],[-108.55527777777777,36.661944444444444],[-108.70333333333333,36.70583333333334],[-108.705,36.705555555555556],[-108.85194444444444,36.74888888888889],[-109.00444444444445,36.793055555555554],[-109.30027777777778,36.878055555555555],[-109.30444444444444,36.87833333333333],[-109.45666666666666,36.922777777777775],[-109.59861111111111,36.96194444444445],[-109.75611111111111,37.00694444444444],[-109.9038888888889,37.0475],[-110.06222222222222,37.0925],[-110.21416666666667,37.13444444444444],[-110.39555555555556,37.18444444444444],[-110.52027777777778,37.218611111111116],[-110.67694444444444,37.26111111111111],[-110.85499999999999,37.30916666666666],[-111.00805555555556,37.35027777777778],[-111.1363888888889,37.38472222222222],[-111.16250000000001,37.391666666666666],[-111.31861111111111,37.433055555555555],[-111.44527777777778,37.46638888888889],[-111.6236111111111,37.51305555555555],[-111.92694444444444,37.592222222222226],[-112.07777777777777,37.630833333333335],[-112.23138888888889,37.67027777777778],[-112.38138888888888,37.70861111111111],[-112.6825,37.78444444444444],[-112.98305555555555,37.85916666666667],[-113.13361111111112,37.896388888888886],[-113.285,37.93333333333333],[-113.59083333333332,38.007777777777775],[-113.74305555555556,38.044444444444444],[-114.04777777777778,38.11694444444444],[-114.20277777777778,38.15361111111111],[-114.35638888888889,38.18944444444444],[-114.50833333333334,38.225],[-114.66250000000001,38.26083333333333],[-114.81555555555555,38.295833333333334],[-114.90333333333334,38.31666666666667],[-114.96722222222222,38.324444444444445],[-115.0586111111111,38.33444444444444],[-115.12027777777777,38.33027777777778],[-115.21305555555556,38.331388888888895],[-115.27722222222222,38.33166666666667],[-115.36805555555554,38.33444444444444],[-115.42750000000001,38.3325],[-115.58416666666666,38.33305555555556],[-115.73861111111111,38.33361111111111],[-115.83555555555554,38.33555555555556],[-115.89777777777779,38.33388888888889],[-115.99305555555556,38.33388888888889],[-116.14833333333334,38.33388888888889],[-116.20833333333334,38.33361111111111],[-116.30305555555556,38.33111111111111],[-116.36166666666666,38.32472222222223],[-116.45277777777778,38.30638888888888],[-116.50888888888889,38.29416666666666],[-116.59888888888888,38.27361111111111],[-116.65361111111112,38.26138888888889],[-116.74416666666667,38.244166666666665],[-116.95527777777778,38.21611111111111],[-117.04388888888889,38.20416666666667],[-117.10277777777777,38.19638888888888],[-117.18833333333333,38.18472222222222],[-117.26861111111111,38.17361111111111],[-117.50305555555556,38.14111111111111],[-117.55944444444444,38.13333333333333],[-117.65,38.120555555555555],[-117.70694444444445,38.112500000000004],[-117.79777777777778,38.099722222222226],[-117.85472222222222,38.09166666666667],[-117.94638888888889,38.078611111111115],[-118.0038888888889,38.07027777777778],[-118.0961111111111,38.05694444444444],[-118.15138888888889,38.049166666666665],[-118.24222222222222,38.03527777777778],[-118.36138888888888,37.97138888888889],[-118.40083333333334,37.939722222222215],[-118.46277777777777,37.89055555555556],[-118.5625,37.81111111111111],[-118.67083333333333,37.734722222222224],[-118.8175,37.71555555555556],[-118.95305555555557,37.715],[-119.10499999999999,37.71388888888889],[-119.25416666666666,37.713055555555556],[-119.405,37.71194444444445],[-119.55388888888889,37.71055555555556],[-119.70444444444445,37.70888888888889],[-119.85249999999999,37.70722222222223],[-120.00416666666666,37.70527777777778],[-120.15222222222222,37.70305555555556],[-120.30222222222221,37.700833333333335],[-120.41666666666667,37.7],[-120.44666666666667,37.69444444444444],[-120.5,37.68333333333333],[-120.58999999999999,37.67777777777778],[-120.65,37.666666666666664],[-120.72722222222222,37.66138888888889],[-120.78333333333333,37.65],[-120.86027777777777,37.645833333333336],[-120.91666666666667,37.63333333333333],[-120.98416666666667,37.63055555555555],[-121.10916666666667,37.61361111111111],[-121.16666666666667,37.6],[-121.22305555555556,37.598333333333336],[-121.26666666666667,37.583333333333336],[-121.3286111111111,37.58527777777778],[-121.38333333333334,37.583333333333336],[-121.43305555555555,37.57333333333334],[-121.48333333333333,37.56666666666667],[-121.52833333333334,37.56222222222222],[-121.62305555555555,37.551111111111105],[-121.70805555555556,37.53111111111111],[-121.75,37.516666666666666],[-121.78611111111111,37.5125],[-121.81666666666666,37.5],[-121.86666666666666,37.49305555555556],[-121.9,37.5],[-121.9475,37.49527777777778],[-121.98333333333333,37.5],[-122.0275,37.499722222222225],[-122.06666666666666,37.5],[-122.09972222222221,37.506388888888885],[-122.13333333333334,37.516666666666666],[-122.1563888888889,37.528888888888886],[-122.18333333333334,37.53333333333333],[-122.21277777777777,37.55277777777778],[-122.23333333333333,37.56666666666667],[-122.26722222222222,37.57555555555556],[-122.30972222222222,37.593611111111116],[-122.33333333333333,37.6]],"type":"LineString"}
}
