{
  "id": 2031962261,
  "type": "Feature",
  "properties": {
    "geom:area": 0,
    "geom:bbox": "-122.832080,37.366490,-122.111730,38.515310",
    "geom:latitude": 37.78033732424673,
    "geom:longitude": -122.48217572262364,
    "src:alt_label": "swim-approach",
    "src:geom": "swim",
    "swim:elevations": [
      7468,
      7295,
      7109,
      6826,
      6670,
      6319,
      6174,
      5979,
      5686,
      5484,
      5200,
      4986,
      4715,
      4497,
      4204,
      4022,
      3899,
      3780,
      3607,
      3353,
      3353,
      3353,
      3353,
      3259,
      3120,
      2962,
      2770,
      2595,
      2439,
      2523,
      2225,
      2157,
      2135,
      2134,
      2097,
      2026,
      1829,
      1766,
      1736,
      1425,
      1216,
      1203,
      1022,
      937,
      914,
      914,
      774,
      618,
      555,
      404,
      273,
      183
    ],
    "swim:geom": "approach",
    "swim:timestamps": [
      1784976438,
      1784976455,
      1784976476,
      1784976508,
      1784976528,
      1784976568,
      1784976586,
      1784976608,
      1784976643,
      1784976666,
      1784976703,
      1784976730,
      1784976763,
      1784976796,
      1784976837,
      1784976863,
      1784976897,
      1784976923,
      1784976945,
      1784977007,
      1784977030,
      1784977067,
      1784977099,
      1784977126,
      1784977144,
      1784977162,
      1784977186,
      1784977209,
      1784977238,
      1784977265,
      1784977287,
      1784977304,
      1784977318,
      1784977340,
      1784977366,
      1784977386,
      1784977417,
      1784977468,
      1784977473,
      1784977517,
      1784977548,
      1784977609,
      1784977640,
      1784977652,
      1784977667,
      1784977726,
      1784977761,
      1784977791,
      1784977811,
      1784977846,
      1784977881,
      1784977910
    ],
    "wof:geomhash": "561aa01f49b745b6b2bd4872dd5d1b46",
    "wof:id": 2031962261,
    "wof:repo": "sfomuseum-data-flights-2026-07"
  },
  "bbox": [
    -122.83208,
    37.36649,
    -122.11173,
    38.51531
  ],
  "geometry": {"coordinates":[[-122.83208,38.51531],[-122.82529,38.48463],[-122.81678,38.44646],[-122.80426,38.39009],[-122.79642,38.35478],[-122.78102,38.28544],[-122.77408,38.25404],[-122.76538,38.21673],[-122.74792,38.15825],[-122.73683,38.12003],[-122.71934,38.05911],[-122.70689,38.01611],[-122.69229,37.96539],[-122.67926,37.9205],[-122.64151,37.86949],[-122.61183,37.84135],[-122.57482,37.80645],[-122.55033,37.78336],[-122.52991,37.76406],[-122.47261,37.70991],[-122.45098,37.68964],[-122.41687,37.65755],[-122.38728,37.62969],[-122.36422,37.6061],[-122.35309,37.58761],[-122.34252,37.56881],[-122.32853,37.54461],[-122.31458,37.52128],[-122.29722,37.4927],[-122.29952,37.46496],[-122.31839,37.44775],[-122.33388,37.43467],[-122.34596,37.42449],[-122.36662,37.4076],[-122.37465,37.3814],[-122.35582,37.36649],[-122.31269,37.37114],[-122.24434,37.38851],[-122.23784,37.39017],[-122.18028,37.40423],[-122.14024,37.41376],[-122.11389,37.46288],[-122.11173,37.48776],[-122.11841,37.49608],[-122.12742,37.50611],[-122.1767,37.53521],[-122.20836,37.54887],[-122.23581,37.5602],[-122.25364,37.56764],[-122.28119,37.57926],[-122.3059,37.58963],[-122.326,37.59809]],"type":"LineString"}
}
