{
  "id": 2031969595,
  "type": "Feature",
  "properties": {
    "geom:area": 0,
    "geom:bbox": "-122.545820,36.731390,-121.500510,37.663060",
    "geom:latitude": 37.223566350719125,
    "geom:longitude": -122.09205843768687,
    "src:alt_label": "swim-takeoff",
    "src:geom": "swim",
    "swim:elevations": [
      213,
      505,
      776,
      1199,
      1295,
      1959,
      2439,
      2964,
      3586,
      3685,
      4297,
      4445,
      4572,
      4716,
      5238,
      5629,
      5997,
      6156,
      6361,
      6696,
      6878,
      7641,
      8237,
      8348,
      8471,
      8526,
      8669,
      8877,
      9181,
      9200,
      9466,
      9580
    ],
    "swim:geom": "takeoff",
    "swim:timestamps": [
      1785013677,
      1785013694,
      1785013715,
      1785013762,
      1785013772,
      1785013822,
      1785013851,
      1785013886,
      1785013943,
      1785013952,
      1785013994,
      1785014003,
      1785014012,
      1785014023,
      1785014065,
      1785014098,
      1785014129,
      1785014143,
      1785014161,
      1785014191,
      1785014206,
      1785014276,
      1785014335,
      1785014350,
      1785014365,
      1785014371,
      1785014397,
      1785014417,
      1785014457,
      1785014460,
      1785014508,
      1785014527
    ],
    "wof:geomhash": "65d38e7f980f14b59aadbf771a5643fe",
    "wof:id": 2031969595,
    "wof:repo": "sfomuseum-data-flights-2026-07"
  },
  "bbox": [
    -122.54582,
    36.73139,
    -121.50051,
    37.66306
  ],
  "geometry": {"coordinates":[[-122.39158,37.6255],[-122.40549,37.63148],[-122.42184,37.63845],[-122.46573,37.65789],[-122.47773,37.66306],[-122.54305,37.65142],[-122.54582,37.61492],[-122.52227,37.57281],[-122.47786,37.49887],[-122.46741,37.48713],[-122.40664,37.44007],[-122.39186,37.42935],[-122.37805,37.41925],[-122.36097,37.40664],[-122.29453,37.35766],[-122.24151,37.31865],[-122.19116,37.28149],[-122.16701,37.26352],[-122.13726,37.24143],[-122.08558,37.20309],[-122.05961,37.18375],[-121.93701,37.09262],[-121.83484,37.01131],[-121.80964,36.99023],[-121.78416,36.96896],[-121.77371,36.96057],[-121.72884,36.92244],[-121.6951,36.89452],[-121.62485,36.83557],[-121.61955,36.83111],[-121.53456,36.76018],[-121.50051,36.73139]],"type":"LineString"}
}
