{
  "id": 2032034857,
  "type": "Feature",
  "properties": {
    "geom:area": 0,
    "geom:bbox": "-159.333333,21.966667,-122.100000,37.844722",
    "geom:latitude": 31.224909091427357,
    "geom:longitude": -140.95718428804923,
    "src:alt_label": "swim-path",
    "src:geom": "swim",
    "swim:altitudes": [
      "002",
      "007C",
      "021C",
      "041C",
      "069C",
      "094C",
      "113C",
      "131C",
      "151C",
      "169C",
      "185C",
      "201C",
      "218C",
      "231C",
      "243C",
      "256C",
      "268C",
      "277C",
      "286C",
      "296C",
      "306C",
      "316C",
      "325C",
      "337C",
      "347C",
      "350",
      "350",
      "350",
      "350",
      "350",
      "350",
      "350",
      "350",
      "350",
      "350",
      "350",
      "350",
      "350",
      "350",
      "350",
      "350",
      "350",
      "350",
      "350",
      "350",
      "350",
      "350",
      "350",
      "350",
      "350",
      "350",
      "350",
      "350",
      "350",
      "350C",
      "350C",
      "350C",
      "350C",
      "350C",
      "350C",
      "350C",
      "350C",
      "345",
      "335",
      "326",
      "316C",
      "306C",
      "300C",
      "300",
      "300",
      "300",
      "300",
      "291",
      "279",
      "269",
      "255",
      "237",
      "219",
      "202",
      "184",
      "165",
      "151",
      "144",
      "134",
      "128",
      "118",
      "112",
      "104",
      "098",
      "093",
      "090",
      "083",
      "078",
      "071",
      "065",
      "060",
      "060",
      "060",
      "060",
      "060",
      "060",
      "060",
      "060",
      "056",
      "052",
      "049",
      "044",
      "040",
      "040",
      "036",
      "032",
      "030",
      "030",
      "025",
      "021",
      "018",
      "013",
      "011",
      "007",
      "004"
    ],
    "swim:geom": "path",
    "swim:speeds": [
      90,
      140,
      200,
      250,
      280,
      280,
      310,
      340,
      350,
      370,
      380,
      400,
      400,
      410,
      420,
      430,
      440,
      450,
      460,
      470,
      480,
      480,
      490,
      480,
      480,
      480,
      480,
      480,
      480,
      480,
      480,
      480,
      480,
      480,
      480,
      470,
      470,
      470,
      470,
      470,
      480,
      470,
      480,
      470,
      470,
      470,
      470,
      470,
      470,
      470,
      470,
      480,
      480,
      480,
      496,
      496,
      496,
      496,
      496,
      493,
      492,
      491,
      489,
      487,
      489,
      500,
      500,
      488,
      478,
      462,
      461,
      459,
      457,
      447,
      442,
      432,
      422,
      412,
      391,
      382,
      369,
      361,
      352,
      349,
      341,
      341,
      333,
      324,
      312,
      298,
      278,
      263,
      251,
      250,
      245,
      247,
      242,
      244,
      245,
      244,
      242,
      243,
      250,
      247,
      239,
      220,
      200,
      198,
      193,
      190,
      180,
      172,
      171,
      170,
      162,
      162,
      140,
      141,
      143,
      141
    ],
    "swim:timestamps": [
      1785459242,
      1785459267,
      1785459328,
      1785459388,
      1785459448,
      1785459508,
      1785459568,
      1785459628,
      1785459688,
      1785459748,
      1785459809,
      1785459869,
      1785459929,
      1785459989,
      1785460049,
      1785460109,
      1785460169,
      1785460230,
      1785460290,
      1785460350,
      1785460410,
      1785460470,
      1785460530,
      1785460590,
      1785460651,
      1785460711,
      1785460771,
      1785460831,
      1785460891,
      1785460951,
      1785461011,
      1785461072,
      1785461132,
      1785461192,
      1785461240,
      1785461252,
      1785461300,
      1785461312,
      1785461360,
      1785461372,
      1785461420,
      1785461433,
      1785461480,
      1785461493,
      1785461540,
      1785461553,
      1785461600,
      1785461613,
      1785461637,
      1785461697,
      1785461758,
      1785461818,
      1785461880,
      1785461944,
      1785473634,
      1785473694,
      1785473754,
      1785473814,
      1785473874,
      1785473934,
      1785473994,
      1785474054,
      1785474114,
      1785474174,
      1785474234,
      1785474293,
      1785474353,
      1785474415,
      1785474475,
      1785474535,
      1785474595,
      1785474655,
      1785474715,
      1785474775,
      1785474835,
      1785474895,
      1785474955,
      1785475015,
      1785475075,
      1785475135,
      1785475198,
      1785475255,
      1785475270,
      1785475316,
      1785475330,
      1785475376,
      1785475391,
      1785475436,
      1785475450,
      1785475496,
      1785475505,
      1785475556,
      1785475571,
      1785475616,
      1785475631,
      1785475676,
      1785475685,
      1785475736,
      1785475751,
      1785475796,
      1785475810,
      1785475856,
      1785475871,
      1785475916,
      1785475931,
      1785475976,
      1785475991,
      1785476036,
      1785476051,
      1785476096,
      1785476111,
      1785476156,
      1785476171,
      1785476216,
      1785476231,
      1785476276,
      1785476297,
      1785476336,
      1785476357,
      1785476397
    ],
    "wof:geomhash": "4db0418f63171df6cac01a920fd924e1",
    "wof:id": 2032034857,
    "wof:repo": "sfomuseum-data-flights-2026-07"
  },
  "bbox": [
    -159.33333333333334,
    21.966666666666665,
    -122.1,
    37.844722222222224
  ],
  "geometry": {"coordinates":[[-159.33333333333334,21.966666666666665],[-159.31666666666666,21.983333333333334],[-159.3,22.033333333333335],[-159.26666666666668,22.083333333333332],[-159.21666666666667,22.15],[-159.16666666666666,22.2],[-159.08333333333334,22.25],[-159,22.3],[-158.91666666666666,22.366666666666667],[-158.83333333333334,22.416666666666668],[-158.73333333333332,22.483333333333334],[-158.63333333333333,22.55],[-158.53333333333333,22.616666666666667],[-158.43333333333334,22.683333333333334],[-158.33333333333334,22.75],[-158.23333333333332,22.816666666666666],[-158.11666666666667,22.883333333333333],[-158,22.95],[-157.9,23.033333333333335],[-157.78333333333333,23.1],[-157.66666666666666,23.183333333333334],[-157.53333333333333,23.266666666666666],[-157.41666666666666,23.333333333333332],[-157.3,23.416666666666668],[-157.18333333333334,23.483333333333334],[-157.06666666666666,23.566666666666666],[-156.93333333333334,23.633333333333333],[-156.81666666666666,23.716666666666665],[-156.7,23.783333333333335],[-156.58333333333334,23.866666666666667],[-156.46666666666667,23.95],[-156.33333333333334,24.016666666666666],[-156.21666666666667,24.1],[-156.1,24.166666666666668],[-156.01666666666668,24.216666666666665],[-155.98333333333332,24.25],[-155.9,24.3],[-155.86666666666667,24.316666666666666],[-155.78333333333333,24.383333333333333],[-155.75,24.4],[-155.66666666666666,24.45],[-155.63333333333333,24.466666666666665],[-155.55,24.516666666666666],[-155.51666666666668,24.55],[-155.43333333333334,24.6],[-155.4,24.633333333333333],[-155.31666666666666,24.666666666666668],[-155.28333333333333,24.7],[-155.23333333333332,24.733333333333334],[-155.11666666666667,24.8],[-155,24.9],[-154.88333333333333,24.983333333333334],[-154.76666666666668,25.066666666666666],[-154.65,25.166666666666668],[-127.47777777777777,37.738055555555555],[-127.3111111111111,37.77055555555555],[-127.14055555555557,37.80416666666667],[-126.9713888888889,37.84],[-126.80222222222221,37.844722222222224],[-126.6325,37.822500000000005],[-126.46166666666667,37.79944444444444],[-126.29222222222222,37.776666666666664],[-126.11305555555555,37.75222222222222],[-125.94305555555556,37.72833333333333],[-125.77555555555556,37.70527777777778],[-125.6,37.68333333333333],[-125.43333333333334,37.65],[-125.2611111111111,37.63138888888889],[-125.0975,37.6075],[-124.93916666666667,37.58444444444444],[-124.78333333333333,37.56111111111111],[-124.62472222222222,37.5375],[-124.46861111111112,37.513888888888886],[-124.31638888888888,37.49055555555556],[-124.16638888888889,37.4675],[-124.01916666666666,37.44444444444444],[-123.87472222222222,37.42166666666667],[-123.735,37.39944444444444],[-123.60111111111111,37.378055555555555],[-123.47,37.35722222222223],[-123.31666666666666,37.333333333333336],[-123.22055555555556,37.31666666666667],[-123.18333333333334,37.31666666666667],[-123.10194444444444,37.29694444444444],[-123.05,37.28333333333333],[-122.98777777777778,37.27833333333333],[-122.95,37.266666666666666],[-122.87555555555555,37.26027777777778],[-122.83333333333333,37.266666666666666],[-122.77222222222223,37.278888888888886],[-122.75,37.28333333333333],[-122.68472222222222,37.29944444444444],[-122.65,37.3],[-122.60083333333333,37.31888888888889],[-122.56666666666666,37.333333333333336],[-122.52,37.337500000000006],[-122.5,37.333333333333336],[-122.43722222222223,37.328611111111115],[-122.4,37.31666666666667],[-122.36666666666666,37.34805555555556],[-122.35,37.36666666666667],[-122.32527777777777,37.40611111111111],[-122.28333333333333,37.416666666666664],[-122.23972222222223,37.40861111111111],[-122.2,37.4],[-122.16000000000001,37.40416666666667],[-122.13333333333334,37.416666666666664],[-122.11472222222221,37.439166666666665],[-122.1,37.46666666666667],[-122.11416666666666,37.48694444444445],[-122.13333333333334,37.5],[-122.1525,37.52444444444444],[-122.16666666666667,37.53333333333333],[-122.20472222222223,37.54666666666667],[-122.23333333333333,37.55],[-122.2538888888889,37.56777777777778],[-122.28333333333333,37.583333333333336],[-122.29777777777778,37.586111111111116],[-122.31666666666666,37.6],[-122.34138888888889,37.60444444444445]],"type":"LineString"}
}
