{
  "id": 2031979667,
  "type": "Feature",
  "properties": {
    "geom:area": 0,
    "geom:bbox": "-122.279550,37.754760,-121.339570,38.342740",
    "geom:latitude": 38.09021080953756,
    "geom:longitude": -121.85703338752045,
    "src:alt_label": "swim-takeoff",
    "src:geom": "swim",
    "swim:elevations": [
      1720,
      1828,
      1922,
      2332,
      2749,
      2813,
      3201,
      3324,
      3490,
      3651,
      4097,
      4204,
      4441,
      4572,
      4593,
      4844,
      5166,
      5235,
      5254,
      5458,
      5730
    ],
    "swim:geom": "takeoff",
    "swim:timestamps": [
      1785085811,
      1785085825,
      1785085834,
      1785085870,
      1785085914,
      1785085920,
      1785085969,
      1785086006,
      1785086051,
      1785086071,
      1785086128,
      1785086142,
      1785086175,
      1785086192,
      1785086195,
      1785086233,
      1785086277,
      1785086295,
      1785086301,
      1785086335,
      1785086382
    ],
    "wof:geomhash": "98cd24a32959e234ce9b09ca7fffac66",
    "wof:id": 2031979667,
    "wof:repo": "sfomuseum-data-flights-2026-07"
  },
  "bbox": [
    -122.27955,
    37.75476,
    -121.33957,
    38.34274
  ],
  "geometry": {"coordinates":[[-122.27627,37.75476],[-122.27821,37.77303],[-122.27955,37.78479],[-122.27654,37.83152],[-122.24499,37.88564],[-122.23968,37.8943],[-122.17925,37.94318],[-122.11795,37.97395],[-122.03337,38.01666],[-121.99663,38.0351],[-121.88319,38.09187],[-121.8552,38.10578],[-121.78811,38.13892],[-121.75269,38.15516],[-121.74636,38.158],[-121.66578,38.1941],[-121.57251,38.23653],[-121.53313,38.25455],[-121.52034,38.2604],[-121.44474,38.2949],[-121.33957,38.34274]],"type":"LineString"}
}
