{
  "id": 2031956201,
  "type": "Feature",
  "properties": {
    "geom:area": 0,
    "geom:bbox": "-123.025000,37.400000,-121.070556,44.265000",
    "geom:latitude": 40.58439747009385,
    "geom:longitude": -122.17509788307805,
    "src:alt_label": "swim-path",
    "src:geom": "swim",
    "swim:altitudes": [
      "042",
      "056",
      "088",
      "124",
      "159",
      "186",
      "203",
      "218",
      "233",
      "246",
      "256",
      "271",
      "282",
      "290C",
      "290C",
      "290C",
      "290C",
      "290C",
      "290C",
      "290C",
      "290C",
      "290C",
      "290C",
      "290C",
      "290C",
      "290C",
      "290C",
      "290C",
      "290C",
      "290C",
      "290C",
      "290C",
      "290C",
      "290C",
      "290C",
      "290C",
      "290C",
      "290C",
      "290C",
      "290C",
      "290C",
      "290C",
      "290C",
      "290C",
      "290C",
      "290C",
      "290C",
      "290C",
      "290C",
      "290C",
      "290C",
      "290C",
      "290C",
      "290C",
      "290C",
      "290C",
      "290C",
      "290C",
      "290C",
      "290C",
      "290C",
      "290C",
      "290C",
      "290",
      "290",
      "290",
      "290",
      "288",
      "268",
      "258",
      "244",
      "208",
      "202",
      "181",
      "162",
      "158",
      "143",
      "139",
      "111C",
      "110C",
      "110C",
      "070",
      "055",
      "054",
      "047",
      "045",
      "037",
      "026",
      "024",
      "018",
      "017",
      "011",
      "005",
      "110"
    ],
    "swim:geom": "path",
    "swim:speeds": [
      171,
      236,
      280,
      292,
      314,
      323,
      352,
      359,
      366,
      378,
      392,
      395,
      394,
      397,
      397,
      399,
      398,
      400,
      400,
      402,
      402,
      401,
      402,
      403,
      405,
      403,
      404,
      403,
      403,
      403,
      404,
      404,
      405,
      406,
      406,
      406,
      406,
      406,
      405,
      404,
      403,
      404,
      362,
      356,
      353,
      352,
      353,
      355,
      336,
      334,
      332,
      332,
      334,
      336,
      335,
      340,
      341,
      341,
      341,
      340,
      340,
      340,
      340,
      340,
      340,
      342,
      344,
      350,
      385,
      383,
      382,
      370,
      369,
      355,
      344,
      345,
      337,
      340,
      305,
      265,
      249,
      240,
      221,
      220,
      196,
      200,
      175,
      174,
      161,
      132,
      135,
      132,
      131,
      122
    ],
    "swim:timestamps": [
      1784934211,
      1784934271,
      1784934331,
      1784934391,
      1784934451,
      1784934511,
      1784934571,
      1784934631,
      1784934691,
      1784934752,
      1784934804,
      1784934872,
      1784934924,
      1784934985,
      1784935045,
      1784935112,
      1784935165,
      1784935172,
      1784935225,
      1784935232,
      1784935292,
      1784935345,
      1784935412,
      1784935472,
      1784935525,
      1784935533,
      1784935585,
      1784935593,
      1784935653,
      1784935706,
      1784935773,
      1784935826,
      1784935893,
      1784935953,
      1784936006,
      1784936073,
      1784936126,
      1784936133,
      1784936193,
      1784936253,
      1784936314,
      1784936374,
      1784936427,
      1784936434,
      1784936487,
      1784936494,
      1784936554,
      1784936607,
      1784936667,
      1784936674,
      1784936727,
      1784936734,
      1784936787,
      1784936854,
      1784936914,
      1784936967,
      1784937027,
      1784937087,
      1784937148,
      1784937208,
      1784937268,
      1784937328,
      1784937388,
      1784937448,
      1784937508,
      1784937568,
      1784937688,
      1784937748,
      1784937869,
      1784937929,
      1784937989,
      1784938078,
      1784938096,
      1784938156,
      1784938216,
      1784938229,
      1784938276,
      1784938289,
      1784938409,
      1784938469,
      1784938529,
      1784938710,
      1784938816,
      1784938830,
      1784938876,
      1784938890,
      1784938950,
      1784939010,
      1784939070,
      1784939117,
      1784939130,
      1784939190,
      1784939250,
      1784939310
    ],
    "wof:geomhash": "26d60ef3e7e9cbbf23ea33a7a7c4925b",
    "wof:id": 2031956201,
    "wof:repo": "sfomuseum-data-flights-2026-07"
  },
  "bbox": [
    -123.025,
    37.4,
    -121.07055555555556,
    44.265
  ],
  "geometry": {"coordinates":[[-121.1211111111111,44.265],[-121.08305555555555,44.218611111111116],[-121.07055555555556,44.14333333333333],[-121.08972222222222,44.069722222222225],[-121.11944444444444,43.98277777777778],[-121.15083333333334,43.89472222222222],[-121.18416666666667,43.797777777777775],[-121.21472222222222,43.7075],[-121.24916666666667,43.605555555555554],[-121.28277777777778,43.505],[-121.31222222222222,43.41972222222222],[-121.35416666666666,43.291666666666664],[-121.38333333333334,43.205000000000005],[-121.41861111111112,43.09666666666667],[-121.45527777777778,42.98972222222222],[-121.49722222222222,42.86055555555556],[-121.52527777777777,42.77305555555555],[-121.53305555555555,42.75138888888889],[-121.56194444444444,42.66361111111111],[-121.56916666666666,42.641666666666666],[-121.60444444444444,42.532777777777774],[-121.63194444444444,42.44583333333333],[-121.67527777777778,42.315],[-121.71027777777778,42.20611111111111],[-121.73666666666666,42.11638888888889],[-121.7425,42.093611111111116],[-121.76527777777778,42.00416666666667],[-121.77083333333333,41.9825],[-121.79972222222221,41.86944444444445],[-121.82194444444444,41.780833333333334],[-121.85555555555555,41.6475],[-121.87777777777777,41.55972222222222],[-121.9113888888889,41.42611111111111],[-121.93861111111111,41.315555555555555],[-121.96000000000001,41.22972222222222],[-121.99305555555556,41.096944444444446],[-122.015,41.00833333333333],[-122.02027777777778,40.98722222222222],[-122.0475,40.87638888888889],[-122.07472222222222,40.765277777777776],[-122.10111111111111,40.6575],[-122.12805555555555,40.545833333333334],[-122.16972222222223,40.46805555555556],[-122.18861111111111,40.45583333333334],[-122.2875,40.43694444444444],[-122.31194444444444,40.43472222222222],[-122.43805555555556,40.42222222222222],[-122.5411111111111,40.41166666666666],[-122.65861111111111,40.385555555555555],[-122.67611111111111,40.373333333333335],[-122.74666666666667,40.32416666666667],[-122.76361111111112,40.3125],[-122.83583333333333,40.2625],[-122.95083333333334,40.18277777777777],[-123.025,40.11222222222222],[-123.02194444444444,40.025555555555556],[-123.00833333333334,39.93083333333333],[-122.995,39.83777777777778],[-122.98166666666667,39.74444444444445],[-122.96805555555555,39.650277777777774],[-122.95472222222223,39.55611111111111],[-122.9413888888889,39.46416666666667],[-122.92944444444444,39.38],[-122.91611111111112,39.28527777777778],[-122.90277777777779,39.19166666666666],[-122.88916666666667,39.09638888888889],[-122.8625,38.90694444444444],[-122.84916666666666,38.809999999999995],[-122.81916666666666,38.59722222222222],[-122.80444444444444,38.49166666666667],[-122.78999999999999,38.38805555555555],[-122.76666666666667,38.21666666666667],[-122.75,38.18333333333333],[-122.73333333333333,38.083333333333336],[-122.7,38],[-122.69416666666667,37.973055555555554],[-122.66666666666667,37.9],[-122.66027777777778,37.888333333333335],[-122.51722222222222,37.75277777777778],[-122.45416666666667,37.69305555555555],[-122.39805555555556,37.64],[-122.27972222222222,37.463055555555556],[-122.15,37.4],[-122.14694444444446,37.4],[-122.11666666666666,37.43333333333333],[-122.11333333333333,37.44027777777777],[-122.13027777777778,37.49027777777778],[-122.15972222222223,37.527499999999996],[-122.21111111111111,37.54972222222222],[-122.25,37.56666666666667],[-122.25333333333333,37.5675],[-122.2936111111111,37.58444444444444],[-122.33333333333333,37.60111111111111],[-122.37222222222222,37.6175]],"type":"LineString"}
}
