{
  "id": 2031979661,
  "type": "Feature",
  "properties": {
    "geom:area": 0,
    "geom:bbox": "-122.533333,37.633333,-83.280556,45.538611",
    "geom:latitude": 43.45377328968386,
    "geom:longitude": -103.46397079426784,
    "src:alt_label": "swim-path",
    "src:geom": "swim",
    "swim:altitudes": [
      "015",
      "038",
      "041",
      "060",
      "079",
      "094",
      "108",
      "120",
      "154",
      "184",
      "196",
      "209",
      "223",
      "243",
      "249",
      "257",
      "266",
      "276",
      "288",
      "297",
      "315",
      "323",
      "329",
      "332",
      "338",
      "340",
      "340",
      "340",
      "346",
      "350C",
      "350C",
      "350C",
      "350C",
      "350C",
      "350C",
      "350C",
      "350C",
      "350C",
      "350C",
      "350C",
      "350C",
      "350C",
      "350C",
      "350C",
      "350C",
      "350C",
      "350C",
      "350C",
      "350C",
      "350C",
      "350C",
      "350C",
      "350C",
      "350C",
      "350C",
      "350C",
      "350C",
      "350C",
      "350C",
      "350C",
      "350C",
      "350C",
      "350C",
      "350C",
      "350C",
      "350C",
      "350C",
      "350C",
      "350C",
      "350C",
      "350C",
      "350C",
      "350C",
      "350C",
      "350C",
      "350C",
      "350C",
      "350C",
      "350C",
      "350C",
      "350C",
      "350C",
      "350C",
      "350C",
      "350C",
      "350C",
      "350C",
      "350C",
      "350C",
      "350C",
      "350C",
      "350C",
      "350C",
      "350C",
      "350C",
      "350C",
      "350C",
      "350C",
      "350C",
      "350C",
      "350C",
      "350C",
      "350C",
      "350C",
      "350C",
      "350C",
      "350C",
      "350C",
      "350C",
      "350C",
      "350C",
      "350C",
      "350C",
      "350C",
      "350C",
      "350C",
      "350C",
      "350C",
      "350C",
      "350C",
      "350C",
      "350C",
      "350C",
      "350C",
      "350C",
      "350C",
      "350C",
      "350C",
      "350C",
      "350C",
      "350C",
      "350C",
      "350C",
      "350C",
      "350C",
      "350C",
      "350C",
      "350C",
      "350C",
      "350C",
      "350C",
      "350C",
      "350C",
      "350C",
      "350C",
      "350C",
      "350C",
      "350C",
      "350C",
      "350C",
      "350C",
      "350C",
      "350C",
      "350C",
      "350C",
      "350C",
      "350C",
      "350C",
      "350C",
      "350C",
      "350C",
      "350C",
      "350C",
      "350C",
      "350C",
      "350C",
      "350C",
      "350C",
      "350C",
      "350C",
      "350C",
      "350C",
      "350C",
      "350C",
      "350C",
      "350C",
      "350C",
      "350C",
      "350C",
      "350C",
      "350C",
      "350C",
      "350C",
      "350C",
      "350C",
      "350C",
      "350C",
      "350C",
      "350C",
      "350C",
      "350C",
      "350C",
      "350C",
      "350C",
      "350C",
      "350C",
      "350C",
      "350C",
      "350C",
      "350C",
      "350C",
      "350",
      "347",
      "344",
      "340",
      "332",
      "322",
      "316",
      "310C"
    ],
    "swim:geom": "path",
    "swim:speeds": [
      145,
      244,
      257,
      272,
      290,
      299,
      347,
      367,
      392,
      410,
      424,
      434,
      441,
      457,
      460,
      461,
      464,
      471,
      476,
      476,
      490,
      493,
      494,
      495,
      499,
      512,
      516,
      528,
      538,
      522,
      530,
      536,
      542,
      543,
      542,
      542,
      543,
      544,
      544,
      543,
      542,
      541,
      540,
      539,
      538,
      538,
      538,
      537,
      536,
      536,
      536,
      534,
      534,
      534,
      533,
      533,
      533,
      533,
      534,
      534,
      534,
      534,
      533,
      534,
      534,
      535,
      534,
      534,
      534,
      535,
      536,
      537,
      536,
      532,
      533,
      532,
      531,
      532,
      533,
      534,
      534,
      534,
      533,
      532,
      531,
      532,
      531,
      532,
      534,
      535,
      535,
      536,
      537,
      538,
      538,
      537,
      535,
      535,
      530,
      535,
      532,
      534,
      532,
      534,
      534,
      534,
      535,
      535,
      535,
      535,
      535,
      535,
      535,
      534,
      535,
      534,
      533,
      532,
      531,
      530,
      530,
      533,
      532,
      531,
      532,
      533,
      533,
      533,
      532,
      532,
      532,
      531,
      530,
      529,
      529,
      530,
      531,
      531,
      534,
      538,
      539,
      538,
      536,
      532,
      530,
      518,
      517,
      520,
      523,
      526,
      527,
      529,
      533,
      534,
      534,
      535,
      534,
      534,
      534,
      534,
      534,
      534,
      536,
      538,
      539,
      538,
      536,
      541,
      542,
      541,
      530,
      529,
      531,
      537,
      543,
      544,
      543,
      544,
      545,
      538,
      546,
      550,
      546,
      550,
      551,
      551,
      551,
      550,
      550,
      550,
      549,
      550,
      550,
      552,
      549,
      539,
      537,
      537,
      536,
      536,
      536,
      535,
      534,
      532,
      532,
      535,
      529,
      510,
      509
    ],
    "swim:timestamps": [
      1785079738,
      1785079851,
      1785079858,
      1785079919,
      1785079978,
      1785080032,
      1785080098,
      1785080152,
      1785080272,
      1785080392,
      1785080452,
      1785080512,
      1785080572,
      1785080693,
      1785080753,
      1785080810,
      1785080870,
      1785080930,
      1785080993,
      1785081050,
      1785081230,
      1785081290,
      1785081350,
      1785081410,
      1785081470,
      1785081531,
      1785081591,
      1785081651,
      1785081711,
      1785081774,
      1785081831,
      1785081891,
      1785081951,
      1785082011,
      1785082071,
      1785082135,
      1785082255,
      1785082312,
      1785082372,
      1785082432,
      1785082492,
      1785082552,
      1785082612,
      1785082672,
      1785082732,
      1785082792,
      1785082852,
      1785082912,
      1785083033,
      1785083333,
      1785083393,
      1785083513,
      1785083573,
      1785083633,
      1785083753,
      1785083814,
      1785083874,
      1785084054,
      1785084174,
      1785084234,
      1785084294,
      1785084354,
      1785084414,
      1785084474,
      1785084595,
      1785084655,
      1785084715,
      1785084775,
      1785084835,
      1785084955,
      1785085015,
      1785085075,
      1785085135,
      1785085195,
      1785085255,
      1785085316,
      1785085373,
      1785085436,
      1785085496,
      1785085553,
      1785085616,
      1785085674,
      1785085734,
      1785085794,
      1785085854,
      1785085916,
      1785085976,
      1785086037,
      1785086097,
      1785086142,
      1785086157,
      1785086217,
      1785086262,
      1785086322,
      1785086337,
      1785086397,
      1785086443,
      1785086457,
      1785086494,
      1785086517,
      1785086554,
      1785086577,
      1785086614,
      1785086683,
      1785086697,
      1785086734,
      1785086758,
      1785086875,
      1785086915,
      1785086938,
      1785086975,
      1785086995,
      1785087035,
      1785087058,
      1785087095,
      1785087118,
      1785087155,
      1785087178,
      1785087215,
      1785087275,
      1785087335,
      1785087395,
      1785087455,
      1785087576,
      1785087636,
      1785087696,
      1785087756,
      1785087816,
      1785087876,
      1785087936,
      1785087996,
      1785088056,
      1785088116,
      1785088236,
      1785088297,
      1785088357,
      1785088417,
      1785088477,
      1785088537,
      1785088657,
      1785088777,
      1785088837,
      1785088897,
      1785088957,
      1785089018,
      1785089078,
      1785089138,
      1785089198,
      1785089258,
      1785089318,
      1785089378,
      1785089438,
      1785089498,
      1785089558,
      1785089618,
      1785089678,
      1785089739,
      1785089859,
      1785089919,
      1785090039,
      1785090099,
      1785090219,
      1785090339,
      1785090399,
      1785090460,
      1785090520,
      1785090580,
      1785090640,
      1785090700,
      1785090760,
      1785090820,
      1785090880,
      1785090940,
      1785091000,
      1785091060,
      1785091120,
      1785091181,
      1785091241,
      1785091301,
      1785091541,
      1785091601,
      1785091661,
      1785091721,
      1785091759,
      1785091781,
      1785091819,
      1785091841,
      1785091879,
      1785091902,
      1785091939,
      1785091962,
      1785091999,
      1785092022,
      1785092082,
      1785092120,
      1785092142,
      1785092202,
      1785092240,
      1785092262,
      1785092300,
      1785092322,
      1785092360,
      1785092382,
      1785092420,
      1785092442,
      1785092502,
      1785092562,
      1785092600,
      1785092623
    ],
    "wof:geomhash": "6aa3e5d75dc9d7b377c63168ab40cd20",
    "wof:id": 2031979661,
    "wof:repo": "sfomuseum-data-flights-2026-07"
  },
  "bbox": [
    -122.53333333333333,
    37.63333333333333,
    -83.28055555555555,
    45.53861111111111
  ],
  "geometry": {"coordinates":[[-122.41666666666667,37.63333333333333],[-122.51916666666666,37.6875],[-122.51666666666667,37.7],[-122.53333333333333,37.766666666666666],[-122.51666666666667,37.85],[-122.44666666666667,37.89666666666667],[-122.35,37.96666666666667],[-122.26083333333334,38.01166666666666],[-122.04472222222222,38.144444444444446],[-121.81805555555555,38.282777777777774],[-121.70277777777778,38.3525],[-121.58083333333333,38.42638888888889],[-121.455,38.503055555555555],[-121.19083333333333,38.663888888888884],[-121.08194444444445,38.722500000000004],[-120.94555555555556,38.793055555555554],[-120.80499999999999,38.86388888888889],[-120.66444444444446,38.94083333333333],[-120.52,39.01722222222222],[-120.38055555555555,39.08694444444445],[-119.94555555555556,39.31055555555555],[-119.79666666666667,39.38638888888889],[-119.64750000000001,39.463055555555556],[-119.49805555555555,39.53805555555555],[-119.34527777777777,39.615833333333335],[-119.19361111111111,39.69166666666666],[-119.03388888888888,39.77111111111111],[-118.87027777777777,39.85194444444445],[-118.70722222222223,39.93222222222222],[-118.54222222222222,40.01277777777778],[-118.38666666666667,40.08861111111111],[-118.22,40.16916666666666],[-118.05305555555556,40.24944444444444],[-117.885,40.330000000000005],[-117.71638888888889,40.41027777777778],[-117.54583333333333,40.49111111111111],[-117.205,40.65138888888889],[-117.03722222222223,40.72944444444445],[-116.86416666666666,40.80972222222222],[-116.69472222222223,40.88777777777778],[-116.52416666666666,40.96611111111111],[-116.35305555555556,41.04388888888889],[-116.18222222222222,41.12138888888889],[-116.01333333333334,41.1975],[-115.84277777777777,41.27388888888889],[-115.67055555555557,41.35055555555556],[-115.49944444444445,41.42638888888889],[-115.32916666666667,41.50138888888889],[-114.98583333333333,41.65138888888889],[-114.11888888888888,42.02222222222222],[-113.94805555555556,42.094166666666666],[-113.59861111111111,42.23972222222222],[-113.42472222222223,42.31166666666666],[-113.25194444444445,42.3825],[-112.90138888888889,42.525277777777774],[-112.72444444444444,42.59666666666667],[-112.54972222222221,42.666666666666664],[-112.01916666666666,42.876666666666665],[-111.66055555555556,43.016666666666666],[-111.48305555555555,43.08527777777778],[-111.30361111111111,43.153888888888886],[-111.12666666666667,43.22138888888889],[-110.94611111111111,43.29],[-110.765,43.358333333333334],[-110.39,43.49805555555556],[-110.22416666666666,43.55916666666666],[-110.04333333333334,43.62583333333333],[-109.85916666666667,43.69277777777778],[-109.67833333333334,43.75833333333333],[-109.30166666666666,43.89361111111111],[-109.11611111111111,43.95944444444445],[-108.93111111111112,44.02444444444444],[-108.74638888888889,44.08916666666667],[-108.56138888888889,44.15361111111111],[-108.3761111111111,44.217777777777776],[-108.19250000000001,44.28055555555555],[-108.00861111111111,44.343333333333334],[-107.82166666666666,44.406388888888884],[-107.6388888888889,44.467777777777776],[-107.45361111111112,44.52972222222222],[-107.22694444444444,44.60472222222222],[-107.07722222222222,44.65416666666667],[-106.89027777777778,44.71527777777778],[-106.7038888888889,44.775555555555556],[-106.51416666666667,44.836666666666666],[-106.28611111111111,44.909444444444446],[-106.09583333333333,44.97],[-105.89916666666667,45.01111111111111],[-105.68916666666667,45.03388888888889],[-105.56694444444445,45.04694444444444],[-105.48444444444445,45.05583333333333],[-105.275,45.07777777777778],[-105.11027777777777,45.094722222222224],[-104.89916666666667,45.11611111111111],[-104.85694444444444,45.12027777777778],[-104.64861111111112,45.14083333333333],[-104.48305555555555,45.15694444444444],[-104.45527777777778,45.15972222222222],[-104.33333333333333,45.171388888888885],[-104.2475,45.17944444444444],[-104.12444444444444,45.191111111111105],[-104.03444444444445,45.19944444444444],[-103.91666666666667,45.21027777777778],[-103.6613888888889,45.233333333333334],[-103.62055555555555,45.23694444444445],[-103.49777777777778,45.24777777777778],[-103.41166666666668,45.25527777777778],[-102.99444444444444,45.29083333333333],[-102.86972222222222,45.301111111111105],[-102.78388888888888,45.30833333333333],[-102.6575,45.318333333333335],[-102.57527777777777,45.325],[-102.44972222222222,45.334722222222226],[-102.36722222222221,45.34138888888889],[-102.24111111111111,45.35111111111111],[-102.15722222222223,45.35722222222223],[-102.03333333333333,45.36666666666667],[-101.9525,45.37277777777778],[-101.82416666666666,45.382222222222225],[-101.61861111111111,45.39694444444444],[-101.4088888888889,45.41138888888889],[-101.19972222222222,45.42583333333333],[-100.9888888888889,45.439722222222215],[-100.57055555555556,45.46638888888889],[-100.35888888888888,45.47916666666667],[-100.14611111111111,45.49166666666667],[-99.9363888888889,45.501666666666665],[-99.72166666666666,45.50666666666667],[-99.51166666666667,45.51166666666666],[-99.29916666666666,45.51611111111111],[-99.0911111111111,45.52027777777778],[-98.87888888888888,45.52388888888889],[-98.6713888888889,45.526944444444446],[-98.25027777777778,45.5325],[-98.04027777777777,45.53444444444444],[-97.83027777777778,45.53611111111111],[-97.62027777777777,45.5375],[-97.40694444444445,45.53861111111111],[-97.19916666666667,45.52833333333333],[-96.77527777777777,45.48722222222222],[-96.35277777777777,45.44444444444444],[-96.1438888888889,45.422777777777775],[-95.93222222222222,45.400277777777774],[-95.72777777777777,45.37833333333333],[-95.52083333333333,45.355555555555554],[-95.31861111111111,45.33305555555556],[-95.11638888888888,45.31027777777778],[-94.91333333333334,45.28666666666666],[-94.70805555555556,45.26277777777778],[-94.50888888888889,45.23916666666667],[-94.30611111111111,45.21472222222223],[-94.0975,45.18888888888888],[-93.88861111111112,45.16305555555555],[-93.685,45.13722222222222],[-93.47611111111111,45.11027777777778],[-93.26527777777778,45.08277777777778],[-93.05833333333334,45.055277777777775],[-92.64305555555556,44.99916666666667],[-92.43555555555555,44.970555555555556],[-92.02444444444444,44.9125],[-91.81972222222223,44.88305555555556],[-91.41083333333334,44.82277777777778],[-91.0038888888889,44.76138888888889],[-90.79555555555555,44.72944444444445],[-90.59138888888889,44.69777777777777],[-90.40277777777779,44.668055555555554],[-90.19888888888889,44.63527777777778],[-89.99527777777777,44.6025],[-89.79055555555556,44.56916666666667],[-89.58222222222221,44.53472222222222],[-89.38222222222221,44.50111111111111],[-89.18416666666667,44.4675],[-88.98305555555555,44.43333333333333],[-88.7761111111111,44.39722222222222],[-88.57249999999999,44.361666666666665],[-88.36555555555555,44.325],[-88.15972222222223,44.28805555555555],[-87.95583333333333,44.25111111111111],[-87.74916666666667,44.213055555555556],[-86.94083333333333,44.06083333333333],[-86.7363888888889,44.021388888888886],[-86.53222222222222,43.981388888888894],[-86.32916666666667,43.94138888888889],[-86.21222222222222,43.918055555555554],[-86.12416666666665,43.900555555555556],[-86.0038888888889,43.87638888888889],[-85.91861111111112,43.85888888888889],[-85.80222222222221,43.83527777777778],[-85.71333333333334,43.81722222222223],[-85.60472222222222,43.794999999999995],[-85.51055555555556,43.775555555555556],[-85.39472222222223,43.75138888888889],[-85.3086111111111,43.73361111111111],[-85.10277777777777,43.69027777777777],[-84.98472222222222,43.66777777777777],[-84.89972222222222,43.66111111111111],[-84.69277777777778,43.64805555555556],[-84.57277777777777,43.640277777777776],[-84.48805555555556,43.63472222222222],[-84.36861111111111,43.62694444444445],[-84.28555555555555,43.62138888888889],[-84.16805555555555,43.61333333333334],[-84.08138888888888,43.6075],[-83.98305555555555,43.600833333333334],[-83.87888888888888,43.593333333333334],[-83.67944444444444,43.57916666666667],[-83.47777777777777,43.56444444444444],[-83.37833333333333,43.55694444444444],[-83.28055555555555,43.54944444444444]],"type":"LineString"}
}
