{
  "id": 2031991513,
  "type": "Feature",
  "properties": {
    "geom:area": 0,
    "geom:bbox": "-123.588889,37.363333,-122.093056,49.119444",
    "geom:latitude": 43.00955989371662,
    "geom:longitude": -123.19875190758626,
    "src:alt_label": "swim-path",
    "src:geom": "swim",
    "swim:altitudes": [
      "061",
      "077",
      "109",
      "162",
      "183",
      "192",
      "207",
      "236",
      "251",
      "264",
      "308",
      "321",
      "333",
      "346",
      "350C",
      "350C",
      "350C",
      "350C",
      "350C",
      "350C",
      "350C",
      "350C",
      "350C",
      "350C",
      "350C",
      "350C",
      "350C",
      "350C",
      "350C",
      "350C",
      "350C",
      "350C",
      "350C",
      "350C",
      "350C",
      "350C",
      "350C",
      "350C",
      "350C",
      "350C",
      "350C",
      "350C",
      "350C",
      "350C",
      "350C",
      "350C",
      "350C",
      "350C",
      "350C",
      "350C",
      "350C",
      "350C",
      "350C",
      "350C",
      "350C",
      "350C",
      "350C",
      "350C",
      "350C",
      "350C",
      "350C",
      "350C",
      "350C",
      "350C",
      "350C",
      "350C",
      "350C",
      "350C",
      "350C",
      "350C",
      "350C",
      "350C",
      "350C",
      "350C",
      "350C",
      "350C",
      "350C",
      "350C",
      "350C",
      "350C",
      "350C",
      "350C",
      "350C",
      "350C",
      "350C",
      "350C",
      "350C",
      "350C",
      "350C",
      "350C",
      "350C",
      "350C",
      "350C",
      "350C",
      "350C",
      "350C",
      "350C",
      "350C",
      "350C",
      "350C",
      "350C",
      "350C",
      "350C",
      "350C",
      "346",
      "337",
      "327",
      "306",
      "284",
      "262",
      "242",
      "222",
      "202",
      "183",
      "163",
      "141",
      "137",
      "124",
      "118",
      "115",
      "114",
      "111C",
      "110",
      "111C",
      "110",
      "101",
      "097",
      "088",
      "083",
      "074",
      "072",
      "069",
      "070",
      "065",
      "060",
      "056",
      "054",
      "051",
      "050",
      "049",
      "045",
      "040",
      "039",
      "032",
      "030",
      "025",
      "016",
      "014",
      "006",
      "001"
    ],
    "swim:geom": "path",
    "swim:speeds": [
      257,
      264,
      270,
      287,
      298,
      362,
      395,
      415,
      424,
      430,
      429,
      427,
      424,
      420,
      418,
      417,
      416,
      415,
      414,
      414,
      414,
      415,
      415,
      414,
      414,
      415,
      416,
      417,
      418,
      420,
      422,
      424,
      425,
      426,
      426,
      424,
      422,
      421,
      423,
      425,
      427,
      428,
      428,
      429,
      430,
      431,
      430,
      429,
      429,
      429,
      431,
      428,
      428,
      428,
      428,
      427,
      429,
      427,
      429,
      429,
      428,
      428,
      428,
      429,
      429,
      429,
      430,
      430,
      430,
      431,
      431,
      431,
      431,
      431,
      431,
      431,
      415,
      414,
      412,
      412,
      410,
      409,
      408,
      407,
      406,
      404,
      404,
      402,
      401,
      401,
      401,
      401,
      392,
      393,
      392,
      391,
      391,
      391,
      391,
      391,
      409,
      409,
      408,
      406,
      404,
      417,
      426,
      446,
      439,
      425,
      413,
      400,
      384,
      375,
      366,
      356,
      351,
      351,
      342,
      318,
      302,
      275,
      261,
      254,
      252,
      252,
      251,
      248,
      244,
      246,
      242,
      240,
      242,
      240,
      242,
      240,
      237,
      234,
      212,
      201,
      195,
      189,
      180,
      183,
      172,
      172,
      166,
      153,
      151,
      148
    ],
    "swim:timestamps": [
      1785207664,
      1785207724,
      1785207784,
      1785207904,
      1785207964,
      1785208084,
      1785208144,
      1785208264,
      1785208325,
      1785208385,
      1785208565,
      1785208625,
      1785208685,
      1785208745,
      1785208805,
      1785208865,
      1785208925,
      1785208985,
      1785209045,
      1785209165,
      1785209225,
      1785209285,
      1785209346,
      1785209406,
      1785209466,
      1785209526,
      1785209586,
      1785209646,
      1785209706,
      1785209766,
      1785209826,
      1785209886,
      1785209946,
      1785210006,
      1785210066,
      1785210126,
      1785210186,
      1785210246,
      1785210306,
      1785210367,
      1785210427,
      1785210487,
      1785210547,
      1785210607,
      1785210667,
      1785210727,
      1785210787,
      1785210847,
      1785210907,
      1785210967,
      1785211013,
      1785211027,
      1785211087,
      1785211133,
      1785211147,
      1785211193,
      1785211207,
      1785211253,
      1785211267,
      1785211327,
      1785211374,
      1785211434,
      1785211448,
      1785211508,
      1785211568,
      1785211628,
      1785211674,
      1785211688,
      1785211734,
      1785211748,
      1785211808,
      1785211854,
      1785211868,
      1785211914,
      1785211928,
      1785211974,
      1785212034,
      1785212048,
      1785212094,
      1785212108,
      1785212154,
      1785212214,
      1785212228,
      1785212274,
      1785212288,
      1785212334,
      1785212348,
      1785212468,
      1785212515,
      1785212529,
      1785212575,
      1785212589,
      1785212635,
      1785212649,
      1785212695,
      1785212755,
      1785212769,
      1785212815,
      1785212829,
      1785212875,
      1785212935,
      1785213055,
      1785213115,
      1785213175,
      1785213235,
      1785213295,
      1785213355,
      1785213415,
      1785213476,
      1785213536,
      1785213596,
      1785213656,
      1785213716,
      1785213776,
      1785213836,
      1785213896,
      1785213913,
      1785213956,
      1785213979,
      1785214016,
      1785214027,
      1785214076,
      1785214087,
      1785214136,
      1785214147,
      1785214196,
      1785214213,
      1785214256,
      1785214273,
      1785214316,
      1785214322,
      1785214376,
      1785214393,
      1785214436,
      1785214453,
      1785214496,
      1785214507,
      1785214557,
      1785214567,
      1785214617,
      1785214627,
      1785214677,
      1785214693,
      1785214737,
      1785214747,
      1785214797,
      1785214857,
      1785214867,
      1785214934,
      1785214977
    ],
    "wof:geomhash": "c234bc5d50867ff1fa3325bb8b62018c",
    "wof:id": 2031991513,
    "wof:repo": "sfomuseum-data-flights-2026-07"
  },
  "bbox": [
    -123.58888888888889,
    37.36333333333334,
    -122.09305555555555,
    49.11944444444445
  ],
  "geometry": {"coordinates":[[-122.9725,49.11944444444445],[-123.0038888888889,49.051111111111105],[-123.09722222222221,49.018055555555556],[-123.3325,48.994166666666665],[-123.45611111111111,48.98222222222223],[-123.58888888888889,48.86833333333333],[-123.57583333333334,48.75055555555556],[-123.55194444444444,48.528888888888886],[-123.53916666666666,48.407777777777774],[-123.52638888888889,48.28666666666666],[-123.49027777777778,47.93888888888888],[-123.47805555555556,47.822500000000005],[-123.46611111111112,47.70583333333334],[-123.45444444444445,47.59138888888889],[-123.44277777777778,47.47638888888889],[-123.43138888888889,47.362500000000004],[-123.41972222222223,47.24722222222222],[-123.4088888888889,47.13444444444444],[-123.40527777777778,47.01861111111111],[-123.39805555555556,46.78944444444444],[-123.39444444444445,46.675555555555555],[-123.39055555555557,46.56111111111111],[-123.38666666666667,46.43111111111111],[-123.38333333333334,46.31583333333333],[-123.37972222222221,46.200833333333335],[-123.3761111111111,46.084722222222226],[-123.37249999999999,45.969722222222224],[-123.36888888888888,45.85333333333333],[-123.36555555555555,45.73694444444445],[-123.36194444444443,45.61888888888889],[-123.35833333333333,45.50055555555556],[-123.35472222222222,45.38194444444444],[-123.35138888888888,45.265],[-123.34777777777778,45.144999999999996],[-123.34444444444443,45.025555555555556],[-123.34138888888889,44.92833333333333],[-123.33805555555556,44.80972222222222],[-123.33472222222221,44.69277777777778],[-123.33111111111111,44.573888888888895],[-123.32722222222222,44.45416666666667],[-123.32222222222222,44.334722222222226],[-123.31722222222221,44.215],[-123.31277777777777,44.09722222222222],[-123.30722222222222,43.95888888888889],[-123.3025,43.83888888888889],[-123.29777777777778,43.719722222222224],[-123.29333333333334,43.60111111111111],[-123.28861111111111,43.48027777777778],[-123.28388888888888,43.36138888888889],[-123.27916666666667,43.24194444444444],[-123.27583333333334,43.160555555555554],[-123.27472222222222,43.123333333333335],[-123.27027777777778,43.00527777777778],[-123.26666666666667,42.92361111111111],[-123.26555555555555,42.88583333333333],[-123.26166666666667,42.80472222222222],[-123.2611111111111,42.76583333333333],[-123.2575,42.68527777777778],[-123.25722222222223,42.66777777777777],[-123.25277777777778,42.54388888888889],[-123.24888888888889,42.44833333333333],[-123.24472222222222,42.32972222222222],[-123.24361111111111,42.306666666666665],[-123.23944444444444,42.18833333333333],[-123.23527777777778,42.069722222222225],[-123.23083333333334,41.94916666666666],[-123.22722222222222,41.853611111111114],[-123.22638888888889,41.83111111111111],[-123.22305555555556,41.73555555555556],[-123.22222222222223,41.71194444444445],[-123.21805555555555,41.59138888888889],[-123.21444444444445,41.49527777777778],[-123.21361111111112,41.47166666666667],[-123.21027777777778,41.375],[-123.20944444444444,41.35],[-123.2063888888889,41.24333333333333],[-123.20361111111112,41.12888888888889],[-123.20305555555557,41.11388888888889],[-123.20111111111112,41.02222222222222],[-123.20055555555555,41.00083333333333],[-123.19805555555556,40.909166666666664],[-123.19527777777778,40.79527777777778],[-123.19472222222223,40.77361111111111],[-123.19222222222223,40.677499999999995],[-123.19194444444445,40.66],[-123.18944444444445,40.56583333333333],[-123.18916666666667,40.54805555555556],[-123.18361111111112,40.32361111111111],[-123.18138888888889,40.2325],[-123.18083333333334,40.21333333333334],[-123.17861111111111,40.121944444444445],[-123.17805555555556,40.10138888888889],[-123.22888888888889,40.02722222222222],[-123.25277777777778,40.014722222222225],[-123.34638888888888,39.967222222222226],[-123.43527777777778,39.88666666666666],[-123.44611111111111,39.86638888888889],[-123.49083333333333,39.78444444444444],[-123.50111111111111,39.76555555555556],[-123.54444444444444,39.684999999999995],[-123.51722222222222,39.57666666666667],[-123.40194444444445,39.371944444444445],[-123.34388888888888,39.26861111111111],[-123.2863888888889,39.16611111111111],[-123.23,39.065],[-123.17055555555557,38.958333333333336],[-123.1111111111111,38.85027777777778],[-123.04777777777778,38.736111111111114],[-122.985,38.62277777777778],[-122.92555555555556,38.51416666666667],[-122.86805555555554,38.409166666666664],[-122.81277777777777,38.30777777777777],[-122.7625,38.206944444444446],[-122.73305555555555,38.10666666666667],[-122.705,38.00833333333333],[-122.66722222222222,37.8975],[-122.65,37.88333333333333],[-122.59472222222222,37.825],[-122.56666666666666,37.8],[-122.52083333333333,37.75555555555555],[-122.5,37.733333333333334],[-122.4563888888889,37.69472222222222],[-122.45,37.68333333333333],[-122.39861111111112,37.64055555555556],[-122.38333333333334,37.63333333333333],[-122.35277777777777,37.58222222222223],[-122.33333333333333,37.56666666666667],[-122.31833333333333,37.519444444444446],[-122.31666666666666,37.5],[-122.33583333333333,37.45305555555556],[-122.33333333333333,37.45],[-122.35138888888888,37.388888888888886],[-122.33333333333333,37.36666666666667],[-122.28472222222221,37.36333333333334],[-122.25,37.36666666666667],[-122.20416666666667,37.37833333333333],[-122.18333333333334,37.38333333333333],[-122.13722222222223,37.41611111111111],[-122.11666666666666,37.416666666666664],[-122.09305555555555,37.45583333333334],[-122.1,37.46666666666667],[-122.11,37.5075],[-122.13333333333334,37.516666666666666],[-122.16472222222222,37.532777777777774],[-122.18333333333334,37.53333333333333],[-122.2175,37.55472222222222],[-122.26944444444445,37.57666666666667],[-122.28333333333333,37.583333333333336],[-122.33333333333333,37.6],[-122.35944444444443,37.614444444444445]],"type":"LineString"}
}
