{
  "id": 2031956113,
  "type": "Feature",
  "properties": {
    "geom:area": 0,
    "geom:bbox": "-122.356890,37.491660,-121.737680,37.613370",
    "geom:latitude": 37.526594903707284,
    "geom:longitude": -122.051933722093,
    "src:alt_label": "swim-approach",
    "src:geom": "swim",
    "swim:elevations": [
      2679,
      2649,
      2497,
      2499,
      2442,
      2438,
      2133,
      2072,
      2046,
      1859,
      1849,
      1828,
      1628,
      1318,
      1265,
      1173,
      1137,
      1005,
      867,
      822,
      553,
      504,
      334,
      335,
      173,
      75,
      16
    ],
    "swim:geom": "approach",
    "swim:timestamps": [
      1784920057,
      1784920061,
      1784920081,
      1784920084,
      1784920090,
      1784920103,
      1784920162,
      1784920172,
      1784920181,
      1784920218,
      1784920225,
      1784920246,
      1784920286,
      1784920318,
      1784920323,
      1784920368,
      1784920377,
      1784920406,
      1784920434,
      1784920442,
      1784920496,
      1784920511,
      1784920559,
      1784920562,
      1784920613,
      1784920640,
      1784920657
    ],
    "wof:geomhash": "8f643cd1427fe3c4e85e1f8c92af523d",
    "wof:id": 2031956113,
    "wof:repo": "sfomuseum-data-flights-2026-07"
  },
  "bbox": [
    -122.35689,
    37.49166,
    -121.73768,
    37.61337
  ],
  "geometry": {"coordinates":[[-121.73768,37.52378],[-121.74334,37.52244],[-121.76962,37.51607],[-121.77366,37.51509],[-121.78155,37.5132],[-121.79901,37.509],[-121.87606,37.49166],[-121.88949,37.49208],[-121.90173,37.49305],[-121.9521,37.49553],[-121.96144,37.49602],[-121.98948,37.4975],[-122.03649,37.5004],[-122.07423,37.50214],[-122.07999,37.5025],[-122.12869,37.51727],[-122.13775,37.52108],[-122.16567,37.53295],[-122.19256,37.54423],[-122.20067,37.54767],[-122.25129,37.56902],[-122.26422,37.57443],[-122.29676,37.58818],[-122.29903,37.58914],[-122.33004,37.60214],[-122.34621,37.60896],[-122.35689,37.61337]],"type":"LineString"}
}
