{
  "id": 2032054475,
  "type": "Feature",
  "properties": {
    "geom:area": 0,
    "geom:bbox": "-121.712500,34.422778,-119.868889,36.209167",
    "geom:latitude": 35.2633305680459,
    "geom:longitude": -120.79280913351197,
    "src:alt_label": "swim-path",
    "src:geom": "swim",
    "swim:altitudes": [
      "270C",
      "270C",
      "270C",
      "270C",
      "266",
      "257",
      "247",
      "240C",
      "240",
      "221",
      "185",
      "175",
      "165",
      "155",
      "145",
      "133",
      "125",
      "114",
      "108",
      "102",
      "100",
      "091",
      "085",
      "073",
      "070",
      "058",
      "054",
      "052",
      "053",
      "052",
      "053",
      "052",
      "051",
      "042",
      "032",
      "025",
      "022",
      "017",
      "013",
      "010",
      "006",
      "003"
    ],
    "swim:geom": "path",
    "swim:speeds": [
      389,
      389,
      388,
      388,
      388,
      385,
      386,
      388,
      389,
      378,
      371,
      369,
      365,
      356,
      356,
      346,
      346,
      337,
      337,
      311,
      305,
      294,
      294,
      290,
      290,
      286,
      287,
      290,
      287,
      248,
      244,
      214,
      210,
      208,
      193,
      180,
      161,
      168,
      155,
      136,
      136,
      123
    ],
    "swim:timestamps": [
      1785560542,
      1785560662,
      1785560722,
      1785560843,
      1785560903,
      1785560963,
      1785561023,
      1785561083,
      1785561143,
      1785561203,
      1785561263,
      1785561284,
      1785561323,
      1785561344,
      1785561383,
      1785561410,
      1785561443,
      1785561470,
      1785561503,
      1785561530,
      1785561563,
      1785561590,
      1785561623,
      1785561656,
      1785561683,
      1785561716,
      1785561743,
      1785561776,
      1785561803,
      1785561830,
      1785561864,
      1785561890,
      1785561924,
      1785561950,
      1785561987,
      1785562010,
      1785562047,
      1785562070,
      1785562107,
      1785562130,
      1785562167,
      1785562196
    ],
    "wof:geomhash": "d3e98a439461803053fec2d6fc4121a1",
    "wof:id": 2032054475,
    "wof:repo": "sfomuseum-data-flights-2026-07"
  },
  "bbox": [
    -121.7125,
    34.422777777777775,
    -119.86888888888888,
    36.20916666666667
  ],
  "geometry": {"coordinates":[[-121.7125,36.20916666666667],[-121.54472222222222,36.040277777777774],[-121.46194444444444,35.95638888888889],[-121.29694444444445,35.788333333333334],[-121.21444444444445,35.70388888888889],[-121.13305555555554,35.620555555555555],[-121.05138888888888,35.53638888888889],[-120.97,35.45277777777778],[-120.88722222222223,35.36694444444444],[-120.80749999999999,35.284166666666664],[-120.72972222222222,35.20333333333333],[-120.69944444444445,35.16916666666666],[-120.65416666666667,35.125],[-120.62194444444444,35.09027777777778],[-120.58083333333333,35.04805555555556],[-120.5436111111111,35.00666666666667],[-120.50944444444444,34.973055555555554],[-120.4725,34.933055555555555],[-120.44500000000001,34.90555555555555],[-120.40416666666667,34.86027777777778],[-120.37916666666666,34.83638888888889],[-120.3411111111111,34.79472222222222],[-120.3175,34.771388888888886],[-120.27416666666666,34.72638888888889],[-120.25777777777778,34.70805555555556],[-120.21805555555555,34.66444444444444],[-120.19583333333334,34.6425],[-120.15805555555556,34.599444444444444],[-120.13694444444445,34.580000000000005],[-120.10694444444444,34.54722222222222],[-120.09083333333332,34.5225],[-120.08944444444444,34.48722222222222],[-120.08999999999999,34.462500000000006],[-120.08388888888888,34.43222222222222],[-120.04638888888888,34.42361111111111],[-120.02166666666666,34.422777777777775],[-119.98916666666666,34.42444444444444],[-119.96666666666667,34.42361111111111],[-119.935,34.425555555555555],[-119.91638888888889,34.425555555555555],[-119.88916666666667,34.42666666666666],[-119.86888888888888,34.42777777777778]],"type":"LineString"}
}
