{
  "id": 2032035431,
  "type": "Feature",
  "properties": {
    "geom:area": 0,
    "geom:bbox": "-123.486280,36.968110,-122.112300,37.612020",
    "geom:latitude": 37.25818457603831,
    "geom:longitude": -122.66352052301815,
    "src:alt_label": "swim-approach",
    "src:geom": "swim",
    "swim:elevations": [
      6157,
      6035,
      5864,
      5555,
      5274,
      4985,
      4825,
      4300,
      3840,
      3299,
      3165,
      3049,
      3048,
      3048,
      3070,
      3048,
      3048,
      3048,
      2984,
      2865,
      2746,
      2743,
      2759,
      2726,
      2549,
      2512,
      2405,
      2284,
      2137,
      1935,
      1828,
      1829,
      1829,
      1829,
      1818,
      1558,
      1372,
      1221,
      1219,
      1220,
      1219,
      1219,
      1028,
      946,
      730,
      633,
      555,
      485,
      397,
      244,
      62,
      130
    ],
    "swim:geom": "approach",
    "swim:timestamps": [
      1785445695,
      1785445707,
      1785445727,
      1785445758,
      1785445791,
      1785445819,
      1785445836,
      1785445889,
      1785445937,
      1785446032,
      1785446072,
      1785446102,
      1785446126,
      1785446146,
      1785446183,
      1785446213,
      1785446232,
      1785446258,
      1785446297,
      1785446325,
      1785446351,
      1785446387,
      1785446419,
      1785446447,
      1785446485,
      1785446490,
      1785446515,
      1785446543,
      1785446568,
      1785446598,
      1785446629,
      1785446663,
      1785446672,
      1785446693,
      1785446712,
      1785446753,
      1785446777,
      1785446815,
      1785446837,
      1785446876,
      1785446903,
      1785446913,
      1785446952,
      1785446970,
      1785447027,
      1785447055,
      1785447077,
      1785447092,
      1785447120,
      1785447158,
      1785447208,
      1785447227
    ],
    "wof:geomhash": "6acc4bfabe0d7755284f41ef90c6d691",
    "wof:id": 2032035431,
    "wof:repo": "sfomuseum-data-flights-2026-07"
  },
  "bbox": [
    -123.48628,
    36.96811,
    -122.1123,
    37.61202
  ],
  "geometry": {"coordinates":[[-123.48628,36.96811],[-123.46122,36.97919],[-123.42156,36.99785],[-123.35783,37.02753],[-123.29495,37.05694],[-123.23791,37.08365],[-123.20621,37.0984],[-123.10475,37.1456],[-123.01442,37.18772],[-122.85457,37.25475],[-122.7994,37.23099],[-122.7663,37.20783],[-122.73923,37.18889],[-122.71683,37.17306],[-122.67582,37.14406],[-122.64167,37.12215],[-122.61355,37.11876],[-122.57388,37.12254],[-122.51611,37.12791],[-122.4743,37.13159],[-122.43519,37.13784],[-122.41182,37.17165],[-122.422,37.2073],[-122.43133,37.23768],[-122.44477,37.27976],[-122.44657,37.28526],[-122.45556,37.31255],[-122.46557,37.34346],[-122.46966,37.37023],[-122.44146,37.3931],[-122.39767,37.39234],[-122.34905,37.38953],[-122.3362,37.38889],[-122.30709,37.38734],[-122.27851,37.38609],[-122.22063,37.3832],[-122.18613,37.38246],[-122.14575,37.40544],[-122.13103,37.42522],[-122.11601,37.46525],[-122.1123,37.49054],[-122.11758,37.49852],[-122.14789,37.52319],[-122.16498,37.53039],[-122.2129,37.55057],[-122.23467,37.55973],[-122.25109,37.56667],[-122.26249,37.5714],[-122.28363,37.58033],[-122.31243,37.59237],[-122.34932,37.60787],[-122.36377,37.61202]],"type":"LineString"}
}
