{
  "id": 2031977933,
  "type": "Feature",
  "properties": {
    "geom:area": 0,
    "geom:bbox": "-123.281944,37.403333,-87.966667,43.006944",
    "geom:latitude": 41.63258037559971,
    "geom:longitude": -107.43970088319676,
    "src:alt_label": "swim-path",
    "src:geom": "swim",
    "swim:altitudes": [
      "023",
      "034",
      "050",
      "073",
      "094",
      "114",
      "131",
      "144",
      "155",
      "173",
      "192",
      "206",
      "220",
      "232",
      "240",
      "245",
      "246",
      "251",
      "254",
      "256",
      "263",
      "270",
      "275",
      "282",
      "288",
      "294",
      "298C",
      "300C",
      "300C",
      "300C",
      "300C",
      "300",
      "300",
      "303",
      "306",
      "312",
      "315",
      "319C",
      "320C",
      "320C",
      "320C",
      "320C",
      "320C",
      "320C",
      "320C",
      "320C",
      "320C",
      "320C",
      "320C",
      "320C",
      "320C",
      "320C",
      "320C",
      "320C",
      "320C",
      "320C",
      "320C",
      "320C",
      "320C",
      "320C",
      "320C",
      "320C",
      "320C",
      "320C",
      "320C",
      "320C",
      "320C",
      "320C",
      "320C",
      "320C",
      "320C",
      "320C",
      "320C",
      "320C",
      "320C",
      "320C",
      "320C",
      "320C",
      "320C",
      "320C",
      "320C",
      "320C",
      "320C",
      "320C",
      "320C",
      "320C",
      "320C",
      "320C",
      "320C",
      "320C",
      "320C",
      "320C",
      "320C",
      "320C",
      "320C",
      "320C",
      "320C",
      "320C",
      "320C",
      "320C",
      "320C",
      "320C",
      "320C",
      "320C",
      "320C",
      "320C",
      "320C",
      "323",
      "331",
      "338C",
      "340C",
      "340C",
      "340C",
      "340C",
      "340C",
      "340C",
      "340C",
      "340C",
      "340C",
      "340C",
      "340C",
      "340C",
      "340C",
      "340C",
      "340C",
      "340C",
      "340C",
      "340C",
      "340C",
      "340C",
      "340C",
      "340C",
      "340C",
      "340C",
      "340C",
      "340C",
      "340C",
      "340C",
      "340C",
      "340C",
      "340C",
      "340C",
      "340C",
      "340C",
      "340C",
      "340C",
      "340C",
      "340C",
      "340C",
      "340C",
      "340C",
      "340C",
      "340C",
      "340C",
      "340C",
      "340C",
      "340C",
      "340C",
      "340C",
      "340C",
      "340C",
      "340C",
      "340C",
      "340C",
      "340C",
      "340C",
      "340C",
      "340C",
      "340C",
      "340C",
      "340C",
      "340C",
      "340C",
      "340C",
      "340C",
      "340C",
      "340C",
      "340C",
      "340C",
      "340C",
      "340C",
      "340C",
      "340C",
      "340C",
      "340C",
      "340C",
      "340C",
      "340C",
      "340C",
      "340C",
      "340C",
      "340C",
      "340C",
      "340C",
      "340C",
      "340C",
      "340C",
      "340C",
      "340C",
      "340C",
      "340C",
      "340C",
      "340C",
      "340C",
      "340C",
      "340C",
      "340C",
      "340C",
      "340C",
      "340C",
      "340C",
      "340C",
      "340C",
      "340C",
      "340C",
      "340C",
      "340C",
      "340C",
      "340C",
      "340C",
      "340C",
      "340C",
      "340C",
      "340C",
      "340C",
      "340C",
      "340C",
      "340C",
      "340C",
      "340C",
      "340C",
      "340C",
      "340C",
      "340C",
      "340C",
      "340C",
      "340C",
      "340C",
      "340C",
      "340C",
      "340C",
      "340C",
      "340C",
      "340C",
      "340C",
      "340C",
      "340C",
      "340C",
      "340C",
      "340C",
      "340C",
      "340C",
      "340C",
      "340C",
      "340C",
      "340",
      "337",
      "336",
      "321",
      "305",
      "290C",
      "290C",
      "290C",
      "290C",
      "290C",
      "290C",
      "290C",
      "290C",
      "290C",
      "290C",
      "290C",
      "290C",
      "290",
      "278",
      "268",
      "258",
      "250",
      "240",
      "229",
      "220C",
      "220C",
      "220",
      "205",
      "191",
      "169",
      "158",
      "151",
      "143",
      "139",
      "140",
      "140",
      "140",
      "140",
      "140",
      "140",
      "131",
      "129",
      "115",
      "113",
      "110",
      "107",
      "106",
      "098",
      "096",
      "085",
      "075",
      "072",
      "068",
      "057",
      "050",
      "043",
      "033",
      "031",
      "024",
      "023",
      "015",
      "009",
      "008",
      "002",
      "001"
    ],
    "swim:geom": "path",
    "swim:speeds": [
      184,
      233,
      257,
      262,
      277,
      284,
      290,
      320,
      359,
      369,
      375,
      387,
      393,
      399,
      399,
      417,
      437,
      453,
      452,
      469,
      473,
      472,
      473,
      465,
      460,
      453,
      452,
      450,
      450,
      449,
      449,
      449,
      449,
      449,
      448,
      447,
      445,
      443,
      441,
      440,
      440,
      440,
      440,
      440,
      441,
      441,
      442,
      442,
      442,
      442,
      442,
      442,
      442,
      442,
      442,
      442,
      442,
      443,
      443,
      442,
      442,
      442,
      441,
      440,
      440,
      441,
      441,
      441,
      441,
      440,
      440,
      440,
      441,
      441,
      442,
      443,
      444,
      444,
      444,
      444,
      443,
      443,
      443,
      444,
      443,
      442,
      442,
      442,
      443,
      444,
      446,
      447,
      450,
      451,
      451,
      452,
      454,
      455,
      455,
      453,
      451,
      450,
      449,
      448,
      447,
      447,
      449,
      448,
      446,
      446,
      438,
      436,
      436,
      436,
      436,
      438,
      439,
      439,
      439,
      440,
      445,
      447,
      449,
      450,
      451,
      454,
      456,
      457,
      457,
      458,
      459,
      458,
      457,
      458,
      459,
      460,
      460,
      459,
      457,
      457,
      456,
      456,
      456,
      456,
      457,
      457,
      456,
      455,
      454,
      451,
      448,
      447,
      446,
      446,
      446,
      446,
      446,
      445,
      445,
      445,
      444,
      443,
      443,
      444,
      443,
      442,
      441,
      441,
      440,
      440,
      441,
      441,
      441,
      441,
      439,
      439,
      438,
      438,
      438,
      437,
      436,
      436,
      436,
      435,
      436,
      435,
      436,
      434,
      436,
      434,
      435,
      433,
      435,
      432,
      435,
      432,
      434,
      433,
      435,
      435,
      435,
      435,
      434,
      434,
      434,
      434,
      434,
      433,
      433,
      433,
      432,
      432,
      431,
      430,
      430,
      429,
      429,
      429,
      429,
      429,
      429,
      428,
      427,
      427,
      426,
      425,
      425,
      425,
      425,
      424,
      425,
      424,
      424,
      424,
      425,
      425,
      426,
      428,
      427,
      426,
      426,
      428,
      441,
      441,
      442,
      428,
      425,
      425,
      429,
      433,
      435,
      436,
      437,
      436,
      434,
      431,
      423,
      407,
      389,
      360,
      355,
      355,
      357,
      357,
      358,
      377,
      379,
      379,
      379,
      379,
      379,
      378,
      378,
      366,
      371,
      368,
      359,
      349,
      334,
      349,
      387,
      389,
      396,
      386,
      359,
      345,
      340,
      336,
      332,
      333,
      334,
      332,
      335,
      333,
      334,
      340,
      337,
      335,
      337,
      300,
      289,
      289,
      266,
      268,
      254,
      245,
      249,
      245,
      241,
      234,
      218,
      196,
      196,
      159,
      161,
      142,
      132,
      133,
      141,
      137
    ],
    "swim:timestamps": [
      1785117706,
      1785117766,
      1785117827,
      1785117887,
      1785117947,
      1785118007,
      1785118068,
      1785118128,
      1785118188,
      1785118248,
      1785118308,
      1785118368,
      1785118428,
      1785118488,
      1785118530,
      1785118591,
      1785118608,
      1785118669,
      1785118711,
      1785118729,
      1785118789,
      1785118831,
      1785118849,
      1785118891,
      1785118909,
      1785118951,
      1785118969,
      1785119023,
      1785119041,
      1785119083,
      1785119101,
      1785119143,
      1785119161,
      1785119203,
      1785119221,
      1785119263,
      1785119281,
      1785119323,
      1785119342,
      1785119384,
      1785119402,
      1785119444,
      1785119462,
      1785119504,
      1785119522,
      1785119564,
      1785119582,
      1785119624,
      1785119642,
      1785119684,
      1785119762,
      1785119804,
      1785119819,
      1785119879,
      1785119924,
      1785119940,
      1785120000,
      1785120044,
      1785120104,
      1785120120,
      1785120165,
      1785120225,
      1785120285,
      1785120345,
      1785120465,
      1785120525,
      1785120585,
      1785120645,
      1785120705,
      1785120765,
      1785120825,
      1785120885,
      1785120945,
      1785121005,
      1785121066,
      1785121126,
      1785121186,
      1785121246,
      1785121306,
      1785121366,
      1785121486,
      1785121546,
      1785121606,
      1785121662,
      1785121722,
      1785121786,
      1785121842,
      1785121902,
      1785121962,
      1785122022,
      1785122082,
      1785122147,
      1785122202,
      1785122262,
      1785122327,
      1785122382,
      1785122443,
      1785122503,
      1785122563,
      1785122623,
      1785122683,
      1785122743,
      1785122803,
      1785122863,
      1785122923,
      1785122983,
      1785123046,
      1785123103,
      1785123163,
      1785123226,
      1785123284,
      1785123344,
      1785123464,
      1785123524,
      1785123584,
      1785123644,
      1785123704,
      1785123764,
      1785123824,
      1785123884,
      1785124004,
      1785124064,
      1785124124,
      1785124185,
      1785124245,
      1785124305,
      1785124365,
      1785124425,
      1785124485,
      1785124545,
      1785124605,
      1785124665,
      1785124725,
      1785124785,
      1785124845,
      1785124905,
      1785124965,
      1785125025,
      1785125089,
      1785125149,
      1785125209,
      1785125269,
      1785125329,
      1785125389,
      1785125449,
      1785125509,
      1785125569,
      1785125629,
      1785125689,
      1785125750,
      1785125810,
      1785125870,
      1785125930,
      1785125990,
      1785126050,
      1785126110,
      1785126170,
      1785126230,
      1785126290,
      1785126350,
      1785126410,
      1785126470,
      1785126530,
      1785126591,
      1785126651,
      1785126711,
      1785126771,
      1785126831,
      1785126891,
      1785126951,
      1785127011,
      1785127071,
      1785127131,
      1785127191,
      1785127251,
      1785127311,
      1785127371,
      1785127431,
      1785127491,
      1785127552,
      1785127603,
      1785127663,
      1785127672,
      1785127732,
      1785127783,
      1785127792,
      1785127843,
      1785127852,
      1785127903,
      1785127972,
      1785128023,
      1785128032,
      1785128083,
      1785128092,
      1785128143,
      1785128152,
      1785128203,
      1785128272,
      1785128324,
      1785128384,
      1785128444,
      1785128504,
      1785128513,
      1785128573,
      1785128624,
      1785128633,
      1785128684,
      1785128693,
      1785128744,
      1785128753,
      1785128804,
      1785128813,
      1785128864,
      1785128873,
      1785128924,
      1785128933,
      1785128984,
      1785128993,
      1785129044,
      1785129053,
      1785129104,
      1785129113,
      1785129164,
      1785129173,
      1785129224,
      1785129233,
      1785129285,
      1785129293,
      1785129345,
      1785129353,
      1785129405,
      1785129414,
      1785129465,
      1785129474,
      1785129525,
      1785129534,
      1785129594,
      1785129645,
      1785129654,
      1785129705,
      1785129765,
      1785129825,
      1785129885,
      1785129945,
      1785130005,
      1785130065,
      1785130125,
      1785130185,
      1785130246,
      1785130306,
      1785130366,
      1785130426,
      1785130486,
      1785130546,
      1785130606,
      1785130666,
      1785130726,
      1785130786,
      1785130846,
      1785130906,
      1785130966,
      1785131026,
      1785131086,
      1785131146,
      1785131206,
      1785131266,
      1785131327,
      1785131387,
      1785131447,
      1785131507,
      1785131567,
      1785131627,
      1785131687,
      1785131747,
      1785131807,
      1785131867,
      1785131927,
      1785131987,
      1785132047,
      1785132107,
      1785132167,
      1785132227,
      1785132287,
      1785132347,
      1785132407,
      1785132468,
      1785132528,
      1785132588,
      1785132617,
      1785132635,
      1785132648,
      1785132695,
      1785132708,
      1785132755,
      1785132768,
      1785132815,
      1785132828,
      1785132870,
      1785132888,
      1785132935,
      1785132990,
      1785133008,
      1785133050,
      1785133068,
      1785133128,
      1785133170,
      1785133188,
      1785133248,
      1785133308,
      1785133350,
      1785133410,
      1785133470,
      1785133488,
      1785133530,
      1785133548,
      1785133608,
      1785133650,
      1785133668,
      1785133710,
      1785133728
    ],
    "wof:geomhash": "88cf4f812eae10b0910e14b8ebf440af",
    "wof:id": 2031977933,
    "wof:repo": "sfomuseum-data-flights-2026-07"
  },
  "bbox": [
    -123.28194444444445,
    37.40333333333333,
    -87.96666666666667,
    43.00694444444444
  ],
  "geometry": {"coordinates":[[-87.96666666666667,41.983333333333334],[-88.05,42],[-88.13027777777778,42.02444444444444],[-88.22472222222223,42.04388888888889],[-88.33055555555555,42.06583333333333],[-88.43333333333334,42.08722222222222],[-88.52833333333334,42.10638888888889],[-88.63833333333334,42.12888888888889],[-88.76611111111112,42.15472222222222],[-88.89277777777778,42.161944444444444],[-89.03333333333333,42.157777777777774],[-89.17777777777778,42.153888888888886],[-89.32638888888889,42.15],[-89.47805555555556,42.14555555555555],[-89.58888888888889,42.14083333333333],[-89.74888888888889,42.13527777777778],[-89.79138888888889,42.138333333333335],[-89.98055555555555,42.157777777777774],[-90.08388888888888,42.16833333333333],[-90.15416666666667,42.17916666666667],[-90.33083333333333,42.200833333333335],[-90.43555555555555,42.211666666666666],[-90.50527777777778,42.222500000000004],[-90.60749999999999,42.235],[-90.67472222222223,42.24305555555556],[-90.7761111111111,42.25527777777778],[-90.83999999999999,42.26305555555555],[-90.97527777777778,42.278888888888886],[-91.03999999999999,42.28666666666666],[-91.14111111111112,42.29833333333333],[-91.20555555555556,42.30583333333333],[-91.30777777777777,42.31777777777778],[-91.3736111111111,42.32527777777778],[-91.47333333333333,42.33638888888889],[-91.53999999999999,42.34388888888889],[-91.63944444444445,42.35527777777778],[-91.70694444444445,42.36277777777778],[-91.80666666666666,42.37388888888889],[-91.8711111111111,42.380833333333335],[-91.96833333333333,42.391666666666666],[-92.035,42.39888888888889],[-92.13305555555554,42.409444444444446],[-92.19861111111112,42.41638888888889],[-92.29833333333333,42.426944444444445],[-92.36333333333333,42.43388888888889],[-92.46333333333334,42.44444444444444],[-92.52888888888889,42.45111111111111],[-92.6286111111111,42.46138888888889],[-92.69416666666667,42.46805555555556],[-92.7925,42.47805555555556],[-93.02166666666666,42.50111111111111],[-93.12138888888889,42.51083333333333],[-93.1875,42.516666666666666],[-93.35277777777777,42.53138888888889],[-93.45333333333333,42.540277777777774],[-93.51638888888888,42.545833333333334],[-93.68194444444445,42.559999999999995],[-93.78166666666667,42.56861111111112],[-93.94972222222222,42.58277777777778],[-94.01277777777777,42.588055555555556],[-94.1125,42.59638888888889],[-94.27805555555555,42.609722222222224],[-94.44166666666668,42.624722222222225],[-94.62944444444443,42.64194444444444],[-94.96055555555556,42.671388888888885],[-95.12472222222222,42.68555555555555],[-95.28805555555556,42.69972222222222],[-95.45305555555557,42.71361111111111],[-95.60666666666665,42.726111111111116],[-95.77083333333333,42.739444444444445],[-95.93611111111112,42.75277777777778],[-96.10333333333332,42.76583333333333],[-96.26861111111111,42.77833333333333],[-96.43444444444445,42.79083333333333],[-96.60277777777777,42.80333333333333],[-96.76944444444445,42.81527777777777],[-96.93555555555555,42.82694444444445],[-97.10249999999999,42.83861111111111],[-97.27166666666666,42.85],[-97.43972222222223,42.861111111111114],[-97.77361111111111,42.882777777777775],[-97.94027777777778,42.89277777777778],[-98.1061111111111,42.90277777777778],[-98.25277777777778,42.91166666666666],[-98.42111111111112,42.921388888888885],[-98.60555555555555,42.931666666666665],[-98.75361111111111,42.939722222222215],[-98.91972222222223,42.948611111111106],[-99.08999999999999,42.95722222222223],[-99.25722222222223,42.965833333333336],[-99.42805555555556,42.973888888888894],[-99.59777777777778,42.981944444444444],[-99.76944444444445,42.99],[-99.94,42.9975],[-100.11222222222221,43.00472222222222],[-100.28305555555555,43.00694444444444],[-100.45722222222223,43.00472222222222],[-100.62972222222221,43.001666666666665],[-100.80194444444444,42.99861111111111],[-100.9713888888889,42.995555555555555],[-101.14416666666668,42.992222222222225],[-101.31277777777777,42.98861111111111],[-101.47444444444444,42.985],[-101.64500000000001,42.98111111111111],[-101.83111111111111,42.97638888888889],[-101.99972222222222,42.97166666666667],[-102.16611111111112,42.952222222222225],[-102.3325,42.93055555555555],[-102.49888888888889,42.908055555555556],[-102.65972222222223,42.88305555555556],[-102.82333333333332,42.86666666666667],[-102.98444444444445,42.84666666666667],[-103.31166666666667,42.806666666666665],[-103.4738888888889,42.8],[-103.63861111111112,42.79888888888889],[-103.80555555555556,42.79833333333333],[-103.97027777777778,42.79833333333333],[-104.13416666666667,42.79944444444444],[-104.29861111111111,42.80027777777777],[-104.465,42.796388888888885],[-104.79388888888889,42.782777777777774],[-104.96083333333334,42.775555555555556],[-105.13027777777778,42.768055555555556],[-105.29861111111111,42.760555555555555],[-105.46972222222223,42.75222222222222],[-105.63944444444445,42.74388888888889],[-105.81333333333333,42.73527777777778],[-105.98611111111111,42.72638888888889],[-106.15861111111111,42.716944444444444],[-106.33027777777778,42.7075],[-106.5038888888889,42.69777777777777],[-106.67277777777778,42.68805555555555],[-106.84444444444443,42.67777777777778],[-107.0175,42.66722222222222],[-107.18944444444445,42.656388888888884],[-107.38138888888888,42.64416666666666],[-107.5525,42.63305555555556],[-107.72166666666666,42.62166666666667],[-107.89444444444445,42.609722222222224],[-108.06388888888888,42.59777777777778],[-108.23305555555555,42.58555555555556],[-108.405,42.573055555555555],[-108.57416666666666,42.56027777777778],[-108.74583333333334,42.54722222222222],[-108.91638888888889,42.53388888888889],[-109.08527777777778,42.52055555555555],[-109.25416666666666,42.50694444444444],[-109.42361111111111,42.49305555555556],[-109.59138888888889,42.47888888888889],[-109.75972222222222,42.464444444444446],[-109.92333333333333,42.45027777777778],[-110.08805555555556,42.43555555555555],[-110.25305555555556,42.420833333333334],[-110.45138888888889,42.40277777777778],[-110.61805555555554,42.38722222222222],[-110.78472222222221,42.37138888888889],[-110.94916666666667,42.355555555555554],[-111.11555555555555,42.339444444444446],[-111.28055555555555,42.323055555555555],[-111.44361111111111,42.306666666666665],[-111.60666666666665,42.29],[-111.77027777777778,42.27305555555555],[-111.93694444444445,42.25555555555555],[-112.09944444444444,42.238055555555555],[-112.265,42.22027777777778],[-112.4225,42.2025],[-112.57944444444443,42.165277777777774],[-112.73833333333333,42.12138888888889],[-112.88805555555557,42.07972222222222],[-113.04055555555556,42.0375],[-113.19611111111111,41.99388888888889],[-113.34833333333333,41.95111111111111],[-113.50361111111111,41.907222222222224],[-113.65722222222223,41.86333333333334],[-113.80833333333334,41.82027777777778],[-113.95972222222223,41.77638888888889],[-114.11138888888888,41.7325],[-114.26416666666667,41.68805555555555],[-114.41305555555556,41.64416666666666],[-114.56416666666667,41.599722222222226],[-114.68555555555555,41.56361111111111],[-114.83527777777778,41.51861111111111],[-114.86277777777777,41.51083333333333],[-115.01388888888889,41.46527777777778],[-115.13277777777778,41.42944444444444],[-115.16194444444444,41.42055555555555],[-115.28166666666667,41.385],[-115.30916666666667,41.376111111111115],[-115.42944444444444,41.34027777777778],[-115.60583333333332,41.285],[-115.72527777777778,41.24888888888889],[-115.75333333333333,41.239444444444445],[-115.87222222222222,41.203611111111115],[-115.9,41.193888888888885],[-116.01916666666666,41.1575],[-116.04777777777778,41.147777777777776],[-116.16583333333334,41.11222222222222],[-116.34083333333332,41.05555555555555],[-116.46055555555556,41.01916666666666],[-116.60638888888889,40.971111111111114],[-116.75361111111111,40.92527777777777],[-116.89805555555556,40.87722222222222],[-116.92555555555556,40.86833333333333],[-117.07027777777778,40.82166666666667],[-117.18722222222223,40.78333333333333],[-117.21583333333334,40.774166666666666],[-117.33166666666666,40.736111111111114],[-117.35888888888888,40.727222222222224],[-117.47722222222222,40.68833333333333],[-117.50361111111111,40.67944444444444],[-117.61916666666666,40.64111111111111],[-117.6463888888889,40.632222222222225],[-117.76222222222222,40.593611111111116],[-117.78972222222222,40.58444444444444],[-117.90527777777778,40.545833333333334],[-117.93166666666667,40.536944444444444],[-118.04861111111111,40.4975],[-118.07555555555555,40.48861111111111],[-118.19277777777778,40.44888888888889],[-118.21583333333334,40.441111111111105],[-118.33361111111111,40.401111111111106],[-118.35888888888888,40.39222222222222],[-118.4975,40.33777777777778],[-118.49638888888889,40.338055555555556],[-118.635,40.28194444444444],[-118.63166666666666,40.28333333333333],[-118.76916666666666,40.2275],[-118.76777777777778,40.22777777777778],[-118.90416666666667,40.17222222222222],[-118.90277777777779,40.172777777777775],[-119.03944444444444,40.11666666666667],[-119.03833333333333,40.117222222222225],[-119.17527777777778,40.06083333333333],[-119.17194444444445,40.06194444444444],[-119.30944444444444,40.00527777777778],[-119.30805555555555,40.005833333333335],[-119.47222222222223,39.940555555555555],[-119.58305555555555,39.900277777777774],[-119.61027777777777,39.89055555555556],[-119.72333333333333,39.849444444444444],[-119.86,39.79944444444444],[-120.00138888888888,39.75388888888889],[-120.14833333333334,39.75138888888889],[-120.30749999999999,39.7525],[-120.46916666666667,39.7525],[-120.62083333333332,39.75361111111111],[-120.77444444444444,39.75388888888889],[-120.92722222222223,39.7525],[-121.08222222222221,39.751666666666665],[-121.25694444444444,39.751666666666665],[-121.41388888888889,39.751666666666665],[-121.57333333333332,39.7525],[-121.72944444444444,39.75416666666667],[-121.8888888888889,39.755833333333335],[-122.04555555555555,39.75694444444444],[-122.17027777777778,39.757777777777775],[-122.32416666666666,39.75888888888889],[-122.47472222222223,39.75972222222222],[-122.61416666666666,39.76166666666666],[-122.745,39.744166666666665],[-122.86444444444444,39.70777777777778],[-122.98194444444445,39.67027777777778],[-123.10138888888888,39.6325],[-123.21944444444445,39.593611111111116],[-123.28194444444445,39.51111111111111],[-123.24166666666667,39.394999999999996],[-123.19944444444445,39.294999999999995],[-123.15833333333335,39.19444444444444],[-123.11722222222221,39.09277777777778],[-123.0761111111111,38.992222222222225],[-123.03555555555555,38.89194444444444],[-122.99472222222222,38.79194444444444],[-122.95444444444445,38.69194444444444],[-122.91527777777779,38.594166666666666],[-122.87555555555555,38.49527777777778],[-122.83694444444444,38.399166666666666],[-122.79888888888888,38.30416666666667],[-122.76555555555555,38.211666666666666],[-122.81333333333333,38.13138888888889],[-122.92777777777778,38.12777777777778],[-122.99222222222222,38.21638888888889],[-123.02777777777777,38.322500000000005],[-123.00972222222222,38.42527777777777],[-122.8938888888889,38.481944444444444],[-122.77305555555556,38.46361111111111],[-122.72944444444444,38.37555555555556],[-122.71861111111112,38.28194444444444],[-122.70777777777778,38.18944444444444],[-122.7,38.13333333333333],[-122.7,38.11666666666667],[-122.69666666666667,38.09861111111111],[-122.68333333333334,38.016666666666666],[-122.68583333333333,38.005833333333335],[-122.68333333333334,37.93333333333333],[-122.67444444444445,37.916666666666664],[-122.61666666666666,37.85],[-122.61361111111111,37.8425],[-122.55,37.78333333333333],[-122.53722222222223,37.77166666666667],[-122.46666666666667,37.71666666666667],[-122.41666666666667,37.65],[-122.40194444444445,37.64388888888889],[-122.35,37.6],[-122.34972222222221,37.58166666666667],[-122.31416666666667,37.51638888888889],[-122.28333333333333,37.46666666666667],[-122.275,37.45472222222222],[-122.21472222222222,37.409444444444446],[-122.13833333333334,37.40333333333333],[-122.1,37.45],[-122.1,37.5],[-122.16666666666667,37.53333333333333],[-122.1763888888889,37.5375],[-122.21666666666667,37.55],[-122.22777777777777,37.55916666666666],[-122.27416666666666,37.578611111111115],[-122.3,37.6],[-122.31555555555555,37.59583333333334],[-122.35,37.61666666666667],[-122.35749999999999,37.61361111111111]],"type":"LineString"}
}
