{
  "id": 2031976479,
  "type": "Feature",
  "properties": {
    "geom:area": 0,
    "geom:bbox": "-122.349640,37.492600,-121.273260,37.610400",
    "geom:latitude": 37.526531596293005,
    "geom:longitude": -121.81809266570528,
    "src:alt_label": "swim-approach",
    "src:geom": "swim",
    "swim:elevations": [
      4309,
      4065,
      3969,
      3699,
      3687,
      3660,
      3565,
      3306,
      3202,
      3137,
      3049,
      2948,
      2804,
      2743,
      2714,
      2498,
      2492,
      2438,
      2100,
      1807,
      1686,
      1573,
      1527,
      1524,
      1524,
      1261,
      1083,
      956,
      658,
      539,
      488,
      455,
      433,
      413,
      393,
      352,
      181,
      91,
      63
    ],
    "swim:geom": "approach",
    "swim:timestamps": [
      1785075085,
      1785075114,
      1785075131,
      1785075163,
      1785075167,
      1785075172,
      1785075198,
      1785075235,
      1785075246,
      1785075270,
      1785075292,
      1785075301,
      1785075314,
      1785075342,
      1785075378,
      1785075418,
      1785075422,
      1785075458,
      1785075501,
      1785075534,
      1785075553,
      1785075566,
      1785075595,
      1785075621,
      1785075638,
      1785075682,
      1785075708,
      1785075721,
      1785075774,
      1785075796,
      1785075818,
      1785075825,
      1785075830,
      1785075834,
      1785075838,
      1785075852,
      1785075900,
      1785075921,
      1785075930
    ],
    "wof:geomhash": "93234238770010660b24041a42889a6c",
    "wof:id": 2031976479,
    "wof:repo": "sfomuseum-data-flights-2026-07"
  },
  "bbox": [
    -122.34964,
    37.4926,
    -121.27326,
    37.6104
  ],
  "geometry": {"coordinates":[[-121.27326,37.50362],[-121.32269,37.51029],[-121.35237,37.51422],[-121.40693,37.52153],[-121.41441,37.52255],[-121.42226,37.52364],[-121.46496,37.52959],[-121.52277,37.53712],[-121.54045,37.53946],[-121.57531,37.54429],[-121.60616,37.54707],[-121.61841,37.54606],[-121.63618,37.54221],[-121.67618,37.53349],[-121.7275,37.52276],[-121.78582,37.5101],[-121.79151,37.50887],[-121.8428,37.49762],[-121.90643,37.4926],[-121.95621,37.49551],[-121.9839,37.49714],[-122.0018,37.49826],[-122.04407,37.5005],[-122.07892,37.50247],[-122.1005,37.50596],[-122.14782,37.52506],[-122.17389,37.53645],[-122.18714,37.54198],[-122.23503,37.56213],[-122.25161,37.56908],[-122.26756,37.57589],[-122.27317,37.5783],[-122.27692,37.57994],[-122.27937,37.58097],[-122.28239,37.58225],[-122.29302,37.58671],[-122.32799,37.60128],[-122.3432,37.6077],[-122.34964,37.6104]],"type":"LineString"}
}
