{
  "id": 2032025025,
  "type": "Feature",
  "properties": {
    "geom:area": 0,
    "geom:bbox": "-122.537222,33.275000,-111.780556,37.666667",
    "geom:latitude": 34.80551274332962,
    "geom:longitude": -117.38752781820355,
    "src:alt_label": "swim-path",
    "src:geom": "swim",
    "swim:altitudes": [
      "013",
      "031",
      "036",
      "045",
      "051",
      "081",
      "106",
      "148",
      "191",
      "210",
      "223",
      "257",
      "276",
      "291",
      "328",
      "344",
      "360",
      "370C",
      "370C",
      "370C",
      "370C",
      "370C",
      "370C",
      "370C",
      "370C",
      "370C",
      "370C",
      "370C",
      "370C",
      "370C",
      "370C",
      "370C",
      "370C",
      "370C",
      "370C",
      "370C",
      "370C",
      "370C",
      "370C",
      "370C",
      "370C",
      "370C",
      "370C",
      "370C",
      "370C",
      "370C",
      "370C",
      "370C",
      "370C",
      "370C",
      "366",
      "295",
      "251",
      "250",
      "220",
      "202",
      "190",
      "182",
      "170",
      "156",
      "153",
      "140",
      "137",
      "123",
      "112",
      "100",
      "097",
      "071",
      "060",
      "058",
      "050",
      "040",
      "034",
      "030",
      "028",
      "021",
      "014"
    ],
    "swim:geom": "path",
    "swim:speeds": [
      159,
      181,
      177,
      254,
      268,
      284,
      301,
      367,
      397,
      412,
      419,
      450,
      457,
      460,
      492,
      479,
      469,
      461,
      461,
      460,
      460,
      460,
      459,
      458,
      457,
      461,
      462,
      463,
      452,
      450,
      449,
      448,
      447,
      447,
      455,
      456,
      455,
      455,
      455,
      456,
      457,
      457,
      455,
      454,
      454,
      455,
      455,
      456,
      457,
      456,
      457,
      465,
      436,
      421,
      404,
      394,
      377,
      361,
      348,
      321,
      321,
      311,
      313,
      304,
      295,
      293,
      293,
      228,
      218,
      221,
      209,
      194,
      186,
      180,
      180,
      154,
      155
    ],
    "swim:timestamps": [
      1785345437,
      1785345471,
      1785345498,
      1785345531,
      1785345558,
      1785345618,
      1785345678,
      1785345798,
      1785345918,
      1785345978,
      1785346034,
      1785346154,
      1785346214,
      1785346274,
      1785346454,
      1785346515,
      1785346575,
      1785346695,
      1785346815,
      1785346875,
      1785346935,
      1785346995,
      1785347055,
      1785347115,
      1785347176,
      1785347356,
      1785347416,
      1785347476,
      1785347596,
      1785347656,
      1785347716,
      1785347776,
      1785347897,
      1785347957,
      1785348017,
      1785348077,
      1785348137,
      1785348197,
      1785348257,
      1785348317,
      1785348377,
      1785348497,
      1785348618,
      1785348678,
      1785348738,
      1785348798,
      1785348858,
      1785348918,
      1785348978,
      1785349158,
      1785349218,
      1785349459,
      1785349579,
      1785349639,
      1785349880,
      1785349999,
      1785350059,
      1785350119,
      1785350154,
      1785350274,
      1785350299,
      1785350340,
      1785350359,
      1785350420,
      1785350460,
      1785350526,
      1785350540,
      1785350720,
      1785350766,
      1785350780,
      1785350840,
      1785350897,
      1785350947,
      1785351007,
      1785351017,
      1785351073,
      1785351127
    ],
    "wof:geomhash": "bff13fbdc484bda6ab26774b382ebb4f",
    "wof:id": 2032025025,
    "wof:repo": "sfomuseum-data-flights-2026-07"
  },
  "bbox": [
    -122.53722222222223,
    33.275,
    -111.78055555555555,
    37.666666666666664
  ],
  "geometry": {"coordinates":[[-122.40694444444445,37.6325],[-122.45,37.65],[-122.46055555555556,37.655833333333334],[-122.51666666666667,37.666666666666664],[-122.53722222222223,37.658055555555556],[-122.52888888888889,37.58555555555556],[-122.48583333333333,37.51],[-122.30055555555555,37.37777777777778],[-122.09055555555555,37.24166666666667],[-121.98083333333334,37.17027777777778],[-121.87472222222222,37.099722222222226],[-121.63083333333333,36.93861111111111],[-121.50611111111111,36.8575],[-121.38138888888888,36.775],[-120.99138888888889,36.51694444444444],[-120.86388888888888,36.431666666666665],[-120.73972222222223,36.34805555555556],[-120.49583333333334,36.18388888888889],[-120.25111111111111,36.01861111111111],[-120.13055555555555,35.93666666666666],[-120.00888888888889,35.85333333333333],[-119.89,35.769999999999996],[-119.77111111111111,35.68611111111111],[-119.655,35.60388888888889],[-119.53444444444445,35.51833333333333],[-119.17972222222222,35.264722222222225],[-119.06166666666667,35.180277777777775],[-118.94416666666667,35.09527777777778],[-118.71388888888889,34.92833333333333],[-118.58583333333333,34.834722222222226],[-118.4725,34.75194444444445],[-118.36388888888888,34.67222222222222],[-118.13527777777779,34.50361111111111],[-118.02583333333334,34.42916666666667],[-117.88166666666666,34.388333333333335],[-117.7525,34.356944444444444],[-117.60666666666665,34.32194444444445],[-117.45805555555556,34.28611111111111],[-117.31055555555555,34.25],[-117.15194444444445,34.21138888888889],[-117.00638888888889,34.17527777777777],[-116.71777777777778,34.103611111111114],[-116.42611111111111,34.030277777777776],[-116.28277777777778,33.99388888888889],[-116.1363888888889,33.95638888888889],[-115.99083333333333,33.91916666666666],[-115.84305555555555,33.88111111111111],[-115.69777777777779,33.843611111111116],[-115.55,33.805],[-115.11527777777778,33.690555555555555],[-114.98527777777778,33.65611111111111],[-114.37416666666665,33.520833333333336],[-114.08972222222222,33.46416666666667],[-113.95416666666667,33.43722222222222],[-113.40861111111111,33.32805555555556],[-113.17833333333334,33.28972222222222],[-113.05277777777778,33.275],[-112.93305555555555,33.27777777777778],[-112.83333333333333,33.28333333333333],[-112.61666666666666,33.3],[-112.60083333333333,33.30138888888889],[-112.5,33.31666666666667],[-112.48305555555555,33.31194444444444],[-112.38416666666667,33.321111111111115],[-112.31666666666666,33.333333333333336],[-112.2,33.333333333333336],[-112.19055555555556,33.33888888888889],[-111.94638888888889,33.34583333333334],[-111.88333333333334,33.35],[-111.87416666666665,33.345],[-111.80888888888889,33.362500000000004],[-111.78055555555555,33.40416666666667],[-111.81666666666666,33.43333333333333],[-111.86666666666666,33.43333333333333],[-111.87805555555555,33.440555555555555],[-111.93333333333334,33.43333333333333],[-111.96666666666667,33.43333333333333]],"type":"LineString"}
}
