{
  "id": 2032017733,
  "type": "Feature",
  "properties": {
    "geom:area": 0,
    "geom:bbox": "-123.472440,36.880970,-122.117200,37.610150",
    "geom:latitude": 37.24919650408353,
    "geom:longitude": -122.67831343206058,
    "src:alt_label": "swim-approach",
    "src:geom": "swim",
    "swim:elevations": [
      5883,
      5608,
      5472,
      5172,
      4829,
      4615,
      4216,
      4076,
      3861,
      3603,
      3232,
      3167,
      3108,
      3053,
      3048,
      3048,
      3048,
      3048,
      3048,
      3048,
      3044,
      2812,
      2742,
      2743,
      2732,
      2577,
      2456,
      2316,
      2258,
      2065,
      1828,
      1829,
      1829,
      1829,
      1829,
      1829,
      1829,
      1829,
      1829,
      1829,
      1829,
      1740,
      1358,
      1215,
      1219,
      980,
      688,
      583,
      470,
      360,
      328,
      214,
      63
    ],
    "swim:geom": "approach",
    "swim:timestamps": [
      1785327558,
      1785327589,
      1785327603,
      1785327635,
      1785327672,
      1785327693,
      1785327736,
      1785327751,
      1785327782,
      1785327810,
      1785327845,
      1785327863,
      1785327888,
      1785327910,
      1785327935,
      1785327985,
      1785328014,
      1785328043,
      1785328066,
      1785328094,
      1785328114,
      1785328161,
      1785328178,
      1785328210,
      1785328247,
      1785328275,
      1785328292,
      1785328314,
      1785328323,
      1785328351,
      1785328407,
      1785328410,
      1785328423,
      1785328457,
      1785328473,
      1785328524,
      1785328531,
      1785328552,
      1785328582,
      1785328605,
      1785328625,
      1785328659,
      1785328727,
      1785328755,
      1785328779,
      1785328821,
      1785328858,
      1785328878,
      1785328900,
      1785328923,
      1785328932,
      1785328960,
      1785328998
    ],
    "wof:geomhash": "34e1da227cecfd43aab74754a32408be",
    "wof:id": 2032017733,
    "wof:repo": "sfomuseum-data-flights-2026-07"
  },
  "bbox": [
    -123.47244,
    36.88097,
    -122.1172,
    37.61015
  ],
  "geometry": {"coordinates":[[-123.47244,36.88097],[-123.41458,36.91908],[-123.38776,36.93482],[-123.32373,36.97354],[-123.25525,37.01672],[-123.21679,37.04052],[-123.13893,37.08858],[-123.11315,37.10448],[-123.05834,37.13825],[-123.01163,37.16664],[-122.95786,37.19981],[-122.93171,37.21596],[-122.89708,37.23712],[-122.86851,37.2535],[-122.82822,37.26595],[-122.74714,37.27473],[-122.70719,37.25655],[-122.66832,37.23594],[-122.63877,37.22038],[-122.60085,37.2005],[-122.57469,37.18682],[-122.51391,37.15539],[-122.48803,37.15116],[-122.45015,37.17173],[-122.45952,37.21167],[-122.48912,37.23457],[-122.50463,37.2503],[-122.51507,37.27354],[-122.5185,37.28326],[-122.51301,37.31496],[-122.45045,37.35047],[-122.44617,37.35091],[-122.42855,37.3525],[-122.37885,37.35668],[-122.35518,37.3587],[-122.28119,37.36515],[-122.27149,37.36599],[-122.24133,37.36854],[-122.19767,37.37241],[-122.16845,37.38442],[-122.14867,37.39995],[-122.1172,37.4263],[-122.12002,37.48698],[-122.14112,37.50968],[-122.15788,37.52741],[-122.19887,37.54696],[-122.23388,37.56167],[-122.25393,37.57017],[-122.27379,37.57852],[-122.2933,37.58668],[-122.30037,37.58968],[-122.32191,37.59871],[-122.34893,37.61015]],"type":"LineString"}
}
