{
  "id": 2031995263,
  "type": "Feature",
  "properties": {
    "geom:area": 0,
    "geom:bbox": "-122.360000,37.673611,-70.950000,42.658056",
    "geom:latitude": 39.72346223474394,
    "geom:longitude": -96.22443340542921,
    "src:alt_label": "swim-path",
    "src:geom": "swim",
    "swim:altitudes": [
      "027",
      "031",
      "049",
      "070",
      "093",
      "109",
      "117",
      "131",
      "148",
      "162",
      "176",
      "192",
      "205",
      "215",
      "226",
      "235",
      "242",
      "250",
      "258",
      "266",
      "274",
      "281",
      "288",
      "296",
      "306",
      "313",
      "322",
      "329C",
      "330C",
      "330C",
      "330C",
      "330C",
      "330C",
      "330C",
      "330C",
      "330C",
      "331C",
      "330C",
      "330C",
      "330C",
      "330C",
      "330C",
      "330C",
      "330C",
      "330C",
      "331C",
      "330C",
      "330C",
      "330C",
      "330C",
      "330C",
      "330C",
      "330C",
      "330C",
      "330C",
      "330C",
      "330C",
      "330C",
      "330C",
      "330C",
      "330C",
      "330C",
      "330C",
      "330C",
      "330C",
      "330C",
      "330C",
      "330C",
      "330C",
      "330C",
      "330C",
      "330C",
      "330C",
      "330C",
      "330C",
      "330C",
      "330C",
      "330C",
      "330C",
      "330C",
      "330C",
      "330C",
      "330C",
      "330C",
      "330C",
      "330C",
      "330C",
      "330C",
      "330C",
      "330C",
      "330C",
      "330C",
      "330C",
      "330C",
      "330C",
      "330C",
      "330C",
      "330C",
      "330C",
      "330C",
      "330C",
      "330C",
      "330C",
      "331C",
      "330C",
      "330C",
      "330C",
      "330C",
      "331C",
      "330C",
      "330C",
      "330C",
      "330C",
      "330C",
      "330C",
      "330C",
      "330C",
      "330C",
      "330C",
      "330C",
      "330C",
      "330C",
      "330C",
      "330C",
      "330C",
      "330C",
      "330C",
      "330C",
      "330C",
      "330C",
      "330C",
      "330C",
      "330C",
      "330C",
      "331C",
      "330C",
      "330C",
      "330C",
      "330C",
      "331C",
      "331C",
      "330C",
      "330C",
      "330C",
      "330C",
      "330C",
      "330C",
      "330C",
      "330C",
      "330C",
      "330C",
      "330C",
      "330C",
      "330C",
      "330C",
      "330C",
      "330C",
      "330C",
      "330",
      "330",
      "330",
      "330",
      "333",
      "335",
      "337",
      "340",
      "340",
      "344",
      "346",
      "350C",
      "350C",
      "350C",
      "350C",
      "350C",
      "350C",
      "350C",
      "350C",
      "350C",
      "350C",
      "350C",
      "350C",
      "350C",
      "350C",
      "350C",
      "350C",
      "350C",
      "350C",
      "350C",
      "350C",
      "350C",
      "350C",
      "350C",
      "350C",
      "350C",
      "350C",
      "350C",
      "350C",
      "350C",
      "350C",
      "351C",
      "351C",
      "351C",
      "350C",
      "350C",
      "350C",
      "350C",
      "350C",
      "350C",
      "349C",
      "350C",
      "350C",
      "350C",
      "350C",
      "350C",
      "350C",
      "350C",
      "350C",
      "350C",
      "350C",
      "350C",
      "350C",
      "350C",
      "350C",
      "350C",
      "350C",
      "350C",
      "350C",
      "350C",
      "350C",
      "350C",
      "350C",
      "350C",
      "350C",
      "350C",
      "351C",
      "351C",
      "350C",
      "350C",
      "350C",
      "350C",
      "350C",
      "350C",
      "350C",
      "350C",
      "351C",
      "350C",
      "350C",
      "350C",
      "350C",
      "350C",
      "350C",
      "350C",
      "351C",
      "350C",
      "351C",
      "350C",
      "350C",
      "351C",
      "350C",
      "350C",
      "350C",
      "350C",
      "351C",
      "350C",
      "350C",
      "350C",
      "350C",
      "350C",
      "351C",
      "350C",
      "350C",
      "351C",
      "351C",
      "350C",
      "350C",
      "350C",
      "350C",
      "350C",
      "350C",
      "350C",
      "350C",
      "350C",
      "350C",
      "350C",
      "350C",
      "350C",
      "350C",
      "350C",
      "350C",
      "350C",
      "351C",
      "350C",
      "350C",
      "350C",
      "350C",
      "350C",
      "350C",
      "350C",
      "351C",
      "350C",
      "350C",
      "350C",
      "350C",
      "350C",
      "360",
      "369C",
      "370C",
      "370C",
      "370C",
      "370C",
      "370C",
      "370C",
      "370C",
      "370C",
      "370C",
      "370C",
      "370C",
      "370C",
      "370C",
      "370C",
      "370C",
      "370C",
      "370C",
      "370C",
      "370C",
      "370C",
      "370C",
      "370C",
      "370C",
      "370C",
      "370C",
      "370C",
      "370C",
      "370C",
      "370C",
      "370C",
      "370C",
      "370C",
      "370C",
      "370C",
      "370C",
      "370C",
      "370C",
      "370C",
      "370C",
      "370C",
      "370C",
      "370C",
      "370C",
      "370C",
      "370C",
      "371C",
      "371C",
      "370C",
      "370C",
      "370C",
      "370C",
      "370C",
      "370C",
      "370C",
      "370C",
      "370C",
      "370C",
      "370C",
      "369",
      "360",
      "350",
      "340",
      "326",
      "264",
      "221",
      "203",
      "183",
      "163",
      "144",
      "126",
      "115",
      "104",
      "094",
      "085",
      "078",
      "070",
      "067",
      "063",
      "052",
      "040",
      "030",
      "023",
      "012",
      "004",
      "004",
      "001"
    ],
    "swim:geom": "path",
    "swim:speeds": [
      238,
      261,
      272,
      284,
      296,
      314,
      364,
      390,
      404,
      419,
      426,
      431,
      437,
      450,
      455,
      464,
      475,
      483,
      492,
      494,
      498,
      501,
      504,
      506,
      508,
      507,
      504,
      501,
      495,
      488,
      487,
      483,
      482,
      481,
      481,
      481,
      481,
      480,
      478,
      476,
      475,
      474,
      474,
      475,
      475,
      475,
      475,
      474,
      473,
      470,
      468,
      467,
      466,
      466,
      467,
      467,
      467,
      469,
      469,
      464,
      463,
      462,
      461,
      461,
      461,
      460,
      460,
      460,
      460,
      466,
      466,
      467,
      467,
      467,
      467,
      473,
      475,
      475,
      476,
      476,
      476,
      477,
      478,
      478,
      478,
      483,
      484,
      485,
      485,
      486,
      487,
      487,
      487,
      488,
      488,
      486,
      485,
      485,
      483,
      483,
      482,
      482,
      484,
      485,
      485,
      485,
      484,
      484,
      485,
      484,
      483,
      482,
      483,
      484,
      486,
      487,
      488,
      489,
      490,
      490,
      489,
      489,
      488,
      489,
      490,
      490,
      491,
      491,
      494,
      492,
      489,
      487,
      488,
      495,
      502,
      504,
      506,
      498,
      498,
      498,
      499,
      498,
      499,
      498,
      499,
      498,
      496,
      497,
      497,
      496,
      496,
      494,
      496,
      496,
      497,
      498,
      498,
      498,
      499,
      499,
      499,
      499,
      499,
      499,
      499,
      498,
      497,
      497,
      497,
      497,
      495,
      494,
      494,
      494,
      495,
      495,
      494,
      494,
      492,
      490,
      489,
      488,
      487,
      486,
      485,
      485,
      484,
      484,
      483,
      483,
      483,
      483,
      482,
      482,
      482,
      482,
      482,
      487,
      492,
      493,
      494,
      494,
      494,
      493,
      493,
      491,
      490,
      489,
      488,
      487,
      487,
      483,
      483,
      482,
      482,
      476,
      475,
      474,
      474,
      473,
      473,
      471,
      471,
      470,
      479,
      484,
      488,
      491,
      490,
      489,
      505,
      505,
      498,
      502,
      506,
      507,
      503,
      489,
      496,
      488,
      489,
      486,
      485,
      484,
      481,
      468,
      454,
      454,
      453,
      452,
      452,
      454,
      454,
      453,
      452,
      439,
      439,
      450,
      450,
      455,
      466,
      486,
      492,
      493,
      480,
      463,
      464,
      465,
      463,
      460,
      458,
      466,
      471,
      474,
      459,
      500,
      501,
      503,
      503,
      501,
      499,
      496,
      493,
      493,
      492,
      490,
      490,
      491,
      493,
      494,
      496,
      474,
      461,
      422,
      421,
      421,
      421,
      454,
      457,
      457,
      461,
      457,
      449,
      454,
      450,
      455,
      455,
      459,
      459,
      461,
      460,
      461,
      445,
      438,
      438,
      466,
      491,
      499,
      502,
      499,
      499,
      501,
      500,
      499,
      499,
      499,
      498,
      497,
      496,
      496,
      495,
      495,
      493,
      493,
      493,
      491,
      491,
      488,
      485,
      483,
      481,
      478,
      476,
      476,
      474,
      473,
      473,
      472,
      471,
      470,
      469,
      469,
      468,
      464,
      463,
      459,
      456,
      454,
      453,
      450,
      449,
      448,
      456,
      458,
      459,
      460,
      466,
      471,
      472,
      469,
      413,
      407,
      392,
      375,
      365,
      354,
      334,
      323,
      296,
      266,
      246,
      243,
      243,
      244,
      243,
      238,
      223,
      224,
      193,
      150,
      153,
      134
    ],
    "swim:timestamps": [
      1785178174,
      1785178183,
      1785178235,
      1785178295,
      1785178355,
      1785178415,
      1785178475,
      1785178535,
      1785178595,
      1785178655,
      1785178715,
      1785178775,
      1785178835,
      1785178896,
      1785178956,
      1785179016,
      1785179076,
      1785179136,
      1785179196,
      1785179256,
      1785179316,
      1785179376,
      1785179436,
      1785179496,
      1785179560,
      1785179617,
      1785179677,
      1785179740,
      1785179797,
      1785180097,
      1785180157,
      1785180217,
      1785180278,
      1785180338,
      1785180398,
      1785180461,
      1785180530,
      1785180590,
      1785180641,
      1785180701,
      1785180761,
      1785180821,
      1785180881,
      1785180942,
      1785181002,
      1785181062,
      1785181122,
      1785181182,
      1785181242,
      1785181302,
      1785181362,
      1785181422,
      1785181482,
      1785181542,
      1785181602,
      1785181663,
      1785181723,
      1785181783,
      1785181843,
      1785181903,
      1785181963,
      1785182023,
      1785182083,
      1785182143,
      1785182162,
      1785182203,
      1785182222,
      1785182263,
      1785182282,
      1785182323,
      1785182342,
      1785182383,
      1785182444,
      1785182462,
      1785182504,
      1785182522,
      1785182624,
      1785182642,
      1785182684,
      1785182744,
      1785182762,
      1785182804,
      1785182864,
      1785182883,
      1785182924,
      1785183003,
      1785183044,
      1785183063,
      1785183104,
      1785183123,
      1785183165,
      1785183243,
      1785183285,
      1785183345,
      1785183363,
      1785183423,
      1785183465,
      1785183483,
      1785183543,
      1785183603,
      1785183664,
      1785183724,
      1785183784,
      1785183844,
      1785183964,
      1785184024,
      1785184144,
      1785184204,
      1785184264,
      1785184324,
      1785184384,
      1785184445,
      1785184505,
      1785184565,
      1785184625,
      1785184685,
      1785184745,
      1785184805,
      1785184865,
      1785184985,
      1785185045,
      1785185105,
      1785185166,
      1785185226,
      1785185286,
      1785185346,
      1785185406,
      1785185466,
      1785185526,
      1785185646,
      1785185706,
      1785185766,
      1785185826,
      1785185886,
      1785185947,
      1785186007,
      1785186047,
      1785186067,
      1785186107,
      1785186167,
      1785186187,
      1785186227,
      1785186247,
      1785186287,
      1785186317,
      1785186347,
      1785186367,
      1785186377,
      1785186407,
      1785186437,
      1785186467,
      1785186487,
      1785186528,
      1785186557,
      1785186617,
      1785186648,
      1785186677,
      1785186708,
      1785186728,
      1785186768,
      1785186788,
      1785186797,
      1785186828,
      1785186848,
      1785186857,
      1785186917,
      1785186948,
      1785186968,
      1785186978,
      1785187008,
      1785187038,
      1785187068,
      1785187110,
      1785187128,
      1785187170,
      1785187208,
      1785187230,
      1785187249,
      1785187309,
      1785187350,
      1785187369,
      1785187410,
      1785187429,
      1785187470,
      1785187489,
      1785187530,
      1785187549,
      1785187590,
      1785187651,
      1785187669,
      1785187711,
      1785187729,
      1785187771,
      1785187789,
      1785187831,
      1785187850,
      1785187891,
      1785187910,
      1785187951,
      1785187970,
      1785188011,
      1785188030,
      1785188071,
      1785188131,
      1785188150,
      1785188191,
      1785188210,
      1785188251,
      1785188270,
      1785188323,
      1785188330,
      1785188384,
      1785188390,
      1785188444,
      1785188450,
      1785188511,
      1785188571,
      1785188624,
      1785188631,
      1785188684,
      1785188691,
      1785188744,
      1785188751,
      1785188811,
      1785188931,
      1785188991,
      1785189051,
      1785189171,
      1785189232,
      1785189292,
      1785189412,
      1785189472,
      1785189652,
      1785189712,
      1785189772,
      1785189832,
      1785189892,
      1785189953,
      1785190012,
      1785190073,
      1785190132,
      1785190193,
      1785190252,
      1785190313,
      1785190373,
      1785190433,
      1785190553,
      1785190613,
      1785190673,
      1785190793,
      1785190854,
      1785190913,
      1785190974,
      1785191154,
      1785191214,
      1785191274,
      1785191334,
      1785191454,
      1785191514,
      1785191574,
      1785191694,
      1785191755,
      1785191815,
      1785191875,
      1785191935,
      1785192055,
      1785192115,
      1785192175,
      1785192235,
      1785192295,
      1785192355,
      1785192415,
      1785192475,
      1785192484,
      1785192596,
      1785192656,
      1785192664,
      1785192716,
      1785192724,
      1785192784,
      1785192836,
      1785192896,
      1785192956,
      1785192965,
      1785193025,
      1785193085,
      1785193145,
      1785193205,
      1785193265,
      1785193317,
      1785193385,
      1785193437,
      1785193445,
      1785193505,
      1785193557,
      1785193566,
      1785193632,
      1785193686,
      1785193746,
      1785193752,
      1785193812,
      1785193872,
      1785193926,
      1785193933,
      1785194053,
      1785194113,
      1785194173,
      1785194347,
      1785194353,
      1785194407,
      1785194485,
      1785194545,
      1785194606,
      1785194666,
      1785194726,
      1785194767,
      1785194786,
      1785194888,
      1785194911,
      1785194948,
      1785194966,
      1785195031,
      1785195091,
      1785195110,
      1785195128,
      1785195151,
      1785195171,
      1785195188,
      1785195231,
      1785195248,
      1785195271,
      1785195308,
      1785195332,
      1785195351,
      1785195368,
      1785195392,
      1785195411,
      1785195471,
      1785195531,
      1785195572,
      1785195591,
      1785195632,
      1785195651,
      1785195669,
      1785195692,
      1785195711,
      1785195729,
      1785195752,
      1785195812,
      1785195832,
      1785195872,
      1785195892,
      1785195909,
      1785195932,
      1785195952,
      1785195993,
      1785196012,
      1785196053,
      1785196072,
      1785196113,
      1785196132,
      1785196173,
      1785196233,
      1785196293,
      1785196353,
      1785196413,
      1785196473,
      1785196533,
      1785196593,
      1785196714,
      1785196834,
      1785196894,
      1785196954,
      1785197011,
      1785197071,
      1785197132,
      1785197194,
      1785197254,
      1785197314,
      1785197374,
      1785197435,
      1785197495,
      1785197555,
      1785197606,
      1785197675,
      1785197735,
      1785197792,
      1785197855,
      1785197915,
      1785197966,
      1785197975,
      1785198035
    ],
    "wof:geomhash": "cdb665fb8cac5bec1e6949dcc87bae70",
    "wof:id": 2031995263,
    "wof:repo": "sfomuseum-data-flights-2026-07"
  },
  "bbox": [
    -122.36,
    37.67361111111111,
    -70.95,
    42.658055555555556
  ],
  "geometry": {"coordinates":[[-122.36,37.67361111111111],[-122.33333333333333,37.68333333333333],[-122.27027777777778,37.69972222222222],[-122.21888888888888,37.75972222222222],[-122.15972222222223,37.82083333333334],[-122.05527777777777,37.840833333333336],[-121.93444444444445,37.86222222222222],[-121.80138888888888,37.8825],[-121.65138888888889,37.90611111111111],[-121.5075,37.92861111111111],[-121.36083333333333,37.95138888888889],[-121.21222222222222,37.974722222222226],[-121.06194444444444,37.9975],[-120.9075,38.02166666666667],[-120.75111111111111,38.045833333333334],[-120.59055555555555,38.07027777777778],[-120.42583333333334,38.095],[-120.25833333333334,38.12],[-120.08638888888889,38.14527777777778],[-119.91444444444446,38.17027777777778],[-119.74055555555556,38.195277777777775],[-119.56722222222221,38.22027777777778],[-119.40138888888889,38.243611111111115],[-119.22666666666667,38.268055555555556],[-119.01527777777778,38.29722222222222],[-118.87166666666666,38.316944444444445],[-118.69833333333334,38.34027777777778],[-118.49527777777777,38.367222222222225],[-118.35388888888889,38.38583333333333],[-117.46666666666667,38.49861111111111],[-117.295,38.51777777777777],[-117.1588888888889,38.51777777777777],[-116.98472222222222,38.51444444444444],[-116.81333333333333,38.510555555555555],[-116.64416666666668,38.506388888888885],[-116.44055555555556,38.50138888888889],[-116.3,38.4975],[-116.0975,38.49166666666667],[-115.93055555555556,38.486666666666665],[-115.76083333333334,38.481388888888894],[-115.59472222222222,38.475833333333334],[-115.42527777777778,38.47027777777778],[-115.26638888888888,38.464444444444446],[-115.09666666666666,38.458333333333336],[-114.92972222222222,38.45166666666667],[-114.76083333333334,38.44499999999999],[-114.59305555555555,38.437777777777775],[-114.42611111111111,38.43055555555555],[-114.26027777777777,38.42333333333333],[-114.09472222222222,38.41583333333333],[-113.93138888888889,38.408055555555556],[-113.76583333333333,38.4],[-113.60138888888888,38.391666666666666],[-113.43777777777778,38.38333333333333],[-113.27083333333333,38.37444444444444],[-113.10694444444444,38.36555555555556],[-112.94,38.363055555555555],[-112.7725,38.368611111111115],[-112.60638888888889,38.36888888888889],[-112.45055555555555,38.33083333333334],[-112.29638888888888,38.29111111111111],[-112.13972222222223,38.25055555555556],[-111.98583333333333,38.211111111111116],[-111.83083333333333,38.171388888888885],[-111.80027777777778,38.16361111111111],[-111.67722222222223,38.13166666666667],[-111.64527777777778,38.123333333333335],[-111.52111111111111,38.091944444444444],[-111.49,38.08833333333334],[-111.35888888888888,38.10027777777778],[-111.32666666666667,38.10333333333333],[-111.19472222222223,38.115833333333335],[-111.03194444444445,38.13194444444444],[-110.99916666666667,38.13527777777778],[-110.88361111111112,38.14972222222222],[-110.82138888888889,38.171388888888885],[-110.58333333333333,38.26916666666666],[-110.52583333333334,38.2925],[-110.43472222222222,38.32944444444445],[-110.28527777777778,38.38972222222222],[-110.22527777777778,38.41416666666667],[-110.13416666666667,38.45111111111111],[-109.98416666666667,38.51166666666666],[-109.9238888888889,38.53138888888889],[-109.8286111111111,38.56388888888888],[-109.62666666666667,38.6675],[-109.54055555555556,38.71083333333333],[-109.48222222222222,38.74027777777778],[-109.39472222222223,38.784166666666664],[-109.33694444444444,38.81333333333333],[-109.24888888888889,38.8575],[-109.04555555555555,38.959722222222226],[-108.95722222222223,39.003055555555555],[-108.80472222222222,39.06583333333333],[-108.7425,39.08833333333334],[-108.58083333333333,39.12833333333333],[-108.48111111111112,39.151944444444446],[-108.41472222222222,39.165],[-108.245,39.17583333333333],[-108.08472222222221,39.18694444444444],[-107.91388888888889,39.198055555555555],[-107.74583333333334,39.20861111111111],[-107.57527777777777,39.22777777777778],[-107.40222222222222,39.25333333333333],[-107.06138888888889,39.343333333333334],[-106.89777777777779,39.38611111111111],[-106.56166666666667,39.44333333333333],[-106.38416666666667,39.46055555555556],[-106.21194444444444,39.473055555555554],[-106.02638888888889,39.47666666666667],[-105.85388888888889,39.481944444444444],[-105.68111111111112,39.48722222222222],[-105.50583333333333,39.492222222222225],[-105.33277777777778,39.49666666666667],[-105.15861111111111,39.50083333333333],[-104.98388888888888,39.505],[-104.80916666666667,39.50888888888889],[-104.64055555555557,39.5125],[-104.4725,39.538333333333334],[-104.14194444444445,39.62888888888889],[-103.97722222222222,39.672777777777775],[-103.81138888888889,39.717222222222226],[-103.64611111111111,39.76166666666666],[-103.47972222222222,39.80694444444444],[-103.31277777777777,39.855000000000004],[-103.15138888888889,39.909166666666664],[-102.98944444444444,39.96277777777778],[-102.82583333333334,40.01555555555556],[-102.65277777777779,40.03444444444444],[-102.26361111111112,40.04333333333333],[-102.08777777777777,40.04805555555556],[-101.91611111111112,40.027499999999996],[-101.7461111111111,39.99166666666667],[-101.56972222222223,39.96055555555556],[-101.38944444444445,39.94361111111111],[-101.21138888888889,39.9325],[-101.10888888888888,39.93416666666666],[-101.03138888888888,39.939166666666665],[-100.93222222222222,39.943888888888885],[-100.75194444444445,39.95305555555556],[-100.67500000000001,39.9575],[-100.57277777777777,39.96277777777778],[-100.49527777777777,39.96666666666667],[-100.39166666666668,39.971944444444446],[-100.29444444444444,39.97666666666667],[-100.21361111111112,39.97972222222222],[-100.13833333333334,39.98416666666667],[-100.11666666666666,39.98527777777778],[-100.03555555555555,39.98916666666667],[-99.92888888888889,39.99388888888889],[-99.85805555555555,39.99722222222222],[-99.785,40.00055555555556],[-99.67861111111111,40.005],[-99.57055555555556,40.00972222222222],[-99.38722222222223,40.01722222222222],[-99.32138888888889,40.019999999999996],[-99.20944444444444,40.02444444444444],[-99.1413888888889,40.02722222222222],[-99.06583333333333,40.03],[-98.96055555555556,40.034166666666664],[-98.88611111111112,40.036944444444444],[-98.84861111111111,40.03805555555555],[-98.76805555555555,40.04111111111111],[-98.705,40.04333333333333],[-98.66666666666667,40.044444444444444],[-98.48833333333333,40.050555555555555],[-98.41027777777778,40.05305555555555],[-98.34833333333333,40.055],[-98.30972222222222,40.05638888888888],[-98.22055555555556,40.05916666666666],[-98.12972222222221,40.06194444444444],[-98.04944444444445,40.064166666666665],[-97.9525,40.06722222222223],[-97.86583333333333,40.06944444444445],[-97.73833333333333,40.073055555555555],[-97.63388888888889,40.075833333333335],[-97.59527777777777,40.07666666666667],[-97.50444444444445,40.07888888888889],[-97.32944444444443,40.08305555555556],[-97.2088888888889,40.08583333333333],[-97.15083333333334,40.08694444444445],[-97.03166666666667,40.089444444444446],[-96.97666666666667,40.09055555555556],[-96.89194444444445,40.092222222222226],[-96.8025,40.09388888888889],[-96.68527777777778,40.09583333333334],[-96.62583333333333,40.096944444444446],[-96.51166666666667,40.098888888888894],[-96.33583333333333,40.10138888888889],[-96.29583333333333,40.10194444444445],[-96.16166666666668,40.10388888888889],[-96.10083333333333,40.10472222222222],[-95.98861111111111,40.10611111111111],[-95.92611111111111,40.10666666666667],[-95.81527777777778,40.10777777777778],[-95.75111111111111,40.10861111111111],[-95.6413888888889,40.108333333333334],[-95.5761111111111,40.10166666666667],[-95.46527777777779,40.07944444444445],[-95.40194444444445,40.06472222222222],[-95.29444444444444,40.03972222222222],[-95.23027777777779,40.021388888888886],[-95.13,39.98888888888889],[-94.96833333333333,39.933611111111105],[-94.9363888888889,39.92166666666667],[-94.80944444444444,39.87555555555556],[-94.77555555555556,39.86333333333334],[-94.65083333333334,39.81861111111112],[-94.61722222222221,39.80638888888888],[-94.45777777777778,39.75888888888889],[-94.45277777777778,39.757777777777775],[-94.29194444444444,39.724722222222226],[-94.28361111111111,39.723055555555554],[-94.125,39.691111111111105],[-94.11638888888888,39.68944444444444],[-93.94694444444445,39.687777777777775],[-93.7761111111111,39.69499999999999],[-93.61388888888888,39.7025],[-93.58,39.70388888888889],[-93.44583333333334,39.71027777777778],[-93.41333333333334,39.711666666666666],[-93.27833333333334,39.717777777777776],[-93.24472222222222,39.719166666666666],[-93.07555555555555,39.72638888888889],[-92.735,39.74027777777778],[-92.56138888888889,39.746944444444445],[-92.385,39.75361111111111],[-92.03305555555555,39.76555555555556],[-91.85749999999999,39.771388888888886],[-91.68305555555555,39.776666666666664],[-91.38111111111111,39.65861111111111],[-91.25805555555556,39.55222222222222],[-90.97083333333333,39.20055555555556],[-90.87972222222221,39.078611111111115],[-90.76055555555556,38.971944444444446],[-90.62416666666665,38.87694444444445],[-90.4961111111111,38.78583333333333],[-90.33,38.72805555555556],[-90.15527777777778,38.683611111111105],[-90.00638888888889,38.64361111111111],[-89.8286111111111,38.59805555555556],[-89.67333333333333,38.556666666666665],[-89.51611111111112,38.515277777777776],[-89.34222222222222,38.46944444444445],[-89.17694444444444,38.44444444444444],[-89.00972222222222,38.44555555555555],[-88.69250000000001,38.49111111111111],[-88.535,38.514722222222225],[-88.37666666666667,38.53805555555555],[-88.06027777777777,38.58388888888889],[-87.90166666666667,38.60666666666667],[-87.74138888888889,38.62972222222222],[-87.58194444444445,38.651666666666664],[-87.10166666666666,38.717777777777776],[-86.97611111111111,38.734722222222224],[-86.82055555555556,38.75555555555555],[-86.66388888888889,38.77611111111111],[-86.34861111111111,38.816944444444445],[-86.18777777777778,38.837500000000006],[-86.02833333333334,38.85805555555556],[-85.67888888888889,38.901111111111106],[-85.525,38.89861111111111],[-85.34861111111111,38.8875],[-85.1738888888889,38.87555555555556],[-85.00611111111111,38.884166666666665],[-84.70111111111112,38.98555555555556],[-84.55611111111111,39.0475],[-84.41444444444446,39.11416666666667],[-84.28666666666666,39.19611111111111],[-84.16194444444444,39.27916666666667],[-84.03527777777778,39.35944444444445],[-83.90416666666667,39.44027777777777],[-83.75722222222223,39.53111111111111],[-83.7461111111111,39.53805555555555],[-83.4975,39.691111111111105],[-83.34138888888889,39.742222222222225],[-83.335,39.74277777777778],[-83.16305555555556,39.76277777777778],[-83.16027777777778,39.763333333333335],[-82.98333333333333,39.78444444444444],[-82.79944444444445,39.80611111111111],[-82.62388888888889,39.82611111111112],[-82.45,39.84583333333334],[-82.4563888888889,39.84527777777778],[-82.28222222222222,39.864444444444445],[-82.10527777777777,39.88388888888889],[-81.93055555555556,39.903055555555554],[-81.75555555555556,39.92166666666667],[-81.57722222222222,39.940555555555555],[-81.39944444444446,39.95861111111111],[-81.20166666666667,39.97916666666667],[-81.06694444444445,40.00694444444444],[-81.03916666666666,40.01916666666666],[-80.9388888888889,40.11055555555556],[-80.87166666666666,40.1875],[-80.85416666666666,40.20777777777778],[-80.75944444444444,40.31944444444445],[-80.665,40.39361111111111],[-80.52888888888889,40.47083333333334],[-80.51083333333334,40.47888888888889],[-80.37555555555555,40.556666666666665],[-80.24222222222222,40.630833333333335],[-80.13694444444445,40.69083333333333],[-80.10972222222222,40.705555555555556],[-79.84388888888888,40.85388888888889],[-79.70694444444445,40.92722222222222],[-79.57277777777777,41.00194444444445],[-79.1875,41.21222222222222],[-79.1613888888889,41.22638888888889],[-79.04694444444445,41.28805555555555],[-78.8775,41.37916666666667],[-78.70861111111111,41.469166666666666],[-78.57944444444443,41.55],[-78.48277777777778,41.64805555555556],[-78.38805555555557,41.744166666666665],[-78.3125,41.7975],[-78.24694444444445,41.81916666666667],[-77.96333333333334,41.88361111111111],[-77.89277777777778,41.89972222222222],[-77.78694444444444,41.92388888888889],[-77.71666666666667,41.94],[-77.54305555555555,41.97916666666667],[-77.3625,42.019444444444446],[-77.29222222222222,42.035],[-77.25583333333333,42.043055555555554],[-77.18694444444445,42.05833333333333],[-77.11833333333333,42.07361111111111],[-77.08,42.08222222222223],[-76.9413888888889,42.112500000000004],[-76.90305555555557,42.12083333333334],[-76.83472222222221,42.135555555555555],[-76.72694444444444,42.159166666666664],[-76.65972222222223,42.17361111111111],[-76.59222222222222,42.18833333333333],[-76.5525,42.19694444444444],[-76.46222222222222,42.21611111111111],[-76.41777777777779,42.22555555555556],[-76.24138888888889,42.26305555555555],[-76.06916666666666,42.29944444444444],[-75.95833333333334,42.322500000000005],[-75.89750000000001,42.33527777777778],[-75.78694444444444,42.35805555555556],[-75.72833333333334,42.37027777777778],[-75.68277777777779,42.37972222222222],[-75.61694444444444,42.393055555555556],[-75.5586111111111,42.40472222222222],[-75.51472222222222,42.413888888888884],[-75.44666666666667,42.42777777777778],[-75.27944444444444,42.46194444444445],[-75.21833333333333,42.474444444444444],[-75.11055555555555,42.49611111111111],[-75.04944444444445,42.50805555555556],[-75.00694444444444,42.516666666666666],[-74.94416666666667,42.529444444444444],[-74.87333333333332,42.543055555555554],[-74.77916666666667,42.56166666666666],[-74.70861111111111,42.57555555555556],[-74.61444444444444,42.594166666666666],[-74.54583333333333,42.6075],[-74.45444444444445,42.625],[-74.38305555555554,42.63861111111111],[-74.29055555555556,42.65611111111111],[-74.11861111111111,42.657222222222224],[-73.93805555555556,42.658055555555556],[-73.76194444444444,42.658055555555556],[-73.58999999999999,42.657777777777774],[-73.41305555555556,42.657222222222224],[-73.23472222222222,42.655833333333334],[-73.05333333333333,42.654444444444444],[-72.70222222222222,42.651111111111106],[-72.36444444444444,42.64722222222222],[-72.21166666666667,42.634166666666665],[-72.06694444444445,42.617222222222225],[-71.91666666666667,42.6],[-71.78333333333333,42.583333333333336],[-71.65,42.56666666666667],[-71.52694444444444,42.53722222222222],[-71.41027777777778,42.51277777777778],[-71.30055555555555,42.49055555555556],[-71.20277777777778,42.47083333333334],[-71.11388888888888,42.45777777777778],[-71.02555555555556,42.44444444444444],[-70.98388888888888,42.38472222222222],[-70.95,42.333333333333336],[-70.95555555555556,42.26166666666666],[-70.98305555555555,42.19916666666666],[-71.05,42.18333333333333],[-71.0625,42.245],[-71.03722222222223,42.29833333333333],[-71.01666666666667,42.333333333333336],[-71.01722222222222,42.34],[-70.99944444444445,42.37694444444445]],"type":"LineString"}
}
