{
  "id": 2031942405,
  "type": "Feature",
  "properties": {
    "geom:area": 0,
    "geom:bbox": "-122.381944,37.378889,-122.077778,37.624167",
    "geom:latitude": 37.498707362462845,
    "geom:longitude": -122.22278237766793,
    "src:alt_label": "swim-path",
    "src:geom": "swim",
    "swim:altitudes": [
      "110C",
      "102",
      "093",
      "077",
      "071",
      "070",
      "070",
      "070",
      "070",
      "056",
      "049",
      "041",
      "040",
      "039",
      "033",
      "029",
      "024",
      "018",
      "010",
      "008",
      "003",
      "110"
    ],
    "swim:geom": "path",
    "swim:speeds": [
      255,
      247,
      246,
      243,
      237,
      235,
      236,
      230,
      218,
      218,
      208,
      211,
      197,
      198,
      192,
      187,
      182,
      169,
      141,
      138,
      141,
      124
    ],
    "swim:timestamps": [
      1784868934,
      1784868948,
      1784868994,
      1784869054,
      1784869068,
      1784869114,
      1784869128,
      1784869174,
      1784869234,
      1784869294,
      1784869308,
      1784869354,
      1784869369,
      1784869414,
      1784869429,
      1784869475,
      1784869489,
      1784869535,
      1784869595,
      1784869609,
      1784869655,
      1784869715
    ],
    "wof:geomhash": "4ae37346f969ea01177c26d38ec03752",
    "wof:id": 2031942405,
    "wof:repo": "sfomuseum-data-flights-2026-07"
  },
  "bbox": [
    -122.38194444444444,
    37.37888888888889,
    -122.07777777777777,
    37.62416666666667
  ],
  "geometry": {"coordinates":[[-122.36416666666666,37.60722222222223],[-122.35,37.583333333333336],[-122.33,37.54555555555555],[-122.2936111111111,37.48527777777778],[-122.28333333333333,37.46666666666667],[-122.255,37.42833333333333],[-122.21666666666667,37.416666666666664],[-122.18166666666667,37.401111111111106],[-122.09861111111111,37.37888888888889],[-122.07777777777777,37.42027777777778],[-122.08333333333333,37.45],[-122.09527777777777,37.47638888888889],[-122.11666666666666,37.5],[-122.13444444444445,37.519999999999996],[-122.16666666666667,37.53333333333333],[-122.19250000000001,37.54416666666666],[-122.21666666666667,37.55],[-122.25722222222223,37.57138888888889],[-122.30277777777778,37.59055555555556],[-122.31666666666666,37.6],[-122.34666666666666,37.60916666666667],[-122.38194444444444,37.62416666666667]],"type":"LineString"}
}
