{
  "id": 2031946991,
  "type": "Feature",
  "properties": {
    "geom:area": 0,
    "geom:bbox": "-122.551020,36.731890,-122.050680,37.668730",
    "geom:latitude": 37.227674233585105,
    "geom:longitude": -122.37206816531385,
    "src:alt_label": "swim-takeoff",
    "src:geom": "swim",
    "swim:elevations": [
      541,
      630,
      881,
      949,
      1313,
      1576,
      2169,
      2254,
      2575,
      2873,
      3055,
      3400,
      3483,
      3684,
      3759,
      4008,
      4165,
      4237,
      4387,
      4645,
      4717,
      5175,
      5644,
      5938,
      6016,
      6191,
      6703,
      6979,
      7096
    ],
    "swim:geom": "takeoff",
    "swim:timestamps": [
      1784849697,
      1784849704,
      1784849726,
      1784849733,
      1784849782,
      1784849803,
      1784849845,
      1784849851,
      1784849876,
      1784849899,
      1784849912,
      1784849944,
      1784849965,
      1784849994,
      1784850018,
      1784850049,
      1784850061,
      1784850067,
      1784850084,
      1784850114,
      1784850122,
      1784850174,
      1784850223,
      1784850257,
      1784850267,
      1784850292,
      1784850355,
      1784850396,
      1784850417
    ],
    "wof:geomhash": "c969551583a5e5d120ac1e0fdcf140d0",
    "wof:id": 2031946991,
    "wof:repo": "sfomuseum-data-flights-2026-07"
  },
  "bbox": [
    -122.55102,
    36.73189,
    -122.05068,
    37.66873
  ],
  "geometry": {"coordinates":[[-122.40768,37.63316],[-122.41297,37.63554],[-122.43218,37.64336],[-122.4378,37.64555],[-122.49437,37.66873],[-122.52465,37.66677],[-122.55102,37.62262],[-122.54819,37.61538],[-122.53035,37.5866],[-122.51355,37.55949],[-122.50404,37.54358],[-122.48222,37.50347],[-122.47788,37.47259],[-122.48676,37.42662],[-122.49502,37.38661],[-122.50499,37.3314],[-122.50742,37.31004],[-122.50636,37.2994],[-122.4954,37.27073],[-122.45936,37.22255],[-122.44899,37.21043],[-122.3795,37.12874],[-122.31372,37.04986],[-122.26903,36.99598],[-122.25543,36.97961],[-122.22176,36.9387],[-122.13571,36.83482],[-122.08003,36.76746],[-122.05068,36.73189]],"type":"LineString"}
}
