{
  "id": 2031946991,
  "type": "Feature",
  "properties": {
    "geom:area": 0,
    "geom:bbox": "-120.447500,32.691111,-116.955833,35.471389",
    "geom:latitude": 34.048619254253275,
    "geom:longitude": -118.6100149446707,
    "src:alt_label": "swim-path",
    "src:geom": "swim",
    "swim:altitudes": [
      "330C",
      "330C",
      "330C",
      "330C",
      "330C",
      "330C",
      "330C",
      "330C",
      "330C",
      "330C",
      "330C",
      "330C",
      "330C",
      "330C",
      "330C",
      "330",
      "330",
      "325",
      "303",
      "280",
      "257",
      "236",
      "224",
      "214",
      "193",
      "166",
      "144",
      "123",
      "114",
      "104",
      "097",
      "083",
      "069",
      "061",
      "054",
      "046",
      "038",
      "037",
      "028",
      "026",
      "019",
      "009",
      "009"
    ],
    "swim:geom": "path",
    "swim:speeds": [
      463,
      463,
      463,
      463,
      464,
      465,
      466,
      465,
      464,
      464,
      464,
      466,
      468,
      469,
      470,
      469,
      468,
      465,
      448,
      436,
      421,
      409,
      400,
      401,
      391,
      362,
      360,
      343,
      338,
      336,
      291,
      280,
      276,
      244,
      215,
      197,
      182,
      183,
      179,
      174,
      160,
      153,
      158
    ],
    "swim:timestamps": [
      1784876476,
      1784876596,
      1784876656,
      1784876716,
      1784876776,
      1784876836,
      1784876897,
      1784876957,
      1784877080,
      1784877140,
      1784877201,
      1784877261,
      1784877321,
      1784877381,
      1784877441,
      1784877501,
      1784877561,
      1784877621,
      1784877681,
      1784877741,
      1784877801,
      1784877861,
      1784877886,
      1784877921,
      1784877981,
      1784878041,
      1784878101,
      1784878161,
      1784878179,
      1784878221,
      1784878281,
      1784878336,
      1784878398,
      1784878456,
      1784878521,
      1784878581,
      1784878630,
      1784878642,
      1784878702,
      1784878716,
      1784878762,
      1784878816,
      1784878822
    ],
    "wof:geomhash": "c20c56c16a7ddd6c33bb1d3bde82a2ac",
    "wof:id": 2031946991,
    "wof:repo": "sfomuseum-data-flights-2026-07"
  },
  "bbox": [
    -120.4475,
    32.691111111111105,
    -116.95583333333333,
    35.47138888888889
  ],
  "geometry": {"coordinates":[[-120.4475,35.47138888888889],[-120.20916666666668,35.29416666666666],[-120.08583333333333,35.20166666666667],[-119.96972222222223,35.11472222222223],[-119.85472222222222,35.02833333333333],[-119.73805555555556,34.94027777777777],[-119.62166666666666,34.85194444444445],[-119.50805555555556,34.76555555555556],[-119.26638888888888,34.58083333333334],[-119.15194444444445,34.49305555555556],[-119.03861111111111,34.40555555555555],[-118.92361111111111,34.31666666666667],[-118.8086111111111,34.227222222222224],[-118.69250000000001,34.136944444444445],[-118.57694444444444,34.04694444444444],[-118.46277777777777,33.95722222222223],[-118.34833333333333,33.868611111111115],[-118.2525,33.794444444444444],[-118.14,33.70861111111111],[-118.0325,33.62638888888889],[-117.92805555555556,33.54611111111111],[-117.83444444444444,33.465],[-117.78333333333333,33.416666666666664],[-117.74444444444444,33.38333333333333],[-117.6588888888889,33.30333333333333],[-117.56666666666666,33.21666666666667],[-117.49,33.15555555555555],[-117.4113888888889,33.08638888888889],[-117.38333333333334,33.05],[-117.32694444444444,33.01138888888889],[-117.25833333333334,32.950833333333335],[-117.2,32.9],[-117.13333333333334,32.85],[-117.08333333333333,32.78333333333333],[-117.00583333333333,32.76444444444444],[-116.95583333333333,32.73361111111111],[-116.96666666666667,32.7],[-116.98055555555555,32.691111111111105],[-117.03694444444444,32.69638888888888],[-117.05,32.7],[-117.08888888888889,32.70916666666667],[-117.13333333333334,32.71666666666667],[-117.1388888888889,32.721111111111114]],"type":"LineString"}
}
