{
  "id": 2032048489,
  "type": "Feature",
  "properties": {
    "geom:area": 0,
    "geom:bbox": "-122.361770,36.723640,-121.879930,37.612730",
    "geom:latitude": 37.21319221004178,
    "geom:longitude": -122.0716586693256,
    "src:alt_label": "swim-approach",
    "src:geom": "swim",
    "swim:elevations": [
      5179,
      4961,
      4910,
      3662,
      3323,
      3132,
      3078,
      2866,
      2734,
      2461,
      2439,
      2322,
      2229,
      2067,
      1871,
      1699,
      1221,
      1066,
      949,
      917,
      849,
      689,
      602,
      464,
      430,
      263,
      210,
      69,
      40
    ],
    "swim:geom": "approach",
    "swim:timestamps": [
      1785524186,
      1785524208,
      1785524216,
      1785524353,
      1785524388,
      1785524424,
      1785524437,
      1785524475,
      1785524493,
      1785524534,
      1785524546,
      1785524569,
      1785524582,
      1785524604,
      1785524632,
      1785524650,
      1785524698,
      1785524723,
      1785524750,
      1785524772,
      1785524792,
      1785524822,
      1785524846,
      1785524876,
      1785524885,
      1785524933,
      1785524949,
      1785524994,
      1785525013
    ],
    "wof:geomhash": "4ceeefc9ef51b48c6a1d931cc42329af",
    "wof:id": 2032048489,
    "wof:repo": "sfomuseum-data-flights-2026-07"
  },
  "bbox": [
    -122.36177,
    36.72364,
    -121.87993,
    37.61273
  ],
  "geometry": {"coordinates":[[-121.87993,36.72364],[-121.89926,36.75859],[-121.90324,36.77298],[-121.96978,36.99462],[-121.99086,37.04846],[-122.01132,37.10101],[-122.01864,37.11996],[-122.03852,37.17071],[-122.04789,37.19461],[-122.06864,37.24781],[-122.07486,37.26365],[-122.08613,37.29209],[-122.0922,37.30741],[-122.10266,37.33448],[-122.11604,37.36846],[-122.12475,37.39037],[-122.144,37.44797],[-122.15374,37.47718],[-122.16388,37.50639],[-122.17247,37.52799],[-122.19002,37.54012],[-122.2197,37.55335],[-122.24317,37.56332],[-122.26906,37.57422],[-122.27619,37.57726],[-122.30916,37.59107],[-122.32032,37.59568],[-122.34916,37.60782],[-122.36177,37.61273]],"type":"LineString"}
}
