{
  "id": 2031993457,
  "type": "Feature",
  "properties": {
    "geom:area": 0,
    "geom:bbox": "-122.548940,36.721870,-121.297370,37.668290",
    "geom:latitude": 37.204779098911914,
    "geom:longitude": -122.00341262328628,
    "src:alt_label": "swim-takeoff",
    "src:geom": "swim",
    "swim:elevations": [
      183,
      483,
      1045,
      1390,
      1578,
      2223,
      2618,
      3111,
      3315,
      3379,
      3423,
      3774,
      4224,
      4492,
      4555,
      4917,
      5109,
      5141,
      5296,
      5496,
      5933,
      6319,
      6685,
      6748,
      6793,
      6929,
      7360,
      7450,
      7756,
      7891,
      8112,
      8243,
      8280,
      8414
    ],
    "swim:geom": "takeoff",
    "swim:timestamps": [
      1785197221,
      1785197255,
      1785197338,
      1785197379,
      1785197395,
      1785197451,
      1785197491,
      1785197539,
      1785197574,
      1785197584,
      1785197590,
      1785197622,
      1785197665,
      1785197695,
      1785197701,
      1785197740,
      1785197758,
      1785197761,
      1785197776,
      1785197797,
      1785197842,
      1785197885,
      1785197936,
      1785197946,
      1785197953,
      1785197975,
      1785198027,
      1785198039,
      1785198084,
      1785198105,
      1785198139,
      1785198162,
      1785198168,
      1785198189
    ],
    "wof:geomhash": "f83096c9dd41777828834a98506dccd6",
    "wof:id": 2031993457,
    "wof:repo": "sfomuseum-data-flights-2026-07"
  },
  "bbox": [
    -122.54894,
    36.72187,
    -121.29737,
    37.66829
  ],
  "geometry": {"coordinates":[[-122.39053,37.62539],[-122.41838,37.63757],[-122.51238,37.66829],[-122.54894,37.63236],[-122.54214,37.61132],[-122.50408,37.5428],[-122.4751,37.4949],[-122.41393,37.45101],[-122.36271,37.41784],[-122.3478,37.40824],[-122.33857,37.40229],[-122.29029,37.37108],[-122.22291,37.32768],[-122.17515,37.29682],[-122.16553,37.29057],[-122.10173,37.24911],[-122.07186,37.22974],[-122.06684,37.22653],[-122.04192,37.21041],[-122.00777,37.18821],[-121.93289,37.13941],[-121.85859,37.09095],[-121.76962,37.03268],[-121.75285,37.02169],[-121.74079,37.01376],[-121.69901,36.98635],[-121.60329,36.92337],[-121.58117,36.90888],[-121.49666,36.85454],[-121.45748,36.82772],[-121.39507,36.78579],[-121.34946,36.75563],[-121.33796,36.74792],[-121.29737,36.72187]],"type":"LineString"}
}
