{
  "id": 2031969469,
  "type": "Feature",
  "properties": {
    "geom:area": 0,
    "geom:bbox": "-119.878889,38.429167,-79.990000,41.551667",
    "geom:latitude": 40.71732195556528,
    "geom:longitude": -99.85003037644431,
    "src:alt_label": "swim-path",
    "src:geom": "swim",
    "swim:altitudes": [
      "297",
      "302",
      "308",
      "311",
      "317",
      "321",
      "327",
      "330C",
      "330C",
      "330C",
      "330C",
      "330C",
      "330C",
      "330",
      "331",
      "335",
      "345",
      "348C",
      "350C",
      "350C",
      "350C",
      "350C",
      "350C",
      "350C",
      "350C",
      "350C",
      "350C",
      "350C",
      "350C",
      "350C",
      "350C",
      "350C",
      "350C",
      "350C",
      "350C",
      "350C",
      "350C",
      "350C",
      "350C",
      "350C",
      "350C",
      "350C",
      "350C",
      "350C",
      "350C",
      "350C",
      "350C",
      "350C",
      "350C",
      "350C",
      "350C",
      "350C",
      "350C",
      "350C",
      "350C",
      "350C",
      "350C",
      "350C",
      "350C",
      "350C",
      "350C",
      "350C",
      "350C",
      "350C",
      "350C",
      "350C",
      "350C",
      "350C",
      "350C",
      "350C",
      "350C",
      "350C",
      "350C",
      "350C",
      "350C",
      "350C",
      "350C",
      "350C",
      "350C",
      "350C",
      "350C",
      "350C",
      "350C",
      "350C",
      "350C",
      "350C",
      "350C",
      "350C",
      "350C",
      "350C",
      "350C",
      "350C",
      "350C",
      "350C",
      "350C",
      "350C",
      "350C",
      "350C",
      "350C",
      "350C",
      "350C",
      "350C",
      "350C",
      "350C",
      "350C",
      "350C",
      "350C",
      "350C",
      "350C",
      "350C",
      "350C",
      "350C",
      "350C",
      "350C",
      "350C",
      "350C",
      "350C",
      "350C",
      "350C",
      "350C",
      "350C",
      "350C",
      "350",
      "357",
      "364",
      "370C",
      "370C",
      "370C",
      "370C",
      "370C",
      "370C",
      "370C",
      "370C",
      "370C",
      "370C",
      "370C",
      "370C",
      "370C",
      "370C",
      "370C",
      "370C",
      "370C",
      "370C",
      "370C",
      "370C",
      "370C",
      "370C",
      "370C",
      "370C",
      "370C",
      "370C",
      "370C",
      "370C",
      "370C",
      "370C",
      "370C",
      "370C",
      "370C",
      "370C",
      "370C",
      "370C",
      "370C",
      "370C",
      "370C",
      "370C",
      "370C",
      "370C",
      "370C",
      "370C",
      "370C",
      "370C",
      "370C",
      "370C",
      "370C",
      "370C",
      "370C",
      "370C",
      "370C",
      "370C",
      "370C",
      "370C",
      "370C",
      "370C",
      "370C",
      "370C",
      "370C",
      "370C",
      "370C",
      "370C",
      "370C",
      "370C",
      "370C",
      "370C",
      "370C",
      "370C",
      "370C",
      "370C",
      "370C",
      "370C",
      "370C",
      "370C",
      "370C",
      "370C",
      "370C",
      "370C",
      "370C",
      "370C",
      "370C",
      "370C",
      "370C",
      "370C",
      "370C",
      "370C",
      "370C",
      "370C",
      "370C",
      "370C",
      "370C",
      "370C",
      "370C",
      "370C",
      "370C",
      "370C",
      "370C",
      "370C",
      "370C",
      "370C",
      "370C",
      "370C",
      "370C",
      "370C",
      "370C",
      "370C",
      "370C",
      "370C",
      "370C",
      "370C",
      "370C",
      "370C",
      "370C",
      "370C",
      "370C",
      "370C",
      "370C",
      "370C",
      "370C",
      "370C",
      "370C",
      "370C",
      "370C",
      "370C",
      "370C",
      "370C",
      "370C",
      "370C",
      "370C",
      "370C",
      "370C",
      "370C",
      "370C",
      "370C",
      "370C",
      "370C",
      "370C",
      "370C",
      "370C",
      "370C",
      "370C",
      "370C",
      "370C",
      "370C",
      "370C",
      "370C",
      "370C",
      "370C",
      "370C",
      "370C",
      "370",
      "370",
      "362",
      "352",
      "342",
      "333",
      "323",
      "314",
      "303",
      "279",
      "254",
      "230",
      "208",
      "185",
      "162",
      "137",
      "118",
      "114",
      "100",
      "099C",
      "100",
      "100C",
      "100",
      "093",
      "093",
      "080",
      "078",
      "065",
      "062",
      "046",
      "038",
      "030",
      "030",
      "027"
    ],
    "swim:geom": "path",
    "swim:speeds": [
      507,
      507,
      507,
      508,
      511,
      510,
      512,
      511,
      512,
      512,
      512,
      513,
      514,
      514,
      517,
      520,
      516,
      514,
      512,
      512,
      513,
      513,
      514,
      514,
      515,
      515,
      515,
      515,
      515,
      514,
      514,
      513,
      511,
      510,
      509,
      508,
      507,
      506,
      505,
      504,
      503,
      503,
      502,
      502,
      502,
      503,
      502,
      502,
      501,
      501,
      501,
      501,
      501,
      501,
      500,
      499,
      499,
      501,
      503,
      506,
      508,
      510,
      511,
      512,
      513,
      512,
      515,
      514,
      514,
      512,
      510,
      508,
      507,
      507,
      508,
      509,
      509,
      509,
      510,
      510,
      510,
      508,
      507,
      507,
      505,
      505,
      504,
      504,
      504,
      504,
      504,
      504,
      505,
      505,
      505,
      505,
      505,
      505,
      505,
      504,
      504,
      504,
      504,
      503,
      503,
      503,
      504,
      504,
      504,
      504,
      505,
      504,
      504,
      503,
      501,
      500,
      499,
      498,
      498,
      497,
      495,
      491,
      490,
      490,
      492,
      492,
      492,
      492,
      492,
      492,
      494,
      496,
      498,
      500,
      503,
      503,
      503,
      503,
      505,
      503,
      504,
      502,
      502,
      501,
      501,
      499,
      499,
      498,
      498,
      497,
      497,
      497,
      497,
      497,
      498,
      498,
      499,
      500,
      500,
      499,
      498,
      497,
      496,
      495,
      493,
      493,
      491,
      487,
      485,
      481,
      479,
      477,
      477,
      479,
      478,
      479,
      481,
      482,
      483,
      483,
      483,
      483,
      483,
      483,
      483,
      483,
      483,
      482,
      482,
      482,
      482,
      483,
      483,
      484,
      484,
      485,
      486,
      487,
      487,
      488,
      488,
      489,
      490,
      490,
      490,
      491,
      491,
      491,
      491,
      491,
      493,
      492,
      494,
      492,
      496,
      496,
      499,
      501,
      503,
      502,
      507,
      510,
      510,
      513,
      515,
      517,
      517,
      517,
      517,
      516,
      516,
      517,
      518,
      518,
      519,
      519,
      520,
      521,
      523,
      524,
      524,
      524,
      522,
      524,
      523,
      523,
      523,
      521,
      521,
      520,
      520,
      519,
      519,
      518,
      518,
      517,
      517,
      517,
      518,
      517,
      518,
      517,
      518,
      518,
      518,
      517,
      516,
      515,
      514,
      514,
      513,
      512,
      512,
      511,
      511,
      509,
      509,
      512,
      516,
      515,
      513,
      512,
      511,
      510,
      510,
      510,
      496,
      484,
      471,
      454,
      439,
      427,
      414,
      397,
      399,
      362,
      374,
      353,
      357,
      333,
      303,
      307,
      289,
      289,
      269,
      271,
      257,
      206,
      199,
      191,
      185
    ],
    "swim:timestamps": [
      1785042789,
      1785042812,
      1785042849,
      1785042872,
      1785042909,
      1785042932,
      1785042969,
      1785042992,
      1785043030,
      1785043052,
      1785043090,
      1785043172,
      1785043210,
      1785043233,
      1785043270,
      1785043293,
      1785043330,
      1785043353,
      1785043390,
      1785043413,
      1785043450,
      1785043473,
      1785043510,
      1785043533,
      1785043570,
      1785043593,
      1785043630,
      1785043653,
      1785043690,
      1785043713,
      1785043750,
      1785043773,
      1785043810,
      1785043833,
      1785043870,
      1785043893,
      1785043930,
      1785043953,
      1785043990,
      1785044013,
      1785044050,
      1785044073,
      1785044110,
      1785044170,
      1785044231,
      1785044291,
      1785044411,
      1785044471,
      1785044531,
      1785044591,
      1785044651,
      1785044711,
      1785044771,
      1785044831,
      1785044891,
      1785044951,
      1785045011,
      1785045071,
      1785045131,
      1785045191,
      1785045251,
      1785045311,
      1785045371,
      1785045432,
      1785045492,
      1785045552,
      1785045609,
      1785045669,
      1785045729,
      1785045789,
      1785045849,
      1785045909,
      1785045969,
      1785046029,
      1785046089,
      1785046149,
      1785046209,
      1785046269,
      1785046329,
      1785046392,
      1785046401,
      1785046462,
      1785046512,
      1785046522,
      1785046572,
      1785046582,
      1785046632,
      1785046642,
      1785046692,
      1785046702,
      1785046752,
      1785046762,
      1785046813,
      1785046822,
      1785046873,
      1785046933,
      1785046942,
      1785046993,
      1785047002,
      1785047062,
      1785047122,
      1785047182,
      1785047242,
      1785047302,
      1785047362,
      1785047422,
      1785047482,
      1785047542,
      1785047602,
      1785047662,
      1785047722,
      1785047782,
      1785047842,
      1785047902,
      1785047963,
      1785048023,
      1785048083,
      1785048143,
      1785048203,
      1785048263,
      1785048323,
      1785048383,
      1785048443,
      1785048503,
      1785048563,
      1785048623,
      1785048683,
      1785048743,
      1785048803,
      1785048863,
      1785048923,
      1785048983,
      1785049043,
      1785049103,
      1785049163,
      1785049223,
      1785049283,
      1785049343,
      1785049353,
      1785049403,
      1785049413,
      1785049463,
      1785049473,
      1785049524,
      1785049533,
      1785049584,
      1785049593,
      1785049644,
      1785049653,
      1785049704,
      1785049713,
      1785049764,
      1785049773,
      1785049824,
      1785049834,
      1785049894,
      1785049944,
      1785049954,
      1785050014,
      1785050074,
      1785050134,
      1785050194,
      1785050254,
      1785050314,
      1785050374,
      1785050434,
      1785050494,
      1785050554,
      1785050614,
      1785050674,
      1785050734,
      1785050794,
      1785050854,
      1785050914,
      1785050974,
      1785051034,
      1785051094,
      1785051154,
      1785051180,
      1785051214,
      1785051240,
      1785051274,
      1785051302,
      1785051334,
      1785051362,
      1785051394,
      1785051420,
      1785051454,
      1785051482,
      1785051514,
      1785051540,
      1785051574,
      1785051602,
      1785051635,
      1785051661,
      1785051695,
      1785051721,
      1785051755,
      1785051782,
      1785051815,
      1785051840,
      1785051875,
      1785051900,
      1785051935,
      1785051963,
      1785051995,
      1785052021,
      1785052055,
      1785052080,
      1785052115,
      1785052141,
      1785052175,
      1785052200,
      1785052235,
      1785052261,
      1785052295,
      1785052320,
      1785052355,
      1785052380,
      1785052415,
      1785052442,
      1785052475,
      1785052502,
      1785052560,
      1785052623,
      1785052680,
      1785052743,
      1785052803,
      1785052860,
      1785052922,
      1785052982,
      1785053040,
      1785053100,
      1785053163,
      1785053221,
      1785053281,
      1785053341,
      1785053401,
      1785053462,
      1785053521,
      1785053581,
      1785053641,
      1785053721,
      1785053763,
      1785053782,
      1785053821,
      1785053841,
      1785053881,
      1785053904,
      1785053941,
      1785053961,
      1785054001,
      1785054021,
      1785054061,
      1785054084,
      1785054121,
      1785054142,
      1785054182,
      1785054201,
      1785054243,
      1785054263,
      1785054301,
      1785054321,
      1785054361,
      1785054383,
      1785054422,
      1785054444,
      1785054483,
      1785054504,
      1785054541,
      1785054562,
      1785054602,
      1785054624,
      1785054663,
      1785054684,
      1785054724,
      1785054744,
      1785054805,
      1785054862,
      1785054922,
      1785054985,
      1785055042,
      1785055102,
      1785055163,
      1785055222,
      1785055284,
      1785055344,
      1785055404,
      1785055462,
      1785055522,
      1785055583,
      1785055642,
      1785055703,
      1785055748,
      1785055763,
      1785055815,
      1785055824,
      1785055876,
      1785055885,
      1785055934,
      1785055994,
      1785056003,
      1785056054,
      1785056063,
      1785056115,
      1785056124,
      1785056176,
      1785056240,
      1785056304,
      1785056365,
      1785056423
    ],
    "wof:geomhash": "494e87f94f7059fa087ebbcc43790763",
    "wof:id": 2031969469,
    "wof:repo": "sfomuseum-data-flights-2026-07"
  },
  "bbox": [
    -119.87888888888888,
    38.42916666666667,
    -79.99,
    41.55166666666666
  ],
  "geometry": {"coordinates":[[-119.87888888888888,38.42916666666667],[-119.79916666666666,38.44583333333333],[-119.70472222222223,38.46277777777778],[-119.63277777777778,38.47777777777778],[-119.52805555555555,38.495555555555555],[-119.4563888888889,38.51111111111111],[-119.35277777777777,38.52916666666667],[-119.28305555555555,38.54361111111111],[-119.17722222222223,38.561388888888885],[-119.10583333333332,38.575833333333335],[-119.00166666666667,38.59444444444445],[-118.75527777777778,38.64138888888889],[-118.64805555555556,38.66],[-118.57666666666667,38.67444444444444],[-118.47305555555556,38.69916666666666],[-118.40027777777779,38.71638888888889],[-118.2761111111111,38.745555555555555],[-118.22611111111111,38.757222222222225],[-118.10222222222221,38.78611111111111],[-118.05305555555556,38.79722222222222],[-117.92555555555556,38.82666666666667],[-117.8786111111111,38.837500000000006],[-117.74805555555555,38.867222222222225],[-117.70333333333333,38.8775],[-117.56972222222223,38.907777777777774],[-117.5286111111111,38.91694444444444],[-117.42777777777778,38.939722222222215],[-117.35277777777777,38.95638888888889],[-117.25222222222222,38.97888888888889],[-117.1763888888889,38.99583333333334],[-117.07388888888889,39.01833333333333],[-117.00416666666666,39.03388888888889],[-116.89861111111112,39.05722222222222],[-116.82805555555555,39.072500000000005],[-116.70944444444444,39.098333333333336],[-116.6538888888889,39.11055555555556],[-116.53833333333333,39.135555555555555],[-116.46777777777778,39.15083333333333],[-116.36611111111111,39.1725],[-116.295,39.187777777777775],[-116.19361111111111,39.20916666666667],[-116.12194444444444,39.224444444444444],[-116.0213888888889,39.245555555555555],[-115.84833333333333,39.28194444444444],[-115.67611111111111,39.31805555555556],[-115.50166666666667,39.35388888888889],[-115.155,39.42444444444444],[-114.98083333333334,39.45944444444445],[-114.80666666666666,39.494166666666665],[-114.63333333333334,39.52861111111111],[-114.45972222222223,39.562777777777775],[-114.28138888888888,39.597500000000004],[-114.10388888888889,39.63194444444444],[-113.92944444444444,39.665],[-113.755,39.698055555555555],[-113.58083333333333,39.730555555555554],[-113.40416666666667,39.76361111111111],[-113.22888888888889,39.795833333333334],[-113.04972222222221,39.828611111111115],[-112.8711111111111,39.86083333333333],[-112.69333333333334,39.89277777777778],[-112.50638888888889,39.92611111111111],[-112.32583333333334,39.95777777777778],[-112.14694444444446,39.98888888888889],[-111.95194444444445,40.0225],[-111.77055555555556,40.05333333333333],[-111.61138888888888,40.08027777777778],[-111.43055555555556,40.11055555555556],[-111.24638888888889,40.14083333333333],[-111.06861111111111,40.169999999999995],[-110.88694444444445,40.19944444444444],[-110.70722222222223,40.22833333333333],[-110.52833333333334,40.25694444444444],[-110.3475,40.28527777777778],[-110.16416666666667,40.31361111111111],[-109.98277777777778,40.34138888888889],[-109.80027777777778,40.369166666666665],[-109.61999999999999,40.396388888888886],[-109.4363888888889,40.42361111111111],[-109.25138888888888,40.45055555555556],[-109.25138888888888,40.45055555555556],[-109.03472222222221,40.48222222222223],[-108.89277777777778,40.5025],[-108.85416666666666,40.50805555555556],[-108.70194444444445,40.53],[-108.6713888888889,40.534166666666664],[-108.52111111111111,40.555],[-108.4925,40.55888888888889],[-108.34083333333332,40.57972222222222],[-108.32083333333333,40.5825],[-108.16166666666668,40.60444444444445],[-108.1261111111111,40.60916666666667],[-107.97805555555556,40.61833333333333],[-107.94611111111111,40.61944444444445],[-107.79388888888889,40.625277777777775],[-107.6111111111111,40.632222222222225],[-107.58416666666666,40.63333333333333],[-107.42777777777778,40.638888888888886],[-107.40333333333334,40.63972222222222],[-107.22111111111111,40.645833333333336],[-107.03861111111111,40.651944444444446],[-106.85388888888889,40.657777777777774],[-106.66944444444445,40.66305555555555],[-106.46944444444445,40.66833333333333],[-106.28472222222221,40.67333333333333],[-106.13722222222223,40.67722222222222],[-105.94888888888889,40.68138888888889],[-105.76333333333334,40.68527777777778],[-105.57694444444444,40.689166666666665],[-105.39361111111111,40.69222222222222],[-105.20722222222223,40.69555555555555],[-105.02416666666666,40.698055555555555],[-104.83944444444444,40.700833333333335],[-104.655,40.70305555555556],[-104.47111111111111,40.705000000000005],[-104.28999999999999,40.70638888888889],[-104.10444444444444,40.70777777777778],[-103.9225,40.70888888888889],[-103.74055555555556,40.70944444444445],[-103.55888888888889,40.709722222222226],[-103.37944444444443,40.71],[-103.2038888888889,40.71472222222223],[-103.02527777777777,40.73638888888889],[-102.83083333333333,40.75944444444445],[-102.65222222222222,40.78055555555555],[-102.47361111111111,40.80138888888889],[-102.295,40.82194444444445],[-102.11722222222221,40.841944444444444],[-101.94027777777778,40.861666666666665],[-101.76,40.88138888888889],[-101.58027777777778,40.90083333333333],[-101.39916666666667,40.92027777777778],[-101.21611111111112,40.93944444444444],[-101.03138888888888,40.958333333333336],[-100.84583333333333,40.977222222222224],[-100.69472222222223,40.992222222222225],[-100.50722222222223,41.01083333333333],[-100.3236111111111,41.02861111111111],[-100.28611111111111,41.032222222222224],[-100.13972222222223,41.04611111111111],[-100.09194444444444,41.05083333333333],[-99.95583333333333,41.06361111111111],[-99.90972222222223,41.06777777777778],[-99.77333333333333,41.08027777777778],[-99.72888888888889,41.08416666666667],[-99.59444444444443,41.09638888888889],[-99.54694444444445,41.10055555555556],[-99.41305555555556,41.112500000000004],[-99.36555555555555,41.11666666666667],[-99.22944444444444,41.12833333333333],[-99.18361111111112,41.132222222222225],[-99.04777777777778,41.14388888888889],[-99.00416666666666,41.1475],[-98.86861111111111,41.15888888888889],[-98.82111111111111,41.16277777777778],[-98.63777777777779,41.17777777777778],[-98.50083333333333,41.18888888888888],[-98.45611111111111,41.19222222222222],[-98.27222222222223,41.206944444444446],[-98.08972222222222,41.221111111111114],[-97.90805555555556,41.234722222222224],[-97.72722222222222,41.24805555555556],[-97.54666666666667,41.26111111111111],[-97.36388888888888,41.27388888888889],[-97.18416666666667,41.28638888888889],[-97.00277777777778,41.29833333333333],[-96.82444444444444,41.31027777777778],[-96.6463888888889,41.32166666666667],[-96.46833333333333,41.33277777777778],[-96.30333333333333,41.34305555555556],[-96.12805555555555,41.35333333333333],[-95.955,41.36333333333334],[-95.7775,41.37361111111111],[-95.60166666666666,41.38333333333333],[-95.43305555555555,41.39194444444444],[-95.25583333333333,41.40138888888889],[-95.07638888888889,41.41027777777778],[-94.89944444444446,41.41916666666666],[-94.81972222222223,41.422777777777775],[-94.71944444444445,41.427499999999995],[-94.64222222222223,41.43111111111111],[-94.54138888888889,41.43583333333333],[-94.46361111111112,41.439166666666665],[-94.365,41.44333333333333],[-94.28388888888888,41.44694444444444],[-94.18666666666667,41.45111111111111],[-94.10777777777777,41.45416666666667],[-93.99833333333333,41.45888888888889],[-93.92861111111111,41.461666666666666],[-93.81916666666666,41.465833333333336],[-93.75166666666667,41.468611111111116],[-93.64361111111111,41.472500000000004],[-93.56944444444444,41.47527777777778],[-93.46277777777777,41.47888888888889],[-93.39027777777778,41.481388888888894],[-93.28361111111111,41.48527777777778],[-93.21000000000001,41.48777777777778],[-93.10055555555554,41.49138888888889],[-93.03,41.493611111111115],[-92.92111111111112,41.496944444444445],[-92.84861111111111,41.49916666666667],[-92.7375,41.5025],[-92.64472222222223,41.50527777777778],[-92.55611111111111,41.507777777777775],[-92.46361111111112,41.51027777777778],[-92.37166666666666,41.51277777777778],[-92.28111111111112,41.515],[-92.19083333333333,41.51722222222222],[-92.10083333333333,41.51916666666666],[-92.0075,41.52111111111111],[-91.91666666666667,41.52333333333333],[-91.82444444444444,41.52583333333333],[-91.735,41.527499999999996],[-91.62416666666665,41.528888888888886],[-91.55111111111111,41.53111111111111],[-91.44027777777778,41.532777777777774],[-91.36638888888888,41.53444444444444],[-91.25361111111111,41.53583333333333],[-91.18027777777779,41.5375],[-91.06666666666666,41.538333333333334],[-90.99361111111111,41.54],[-90.87694444444443,41.54111111111111],[-90.80333333333333,41.5425],[-90.61222222222221,41.54472222222222],[-90.41111111111111,41.54666666666667],[-90.21861111111112,41.54805555555556],[-90.02527777777777,41.54944444444444],[-89.83388888888888,41.55027777777777],[-89.64055555555557,41.551111111111105],[-89.48444444444445,41.55138888888889],[-89.29388888888889,41.55138888888889],[-89.10277777777777,41.551111111111105],[-88.91055555555556,41.55166666666666],[-88.71777777777778,41.55166666666666],[-88.52777777777777,41.55138888888889],[-88.33222222222221,41.550555555555555],[-88.13583333333334,41.54972222222222],[-87.93833333333333,41.54833333333333],[-87.74305555555556,41.546388888888885],[-87.54722222222222,41.544444444444444],[-87.3536111111111,41.54222222222222],[-87.15944444444445,41.53944444444444],[-86.89527777777778,41.535],[-86.77083333333333,41.533055555555556],[-86.70277777777778,41.53194444444444],[-86.58749999999999,41.53],[-86.50972222222222,41.52833333333333],[-86.3963888888889,41.52638888888889],[-86.32,41.52472222222222],[-86.20305555555557,41.52166666666667],[-86.1286111111111,41.519999999999996],[-86.0125,41.51722222222222],[-85.93833333333333,41.515277777777776],[-85.82138888888889,41.51222222222222],[-85.74722222222222,41.51027777777778],[-85.63222222222221,41.507222222222225],[-85.55888888888889,41.505],[-85.40805555555556,41.50055555555556],[-85.37444444444444,41.499722222222225],[-85.22277777777778,41.495],[-85.18555555555555,41.49388888888889],[-85.03166666666667,41.48888888888889],[-84.9961111111111,41.48777777777778],[-84.84416666666667,41.4825],[-84.76805555555555,41.47972222222222],[-84.65472222222223,41.47555555555556],[-84.57944444444443,41.473055555555554],[-84.46333333333334,41.46888888888889],[-84.39111111111112,41.46611111111111],[-84.275,41.46138888888889],[-84.21388888888889,41.45888888888889],[-84.08805555555556,41.45388888888889],[-84.02666666666667,41.45138888888889],[-83.89777777777779,41.44583333333333],[-83.83999999999999,41.44333333333333],[-83.71222222222222,41.4375],[-83.65555555555557,41.434999999999995],[-83.46972222222223,41.42027777777778],[-83.28583333333333,41.38722222222222],[-83.09944444444444,41.353611111111114],[-82.91638888888889,41.31944444444445],[-82.73305555555555,41.285555555555554],[-82.54972222222221,41.25111111111111],[-82.3711111111111,41.217777777777776],[-82.1888888888889,41.18333333333333],[-82.00833333333334,41.14861111111111],[-81.8325,41.114444444444445],[-81.66583333333334,41.08166666666667],[-81.49777777777778,41.04861111111111],[-81.33666666666666,41.016666666666666],[-81.18138888888889,40.98583333333333],[-81.03,40.95527777777778],[-80.87638888888888,40.92388888888889],[-80.755,40.8975],[-80.73583333333333,40.894999999999996],[-80.61527777777778,40.849722222222226],[-80.61722222222221,40.85305555555556],[-80.52972222222222,40.778888888888886],[-80.53083333333333,40.78111111111111],[-80.44388888888889,40.70416666666667],[-80.3711111111111,40.640277777777776],[-80.37138888888889,40.64222222222222],[-80.29194444444444,40.58583333333333],[-80.27583333333334,40.585],[-80.19166666666668,40.58166666666667],[-80.17722222222223,40.581388888888895],[-80.09416666666667,40.577222222222225],[-80.00194444444445,40.57027777777778],[-79.99,40.51916666666666],[-80.03,40.481388888888894],[-80.09666666666666,40.4825]],"type":"LineString"}
}
