{
  "id": 2032006083,
  "type": "Feature",
  "properties": {
    "geom:area": 0,
    "geom:bbox": "-123.483240,37.259180,-122.129100,37.612160",
    "geom:latitude": 37.35224492815297,
    "geom:longitude": -122.69670071993973,
    "src:alt_label": "swim-approach",
    "src:geom": "swim",
    "swim:elevations": [
      5371,
      5243,
      5140,
      4983,
      4811,
      4486,
      4269,
      4061,
      3882,
      3752,
      3525,
      3319,
      3124,
      3048,
      3048,
      3048,
      2999,
      2985,
      2880,
      2803,
      2712,
      2531,
      2484,
      2326,
      2163,
      2134,
      2134,
      2134,
      2134,
      2134,
      2044,
      1483,
      1227,
      1156,
      1094,
      1097,
      1051,
      913,
      914,
      914,
      722,
      576,
      462,
      415,
      220,
      171,
      33
    ],
    "swim:geom": "approach",
    "swim:timestamps": [
      1785274522,
      1785274539,
      1785274552,
      1785274575,
      1785274599,
      1785274646,
      1785274676,
      1785274705,
      1785274734,
      1785274750,
      1785274785,
      1785274815,
      1785274843,
      1785274866,
      1785274901,
      1785274918,
      1785274943,
      1785274953,
      1785274995,
      1785275019,
      1785275056,
      1785275088,
      1785275095,
      1785275123,
      1785275145,
      1785275183,
      1785275210,
      1785275220,
      1785275266,
      1785275297,
      1785275318,
      1785275367,
      1785275391,
      1785275403,
      1785275415,
      1785275446,
      1785275458,
      1785275488,
      1785275512,
      1785275529,
      1785275575,
      1785275604,
      1785275632,
      1785275647,
      1785275695,
      1785275708,
      1785275743
    ],
    "wof:geomhash": "643a527becbd399d3878e655f1c99059",
    "wof:id": 2032006083,
    "wof:repo": "sfomuseum-data-flights-2026-07"
  },
  "bbox": [
    -123.48324,
    37.25918,
    -122.1291,
    37.61216
  ],
  "geometry": {"coordinates":[[-123.48324,37.30291],[-123.44948,37.30052],[-123.42386,37.29872],[-123.37925,37.29553],[-123.33188,37.29215],[-123.24169,37.28562],[-123.18436,37.28144],[-123.13045,37.27757],[-123.07805,37.27375],[-123.04772,37.27149],[-122.9839,37.26663],[-122.92961,37.26251],[-122.88143,37.25918],[-122.84144,37.26301],[-122.79016,37.27472],[-122.76581,37.2803],[-122.72852,37.27792],[-122.71439,37.27459],[-122.65295,37.25961],[-122.61838,37.26073],[-122.57832,37.28662],[-122.5455,37.31044],[-122.53898,37.31516],[-122.51012,37.33616],[-122.48691,37.35078],[-122.43522,37.36174],[-122.39825,37.36823],[-122.38502,37.37061],[-122.3217,37.38181],[-122.27832,37.38955],[-122.25057,37.3972],[-122.19001,37.41856],[-122.16306,37.4322],[-122.15461,37.443],[-122.14734,37.45418],[-122.12975,37.48303],[-122.1291,37.49481],[-122.14719,37.52005],[-122.16863,37.53379],[-122.18408,37.54044],[-122.22451,37.55796],[-122.2506,37.56875],[-122.27355,37.57859],[-122.28454,37.58295],[-122.32059,37.59811],[-122.32974,37.60204],[-122.35395,37.61216]],"type":"LineString"}
}
