{
  "id": 2032023579,
  "type": "Feature",
  "properties": {
    "geom:area": 0,
    "geom:bbox": "-122.385833,37.623056,-104.683333,40.848889",
    "geom:latitude": 40.129626041423776,
    "geom:longitude": -113.62239808275672,
    "src:alt_label": "swim-path",
    "src:geom": "swim",
    "swim:altitudes": [
      "007",
      "017",
      "024",
      "071",
      "083",
      "103",
      "114",
      "132",
      "182",
      "202",
      "223",
      "244",
      "278",
      "293",
      "314",
      "328",
      "343",
      "350",
      "358",
      "369C",
      "370C",
      "370C",
      "370C",
      "370C",
      "371C",
      "370C",
      "370C",
      "370C",
      "370C",
      "370C",
      "370C",
      "370C",
      "370C",
      "370C",
      "370C",
      "370C",
      "370C",
      "370C",
      "370C",
      "370C",
      "370C",
      "370C",
      "370C",
      "370C",
      "370C",
      "370C",
      "370C",
      "370C",
      "371C",
      "371C",
      "370C",
      "370C",
      "370C",
      "370C",
      "370C",
      "370C",
      "370C",
      "370C",
      "370C",
      "371",
      "379",
      "386",
      "389C",
      "389C",
      "389C",
      "389C",
      "389C",
      "389C",
      "389C",
      "389C",
      "389C",
      "389C",
      "389C",
      "386",
      "383",
      "376",
      "374",
      "370C",
      "370C",
      "370C",
      "370C",
      "370C",
      "370C",
      "370C",
      "370C",
      "370C",
      "370C",
      "370C",
      "370C",
      "370C",
      "369",
      "360",
      "352C",
      "351C",
      "350",
      "350",
      "335",
      "315",
      "296",
      "276",
      "270",
      "270",
      "270",
      "262",
      "257",
      "245",
      "237",
      "230",
      "225",
      "201",
      "196",
      "188",
      "185",
      "178",
      "175",
      "158",
      "155",
      "149",
      "144",
      "139",
      "132",
      "125",
      "120",
      "112",
      "110",
      "110",
      "108",
      "098",
      "092",
      "090",
      "088",
      "077",
      "071",
      "061",
      "058",
      "053",
      "053"
    ],
    "swim:geom": "path",
    "swim:speeds": [
      145,
      203,
      220,
      278,
      275,
      289,
      286,
      306,
      367,
      392,
      405,
      417,
      448,
      460,
      486,
      487,
      491,
      491,
      496,
      500,
      501,
      507,
      507,
      508,
      508,
      506,
      505,
      503,
      500,
      499,
      500,
      503,
      506,
      508,
      509,
      509,
      508,
      507,
      505,
      489,
      488,
      488,
      489,
      490,
      489,
      488,
      485,
      483,
      483,
      483,
      482,
      481,
      481,
      480,
      478,
      475,
      474,
      473,
      472,
      468,
      468,
      467,
      467,
      467,
      467,
      469,
      471,
      469,
      471,
      469,
      470,
      469,
      469,
      469,
      471,
      474,
      474,
      472,
      474,
      474,
      476,
      476,
      477,
      477,
      483,
      484,
      485,
      486,
      486,
      486,
      484,
      482,
      483,
      483,
      484,
      484,
      485,
      489,
      489,
      474,
      460,
      460,
      455,
      454,
      452,
      453,
      434,
      427,
      411,
      372,
      357,
      353,
      341,
      344,
      340,
      337,
      330,
      331,
      325,
      328,
      323,
      324,
      317,
      318,
      304,
      274,
      262,
      260,
      252,
      231,
      196,
      192,
      195,
      160,
      146,
      149,
      83
    ],
    "swim:timestamps": [
      1785331032,
      1785331067,
      1785331092,
      1785331187,
      1785331212,
      1785331248,
      1785331272,
      1785331308,
      1785331452,
      1785331512,
      1785331573,
      1785331633,
      1785331753,
      1785331813,
      1785331933,
      1785331989,
      1785332049,
      1785332109,
      1785332169,
      1785332229,
      1785332289,
      1785332349,
      1785332409,
      1785332529,
      1785332589,
      1785332654,
      1785332710,
      1785332770,
      1785332830,
      1785332950,
      1785333010,
      1785333070,
      1785333130,
      1785333190,
      1785333250,
      1785333371,
      1785333431,
      1785333491,
      1785333551,
      1785333791,
      1785333851,
      1785333911,
      1785333971,
      1785334031,
      1785334152,
      1785334212,
      1785334272,
      1785334332,
      1785334452,
      1785334512,
      1785334572,
      1785334632,
      1785334692,
      1785334752,
      1785334813,
      1785334993,
      1785335053,
      1785335113,
      1785335233,
      1785335353,
      1785335413,
      1785335473,
      1785335534,
      1785335594,
      1785335654,
      1785335774,
      1785335786,
      1785335834,
      1785335846,
      1785335894,
      1785335906,
      1785335954,
      1785335966,
      1785336014,
      1785336026,
      1785336074,
      1785336086,
      1785336146,
      1785336194,
      1785336206,
      1785336254,
      1785336267,
      1785336315,
      1785336327,
      1785336375,
      1785336387,
      1785336447,
      1785336507,
      1785336555,
      1785336567,
      1785336627,
      1785336687,
      1785336735,
      1785336747,
      1785336795,
      1785336807,
      1785336867,
      1785336927,
      1785336988,
      1785337048,
      1785337108,
      1785337168,
      1785337228,
      1785337288,
      1785337302,
      1785337348,
      1785337374,
      1785337408,
      1785337422,
      1785337528,
      1785337550,
      1785337588,
      1785337610,
      1785337648,
      1785337670,
      1785337769,
      1785337791,
      1785337829,
      1785337854,
      1785337889,
      1785337914,
      1785337949,
      1785337971,
      1785338009,
      1785338037,
      1785338069,
      1785338091,
      1785338129,
      1785338157,
      1785338189,
      1785338217,
      1785338269,
      1785338309,
      1785338369,
      1785338396,
      1785338429,
      1785338489
    ],
    "wof:geomhash": "165fcccbf3e16e36a63692361f4b91ea",
    "wof:id": 2032023579,
    "wof:repo": "sfomuseum-data-flights-2026-07"
  },
  "bbox": [
    -122.38583333333334,
    37.62305555555555,
    -104.68333333333334,
    40.848888888888894
  ],
  "geometry": {"coordinates":[[-122.385,37.62305555555555],[-122.38333333333334,37.65],[-122.3775,37.66777777777777],[-122.35,37.78333333333333],[-122.36694444444444,37.80361111111111],[-122.38333333333334,37.85],[-122.38583333333334,37.88],[-122.38333333333334,37.93333333333333],[-122.13861111111112,38.03972222222222],[-122.01777777777778,38.09138888888889],[-121.9038888888889,38.15833333333333],[-121.78666666666666,38.22666666666667],[-121.53583333333333,38.37166666666667],[-121.40277777777779,38.44833333333333],[-121.1413888888889,38.59777777777778],[-120.99694444444445,38.67666666666666],[-120.85499999999999,38.75833333333333],[-120.71277777777777,38.838055555555556],[-120.56833333333333,38.919999999999995],[-120.42222222222223,39.00055555555556],[-120.2761111111111,39.0825],[-120.12638888888888,39.165277777777774],[-119.98,39.246944444444445],[-119.67194444444445,39.39861111111111],[-119.50722222222223,39.45916666666667],[-119.3425,39.52111111111111],[-119.18083333333334,39.581388888888895],[-119.01638888888888,39.6425],[-118.85527777777777,39.70166666666667],[-118.52666666666667,39.82166666666667],[-118.3625,39.88138888888889],[-118.19583333333334,39.94138888888889],[-118.02694444444444,40.00194444444445],[-117.86027777777777,40.061388888888885],[-117.69833333333334,40.118611111111115],[-117.36388888888888,40.236111111111114],[-117.19361111111111,40.29527777777778],[-117.02694444444444,40.35305555555556],[-116.85694444444444,40.41138888888889],[-116.16305555555556,40.585],[-115.98666666666666,40.598333333333336],[-115.80749999999999,40.611666666666665],[-115.63083333333333,40.624722222222225],[-115.45222222222222,40.63722222222222],[-115.09722222222221,40.66166666666666],[-114.92111111111112,40.67333333333333],[-114.745,40.68472222222222],[-114.57027777777778,40.69583333333333],[-114.21722222222222,40.71055555555556],[-114.04194444444444,40.71666666666667],[-113.86583333333333,40.72277777777778],[-113.69027777777778,40.73111111111111],[-113.51416666666667,40.745],[-113.34694444444445,40.7575],[-113.1713888888889,40.77027777777778],[-112.6525,40.806666666666665],[-112.48305555555555,40.81805555555556],[-112.30833333333334,40.82972222222222],[-111.96083333333334,40.848888888888894],[-111.61749999999999,40.83222222222223],[-111.44722222222222,40.82361111111111],[-111.28944444444444,40.81527777777777],[-111.11277777777777,40.80555555555555],[-110.94277777777778,40.79611111111111],[-110.77194444444444,40.78611111111111],[-110.43305555555555,40.76611111111111],[-110.39916666666667,40.76416666666667],[-110.26194444444444,40.75555555555555],[-110.2286111111111,40.75333333333333],[-110.10722222222222,40.74583333333334],[-110.05722222222222,40.7425],[-109.93666666666667,40.734722222222224],[-109.88861111111112,40.73166666666667],[-109.76555555555555,40.723333333333336],[-109.71777777777778,40.72],[-109.59194444444444,40.71138888888889],[-109.5461111111111,40.708333333333336],[-109.38694444444445,40.697222222222216],[-109.24472222222222,40.68722222222222],[-109.21222222222222,40.68472222222222],[-109.06388888888888,40.67388888888889],[-109.03694444444444,40.67194444444444],[-108.8888888888889,40.6625],[-108.86333333333333,40.66083333333333],[-108.71305555555556,40.65138888888889],[-108.68611111111112,40.64972222222222],[-108.5075,40.63777777777778],[-108.33027777777778,40.62555555555556],[-108.18444444444445,40.61527777777778],[-108.14472222222223,40.612500000000004],[-107.97083333333333,40.6],[-107.80111111111111,40.587500000000006],[-107.66166666666668,40.577222222222225],[-107.6286111111111,40.57472222222223],[-107.485,40.56388888888888],[-107.45333333333333,40.561388888888885],[-107.2786111111111,40.54805555555556],[-107.10166666666666,40.53388888888889],[-106.92361111111111,40.51972222222222],[-106.75222222222222,40.505833333333335],[-106.58666666666666,40.492222222222225],[-106.41194444444444,40.47694444444445],[-106.24638888888889,40.461666666666666],[-106.07277777777777,40.44611111111111],[-106.01666666666667,40.43333333333333],[-105.90833333333335,40.431666666666665],[-105.83333333333333,40.416666666666664],[-105.7538888888889,40.4075],[-105.71666666666667,40.4],[-105.47694444444444,40.36333333333334],[-105.41666666666667,40.35],[-105.34916666666666,40.33583333333333],[-105.31666666666666,40.31666666666667],[-105.25194444444445,40.277499999999996],[-105.21666666666667,40.25],[-105.05944444444444,40.163333333333334],[-105.01666666666667,40.13333333333333],[-104.97166666666666,40.100833333333334],[-104.93333333333334,40.06666666666667],[-104.89027777777778,40.0375],[-104.85,40],[-104.81055555555555,39.97138888888889],[-104.8,39.93333333333333],[-104.80638888888889,39.88527777777778],[-104.8,39.85],[-104.80833333333334,39.799166666666665],[-104.81666666666666,39.78333333333333],[-104.80944444444444,39.72805555555556],[-104.78333333333333,39.7],[-104.74472222222222,39.69194444444444],[-104.71666666666667,39.7],[-104.68333333333334,39.75],[-104.68833333333333,39.77722222222222],[-104.6875,39.82638888888889],[-104.68333333333334,39.85],[-104.68722222222223,39.865833333333335],[-104.68472222222222,39.88583333333333]],"type":"LineString"}
}
