{
  "id": 2031961163,
  "type": "Feature",
  "properties": {
    "geom:area": 0,
    "geom:bbox": "-123.476330,37.626030,-122.391610,37.730810",
    "geom:latitude": 37.69769034254133,
    "geom:longitude": -122.92954141240567,
    "src:alt_label": "swim-takeoff",
    "src:geom": "swim",
    "swim:elevations": [
      122,
      643,
      906,
      1067,
      1140,
      1301,
      1681,
      1857,
      2096,
      2424,
      2461,
      2664,
      2730,
      3140,
      3140,
      3345,
      3463,
      3629,
      3702,
      3929,
      4518,
      4757,
      5013,
      5124,
      5179
    ],
    "swim:geom": "takeoff",
    "swim:timestamps": [
      1784939454,
      1784939492,
      1784939529,
      1784939565,
      1784939584,
      1784939618,
      1784939654,
      1784939672,
      1784939696,
      1784939727,
      1784939730,
      1784939754,
      1784939760,
      1784939804,
      1784939810,
      1784939840,
      1784939878,
      1784939905,
      1784939917,
      1784939951,
      1784940014,
      1784940044,
      1784940073,
      1784940085,
      1784940091
    ],
    "wof:geomhash": "0b40637c16f936a9a7a40e20f160ecdb",
    "wof:id": 2031961163,
    "wof:repo": "sfomuseum-data-flights-2026-07"
  },
  "bbox": [
    -123.47633,
    37.62603,
    -122.39161,
    37.73081
  ],
  "geometry": {"coordinates":[[-122.39161,37.62603],[-122.4242,37.64053],[-122.45721,37.65491],[-122.49347,37.67082],[-122.51538,37.67643],[-122.56426,37.67921],[-122.61951,37.6821],[-122.64717,37.68369],[-122.68617,37.68599],[-122.73549,37.68914],[-122.74035,37.68943],[-122.77859,37.69167],[-122.78868,37.69217],[-122.86262,37.69691],[-122.87309,37.69759],[-122.92725,37.70051],[-122.99899,37.7043],[-123.05465,37.70752],[-123.0801,37.70893],[-123.15615,37.71319],[-123.2967,37.72092],[-123.36559,37.72477],[-123.43404,37.72853],[-123.46224,37.73004],[-123.47633,37.73081]],"type":"LineString"}
}
