{
  "id": 2031977897,
  "type": "Feature",
  "properties": {
    "geom:area": 0,
    "geom:bbox": "-122.842310,37.419350,-122.088950,38.479060",
    "geom:latitude": 37.808354576137646,
    "geom:longitude": -122.48587442368881,
    "src:alt_label": "swim-approach",
    "src:geom": "swim",
    "swim:elevations": [
      7742,
      7507,
      7327,
      6699,
      6456,
      6271,
      6011,
      5753,
      5453,
      5089,
      4885,
      4553,
      4303,
      4115,
      3722,
      3443,
      3365,
      3353,
      3353,
      3353,
      3353,
      3353,
      3290,
      3159,
      3045,
      2774,
      2625,
      2524,
      2216,
      1778,
      1601,
      1444,
      1357,
      1279,
      1120,
      1049,
      792,
      791,
      791,
      792,
      792,
      737,
      637,
      474,
      366,
      285,
      182,
      155,
      97,
      0
    ],
    "swim:geom": "approach",
    "swim:timestamps": [
      1785068017,
      1785068061,
      1785068084,
      1785068144,
      1785068166,
      1785068184,
      1785068209,
      1785068233,
      1785068264,
      1785068301,
      1785068324,
      1785068357,
      1785068382,
      1785068401,
      1785068444,
      1785068483,
      1785068508,
      1785068527,
      1785068565,
      1785068573,
      1785068599,
      1785068615,
      1785068633,
      1785068672,
      1785068689,
      1785068727,
      1785068748,
      1785068763,
      1785068807,
      1785068865,
      1785068890,
      1785068914,
      1785068935,
      1785068953,
      1785068986,
      1785069003,
      1785069055,
      1785069060,
      1785069063,
      1785069085,
      1785069095,
      1785069109,
      1785069131,
      1785069166,
      1785069193,
      1785069213,
      1785069240,
      1785069245,
      1785069262,
      1785069287
    ],
    "wof:geomhash": "147b7675667ca8357bcbd12129c38451",
    "wof:id": 2031977897,
    "wof:repo": "sfomuseum-data-flights-2026-07"
  },
  "bbox": [
    -122.84231,
    37.41935,
    -122.08895,
    38.47906
  ],
  "geometry": {"coordinates":[[-122.84231,38.47906],[-122.82018,38.40292],[-122.8084,38.36344],[-122.7789,38.26413],[-122.76826,38.22705],[-122.75984,38.19723],[-122.74813,38.15679],[-122.73695,38.11857],[-122.72232,38.07015],[-122.70592,38.01297],[-122.69596,37.97738],[-122.6812,37.92637],[-122.66234,37.89061],[-122.63927,37.86747],[-122.58384,37.81467],[-122.53473,37.76898],[-122.50646,37.7419],[-122.48594,37.72224],[-122.44327,37.68259],[-122.43502,37.6747],[-122.4063,37.64755],[-122.38874,37.63116],[-122.37014,37.61363],[-122.34336,37.57402],[-122.33589,37.55604],[-122.31234,37.51721],[-122.30001,37.49562],[-122.29099,37.48027],[-122.24753,37.44715],[-122.17677,37.41935],[-122.14477,37.42948],[-122.11641,37.44001],[-122.09465,37.45126],[-122.08895,37.46648],[-122.10615,37.49043],[-122.11721,37.50273],[-122.16068,37.52851],[-122.16518,37.53044],[-122.16797,37.53164],[-122.18793,37.54009],[-122.19682,37.54381],[-122.21064,37.54965],[-122.23156,37.55841],[-122.26372,37.57204],[-122.28811,37.58222],[-122.30424,37.58903],[-122.32582,37.59803],[-122.32986,37.59971],[-122.34293,37.60526],[-122.36268,37.61333]],"type":"LineString"}
}
