{
  "id": 2032054189,
  "type": "Feature",
  "properties": {
    "geom:area": 0,
    "geom:bbox": "-122.406610,37.625640,-121.308330,38.123920",
    "geom:latitude": 37.915356314583725,
    "geom:longitude": -121.91295766828152,
    "src:alt_label": "swim-takeoff",
    "src:geom": "swim",
    "swim:elevations": [
      244,
      805,
      1082,
      1156,
      1238,
      1559,
      1961,
      2345,
      2638,
      2927,
      3224,
      3254,
      3315,
      3442,
      3562,
      3568,
      4127,
      4154,
      4222,
      4379,
      4658,
      4719,
      5010,
      5116,
      5306,
      5454,
      5579
    ],
    "swim:geom": "takeoff",
    "swim:timestamps": [
      1785529543,
      1785529581,
      1785529614,
      1785529633,
      1785529657,
      1785529689,
      1785529725,
      1785529762,
      1785529793,
      1785529821,
      1785529855,
      1785529862,
      1785529872,
      1785529904,
      1785529937,
      1785529940,
      1785530033,
      1785530036,
      1785530042,
      1785530063,
      1785530095,
      1785530105,
      1785530149,
      1785530168,
      1785530202,
      1785530228,
      1785530245
    ],
    "wof:geomhash": "e7f5e475ed3d8d7f5e34680a5d863532",
    "wof:id": 2032054189,
    "wof:repo": "sfomuseum-data-flights-2026-07"
  },
  "bbox": [
    -122.40661,
    37.62564,
    -121.30833,
    38.12392
  ],
  "geometry": {"coordinates":[[-122.39061,37.62564],[-122.40661,37.65175],[-122.37546,37.66708],[-122.35026,37.6717],[-122.31713,37.68147],[-122.27815,37.70775],[-122.28348,37.75146],[-122.29669,37.79867],[-122.2633,37.82867],[-122.21745,37.84295],[-122.16227,37.86171],[-122.14967,37.86542],[-122.1334,37.87026],[-122.07457,37.88799],[-122.00985,37.9082],[-122.00368,37.91014],[-121.80094,37.97325],[-121.79419,37.97533],[-121.78069,37.97952],[-121.73349,37.99406],[-121.66026,38.01654],[-121.63914,38.02303],[-121.53759,38.05411],[-121.49238,38.06794],[-121.41159,38.09251],[-121.34903,38.11156],[-121.30833,38.12392]],"type":"LineString"}
}
