{
  "id": 2031996093,
  "type": "Feature",
  "properties": {
    "geom:area": 0,
    "geom:bbox": "-122.399180,37.625750,-121.706990,38.501410",
    "geom:latitude": 38.074422385275604,
    "geom:longitude": -122.09674186922636,
    "src:alt_label": "swim-takeoff",
    "src:geom": "swim",
    "swim:elevations": [
      152,
      905,
      978,
      1427,
      1572,
      1997,
      2781,
      3033,
      3088,
      3048,
      3052,
      3048,
      3048,
      3048,
      3048,
      3048,
      3082,
      3079,
      3078,
      3110,
      3109,
      3109,
      3109,
      3078,
      3050,
      2855,
      2678,
      2568,
      2409,
      2187
    ],
    "swim:geom": "takeoff",
    "swim:timestamps": [
      1785200496,
      1785200548,
      1785200556,
      1785200607,
      1785200616,
      1785200640,
      1785200695,
      1785200718,
      1785200754,
      1785200778,
      1785200809,
      1785200835,
      1785200873,
      1785200903,
      1785200936,
      1785200940,
      1785200964,
      1785200988,
      1785201003,
      1785201048,
      1785201054,
      1785201061,
      1785201091,
      1785201127,
      1785201145,
      1785201176,
      1785201200,
      1785201215,
      1785201240,
      1785201282
    ],
    "wof:geomhash": "1e77509d7d09b146d8aa0f0d844d1191",
    "wof:id": 2031996093,
    "wof:repo": "sfomuseum-data-flights-2026-07"
  },
  "bbox": [
    -122.39918,
    37.62575,
    -121.70699,
    38.50141
  ],
  "geometry": {"coordinates":[[-122.39178,37.62575],[-122.39918,37.66242],[-122.394,37.66773],[-122.3578,37.71749],[-122.35702,37.72861],[-122.36038,37.75786],[-122.36879,37.8305],[-122.37319,37.86203],[-122.37924,37.914],[-122.36779,37.95114],[-122.32613,37.98978],[-122.27918,38.01077],[-122.20722,38.0398],[-122.15294,38.06504],[-122.0935,38.09273],[-122.08652,38.09591],[-122.04303,38.11563],[-121.99876,38.13494],[-121.97123,38.1486],[-121.90488,38.20661],[-121.89655,38.21471],[-121.88743,38.22364],[-121.84579,38.26426],[-121.80064,38.30748],[-121.77976,38.32713],[-121.74474,38.36032],[-121.73058,38.39139],[-121.72577,38.41176],[-121.71845,38.44556],[-121.70699,38.50141]],"type":"LineString"}
}
