{
  "id": 2032050275,
  "type": "Feature",
  "properties": {
    "geom:area": 0,
    "geom:bbox": "-123.101560,37.350670,-122.113430,38.490890",
    "geom:latitude": 37.82347722803533,
    "geom:longitude": -122.52941669548507,
    "src:alt_label": "swim-approach",
    "src:geom": "swim",
    "swim:elevations": [
      7620,
      7462,
      7120,
      6942,
      6634,
      6375,
      6133,
      5906,
      5645,
      5196,
      5138,
      4602,
      4424,
      4253,
      4056,
      3732,
      3540,
      3387,
      3382,
      3353,
      3353,
      3353,
      3353,
      3353,
      3353,
      3261,
      2958,
      2798,
      2575,
      2444,
      2218,
      2164,
      1946,
      1905,
      1803,
      1668,
      1563,
      1524,
      1524,
      1394,
      1150,
      961,
      813,
      732,
      489,
      489,
      428,
      308,
      180,
      7,
      0
    ],
    "swim:geom": "approach",
    "swim:timestamps": [
      1785488957,
      1785488990,
      1785489028,
      1785489046,
      1785489079,
      1785489106,
      1785489132,
      1785489154,
      1785489182,
      1785489238,
      1785489242,
      1785489294,
      1785489316,
      1785489344,
      1785489375,
      1785489410,
      1785489435,
      1785489469,
      1785489483,
      1785489529,
      1785489553,
      1785489596,
      1785489603,
      1785489618,
      1785489655,
      1785489676,
      1785489713,
      1785489741,
      1785489773,
      1785489796,
      1785489834,
      1785489843,
      1785489893,
      1785489903,
      1785489926,
      1785489957,
      1785489976,
      1785490004,
      1785490035,
      1785490095,
      1785490133,
      1785490159,
      1785490189,
      1785490205,
      1785490255,
      1785490260,
      1785490276,
      1785490305,
      1785490336,
      1785490376,
      1785490380
    ],
    "wof:geomhash": "4dde4b39ac5f87c690b7df7a7b74a232",
    "wof:id": 2032050275,
    "wof:repo": "sfomuseum-data-flights-2026-07"
  },
  "bbox": [
    -123.10156,
    37.35067,
    -122.11343,
    38.49089
  ],
  "geometry": {"coordinates":[[-123.10156,38.49089],[-123.03831,38.4405],[-122.96998,38.38629],[-122.93884,38.36149],[-122.8796,38.31424],[-122.83304,38.277],[-122.79046,38.24095],[-122.76425,38.20423],[-122.74748,38.15525],[-122.71884,38.05753],[-122.71639,38.0492],[-122.69175,37.96319],[-122.68171,37.92837],[-122.65772,37.88614],[-122.61951,37.84871],[-122.57949,37.81093],[-122.55275,37.78588],[-122.51959,37.75447],[-122.50557,37.74126],[-122.46037,37.69865],[-122.43756,37.67723],[-122.39565,37.63777],[-122.38813,37.63068],[-122.37349,37.61691],[-122.34831,37.5778],[-122.33648,37.55455],[-122.31339,37.51506],[-122.29552,37.48657],[-122.29389,37.4509],[-122.30041,37.42567],[-122.31061,37.38599],[-122.31026,37.37553],[-122.25477,37.35067],[-122.24045,37.35354],[-122.20896,37.36326],[-122.17203,37.38293],[-122.15004,37.39508],[-122.12484,37.41684],[-122.11343,37.44877],[-122.12065,37.50176],[-122.15365,37.52558],[-122.17837,37.53767],[-122.20648,37.55009],[-122.22143,37.55627],[-122.26669,37.57533],[-122.27085,37.57704],[-122.28245,37.58219],[-122.30486,37.59153],[-122.32721,37.60111],[-122.35556,37.61279],[-122.35862,37.61383]],"type":"LineString"}
}
