{
  "id": 2032031947,
  "type": "Feature",
  "properties": {
    "geom:area": 0,
    "geom:bbox": "-124.041111,37.416667,-122.150000,49.078333",
    "geom:latitude": 42.993399124900776,
    "geom:longitude": -123.30279969376558,
    "src:alt_label": "swim-path",
    "src:geom": "swim",
    "swim:altitudes": [
      "062",
      "109",
      "178",
      "191",
      "231",
      "239",
      "248",
      "266",
      "276",
      "296",
      "306",
      "315",
      "335",
      "350C",
      "350C",
      "350C",
      "350C",
      "350C",
      "350C",
      "350C",
      "350C",
      "350C",
      "350C",
      "350C",
      "350C",
      "350C",
      "350C",
      "350C",
      "350C",
      "350C",
      "350C",
      "350C",
      "350C",
      "350C",
      "350C",
      "350C",
      "350C",
      "350C",
      "350C",
      "350C",
      "350C",
      "350C",
      "350C",
      "350C",
      "350C",
      "350C",
      "350C",
      "350C",
      "350C",
      "350C",
      "350C",
      "350C",
      "350C",
      "350C",
      "350C",
      "350C",
      "350C",
      "350C",
      "350C",
      "350C",
      "350C",
      "350C",
      "350C",
      "350C",
      "350C",
      "350C",
      "350C",
      "350C",
      "350C",
      "350C",
      "350C",
      "350C",
      "350C",
      "350C",
      "350C",
      "350C",
      "350C",
      "350C",
      "350C",
      "350C",
      "350C",
      "350C",
      "350C",
      "350C",
      "350C",
      "350C",
      "350C",
      "350C",
      "350C",
      "350C",
      "350",
      "350",
      "350",
      "342",
      "328",
      "289",
      "271",
      "253",
      "236",
      "219",
      "202",
      "156",
      "127",
      "110C",
      "110",
      "109C",
      "095",
      "085",
      "082",
      "070",
      "068",
      "049",
      "028",
      "018",
      "012",
      "005"
    ],
    "swim:geom": "path",
    "swim:speeds": [
      269,
      295,
      362,
      373,
      390,
      394,
      402,
      413,
      419,
      428,
      431,
      434,
      431,
      424,
      429,
      435,
      440,
      440,
      439,
      442,
      441,
      439,
      435,
      434,
      431,
      432,
      433,
      435,
      436,
      436,
      435,
      435,
      437,
      441,
      443,
      443,
      442,
      439,
      441,
      439,
      441,
      439,
      439,
      441,
      439,
      441,
      440,
      441,
      442,
      441,
      442,
      439,
      437,
      437,
      436,
      436,
      436,
      437,
      436,
      437,
      437,
      440,
      441,
      441,
      441,
      441,
      408,
      388,
      384,
      382,
      381,
      380,
      379,
      379,
      379,
      385,
      384,
      385,
      401,
      406,
      428,
      443,
      444,
      444,
      446,
      447,
      449,
      453,
      453,
      454,
      454,
      455,
      453,
      453,
      457,
      451,
      432,
      424,
      409,
      400,
      388,
      364,
      331,
      265,
      257,
      261,
      258,
      245,
      249,
      236,
      241,
      202,
      157,
      160,
      141,
      137
    ],
    "swim:timestamps": [
      1785427397,
      1785427517,
      1785427757,
      1785427817,
      1785427997,
      1785428057,
      1785428117,
      1785428238,
      1785428298,
      1785428418,
      1785428478,
      1785428538,
      1785428658,
      1785428778,
      1785428838,
      1785428898,
      1785428959,
      1785429019,
      1785429079,
      1785429259,
      1785429319,
      1785429439,
      1785429559,
      1785429619,
      1785429740,
      1785429860,
      1785429920,
      1785430040,
      1785430100,
      1785430160,
      1785430220,
      1785430280,
      1785430340,
      1785430400,
      1785430461,
      1785430521,
      1785430581,
      1785430603,
      1785430641,
      1785430663,
      1785430701,
      1785430724,
      1785430784,
      1785430821,
      1785430844,
      1785430881,
      1785430904,
      1785430941,
      1785430964,
      1785431001,
      1785431024,
      1785431084,
      1785431121,
      1785431144,
      1785431204,
      1785431264,
      1785431324,
      1785431384,
      1785431422,
      1785431445,
      1785431482,
      1785431602,
      1785431625,
      1785431662,
      1785431685,
      1785431722,
      1785431745,
      1785431782,
      1785431805,
      1785431865,
      1785431902,
      1785431925,
      1785431963,
      1785432023,
      1785432045,
      1785432106,
      1785432143,
      1785432166,
      1785432203,
      1785432226,
      1785432263,
      1785432286,
      1785432323,
      1785432346,
      1785432383,
      1785432406,
      1785432443,
      1785432526,
      1785432586,
      1785432646,
      1785432706,
      1785432766,
      1785432827,
      1785432887,
      1785432947,
      1785433067,
      1785433127,
      1785433187,
      1785433247,
      1785433307,
      1785433367,
      1785433548,
      1785433655,
      1785433788,
      1785433835,
      1785433848,
      1785433908,
      1785433955,
      1785433968,
      1785434020,
      1785434028,
      1785434135,
      1785434376,
      1785434449,
      1785434495,
      1785434556
    ],
    "wof:geomhash": "fd98524137684e6f817b898abe6c4011",
    "wof:id": 2032031947,
    "wof:repo": "sfomuseum-data-flights-2026-07"
  },
  "bbox": [
    -124.0411111111111,
    37.416666666666664,
    -122.15,
    49.07833333333333
  ],
  "geometry": {"coordinates":[[-123.08611111111111,49.07833333333333],[-123.30083333333333,49.020833333333336],[-123.69833333333334,48.81111111111111],[-123.67833333333334,48.700833333333335],[-123.62222222222222,48.38361111111111],[-123.60472222222222,48.285],[-123.58527777777778,48.17333333333333],[-123.5461111111111,47.948055555555555],[-123.52555555555556,47.82944444444445],[-123.48527777777778,47.594722222222224],[-123.46472222222222,47.474444444444444],[-123.44444444444444,47.355000000000004],[-123.40916666666668,47.11888888888889],[-123.40111111111112,46.88666666666666],[-123.39722222222223,46.766666666666666],[-123.39277777777778,46.62166666666667],[-123.3888888888889,46.49944444444444],[-123.38583333333334,46.39888888888889],[-123.38194444444444,46.276666666666664],[-123.37055555555555,45.90833333333333],[-123.36694444444444,45.78638888888889],[-123.35972222222222,45.54333333333333],[-123.35249999999999,45.30166666666666],[-123.34888888888888,45.18222222222222],[-123.34166666666667,44.93888888888888],[-123.33472222222221,44.69472222222222],[-123.33111111111111,44.57361111111111],[-123.32222222222222,44.33111111111111],[-123.3175,44.21055555555556],[-123.3125,44.08888888888889],[-123.30805555555555,43.97361111111111],[-123.30305555555556,43.85277777777778],[-123.29833333333333,43.73027777777778],[-123.29333333333334,43.60722222222223],[-123.28861111111111,43.483333333333334],[-123.28388888888888,43.36027777777778],[-123.27916666666667,43.236666666666665],[-123.27527777777777,43.19083333333333],[-123.27444444444444,43.115],[-123.27194444444444,43.06805555555556],[-123.26972222222223,42.990833333333335],[-123.26666666666667,42.94638888888888],[-123.26194444444444,42.82472222222223],[-123.26027777777777,42.74722222222222],[-123.25805555555556,42.70277777777778],[-123.255,42.60416666666667],[-123.25444444444445,42.58027777777778],[-123.25027777777778,42.48083333333334],[-123.24944444444445,42.456944444444446],[-123.24583333333334,42.35916666666667],[-123.24472222222222,42.32972222222222],[-123.24027777777778,42.213055555555556],[-123.23694444444445,42.11833333333333],[-123.23527777777778,42.07083333333334],[-123.23083333333334,41.95],[-123.22638888888889,41.82777777777778],[-123.22194444444445,41.70722222222223],[-123.2175,41.586666666666666],[-123.215,41.51361111111111],[-123.21333333333334,41.465],[-123.21083333333334,41.3925],[-123.20444444444445,41.156666666666666],[-123.20305555555557,41.10777777777778],[-123.20138888888889,41.03444444444444],[-123.2,40.98361111111111],[-123.19861111111112,40.91138888888889],[-123.21055555555556,40.86527777777778],[-123.25722222222223,40.81222222222222],[-123.30305555555556,40.78916666666667],[-123.43694444444445,40.759166666666665],[-123.51611111111112,40.7425],[-123.56916666666666,40.73111111111111],[-123.64694444444446,40.715],[-123.78,40.68472222222222],[-123.82583333333334,40.659444444444446],[-123.91777777777779,40.577222222222225],[-123.97111111111111,40.529444444444444],[-124.00694444444444,40.49444444444445],[-124.03388888888888,40.43194444444444],[-124.0411111111111,40.38722222222222],[-124.03277777777778,40.31361111111111],[-124.00861111111111,40.266666666666666],[-123.96694444444445,40.19972222222222],[-123.93805555555556,40.15333333333333],[-123.89611111111111,40.086111111111116],[-123.86777777777777,40.04055555555556],[-123.82527777777777,39.972500000000004],[-123.72638888888889,39.81305555555555],[-123.65611111111112,39.69916666666666],[-123.58638888888889,39.586111111111116],[-123.51555555555555,39.470555555555556],[-123.44972222222222,39.363055555555555],[-123.38111111111111,39.25],[-123.3125,39.136944444444445],[-123.2425,39.020833333333336],[-123.10416666666666,38.79083333333333],[-123.03888888888889,38.68222222222222],[-122.97611111111111,38.57638888888889],[-122.91388888888889,38.471944444444446],[-122.85416666666666,38.37111111111111],[-122.79638888888888,38.27305555555555],[-122.69722222222222,37.98111111111111],[-122.58333333333333,37.81666666666667],[-122.44305555555556,37.68222222222222],[-122.4,37.63333333333333],[-122.38444444444445,37.626666666666665],[-122.34055555555555,37.56583333333333],[-122.31666666666666,37.516666666666666],[-122.30361111111111,37.50333333333333],[-122.26666666666667,37.45],[-122.26722222222222,37.44416666666666],[-122.15,37.416666666666664],[-122.2,37.55],[-122.24805555555555,37.56527777777777],[-122.28333333333333,37.583333333333336],[-122.33333333333333,37.6]],"type":"LineString"}
}
