{
  "id": 2031978489,
  "type": "Feature",
  "properties": {
    "geom:area": 0,
    "geom:bbox": "-122.948889,37.428611,-122.066667,42.453333",
    "geom:latitude": 39.700697480674414,
    "geom:longitude": -122.75154837535209,
    "src:alt_label": "swim-path",
    "src:geom": "swim",
    "swim:altitudes": [
      "031",
      "056",
      "079",
      "111",
      "134",
      "157",
      "160",
      "182",
      "186",
      "203",
      "206",
      "225",
      "227",
      "245",
      "257",
      "261",
      "270C",
      "270C",
      "270C",
      "270C",
      "270C",
      "270C",
      "270C",
      "270C",
      "270C",
      "270C",
      "270C",
      "270C",
      "270C",
      "270C",
      "270C",
      "270C",
      "270C",
      "270C",
      "270C",
      "270C",
      "270C",
      "270C",
      "270C",
      "270C",
      "270C",
      "270C",
      "270C",
      "270C",
      "270C",
      "270C",
      "270C",
      "270C",
      "270C",
      "270",
      "270",
      "270",
      "270",
      "270",
      "270",
      "269",
      "252",
      "230",
      "223",
      "210",
      "206",
      "190",
      "169",
      "131",
      "114",
      "110C",
      "105",
      "086",
      "080",
      "078",
      "066",
      "057",
      "046",
      "040",
      "033",
      "028",
      "020",
      "012",
      "006",
      "110"
    ],
    "swim:geom": "path",
    "swim:speeds": [
      170,
      217,
      269,
      291,
      350,
      358,
      358,
      362,
      362,
      375,
      376,
      378,
      379,
      387,
      399,
      401,
      394,
      393,
      391,
      391,
      391,
      392,
      392,
      392,
      392,
      392,
      391,
      392,
      392,
      392,
      392,
      392,
      392,
      392,
      393,
      393,
      393,
      393,
      393,
      394,
      394,
      395,
      395,
      395,
      395,
      395,
      395,
      395,
      395,
      396,
      397,
      398,
      402,
      405,
      401,
      392,
      392,
      383,
      374,
      369,
      363,
      358,
      350,
      339,
      331,
      298,
      294,
      282,
      262,
      249,
      245,
      241,
      236,
      222,
      215,
      186,
      177,
      139,
      117,
      117
    ],
    "swim:timestamps": [
      1785071734,
      1785071794,
      1785071859,
      1785071936,
      1785071996,
      1785072039,
      1785072056,
      1785072100,
      1785072116,
      1785072160,
      1785072176,
      1785072220,
      1785072236,
      1785072296,
      1785072340,
      1785072356,
      1785072400,
      1785072416,
      1785072460,
      1785072476,
      1785072520,
      1785072536,
      1785072580,
      1785072596,
      1785072640,
      1785072656,
      1785072716,
      1785072760,
      1785072776,
      1785072820,
      1785072836,
      1785072880,
      1785072940,
      1785072957,
      1785073000,
      1785073017,
      1785073077,
      1785073120,
      1785073180,
      1785073240,
      1785073257,
      1785073300,
      1785073317,
      1785073360,
      1785073377,
      1785073420,
      1785073437,
      1785073497,
      1785073557,
      1785073617,
      1785073677,
      1785073737,
      1785073857,
      1785073917,
      1785073977,
      1785074037,
      1785074098,
      1785074158,
      1785074178,
      1785074218,
      1785074226,
      1785074278,
      1785074338,
      1785074458,
      1785074518,
      1785074578,
      1785074638,
      1785074700,
      1785074758,
      1785074766,
      1785074821,
      1785074878,
      1785074938,
      1785074995,
      1785075058,
      1785075118,
      1785075178,
      1785075238,
      1785075298,
      1785075359
    ],
    "wof:geomhash": "e2c05c4f3dab0bd7864921105ef5bb13",
    "wof:id": 2031978489,
    "wof:repo": "sfomuseum-data-flights-2026-07"
  },
  "bbox": [
    -122.94888888888889,
    37.42861111111111,
    -122.06666666666666,
    42.45333333333333
  ],
  "geometry": {"coordinates":[[-122.87166666666666,42.41111111111111],[-122.82416666666666,42.45333333333333],[-122.75805555555556,42.410555555555554],[-122.78083333333333,42.31888888888889],[-122.7863888888889,42.22277777777778],[-122.78999999999999,42.140277777777776],[-122.79083333333332,42.12416666666667],[-122.79527777777777,42.03777777777778],[-122.7961111111111,42.02361111111111],[-122.80083333333333,41.934999999999995],[-122.80166666666666,41.919999999999995],[-122.80638888888889,41.828611111111115],[-122.80722222222222,41.81333333333333],[-122.81305555555555,41.70638888888889],[-122.8175,41.61888888888889],[-122.81888888888888,41.59444444444445],[-122.82333333333332,41.50833333333333],[-122.82472222222222,41.48527777777778],[-122.82888888888888,41.40138888888889],[-122.83027777777778,41.378055555555555],[-122.83444444444444,41.301111111111105],[-122.83694444444444,41.25611111111111],[-122.84027777777777,41.19083333333333],[-122.8425,41.14861111111111],[-122.8461111111111,41.08027777777778],[-122.84805555555555,41.04],[-122.85388888888889,40.93],[-122.85833333333333,40.844722222222224],[-122.85972222222222,40.821111111111115],[-122.86416666666666,40.73555555555556],[-122.86555555555555,40.713055555555556],[-122.86972222222222,40.62722222222222],[-122.87527777777777,40.518055555555556],[-122.87638888888888,40.495555555555555],[-122.88083333333333,40.40972222222222],[-122.88194444444444,40.388888888888886],[-122.8875,40.279444444444444],[-122.89166666666668,40.20027777777778],[-122.89722222222223,40.091944444444444],[-122.90305555555557,39.98027777777778],[-122.90444444444445,39.953611111111115],[-122.90861111111111,39.87027777777778],[-122.91000000000001,39.84388888888889],[-122.91416666666667,39.760555555555555],[-122.91555555555556,39.73444444444444],[-122.91944444444445,39.650555555555556],[-122.92083333333333,39.625277777777775],[-122.9263888888889,39.515277777777776],[-122.9325,39.39055555555556],[-122.93805555555556,39.28055555555555],[-122.94361111111111,39.169999999999995],[-122.94888888888889,39.05888888888889],[-122.94694444444445,38.837500000000006],[-122.91416666666667,38.726111111111116],[-122.88138888888888,38.615833333333335],[-122.85055555555554,38.51111111111111],[-122.81944444444444,38.405],[-122.78916666666666,38.30166666666666],[-122.78333333333333,38.266666666666666],[-122.75972222222222,38.20138888888889],[-122.75,38.18333333333333],[-122.73194444444445,38.105555555555554],[-122.70444444444445,38.010555555555555],[-122.61749999999999,37.84805555555556],[-122.54222222222222,37.77722222222222],[-122.47444444444444,37.713055555555556],[-122.40805555555556,37.650277777777774],[-122.35,37.56666666666667],[-122.31305555555555,37.51833333333333],[-122.3,37.5],[-122.25,37.46666666666667],[-122.18805555555556,37.43805555555555],[-122.1111111111111,37.42861111111111],[-122.06666666666666,37.483333333333334],[-122.12638888888888,37.51444444444444],[-122.18722222222223,37.53972222222222],[-122.24055555555556,37.56222222222222],[-122.29055555555556,37.583333333333336],[-122.3261111111111,37.59805555555556],[-122.3625,37.61333333333334]],"type":"LineString"}
}
