{
  "id": 2031960497,
  "type": "Feature",
  "properties": {
    "geom:area": 0,
    "geom:bbox": "-121.879722,37.975000,-75.253056,41.160556",
    "geom:latitude": 40.503641293455985,
    "geom:longitude": -98.80102597422815,
    "src:alt_label": "swim-path",
    "src:geom": "swim",
    "swim:altitudes": [
      "139",
      "158",
      "175",
      "225",
      "235",
      "246",
      "254",
      "264",
      "272",
      "275",
      "282",
      "293",
      "304",
      "310",
      "310",
      "310",
      "310",
      "310",
      "310",
      "310",
      "310",
      "315",
      "317",
      "325",
      "330",
      "334",
      "346",
      "350C",
      "350C",
      "350C",
      "350C",
      "350C",
      "350C",
      "350C",
      "350C",
      "350C",
      "350C",
      "350C",
      "350C",
      "350C",
      "350C",
      "350C",
      "350C",
      "351C",
      "351C",
      "350C",
      "350C",
      "350C",
      "350C",
      "350C",
      "350C",
      "350C",
      "350C",
      "351C",
      "351C",
      "351C",
      "350C",
      "350C",
      "350C",
      "350C",
      "350C",
      "350C",
      "350C",
      "350C",
      "351C",
      "350C",
      "350C",
      "350C",
      "350C",
      "350C",
      "350C",
      "350C",
      "350C",
      "350C",
      "350C",
      "350C",
      "350C",
      "350C",
      "350C",
      "350C",
      "350C",
      "350C",
      "350C",
      "350C",
      "350C",
      "351C",
      "351C",
      "350C",
      "350C",
      "350C",
      "350C",
      "350C",
      "350C",
      "350C",
      "350C",
      "350C",
      "350C",
      "350C",
      "350C",
      "350C",
      "350C",
      "350C",
      "350C",
      "350C",
      "350C",
      "350C",
      "350C",
      "350C",
      "350C",
      "350C",
      "350C",
      "350C",
      "351C",
      "350C",
      "350C",
      "350",
      "350",
      "341",
      "332",
      "323",
      "312",
      "303",
      "294",
      "281",
      "262",
      "203",
      "188",
      "187",
      "172",
      "149",
      "140",
      "132",
      "119",
      "105",
      "090",
      "086",
      "076",
      "067",
      "060",
      "053",
      "068",
      "085",
      "102",
      "113",
      "135",
      "155",
      "175",
      "190",
      "205",
      "222",
      "237",
      "250",
      "264",
      "277",
      "289",
      "298",
      "313",
      "327",
      "337",
      "345",
      "354",
      "364",
      "370C",
      "370C",
      "370C",
      "370C",
      "370C",
      "370C",
      "370C",
      "370C",
      "370C",
      "370C",
      "370C",
      "370C",
      "370C",
      "370C",
      "370C",
      "370C",
      "370C",
      "370C",
      "370C",
      "370C",
      "370C",
      "370C",
      "370C",
      "370C",
      "370C",
      "370C",
      "370C",
      "370C",
      "370C",
      "370C",
      "370C",
      "370C",
      "370C",
      "370C",
      "370C",
      "370C",
      "370C",
      "370C",
      "370C",
      "370C",
      "370C",
      "370C",
      "370C",
      "370C",
      "370C",
      "370C",
      "370C",
      "370C",
      "370C",
      "370C",
      "370C",
      "370C",
      "370C",
      "370C",
      "370C",
      "370C",
      "370C",
      "370C",
      "370C",
      "370C",
      "370C",
      "370C",
      "370C",
      "370C",
      "370C",
      "370C",
      "370C",
      "370C",
      "370C",
      "370C",
      "370C",
      "370C",
      "370C",
      "370C",
      "370C",
      "370C",
      "370C",
      "370C",
      "370C",
      "370C",
      "370C",
      "370C",
      "370C",
      "370C",
      "370C",
      "370C",
      "370C",
      "370C",
      "370C",
      "370C",
      "370C",
      "370C",
      "370C",
      "370C",
      "370C",
      "370C",
      "370C",
      "370C",
      "370C",
      "370C",
      "370C",
      "370C",
      "370C",
      "370C",
      "370C",
      "370C",
      "370C",
      "370C",
      "370C",
      "370C",
      "370C",
      "370C",
      "370C",
      "370C",
      "370C",
      "370C",
      "370C",
      "370C",
      "370C",
      "370C",
      "370C",
      "370C",
      "370C",
      "370C",
      "370C",
      "370C",
      "370C",
      "370C",
      "370C",
      "370C",
      "370C",
      "370C",
      "370C",
      "370C",
      "370C",
      "370C",
      "370C",
      "370C",
      "370C",
      "370C",
      "370C",
      "370C",
      "370C",
      "370C",
      "370C",
      "370C",
      "370C",
      "370C",
      "370C",
      "370C",
      "370C",
      "370C",
      "370C",
      "370C",
      "370C",
      "370C",
      "370C",
      "370C",
      "370C",
      "370C",
      "370C",
      "370C",
      "370C",
      "370C",
      "370C",
      "370C",
      "370C",
      "370C",
      "370",
      "370",
      "370",
      "370",
      "370",
      "370",
      "370",
      "370",
      "370",
      "370",
      "370",
      "360",
      "354",
      "329",
      "321",
      "295",
      "289",
      "258",
      "250C",
      "250",
      "248",
      "244",
      "238",
      "234",
      "230C",
      "230C",
      "230",
      "228",
      "221",
      "219",
      "211",
      "209",
      "201",
      "199",
      "191",
      "189",
      "181",
      "179",
      "138",
      "131",
      "117",
      "107",
      "104",
      "102",
      "097",
      "093",
      "087",
      "081",
      "074",
      "068",
      "061",
      "049",
      "040",
      "035",
      "030",
      "030",
      "029",
      "025",
      "022",
      "019",
      "014",
      "011",
      "007",
      "004",
      "80"
    ],
    "swim:geom": "path",
    "swim:speeds": [
      382,
      400,
      412,
      437,
      450,
      461,
      473,
      483,
      485,
      488,
      489,
      495,
      496,
      500,
      503,
      501,
      502,
      501,
      502,
      501,
      502,
      501,
      501,
      501,
      502,
      502,
      509,
      501,
      502,
      500,
      500,
      499,
      499,
      498,
      498,
      498,
      497,
      497,
      496,
      495,
      494,
      494,
      494,
      494,
      494,
      493,
      493,
      491,
      491,
      490,
      490,
      490,
      490,
      490,
      491,
      491,
      491,
      490,
      488,
      483,
      480,
      480,
      481,
      483,
      484,
      483,
      481,
      480,
      478,
      477,
      476,
      476,
      476,
      476,
      476,
      477,
      479,
      479,
      480,
      479,
      477,
      475,
      472,
      470,
      470,
      474,
      476,
      476,
      479,
      477,
      485,
      487,
      490,
      488,
      485,
      484,
      482,
      481,
      483,
      484,
      484,
      484,
      484,
      484,
      484,
      485,
      484,
      483,
      484,
      484,
      484,
      486,
      487,
      487,
      488,
      488,
      488,
      488,
      486,
      486,
      486,
      488,
      485,
      476,
      460,
      413,
      387,
      391,
      380,
      314,
      297,
      267,
      256,
      245,
      226,
      226,
      209,
      158,
      136,
      91,
      207,
      264,
      298,
      351,
      370,
      385,
      398,
      415,
      431,
      441,
      452,
      467,
      472,
      476,
      484,
      496,
      497,
      492,
      490,
      491,
      494,
      496,
      495,
      495,
      495,
      494,
      493,
      491,
      490,
      488,
      488,
      488,
      489,
      490,
      489,
      488,
      487,
      485,
      484,
      483,
      483,
      484,
      484,
      484,
      484,
      483,
      482,
      481,
      481,
      481,
      482,
      484,
      487,
      489,
      490,
      491,
      492,
      491,
      491,
      491,
      492,
      490,
      491,
      490,
      491,
      491,
      491,
      491,
      492,
      493,
      493,
      494,
      495,
      495,
      496,
      496,
      497,
      496,
      496,
      496,
      495,
      495,
      495,
      494,
      494,
      494,
      494,
      493,
      493,
      493,
      492,
      492,
      492,
      492,
      493,
      493,
      493,
      494,
      495,
      496,
      497,
      498,
      498,
      497,
      497,
      497,
      497,
      498,
      499,
      497,
      490,
      489,
      489,
      490,
      494,
      497,
      499,
      500,
      500,
      500,
      501,
      500,
      498,
      493,
      484,
      487,
      484,
      485,
      484,
      485,
      484,
      485,
      484,
      485,
      485,
      486,
      486,
      491,
      492,
      494,
      494,
      497,
      498,
      500,
      500,
      502,
      502,
      503,
      503,
      503,
      503,
      503,
      502,
      502,
      501,
      500,
      500,
      499,
      499,
      498,
      498,
      496,
      495,
      494,
      493,
      492,
      490,
      488,
      487,
      486,
      485,
      486,
      485,
      486,
      487,
      486,
      488,
      487,
      489,
      490,
      490,
      489,
      489,
      489,
      483,
      484,
      482,
      483,
      483,
      483,
      483,
      482,
      483,
      482,
      483,
      485,
      485,
      487,
      487,
      488,
      488,
      489,
      489,
      507,
      511,
      509,
      506,
      489,
      476,
      474,
      472,
      472,
      471,
      466,
      462,
      457,
      456,
      456,
      456,
      453,
      446,
      445,
      443,
      439,
      427,
      425,
      414,
      413,
      400,
      390,
      383,
      374,
      348,
      320,
      304,
      287,
      280,
      274,
      275,
      267,
      265,
      251,
      239,
      219,
      204,
      173,
      170,
      166,
      159,
      161,
      144,
      148,
      147,
      147,
      115
    ],
    "swim:timestamps": [
      1784942110,
      1784942170,
      1784942230,
      1784942410,
      1784942470,
      1784942530,
      1784942590,
      1784942651,
      1784942684,
      1784942711,
      1784942744,
      1784942804,
      1784942864,
      1784942924,
      1784942951,
      1784942984,
      1784943011,
      1784943044,
      1784943071,
      1784943104,
      1784943131,
      1784943164,
      1784943191,
      1784943224,
      1784943251,
      1784943284,
      1784943345,
      1784943371,
      1784943405,
      1784943432,
      1784943465,
      1784943492,
      1784943525,
      1784943552,
      1784943612,
      1784943645,
      1784943672,
      1784943705,
      1784943732,
      1784943765,
      1784943792,
      1784943825,
      1784943852,
      1784943885,
      1784943912,
      1784943945,
      1784943972,
      1784944032,
      1784944065,
      1784944092,
      1784944126,
      1784944152,
      1784944186,
      1784944212,
      1784944246,
      1784944273,
      1784944306,
      1784944333,
      1784944366,
      1784944426,
      1784944486,
      1784944546,
      1784944606,
      1784944666,
      1784944726,
      1784944786,
      1784944847,
      1784944907,
      1784944967,
      1784945027,
      1784945087,
      1784945147,
      1784945267,
      1784945327,
      1784945387,
      1784945447,
      1784945507,
      1784945567,
      1784945628,
      1784945688,
      1784945748,
      1784945808,
      1784945868,
      1784945928,
      1784945988,
      1784946048,
      1784946108,
      1784946168,
      1784946228,
      1784946288,
      1784946349,
      1784946409,
      1784946422,
      1784946482,
      1784946529,
      1784946542,
      1784946589,
      1784946649,
      1784946662,
      1784946722,
      1784946769,
      1784946782,
      1784946829,
      1784946843,
      1784946889,
      1784946903,
      1784946949,
      1784947009,
      1784947023,
      1784947083,
      1784947130,
      1784947203,
      1784947263,
      1784947323,
      1784947383,
      1784947430,
      1784947443,
      1784947503,
      1784947564,
      1784947624,
      1784947684,
      1784947744,
      1784947804,
      1784947864,
      1784947924,
      1784948104,
      1784948153,
      1784948164,
      1784948224,
      1784948330,
      1784948405,
      1784948465,
      1784948525,
      1784948585,
      1784948705,
      1784948765,
      1784948825,
      1784948883,
      1784948945,
      1784949066,
      1784966771,
      1784966831,
      1784966890,
      1784966950,
      1784967010,
      1784967070,
      1784967130,
      1784967190,
      1784967250,
      1784967310,
      1784967370,
      1784967430,
      1784967490,
      1784967550,
      1784967610,
      1784967670,
      1784967730,
      1784967790,
      1784967850,
      1784967910,
      1784967970,
      1784968030,
      1784968090,
      1784968150,
      1784968210,
      1784968270,
      1784968330,
      1784968390,
      1784968450,
      1784968516,
      1784968570,
      1784968576,
      1784968636,
      1784968696,
      1784968751,
      1784968811,
      1784968876,
      1784968931,
      1784968991,
      1784969056,
      1784969116,
      1784969176,
      1784969236,
      1784969296,
      1784969356,
      1784969416,
      1784969476,
      1784969536,
      1784969596,
      1784969656,
      1784969716,
      1784969776,
      1784969836,
      1784969897,
      1784969957,
      1784970017,
      1784970077,
      1784970137,
      1784970197,
      1784970257,
      1784970283,
      1784970317,
      1784970340,
      1784970377,
      1784970400,
      1784970437,
      1784970462,
      1784970497,
      1784970523,
      1784970557,
      1784970581,
      1784970617,
      1784970640,
      1784970677,
      1784970700,
      1784970737,
      1784970760,
      1784970797,
      1784970820,
      1784970857,
      1784970881,
      1784970917,
      1784970942,
      1784970977,
      1784971000,
      1784971037,
      1784971061,
      1784971097,
      1784971121,
      1784971157,
      1784971184,
      1784971217,
      1784971241,
      1784971302,
      1784971338,
      1784971364,
      1784971398,
      1784971421,
      1784971481,
      1784971543,
      1784971603,
      1784971664,
      1784971724,
      1784971781,
      1784971841,
      1784971901,
      1784971961,
      1784972023,
      1784972081,
      1784972141,
      1784972201,
      1784972262,
      1784972321,
      1784972381,
      1784972441,
      1784972501,
      1784972563,
      1784972621,
      1784972682,
      1784972744,
      1784972804,
      1784972862,
      1784972923,
      1784972969,
      1784972982,
      1784973029,
      1784973042,
      1784973089,
      1784973102,
      1784973149,
      1784973162,
      1784973209,
      1784973222,
      1784973269,
      1784973284,
      1784973329,
      1784973344,
      1784973389,
      1784973404,
      1784973449,
      1784973465,
      1784973509,
      1784973522,
      1784973569,
      1784973582,
      1784973629,
      1784973643,
      1784973689,
      1784973704,
      1784973749,
      1784973765,
      1784973809,
      1784973825,
      1784973869,
      1784973882,
      1784973929,
      1784973942,
      1784973989,
      1784974002,
      1784974050,
      1784974063,
      1784974110,
      1784974170,
      1784974230,
      1784974290,
      1784974350,
      1784974410,
      1784974470,
      1784974530,
      1784974590,
      1784974650,
      1784974693,
      1784974710,
      1784974753,
      1784974770,
      1784974813,
      1784974830,
      1784974873,
      1784974890,
      1784974933,
      1784974950,
      1784974993,
      1784975010,
      1784975053,
      1784975114,
      1784975130,
      1784975174,
      1784975191,
      1784975251,
      1784975294,
      1784975311,
      1784975354,
      1784975371,
      1784975414,
      1784975431,
      1784975474,
      1784975491,
      1784975534,
      1784975551,
      1784975594,
      1784975611,
      1784975654,
      1784975671,
      1784975714,
      1784975731,
      1784975774,
      1784975791,
      1784975851,
      1784975894,
      1784975911,
      1784975955,
      1784975971,
      1784976015,
      1784976031,
      1784976075,
      1784976092,
      1784976135,
      1784976152,
      1784976195,
      1784976212,
      1784976255,
      1784976272,
      1784976315,
      1784976332,
      1784976375,
      1784976392,
      1784976435,
      1784976452,
      1784976555,
      1784976573,
      1784976615,
      1784976639,
      1784976675,
      1784976699,
      1784976736,
      1784976762,
      1784976796,
      1784976821,
      1784976856,
      1784976882,
      1784976916,
      1784976963,
      1784977023,
      1784977061,
      1784977096,
      1784977121,
      1784977156,
      1784977216,
      1784977254,
      1784977276,
      1784977314,
      1784977336,
      1784977368,
      1784977396,
      1784977456
    ],
    "wof:geomhash": "f43382c203ecea995ca1d72fa56f411b",
    "wof:id": 2031960497,
    "wof:repo": "sfomuseum-data-flights-2026-07"
  },
  "bbox": [
    -121.87972222222221,
    37.975,
    -75.25305555555556,
    41.160555555555554
  ],
  "geometry": {"coordinates":[[-121.87972222222221,37.975],[-121.77083333333333,38.05555555555555],[-121.66388888888889,38.13472222222222],[-121.32666666666667,38.374722222222225],[-121.20444444444445,38.450833333333335],[-121.08055555555555,38.526944444444446],[-120.94861111111112,38.60805555555556],[-120.81388888888888,38.69083333333333],[-120.71638888888889,38.7475],[-120.67527777777778,38.775277777777774],[-120.57777777777777,38.831944444444446],[-120.4375,38.9175],[-120.29638888888888,39.00222222222222],[-120.15472222222223,39.088055555555556],[-120.09583333333333,39.125],[-120.01222222222222,39.17388888888889],[-119.95416666666667,39.20916666666667],[-119.86999999999999,39.257222222222225],[-119.81027777777777,39.29472222222222],[-119.72666666666667,39.342222222222226],[-119.66805555555555,39.37861111111111],[-119.58361111111111,39.427499999999995],[-119.52305555555556,39.46388888888889],[-119.43944444444445,39.51277777777778],[-119.37888888888888,39.54666666666667],[-119.31916666666666,39.57527777777778],[-119.11888888888888,39.644999999999996],[-119.05027777777778,39.669444444444444],[-118.95472222222223,39.70333333333333],[-118.88611111111112,39.7275],[-118.78944444444444,39.76166666666666],[-118.72083333333333,39.785555555555554],[-118.65805555555556,39.80777777777777],[-118.55527777777777,39.843611111111116],[-118.3913888888889,39.900555555555556],[-118.32972222222222,39.92194444444444],[-118.2275,39.95722222222223],[-118.16527777777779,39.97833333333333],[-118.06472222222222,40.01305555555555],[-118.00277777777778,40.034166666666664],[-117.90027777777779,40.06916666666667],[-117.81083333333333,40.099722222222226],[-117.73805555555556,40.12444444444444],[-117.64722222222223,40.155],[-117.57277777777777,40.18],[-117.48472222222222,40.209722222222226],[-117.40972222222223,40.234722222222224],[-117.2538888888889,40.28666666666666],[-117.16000000000001,40.31805555555556],[-117.09194444444444,40.34055555555556],[-116.99666666666667,40.371944444444445],[-116.92333333333333,40.39611111111111],[-116.85666666666665,40.418055555555554],[-116.785,40.44166666666666],[-116.68444444444445,40.474444444444444],[-116.61527777777778,40.496944444444445],[-116.51861111111111,40.52833333333333],[-116.45,40.547777777777775],[-116.35,40.5675],[-116.17750000000001,40.58361111111111],[-116.00222222222222,40.59722222222222],[-115.8261111111111,40.61027777777778],[-115.65138888888889,40.62305555555555],[-115.47638888888889,40.63527777777778],[-115.30138888888888,40.6475],[-115.1261111111111,40.659444444444446],[-114.94916666666667,40.671388888888885],[-114.77805555555555,40.6825],[-114.60194444444444,40.69361111111111],[-114.42861111111111,40.70333333333333],[-114.25722222222223,40.70888888888889],[-114.08472222222221,40.715],[-113.73666666666666,40.7275],[-113.56444444444445,40.74111111111111],[-113.36888888888888,40.75555555555555],[-113.19527777777778,40.76833333333333],[-113.01833333333333,40.780277777777776],[-112.84166666666667,40.77916666666667],[-112.66638888888889,40.776944444444446],[-112.49305555555556,40.77444444444444],[-112.31694444444445,40.77194444444444],[-112.14500000000001,40.76888888888889],[-111.97638888888889,40.76583333333333],[-111.80805555555555,40.76222222222222],[-111.63611111111112,40.75888888888889],[-111.46166666666667,40.75472222222222],[-111.28861111111111,40.75055555555556],[-111.1363888888889,40.74666666666667],[-110.9588888888889,40.74194444444444],[-110.7863888888889,40.73694444444445],[-110.61055555555555,40.73166666666667],[-110.39666666666668,40.725],[-110.36138888888888,40.723888888888894],[-110.18583333333333,40.717777777777776],[-110.06027777777777,40.71333333333334],[-110.01083333333334,40.711666666666666],[-109.88666666666667,40.70722222222223],[-109.71194444444444,40.70055555555556],[-109.6763888888889,40.69916666666666],[-109.4975,40.69194444444444],[-109.35555555555555,40.68611111111111],[-109.31972222222223,40.68472222222222],[-109.17972222222222,40.678888888888885],[-109.14416666666668,40.677499999999995],[-108.99138888888889,40.683611111111105],[-108.96555555555555,40.68527777777778],[-108.81833333333333,40.69555555555555],[-108.64111111111112,40.70777777777778],[-108.61222222222221,40.71],[-108.43583333333333,40.72138888888889],[-108.30166666666666,40.73027777777778],[-108.06833333333333,40.745],[-107.9025,40.75555555555555],[-107.72416666666666,40.76638888888889],[-107.5461111111111,40.776944444444446],[-107.40222222222222,40.78333333333333],[-107.36777777777777,40.78722222222222],[-107.17083333333333,40.79833333333333],[-106.99416666666667,40.78611111111111],[-106.84138888888889,40.76416666666667],[-106.64472222222223,40.73527777777778],[-106.48777777777778,40.711666666666666],[-106.31388888888888,40.68583333333333],[-106.14333333333335,40.65972222222222],[-105.99388888888889,40.63666666666666],[-105.53527777777778,40.565],[-105.4,40.53333333333333],[-105.39361111111111,40.536944444444444],[-105.26861111111111,40.49111111111111],[-105.05,40.43333333333333],[-104.92194444444445,40.3975],[-104.84222222222222,40.35472222222222],[-104.76916666666666,40.312777777777775],[-104.70361111111112,40.26638888888889],[-104.68388888888889,40.14222222222222],[-104.68472222222222,40.07972222222222],[-104.68555555555555,40.02027777777778],[-104.68333333333334,39.96666666666667],[-104.6863888888889,39.93111111111111],[-104.6863888888889,39.875277777777775],[-104.65,39.8],[-104.58333333333333,39.78333333333333],[-104.48,39.79388888888889],[-104.36194444444443,39.80777777777777],[-104.2275,39.82472222222223],[-104.0911111111111,39.84138888888889],[-103.95027777777779,39.85805555555556],[-103.8025,39.87583333333333],[-103.67,39.89138888888889],[-103.51333333333334,39.909166666666664],[-103.35249999999999,39.92722222222222],[-103.18388888888889,39.94611111111111],[-103.01583333333333,39.96472222222223],[-102.84472222222222,39.983333333333334],[-102.64194444444445,40.00472222222222],[-102.46722222222222,40.02333333333333],[-102.28805555555556,40.04194444444444],[-102.11333333333333,40.059999999999995],[-101.9388888888889,40.0775],[-101.76277777777777,40.095],[-101.58277777777778,40.112500000000004],[-101.40666666666667,40.12916666666667],[-101.22916666666667,40.15333333333333],[-101.05472222222222,40.17833333333333],[-100.87916666666666,40.20305555555556],[-100.70555555555556,40.227222222222224],[-100.52944444444444,40.251666666666665],[-100.3586111111111,40.275],[-100.18361111111112,40.29861111111111],[-100.00666666666666,40.32222222222222],[-99.83583333333333,40.344722222222224],[-99.83277777777778,40.345],[-99.6588888888889,40.367777777777775],[-99.48055555555555,40.39083333333333],[-99.31083333333333,40.41222222222222],[-99.13527777777779,40.43444444444444],[-98.95722222222223,40.45638888888889],[-98.78999999999999,40.47694444444445],[-98.61722222222221,40.49777777777778],[-98.43722222222223,40.51916666666666],[-98.26277777777777,40.53972222222222],[-98.0886111111111,40.559999999999995],[-97.91416666666667,40.57972222222222],[-97.73916666666666,40.60138888888889],[-97.56833333333333,40.62222222222222],[-97.39416666666668,40.64277777777778],[-97.22083333333333,40.66305555555555],[-97.01222222222222,40.68722222222222],[-96.83972222222222,40.70472222222222],[-96.66527777777779,40.72083333333334],[-96.48972222222223,40.73722222222222],[-96.31527777777778,40.75333333333333],[-96.13833333333334,40.769444444444446],[-95.96222222222222,40.78527777777778],[-95.78388888888888,40.80222222222222],[-95.60666666666665,40.81888888888889],[-95.42944444444444,40.83527777777778],[-95.25166666666667,40.85138888888889],[-95.07277777777777,40.8675],[-94.89555555555556,40.882777777777775],[-94.82194444444444,40.88916666666667],[-94.71861111111112,40.89833333333333],[-94.64277777777778,40.90472222222222],[-94.53999999999999,40.91361111111111],[-94.46333333333334,40.919999999999995],[-94.35583333333332,40.92861111111111],[-94.28555555555555,40.93444444444444],[-94.17500000000001,40.94361111111111],[-94.10472222222222,40.94944444444444],[-93.99416666666667,40.958333333333336],[-93.92305555555556,40.96416666666667],[-93.81444444444445,40.97277777777778],[-93.74333333333334,40.97805555555556],[-93.63166666666666,40.98361111111111],[-93.55916666666667,40.98694444444445],[-93.44944444444445,40.9925],[-93.37777777777777,40.99611111111111],[-93.26805555555555,41.001666666666665],[-93.19361111111111,41.00527777777778],[-93.08583333333333,41.010555555555555],[-93.01333333333334,41.013888888888886],[-92.90472222222223,41.01916666666666],[-92.83083333333333,41.022777777777776],[-92.72194444444445,41.027499999999996],[-92.64777777777779,41.030833333333334],[-92.53833333333333,41.035555555555554],[-92.46861111111112,41.03861111111111],[-92.35694444444444,41.04333333333333],[-92.2875,41.046388888888885],[-92.17888888888889,41.05083333333333],[-92.14,41.05222222222222],[-92.03083333333333,41.05638888888888],[-91.95916666666668,41.059444444444445],[-91.77888888888889,41.066111111111105],[-91.66861111111112,41.06861111111112],[-91.58222222222221,41.073055555555555],[-91.48666666666666,41.07611111111112],[-91.40111111111112,41.07916666666667],[-91.21888888888888,41.085],[-91.03527777777778,41.090833333333336],[-90.85,41.096111111111114],[-90.66722222222222,41.10111111111111],[-90.48305555555555,41.10638888888889],[-90.29944444444445,41.11083333333333],[-90.11833333333333,41.115],[-89.93444444444445,41.119166666666665],[-89.74805555555555,41.12444444444444],[-89.56305555555555,41.12861111111111],[-89.37916666666666,41.132777777777775],[-89.19333333333334,41.13666666666666],[-89.02777777777777,41.14],[-88.85249999999999,41.14333333333333],[-88.67111111111112,41.146388888888886],[-88.49444444444444,41.14888888888889],[-88.31333333333333,41.15138888888889],[-88.1325,41.15361111111111],[-87.91361111111112,41.15555555555555],[-87.73527777777778,41.15694444444444],[-87.54972222222221,41.15833333333333],[-87.36972222222222,41.159166666666664],[-87.1863888888889,41.16],[-87.00361111111111,41.16027777777778],[-86.82,41.160555555555554],[-86.67666666666668,41.16027777777778],[-86.64027777777778,41.16027777777778],[-86.4975,41.15361111111111],[-86.46333333333334,41.151111111111106],[-86.32555555555555,41.14083333333333],[-86.28694444444444,41.13777777777778],[-86.14722222222223,41.12722222222222],[-86.11083333333333,41.12444444444444],[-85.97055555555556,41.11333333333334],[-85.93388888888889,41.11027777777778],[-85.79388888888889,41.09916666666667],[-85.75861111111111,41.096111111111114],[-85.61833333333333,41.084722222222226],[-85.58,41.081388888888895],[-85.4388888888889,41.06916666666667],[-85.40083333333334,41.066111111111105],[-85.26,41.05416666666667],[-85.2213888888889,41.05083333333333],[-85.07638888888889,41.038333333333334],[-85.03972222222222,41.035],[-84.8963888888889,41.0225],[-84.85777777777777,41.01888888888889],[-84.70916666666668,41.00555555555555],[-84.6763888888889,41.00277777777778],[-84.5286111111111,40.98916666666667],[-84.49277777777777,40.98583333333333],[-84.34388888888888,40.971944444444446],[-84.31,40.968611111111116],[-84.16027777777778,40.95388888888889],[-84.1275,40.950833333333335],[-83.97888888888889,40.93666666666666],[-83.94638888888889,40.93333333333333],[-83.7936111111111,40.91888888888889],[-83.76638888888888,40.91611111111111],[-83.60777777777777,40.900555555555556],[-83.58472222222221,40.89805555555556],[-83.42527777777778,40.88194444444444],[-83.40555555555557,40.87972222222222],[-83.24694444444445,40.86333333333334],[-83.065,40.844166666666666],[-82.88555555555556,40.82527777777778],[-82.71138888888889,40.80638888888888],[-82.53472222222221,40.78722222222222],[-82.35944444444443,40.7675],[-82.18361111111112,40.74777777777778],[-82.01027777777777,40.72833333333333],[-81.83527777777778,40.70777777777778],[-81.66194444444444,40.6875],[-81.52916666666667,40.669999999999995],[-81.48861111111111,40.666666666666664],[-81.35222222222221,40.64888888888889],[-81.3125,40.64527777777778],[-81.17694444444444,40.62722222222222],[-81.13611111111112,40.62388888888889],[-81.00083333333333,40.605555555555554],[-80.95305555555557,40.60138888888889],[-80.82305555555556,40.58583333333333],[-80.77638888888889,40.58388888888889],[-80.6463888888889,40.57416666666667],[-80.59777777777778,40.57333333333334],[-80.46916666666667,40.564166666666665],[-80.295,40.55416666666667],[-80.26,40.55222222222222],[-80.12083333333332,40.5425],[-80.08666666666666,40.54111111111111],[-79.92027777777778,40.52972222222222],[-79.77083333333333,40.519444444444446],[-79.74305555555556,40.51777777777777],[-79.59722222222221,40.507222222222225],[-79.56944444444444,40.505833333333335],[-79.42277777777778,40.49527777777778],[-79.39305555555556,40.49333333333333],[-79.24722222222222,40.4825],[-79.21083333333334,40.47972222222222],[-79.07138888888889,40.46944444444445],[-79.03333333333333,40.46666666666667],[-78.89611111111111,40.45611111111111],[-78.85972222222222,40.45333333333333],[-78.71805555555555,40.442499999999995],[-78.68138888888889,40.439722222222215],[-78.53833333333333,40.42833333333333],[-78.49777777777778,40.425],[-78.35499999999999,40.413888888888884],[-78.31527777777778,40.410555555555554],[-78.10388888888889,40.393055555555556],[-78.00361111111111,40.38444444444444],[-77.93305555555555,40.376666666666665],[-77.83611111111111,40.364444444444445],[-77.76527777777778,40.35527777777778],[-77.66527777777779,40.3425],[-77.59888888888888,40.33388888888889],[-77.47944444444444,40.31861111111112],[-77.43694444444445,40.31333333333333],[-77.31888888888888,40.297777777777775],[-77.27333333333333,40.29194444444444],[-77.15527777777778,40.276666666666664],[-77.12972222222221,40.27305555555555],[-76.99777777777778,40.25555555555555],[-76.97194444444445,40.25222222222222],[-76.8386111111111,40.23444444444444],[-76.81388888888888,40.23111111111111],[-76.69111111111111,40.21472222222223],[-76.66250000000001,40.21055555555556],[-76.53666666666666,40.19361111111111],[-76.51333333333334,40.190555555555555],[-76.24722222222222,40.153055555555554],[-76.2,40.15],[-76.11694444444444,40.13472222222222],[-76.05,40.13333333333333],[-75.98055555555555,40.11555555555556],[-75.93333333333334,40.11666666666667],[-75.87305555555555,40.10027777777778],[-75.83333333333333,40.1],[-75.77333333333333,40.08583333333333],[-75.73333333333333,40.083333333333336],[-75.67583333333334,40.07888888888889],[-75.63333333333334,40.083333333333336],[-75.58972222222222,40.05583333333333],[-75.6,40],[-75.58333333333333,39.93333333333333],[-75.56666666666666,39.9],[-75.54833333333333,39.86388888888889],[-75.53333333333333,39.85],[-75.51,39.83166666666667],[-75.45361111111112,39.825],[-75.41666666666667,39.833333333333336],[-75.3938888888889,39.83694444444445],[-75.36666666666666,39.85],[-75.34333333333333,39.84722222222222],[-75.31666666666666,39.85],[-75.29277777777777,39.85722222222223],[-75.25305555555556,39.86555555555556]],"type":"LineString"}
}
