{
  "id": 2032040017,
  "type": "Feature",
  "properties": {
    "geom:area": 0,
    "geom:bbox": "-122.558980,36.725010,-122.357520,37.653330",
    "geom:latitude": 37.21357380367071,
    "geom:longitude": -122.50225539563678,
    "src:alt_label": "swim-takeoff",
    "src:geom": "swim",
    "swim:elevations": [
      327,
      764,
      1310,
      1506,
      1521,
      1642,
      2164,
      2408,
      2875,
      3169,
      3378,
      3558,
      3839,
      4076,
      4166,
      4539,
      4819,
      5061,
      5344,
      5671,
      5787,
      6107
    ],
    "swim:geom": "takeoff",
    "swim:timestamps": [
      1785411729,
      1785411763,
      1785411825,
      1785411847,
      1785411886,
      1785411911,
      1785411950,
      1785411965,
      1785412002,
      1785412028,
      1785412063,
      1785412097,
      1785412135,
      1785412164,
      1785412172,
      1785412212,
      1785412246,
      1785412272,
      1785412304,
      1785412350,
      1785412366,
      1785412408
    ],
    "wof:geomhash": "551d2c099a52d0e21b92891edeffca46",
    "wof:id": 2032040017,
    "wof:repo": "sfomuseum-data-flights-2026-07"
  },
  "bbox": [
    -122.55898,
    36.72501,
    -122.35752,
    37.65333
  ],
  "geometry": {"coordinates":[[-122.39613,37.62781],[-122.42452,37.63978],[-122.49132,37.65333],[-122.50858,37.63322],[-122.51325,37.5836],[-122.51438,37.55251],[-122.51853,37.50394],[-122.52052,37.48396],[-122.52572,37.43433],[-122.52874,37.39758],[-122.53301,37.34363],[-122.53779,37.28577],[-122.54403,37.21694],[-122.54926,37.16342],[-122.55077,37.14817],[-122.55769,37.07393],[-122.55898,37.00752],[-122.53248,36.96195],[-122.49051,36.90731],[-122.43166,36.82692],[-122.41159,36.79929],[-122.35752,36.72501]],"type":"LineString"}
}
