{
  "id": 2031946433,
  "type": "Feature",
  "properties": {
    "geom:area": 0,
    "geom:bbox": "-114.678056,39.167778,-87.580000,41.796111",
    "geom:latitude": 40.519402952514014,
    "geom:longitude": -100.98282855296014,
    "src:alt_label": "swim-path",
    "src:geom": "swim",
    "swim:altitudes": [
      "370C",
      "370C",
      "370C",
      "370C",
      "370C",
      "370C",
      "370C",
      "370C",
      "370C",
      "370C",
      "370C",
      "370C",
      "370C",
      "370C",
      "370C",
      "370C",
      "370C",
      "370C",
      "370C",
      "370C",
      "370C",
      "370C",
      "370C",
      "370C",
      "370C",
      "370C",
      "370C",
      "370C",
      "370C",
      "370C",
      "370C",
      "370C",
      "370C",
      "370C",
      "370C",
      "370C",
      "370C",
      "370C",
      "370C",
      "370C",
      "370C",
      "370C",
      "370C",
      "370C",
      "370C",
      "370C",
      "370C",
      "370C",
      "370C",
      "370C",
      "370C",
      "370C",
      "370C",
      "370C",
      "370C",
      "370C",
      "370C",
      "370C",
      "370C",
      "370C",
      "370C",
      "370C",
      "370C",
      "370C",
      "370C",
      "370C",
      "370C",
      "370C",
      "370C",
      "370C",
      "370C",
      "370C",
      "370C",
      "370C",
      "370C",
      "370C",
      "370C",
      "370C",
      "370C",
      "370C",
      "370C",
      "370C",
      "370C",
      "370C",
      "370C",
      "370C",
      "370C",
      "370C",
      "370C",
      "370C",
      "370C",
      "370C",
      "370C",
      "370C",
      "370C",
      "370C",
      "370C",
      "370C",
      "370C",
      "370C",
      "370C",
      "370C",
      "370C",
      "370C",
      "370C",
      "370C",
      "370C",
      "370C",
      "370C",
      "370C",
      "370C",
      "369",
      "366",
      "359",
      "349",
      "338",
      "330",
      "320C",
      "320",
      "320",
      "320",
      "320",
      "320",
      "320",
      "307",
      "288",
      "268",
      "249",
      "241",
      "222",
      "212",
      "202",
      "185",
      "167",
      "147",
      "137",
      "125",
      "103",
      "100",
      "099",
      "094",
      "081",
      "079",
      "070",
      "070",
      "061",
      "060",
      "053",
      "052",
      "050",
      "050",
      "050",
      "050",
      "050",
      "044",
      "038",
      "028",
      "020",
      "019",
      "011",
      "006"
    ],
    "swim:geom": "path",
    "swim:speeds": [
      505,
      505,
      505,
      505,
      506,
      508,
      509,
      510,
      510,
      511,
      511,
      512,
      515,
      511,
      513,
      510,
      511,
      510,
      511,
      510,
      509,
      509,
      509,
      508,
      508,
      508,
      509,
      510,
      510,
      510,
      510,
      511,
      512,
      513,
      512,
      513,
      513,
      513,
      515,
      515,
      515,
      515,
      513,
      513,
      510,
      510,
      512,
      511,
      503,
      501,
      500,
      499,
      498,
      496,
      494,
      492,
      492,
      493,
      495,
      497,
      499,
      498,
      497,
      496,
      495,
      494,
      489,
      489,
      489,
      489,
      490,
      491,
      493,
      494,
      494,
      496,
      495,
      496,
      495,
      496,
      496,
      495,
      493,
      493,
      493,
      494,
      497,
      499,
      501,
      502,
      502,
      501,
      501,
      501,
      502,
      502,
      503,
      502,
      502,
      502,
      503,
      501,
      502,
      504,
      505,
      506,
      508,
      509,
      510,
      510,
      510,
      511,
      512,
      512,
      512,
      512,
      512,
      513,
      514,
      514,
      514,
      515,
      514,
      515,
      505,
      484,
      466,
      455,
      476,
      478,
      473,
      474,
      468,
      443,
      422,
      409,
      400,
      389,
      334,
      326,
      292,
      285,
      289,
      276,
      272,
      274,
      273,
      270,
      273,
      270,
      266,
      267,
      266,
      266,
      222,
      215,
      194,
      168,
      165,
      159,
      152
    ],
    "swim:timestamps": [
      1784819036,
      1784819157,
      1784819217,
      1784819277,
      1784819337,
      1784819517,
      1784819577,
      1784819697,
      1784819757,
      1784819818,
      1784819878,
      1784819938,
      1784820008,
      1784820058,
      1784820068,
      1784820118,
      1784820129,
      1784820178,
      1784820189,
      1784820249,
      1784820309,
      1784820369,
      1784820429,
      1784820478,
      1784820489,
      1784820538,
      1784820609,
      1784820659,
      1784820669,
      1784820719,
      1784820729,
      1784820779,
      1784820850,
      1784820910,
      1784820959,
      1784821030,
      1784821090,
      1784821139,
      1784821199,
      1784821259,
      1784821270,
      1784821330,
      1784821450,
      1784821510,
      1784821811,
      1784821871,
      1784822051,
      1784822111,
      1784822171,
      1784822231,
      1784822291,
      1784822352,
      1784822412,
      1784822472,
      1784822532,
      1784822592,
      1784822712,
      1784822772,
      1784822832,
      1784822892,
      1784823073,
      1784823133,
      1784823193,
      1784823253,
      1784823313,
      1784823373,
      1784823613,
      1784823673,
      1784823688,
      1784823733,
      1784823748,
      1784823854,
      1784823914,
      1784823928,
      1784823974,
      1784824034,
      1784824048,
      1784824094,
      1784824108,
      1784824168,
      1784824228,
      1784824288,
      1784824409,
      1784824469,
      1784824529,
      1784824589,
      1784824709,
      1784824769,
      1784824829,
      1784824889,
      1784824949,
      1784825009,
      1784825070,
      1784825130,
      1784825190,
      1784825250,
      1784825310,
      1784825370,
      1784825430,
      1784825490,
      1784825550,
      1784825605,
      1784825666,
      1784825726,
      1784825786,
      1784825846,
      1784825906,
      1784825971,
      1784826023,
      1784826031,
      1784826083,
      1784826143,
      1784826151,
      1784826203,
      1784826264,
      1784826331,
      1784826384,
      1784826451,
      1784826504,
      1784826564,
      1784826572,
      1784826624,
      1784826632,
      1784826684,
      1784826744,
      1784826804,
      1784826865,
      1784826925,
      1784826985,
      1784827105,
      1784827165,
      1784827225,
      1784827285,
      1784827345,
      1784827405,
      1784827466,
      1784827526,
      1784827586,
      1784827646,
      1784827657,
      1784827766,
      1784827814,
      1784827826,
      1784827886,
      1784827939,
      1784828006,
      1784828067,
      1784828114,
      1784828127,
      1784828187,
      1784828247,
      1784828294,
      1784828307,
      1784828427,
      1784828487,
      1784828547,
      1784828608,
      1784828655,
      1784828668,
      1784828728,
      1784828788
    ],
    "wof:geomhash": "75accc93e125ec59ef798d3eedd33385",
    "wof:id": 2031946433,
    "wof:repo": "sfomuseum-data-flights-2026-07"
  },
  "bbox": [
    -114.67805555555556,
    39.16777777777777,
    -87.58,
    41.79611111111111
  ],
  "geometry": {"coordinates":[[-114.67805555555556,39.16777777777777],[-114.33138888888888,39.22777777777778],[-114.14916666666667,39.25888888888889],[-113.97194444444445,39.288888888888884],[-113.79444444444444,39.318333333333335],[-113.25777777777778,39.406388888888884],[-113.08,39.43472222222222],[-112.72194444444445,39.49138888888889],[-112.53944444444444,39.51972222222222],[-112.35805555555555,39.5475],[-112.185,39.573888888888895],[-112.00333333333333,39.60111111111111],[-111.78916666666666,39.63305555555556],[-111.64250000000001,39.654444444444444],[-111.60583333333332,39.66],[-111.46055555555556,39.68111111111111],[-111.42555555555556,39.68611111111111],[-111.28138888888888,39.70666666666667],[-111.24722222222222,39.711666666666666],[-111.0675,39.73722222222222],[-110.88722222222223,39.7625],[-110.70583333333333,39.7875],[-110.52638888888889,39.81194444444444],[-110.37916666666666,39.83166666666667],[-110.34277777777777,39.836666666666666],[-110.19888888888889,39.85611111111111],[-109.98083333333334,39.885],[-109.83611111111111,39.90361111111111],[-109.79916666666666,39.90833333333333],[-109.65222222222222,39.92722222222222],[-109.61722222222221,39.931666666666665],[-109.46833333333333,39.95055555555556],[-109.25055555555555,39.97805555555556],[-109.06416666666667,40.00111111111111],[-108.915,40.01916666666666],[-108.69472222222223,40.045833333333334],[-108.51722222222222,40.066944444444445],[-108.36388888888888,40.084722222222226],[-108.17444444444445,40.10666666666667],[-107.98944444444444,40.12777777777778],[-107.99277777777777,40.12722222222222],[-107.80833333333334,40.14805555555556],[-107.43833333333333,40.18861111111111],[-107.25416666666666,40.208333333333336],[-106.33555555555554,40.30222222222222],[-106.12583333333333,40.322500000000005],[-105.56888888888888,40.374722222222225],[-105.38527777777779,40.39138888888889],[-105.20222222222222,40.407777777777774],[-105.02166666666666,40.42361111111111],[-104.8386111111111,40.439166666666665],[-104.65805555555556,40.45416666666667],[-104.47805555555556,40.46888888888889],[-104.29777777777778,40.48361111111111],[-104.11916666666666,40.49777777777778],[-103.94277777777778,40.51138888888889],[-103.58555555555554,40.538333333333334],[-103.405,40.55166666666666],[-103.22472222222223,40.56444444444444],[-103.04055555555556,40.577222222222225],[-102.50305555555556,40.61277777777778],[-102.32333333333332,40.62444444444444],[-102.14166666666668,40.635555555555555],[-101.9625,40.646388888888886],[-101.78138888888888,40.65694444444444],[-101.6036111111111,40.66694444444444],[-100.8938888888889,40.70472222222222],[-100.72194444444445,40.71333333333334],[-100.68694444444445,40.715],[-100.54555555555555,40.721944444444446],[-100.51166666666667,40.723333333333336],[-100.1913888888889,40.738055555555555],[-100.00916666666667,40.745555555555555],[-99.96583333333334,40.7475],[-99.82888888888888,40.753055555555555],[-99.64666666666668,40.760555555555555],[-99.60472222222222,40.76222222222222],[-99.46666666666667,40.7675],[-99.42666666666668,40.76888888888889],[-99.24777777777778,40.775555555555556],[-99.06833333333333,40.781666666666666],[-98.88166666666666,40.78805555555555],[-98.52222222222223,40.799166666666665],[-98.3425,40.80416666666667],[-98.16111111111111,40.80916666666666],[-97.97972222222222,40.81388888888888],[-97.61694444444444,40.82222222222222],[-97.43527777777778,40.82611111111112],[-97.24861111111112,40.82944444444445],[-97.06666666666666,40.8325],[-96.84472222222222,40.836111111111116],[-96.66444444444446,40.83861111111111],[-96.48111111111112,40.840833333333336],[-96.30111111111111,40.84305555555556],[-96.11638888888888,40.844722222222224],[-95.93388888888889,40.846111111111114],[-95.75333333333333,40.84722222222222],[-95.57055555555556,40.84805555555556],[-95.38805555555557,40.848888888888894],[-95.20305555555557,40.84916666666667],[-95.01888888888888,40.848888888888894],[-94.87638888888888,40.848333333333336],[-94.68444444444445,40.84805555555556],[-94.50138888888888,40.84722222222222],[-94.31388888888888,40.846111111111114],[-94.12916666666666,40.84444444444445],[-93.94194444444445,40.84305555555556],[-93.71666666666667,40.84027777777778],[-93.56694444444445,40.83916666666667],[-93.52916666666667,40.84166666666667],[-93.38,40.855000000000004],[-93.19388888888889,40.87138888888889],[-93.15472222222223,40.875],[-93.00555555555556,40.88805555555555],[-92.81805555555555,40.90416666666667],[-92.59166666666667,40.92333333333333],[-92.4413888888889,40.93583333333333],[-92.21472222222222,40.95388888888889],[-92.06694444444445,40.965833333333336],[-91.87527777777777,40.980555555555554],[-91.87305555555555,40.980000000000004],[-91.68722222222223,40.99472222222222],[-91.68416666666667,40.99444444444445],[-91.48305555555555,41.01],[-91.29888888888888,41.02361111111111],[-91.1211111111111,41.03583333333333],[-90.94777777777779,41.047777777777775],[-90.78222222222222,41.05916666666666],[-90.61277777777777,41.07138888888889],[-90.25833333333334,41.10027777777778],[-90.11916666666666,41.11083333333333],[-89.94388888888889,41.12361111111111],[-89.77305555555556,41.135],[-89.60694444444444,41.14611111111111],[-89.44944444444445,41.15611111111111],[-89.30055555555555,41.16555555555556],[-89.12972222222221,41.17805555555555],[-88.99194444444444,41.2075],[-88.87333333333332,41.24638888888889],[-88.85,41.25],[-88.66888888888889,41.318333333333335],[-88.58333333333333,41.35],[-88.57444444444444,41.35138888888889],[-88.48472222222222,41.38861111111111],[-88.41666666666667,41.43333333333333],[-88.32833333333333,41.48388888888889],[-88.23555555555555,41.51166666666666],[-88.15,41.516666666666666],[-88.13694444444445,41.52111111111111],[-88.03861111111111,41.52972222222222],[-87.94222222222223,41.538333333333334],[-87.85,41.55],[-87.84388888888888,41.54722222222222],[-87.64194444444445,41.565555555555555],[-87.58,41.608333333333334],[-87.5925,41.66305555555555],[-87.63666666666667,41.70333333333333],[-87.68333333333334,41.733333333333334],[-87.68527777777778,41.73777777777778],[-87.72611111111111,41.766666666666666],[-87.7675,41.79611111111111]],"type":"LineString"}
}
