{
  "id": 2031946447,
  "type": "Feature",
  "properties": {
    "geom:area": 0,
    "geom:bbox": "-122.559580,36.741940,-122.280960,37.665570",
    "geom:latitude": 37.2330304333097,
    "geom:longitude": -122.49019194473689,
    "src:alt_label": "swim-takeoff",
    "src:geom": "swim",
    "swim:elevations": [
      183,
      372,
      844,
      1168,
      1404,
      2062,
      2587,
      3209,
      3300,
      3746,
      4124,
      4906,
      5175,
      5856,
      6357,
      6626,
      7192,
      7665,
      7776,
      8188,
      8710,
      8952,
      9110,
      9418,
      9671,
      9915
    ],
    "swim:geom": "takeoff",
    "swim:timestamps": [
      1784820088,
      1784820102,
      1784820148,
      1784820171,
      1784820195,
      1784820237,
      1784820265,
      1784820296,
      1784820301,
      1784820338,
      1784820363,
      1784820408,
      1784820424,
      1784820467,
      1784820500,
      1784820520,
      1784820560,
      1784820594,
      1784820603,
      1784820630,
      1784820679,
      1784820713,
      1784820733,
      1784820768,
      1784820793,
      1784820811
    ],
    "wof:geomhash": "dc490025c6ab107b4e719d8079a434b6",
    "wof:id": 2031946447,
    "wof:repo": "sfomuseum-data-flights-2026-07"
  },
  "bbox": [
    -122.55958,
    36.74194,
    -122.28096,
    37.66557
  ],
  "geometry": {"coordinates":[[-122.37883,37.62297],[-122.38864,37.62747],[-122.42854,37.6431],[-122.45346,37.65382],[-122.48218,37.66557],[-122.53838,37.65242],[-122.5436,37.6188],[-122.52653,37.58002],[-122.52561,37.57332],[-122.52886,37.51986],[-122.53152,37.48117],[-122.53621,37.41013],[-122.538,37.38398],[-122.54279,37.31472],[-122.54671,37.25855],[-122.54903,37.22476],[-122.55398,37.15432],[-122.55818,37.09486],[-122.55958,37.0797],[-122.55653,37.0297],[-122.49252,36.95247],[-122.44041,36.90093],[-122.40824,36.86864],[-122.35231,36.81283],[-122.31108,36.7721],[-122.28096,36.74194]],"type":"LineString"}
}
