{
  "id": 2031960189,
  "type": "Feature",
  "properties": {
    "geom:area": 0,
    "geom:bbox": "-122.550660,36.730340,-121.515080,37.668790",
    "geom:latitude": 37.22437859650935,
    "geom:longitude": -122.10175428013729,
    "src:alt_label": "swim-takeoff",
    "src:geom": "swim",
    "swim:elevations": [
      244,
      801,
      1491,
      1638,
      2684,
      3161,
      3316,
      3816,
      3950,
      4223,
      4334,
      4422,
      5177,
      5393,
      5683,
      5876,
      6173,
      6318,
      6425,
      6682,
      7320,
      7449,
      7747,
      8454,
      8923,
      9213,
      9318
    ],
    "swim:geom": "takeoff",
    "swim:timestamps": [
      1784933113,
      1784933167,
      1784933221,
      1784933232,
      1784933291,
      1784933338,
      1784933350,
      1784933398,
      1784933407,
      1784933425,
      1784933432,
      1784933438,
      1784933487,
      1784933501,
      1784933522,
      1784933577,
      1784933599,
      1784933611,
      1784933630,
      1784933673,
      1784933743,
      1784933758,
      1784933797,
      1784933867,
      1784933906,
      1784933933,
      1784933945
    ],
    "wof:geomhash": "0820b8708555851aaf94451b53c0b674",
    "wof:id": 2031960189,
    "wof:repo": "sfomuseum-data-flights-2026-07"
  },
  "bbox": [
    -122.55066,
    36.73034,
    -121.51508,
    37.66879
  ],
  "geometry": {"coordinates":[[-122.38547,37.62325],[-122.4268,37.64099],[-122.48381,37.66576],[-122.49754,37.66879],[-122.55066,37.63773],[-122.52988,37.58337],[-122.52081,37.56803],[-122.47963,37.5015],[-122.46898,37.48943],[-122.44262,37.46716],[-122.43149,37.45923],[-122.42202,37.45226],[-122.34478,37.39511],[-122.32194,37.37814],[-122.28696,37.35212],[-122.19494,37.28394],[-122.15986,37.25645],[-122.1405,37.24045],[-122.11,37.21505],[-122.03349,37.15206],[-121.9038,37.04657],[-121.87546,37.02339],[-121.79974,36.96073],[-121.66278,36.85205],[-121.58781,36.79134],[-121.53641,36.74838],[-121.51508,36.73034]],"type":"LineString"}
}
