{
  "id": 2031982597,
  "type": "Feature",
  "properties": {
    "geom:area": 0,
    "geom:bbox": "-122.526690,37.622690,-121.247210,38.399010",
    "geom:latitude": 38.03823503606742,
    "geom:longitude": -121.97762315239079,
    "src:alt_label": "swim-takeoff",
    "src:geom": "swim",
    "swim:elevations": [
      152,
      411,
      794,
      841,
      985,
      1176,
      1221,
      1597,
      1846,
      1910,
      2084,
      2263,
      2349,
      2844,
      3003,
      3296,
      3452,
      3625,
      3835,
      3952,
      4040,
      4293,
      4371,
      4425,
      4577,
      4676,
      4848,
      5049,
      5066,
      5266,
      5470,
      5528,
      5712,
      5741,
      6103,
      6252,
      6485,
      6530,
      6624,
      6725,
      6814,
      6891
    ],
    "swim:geom": "takeoff",
    "swim:timestamps": [
      1785133413,
      1785133430,
      1785133466,
      1785133473,
      1785133490,
      1785133528,
      1785133539,
      1785133587,
      1785133610,
      1785133616,
      1785133631,
      1785133647,
      1785133656,
      1785133702,
      1785133717,
      1785133765,
      1785133797,
      1785133825,
      1785133846,
      1785133862,
      1785133871,
      1785133898,
      1785133913,
      1785133922,
      1785133940,
      1785133952,
      1785133972,
      1785134005,
      1785134008,
      1785134037,
      1785134061,
      1785134070,
      1785134096,
      1785134100,
      1785134154,
      1785134172,
      1785134214,
      1785134220,
      1785134239,
      1785134256,
      1785134266,
      1785134284
    ],
    "wof:geomhash": "d365afb4b069b1ad069f30e926b2ffe7",
    "wof:id": 2031982597,
    "wof:repo": "sfomuseum-data-flights-2026-07"
  },
  "bbox": [
    -122.52669,
    37.62269,
    -121.24721,
    38.39901
  ],
  "geometry": {"coordinates":[[-122.38422,37.62269],[-122.39816,37.62904],[-122.42707,37.64132],[-122.4326,37.64367],[-122.44736,37.64987],[-122.48518,37.66617],[-122.4976,37.67144],[-122.52512,37.72028],[-122.52624,37.74922],[-122.52652,37.75697],[-122.52669,37.7776],[-122.51867,37.79739],[-122.50957,37.80709],[-122.4396,37.83607],[-122.4164,37.84653],[-122.33987,37.88351],[-122.28272,37.91106],[-122.23168,37.93589],[-122.19016,37.95591],[-122.15987,37.97065],[-122.14241,37.97918],[-122.09018,38.00412],[-122.05943,38.01867],[-122.04126,38.02728],[-122.00447,38.04482],[-121.97983,38.05654],[-121.93885,38.07608],[-121.87203,38.11165],[-121.86602,38.11515],[-121.80375,38.14606],[-121.7514,38.16979],[-121.73176,38.17884],[-121.67632,38.20429],[-121.66613,38.20895],[-121.54479,38.2643],[-121.50432,38.28268],[-121.40948,38.32565],[-121.39568,38.33191],[-121.35168,38.3518],[-121.31216,38.36969],[-121.28914,38.38014],[-121.24721,38.39901]],"type":"LineString"}
}
