{
  "id": 2032048165,
  "type": "Feature",
  "properties": {
    "geom:area": 0,
    "geom:bbox": "-122.333333,33.920278,-118.450000,37.600000",
    "geom:latitude": 35.61370310608657,
    "geom:longitude": -120.79237181842035,
    "src:alt_label": "swim-path",
    "src:geom": "swim",
    "swim:altitudes": [
      "011",
      "013",
      "023",
      "040",
      "059",
      "080",
      "102",
      "113",
      "134",
      "156",
      "175",
      "194",
      "194",
      "218",
      "219",
      "247",
      "248",
      "264",
      "264",
      "280",
      "280",
      "295",
      "307",
      "307",
      "319",
      "319",
      "331",
      "340C",
      "340C",
      "340C",
      "340C",
      "340C",
      "340C",
      "340C",
      "340",
      "333",
      "326",
      "324",
      "314",
      "304",
      "294",
      "285",
      "275",
      "266",
      "251",
      "231",
      "217",
      "202",
      "200",
      "200",
      "200",
      "199",
      "191",
      "180",
      "176",
      "166",
      "162",
      "152",
      "150",
      "139",
      "135",
      "125",
      "121",
      "115",
      "111",
      "105",
      "100",
      "100",
      "100",
      "100",
      "095",
      "090",
      "090",
      "090",
      "083",
      "072",
      "067",
      "060",
      "060",
      "060",
      "060",
      "055",
      "049",
      "041",
      "040",
      "040",
      "039",
      "030",
      "030",
      "029",
      "026",
      "019",
      "011",
      "004"
    ],
    "swim:geom": "path",
    "swim:speeds": [
      164,
      164,
      226,
      262,
      278,
      283,
      297,
      344,
      361,
      375,
      394,
      403,
      409,
      414,
      420,
      402,
      390,
      394,
      395,
      405,
      405,
      415,
      426,
      426,
      436,
      435,
      443,
      446,
      446,
      446,
      446,
      445,
      444,
      443,
      443,
      443,
      456,
      456,
      457,
      429,
      423,
      414,
      407,
      399,
      395,
      391,
      370,
      358,
      353,
      352,
      350,
      351,
      352,
      351,
      346,
      343,
      333,
      327,
      320,
      323,
      317,
      320,
      314,
      288,
      270,
      268,
      260,
      256,
      250,
      252,
      249,
      251,
      246,
      249,
      245,
      246,
      231,
      238,
      241,
      242,
      235,
      228,
      216,
      205,
      192,
      195,
      185,
      190,
      188,
      189,
      187,
      179,
      151,
      138
    ],
    "swim:timestamps": [
      1785525573,
      1785525585,
      1785525645,
      1785525705,
      1785525765,
      1785525825,
      1785525885,
      1785525945,
      1785526005,
      1785526065,
      1785526125,
      1785526179,
      1785526185,
      1785526239,
      1785526245,
      1785526299,
      1785526306,
      1785526359,
      1785526366,
      1785526419,
      1785526426,
      1785526479,
      1785526539,
      1785526546,
      1785526599,
      1785526606,
      1785526666,
      1785526719,
      1785526726,
      1785526779,
      1785526786,
      1785526846,
      1785526900,
      1785526960,
      1785526967,
      1785527027,
      1785527080,
      1785527087,
      1785527147,
      1785527207,
      1785527267,
      1785527320,
      1785527380,
      1785527440,
      1785527500,
      1785527561,
      1785527621,
      1785527681,
      1785527741,
      1785527801,
      1785527814,
      1785527861,
      1785527874,
      1785527921,
      1785527934,
      1785527981,
      1785527994,
      1785528041,
      1785528054,
      1785528101,
      1785528114,
      1785528161,
      1785528175,
      1785528221,
      1785528234,
      1785528282,
      1785528349,
      1785528402,
      1785528414,
      1785528462,
      1785528475,
      1785528522,
      1785528534,
      1785528582,
      1785528594,
      1785528642,
      1785528654,
      1785528702,
      1785528714,
      1785528762,
      1785528769,
      1785528822,
      1785528829,
      1785528882,
      1785528894,
      1785528942,
      1785528950,
      1785529003,
      1785529009,
      1785529063,
      1785529075,
      1785529129,
      1785529189,
      1785529249
    ],
    "wof:geomhash": "d702780b49c64d4880483479c4e6efd9",
    "wof:id": 2032048165,
    "wof:repo": "sfomuseum-data-flights-2026-07"
  },
  "bbox": [
    -122.33333333333333,
    33.92027777777778,
    -118.45,
    37.6
  ],
  "geometry": {"coordinates":[[-118.45,33.95],[-118.45055555555555,33.94499999999999],[-118.51888888888888,33.941111111111105],[-118.60388888888889,33.93472222222222],[-118.69472222222223,33.92777777777778],[-118.79027777777777,33.92027777777778],[-118.88777777777779,33.92361111111111],[-118.99111111111111,33.95333333333333],[-119.08611111111111,34.013888888888886],[-119.1725,34.08972222222222],[-119.26277777777777,34.16833333333333],[-119.35638888888889,34.250277777777775],[-119.35638888888889,34.25083333333333],[-119.455,34.33388888888889],[-119.455,34.33555555555556],[-119.54638888888888,34.414722222222224],[-119.54694444444445,34.413888888888884],[-119.63805555555557,34.49166666666667],[-119.63972222222223,34.49305555555556],[-119.7388888888889,34.57777777777778],[-119.73583333333333,34.57527777777778],[-119.83638888888889,34.66083333333333],[-119.93666666666667,34.74611111111111],[-119.93472222222222,34.74444444444445],[-120.03916666666666,34.83277777777778],[-120.0375,34.83111111111111],[-120.14027777777778,34.918055555555554],[-120.25111111111111,35.01138888888889],[-120.2461111111111,35.00694444444444],[-120.33611111111111,35.0825],[-120.35055555555554,35.09444444444445],[-120.45444444444445,35.18138888888889],[-120.55111111111111,35.261944444444445],[-120.65666666666667,35.35],[-120.68583333333333,35.37388888888889],[-120.79222222222222,35.46194444444445],[-120.86583333333333,35.535],[-120.88805555555557,35.55888888888889],[-121.01138888888889,35.632777777777775],[-121.14916666666667,35.6375],[-121.28611111111111,35.659444444444446],[-121.34166666666667,35.74166666666667],[-121.39250000000001,35.84805555555556],[-121.44083333333333,35.95027777777778],[-121.53416666666666,36.02472222222222],[-121.66555555555556,36.04388888888889],[-121.72777777777777,36.12861111111111],[-121.72083333333333,36.2275],[-121.71333333333334,36.324444444444445],[-121.70527777777778,36.42305555555555],[-121.7,36.46666666666667],[-121.7175,36.518055555555556],[-121.73333333333333,36.55],[-121.80111111111111,36.58583333333333],[-121.83333333333333,36.6],[-121.91111111111111,36.62694444444445],[-121.95,36.63333333333333],[-122.01388888888889,36.66555555555556],[-122.05,36.68333333333333],[-122.1061111111111,36.71222222222222],[-122.11666666666666,36.733333333333334],[-122.11999999999999,36.7975],[-122.1,36.81666666666667],[-122.05,36.85666666666667],[-122.01666666666667,36.86666666666667],[-121.97611111111111,36.90083333333333],[-121.93333333333334,36.983333333333334],[-121.98333333333333,37.019444444444446],[-122,37.03333333333333],[-122.04583333333333,37.066944444444445],[-122.06666666666666,37.083333333333336],[-122.10555555555555,37.11666666666667],[-122.13333333333334,37.13333333333333],[-122.16583333333334,37.16638888888889],[-122.18333333333334,37.18333333333333],[-122.22472222222223,37.215],[-122.25,37.233333333333334],[-122.25861111111111,37.272777777777776],[-122.25,37.3],[-122.22111111111111,37.328611111111115],[-122.2,37.333333333333336],[-122.16833333333334,37.358333333333334],[-122.13333333333334,37.36666666666667],[-122.11388888888888,37.411944444444444],[-122.1,37.43333333333333],[-122.08666666666666,37.46027777777778],[-122.1,37.46666666666667],[-122.12138888888889,37.50555555555555],[-122.13333333333334,37.516666666666666],[-122.18055555555556,37.536944444444444],[-122.2,37.55],[-122.25,37.56666666666667],[-122.3,37.583333333333336],[-122.33333333333333,37.6]],"type":"LineString"}
}
