{
  "id": 2031947113,
  "type": "Feature",
  "properties": {
    "geom:area": 0,
    "geom:bbox": "-119.740556,44.697778,-116.738889,48.480278",
    "geom:latitude": 46.63689412362729,
    "geom:longitude": -118.29780370607705,
    "src:alt_label": "swim-path",
    "src:geom": "swim",
    "swim:altitudes": [
      "360C",
      "360C",
      "360",
      "368C",
      "370C",
      "370C",
      "370C",
      "370C",
      "370C",
      "370C",
      "370C",
      "370C",
      "370C",
      "370C",
      "370C",
      "370C",
      "370C",
      "370C",
      "370C",
      "370C"
    ],
    "swim:geom": "path",
    "swim:speeds": [
      515,
      514,
      512,
      513,
      511,
      505,
      503,
      501,
      500,
      499,
      499,
      499,
      498,
      497,
      497,
      497,
      497,
      496,
      496,
      495
    ],
    "swim:timestamps": [
      1784826065,
      1784826186,
      1784826306,
      1784826366,
      1784826546,
      1784826666,
      1784826726,
      1784826786,
      1784826846,
      1784826967,
      1784827027,
      1784827087,
      1784827207,
      1784827267,
      1784827387,
      1784827628,
      1784827688,
      1784827748,
      1784827868,
      1784827928
    ],
    "wof:geomhash": "b9c9f156b8818010498506264278a52e",
    "wof:id": 2031947113,
    "wof:repo": "sfomuseum-data-flights-2026-07"
  },
  "bbox": [
    -119.74055555555556,
    44.69777777777777,
    -116.7388888888889,
    48.48027777777778
  ],
  "geometry": {"coordinates":[[-119.74055555555556,44.69777777777777],[-119.565,44.94916666666666],[-119.3875,45.2],[-119.29694444444445,45.32777777777778],[-119.02444444444444,45.7075],[-118.84333333333333,45.95611111111111],[-118.75305555555556,46.07944444444445],[-118.66222222222223,46.20277777777778],[-118.56972222222223,46.3275],[-118.38611111111112,46.57361111111111],[-118.29444444444444,46.69555555555555],[-118.20166666666667,46.81861111111112],[-118.01555555555555,47.06333333333333],[-117.9213888888889,47.18527777777778],[-117.7325,47.42916666666667],[-117.30388888888889,47.90277777777778],[-117.1913888888889,48.019444444444446],[-117.0786111111111,48.135],[-116.85305555555556,48.36472222222223],[-116.7388888888889,48.48027777777778]],"type":"LineString"}
}
