{
  "id": 2031947063,
  "type": "Feature",
  "properties": {
    "geom:area": 0,
    "geom:bbox": "-112.947222,39.369444,-75.242778,41.629167",
    "geom:latitude": 40.87610991443698,
    "geom:longitude": -94.04928984209953,
    "src:alt_label": "swim-path",
    "src:geom": "swim",
    "swim:altitudes": [
      "318",
      "325",
      "330C",
      "330C",
      "330C",
      "330C",
      "330C",
      "330C",
      "330C",
      "330C",
      "330C",
      "330C",
      "330C",
      "330C",
      "330C",
      "330C",
      "330C",
      "330C",
      "330C",
      "330C",
      "330C",
      "330C",
      "330C",
      "330C",
      "330C",
      "330C",
      "330C",
      "330C",
      "330C",
      "330C",
      "330C",
      "330C",
      "330C",
      "330C",
      "330C",
      "330C",
      "330C",
      "330C",
      "330C",
      "330C",
      "330C",
      "330C",
      "330C",
      "330C",
      "330C",
      "330C",
      "330C",
      "330C",
      "330C",
      "330C",
      "330C",
      "330C",
      "330C",
      "330C",
      "330C",
      "330C",
      "330C",
      "330C",
      "330C",
      "330C",
      "330C",
      "330C",
      "330C",
      "330C",
      "330C",
      "330C",
      "330C",
      "330C",
      "330C",
      "330C",
      "330C",
      "330C",
      "330C",
      "330C",
      "330C",
      "330C",
      "330C",
      "330C",
      "330C",
      "330C",
      "330C",
      "330C",
      "330C",
      "330C",
      "330C",
      "330C",
      "330C",
      "330C",
      "330C",
      "330C",
      "330C",
      "330C",
      "330C",
      "330C",
      "330C",
      "330C",
      "330C",
      "330C",
      "330C",
      "330C",
      "330C",
      "330C",
      "330C",
      "330C",
      "330C",
      "330C",
      "330C",
      "330C",
      "330C",
      "330C",
      "330C",
      "330C",
      "330C",
      "330C",
      "330C",
      "330C",
      "330C",
      "330C",
      "330C",
      "330C",
      "330C",
      "330C",
      "330C",
      "330C",
      "330C",
      "330C",
      "330C",
      "330C",
      "330C",
      "330C",
      "330C",
      "330C",
      "330C",
      "330C",
      "330C",
      "330C",
      "330C",
      "330C",
      "330C",
      "330C",
      "330C",
      "330C",
      "330C",
      "330C",
      "330C",
      "330C",
      "330C",
      "330",
      "346",
      "350C",
      "350C",
      "350C",
      "350C",
      "350C",
      "350C",
      "350C",
      "350C",
      "350C",
      "350C",
      "350C",
      "350C",
      "350C",
      "350C",
      "350C",
      "350C",
      "350C",
      "350C",
      "350C",
      "350C",
      "350C",
      "350C",
      "350C",
      "350C",
      "350C",
      "350C",
      "350C",
      "350C",
      "350C",
      "350C",
      "350C",
      "350C",
      "350C",
      "350C",
      "350C",
      "350C",
      "350",
      "350",
      "349",
      "341",
      "340",
      "297",
      "278",
      "274",
      "254",
      "250",
      "250",
      "243",
      "241",
      "233",
      "231",
      "223",
      "221",
      "211",
      "201",
      "194",
      "184",
      "181",
      "176",
      "160",
      "139",
      "120",
      "113",
      "105",
      "099",
      "095",
      "085",
      "071",
      "065",
      "060",
      "059",
      "047",
      "041",
      "040",
      "038",
      "033",
      "030",
      "030",
      "029",
      "026",
      "020",
      "017",
      "010",
      "008",
      "002",
      "80"
    ],
    "swim:geom": "path",
    "swim:speeds": [
      504,
      509,
      509,
      508,
      508,
      509,
      509,
      509,
      509,
      509,
      509,
      509,
      509,
      509,
      510,
      510,
      510,
      512,
      512,
      511,
      510,
      510,
      509,
      508,
      507,
      508,
      507,
      508,
      508,
      508,
      510,
      511,
      511,
      511,
      509,
      507,
      508,
      508,
      509,
      511,
      510,
      508,
      507,
      507,
      508,
      508,
      509,
      508,
      506,
      505,
      504,
      504,
      505,
      506,
      507,
      508,
      507,
      506,
      504,
      502,
      501,
      500,
      500,
      500,
      500,
      501,
      503,
      504,
      507,
      505,
      507,
      505,
      507,
      505,
      507,
      504,
      506,
      504,
      506,
      506,
      509,
      509,
      511,
      512,
      512,
      512,
      512,
      512,
      510,
      509,
      508,
      507,
      506,
      506,
      506,
      506,
      506,
      508,
      509,
      511,
      512,
      514,
      515,
      516,
      517,
      517,
      517,
      518,
      518,
      518,
      518,
      518,
      517,
      518,
      518,
      518,
      519,
      520,
      521,
      523,
      524,
      525,
      526,
      526,
      526,
      525,
      525,
      525,
      525,
      525,
      525,
      525,
      525,
      526,
      525,
      528,
      526,
      530,
      532,
      533,
      534,
      534,
      533,
      532,
      532,
      534,
      535,
      536,
      536,
      534,
      533,
      533,
      532,
      532,
      532,
      534,
      531,
      532,
      533,
      531,
      532,
      533,
      534,
      537,
      535,
      532,
      533,
      531,
      533,
      531,
      532,
      531,
      533,
      534,
      535,
      536,
      537,
      537,
      538,
      535,
      535,
      534,
      534,
      533,
      531,
      531,
      532,
      531,
      531,
      531,
      531,
      517,
      514,
      500,
      489,
      489,
      486,
      484,
      473,
      472,
      466,
      465,
      458,
      448,
      444,
      440,
      435,
      430,
      405,
      399,
      385,
      374,
      360,
      314,
      302,
      270,
      268,
      266,
      242,
      232,
      235,
      230,
      229,
      227,
      227,
      191,
      188,
      189,
      193,
      190,
      186,
      169,
      157,
      161,
      107
    ],
    "swim:timestamps": [
      1784827412,
      1784827472,
      1784827532,
      1784827592,
      1784827832,
      1784827855,
      1784827915,
      1784827975,
      1784828012,
      1784828072,
      1784828095,
      1784828132,
      1784828156,
      1784828193,
      1784828216,
      1784828253,
      1784828313,
      1784828396,
      1784828433,
      1784828456,
      1784828516,
      1784828553,
      1784828588,
      1784828613,
      1784828673,
      1784828708,
      1784828733,
      1784828768,
      1784828828,
      1784828853,
      1784828949,
      1784828974,
      1784829034,
      1784829069,
      1784829309,
      1784829501,
      1784829561,
      1784829622,
      1784829682,
      1784829742,
      1784829802,
      1784829922,
      1784829982,
      1784830042,
      1784830102,
      1784830162,
      1784830222,
      1784830282,
      1784830342,
      1784830403,
      1784830523,
      1784830583,
      1784830643,
      1784830763,
      1784830823,
      1784830883,
      1784830943,
      1784831003,
      1784831063,
      1784831124,
      1784831184,
      1784831244,
      1784831304,
      1784831364,
      1784831424,
      1784831484,
      1784831544,
      1784831604,
      1784831619,
      1784831664,
      1784831679,
      1784831724,
      1784831739,
      1784831784,
      1784831799,
      1784831845,
      1784831859,
      1784831905,
      1784831919,
      1784831979,
      1784832025,
      1784832039,
      1784832085,
      1784832099,
      1784832145,
      1784832205,
      1784832220,
      1784832280,
      1784832340,
      1784832400,
      1784832460,
      1784832520,
      1784832580,
      1784832640,
      1784832700,
      1784832760,
      1784832820,
      1784832941,
      1784833001,
      1784833061,
      1784833121,
      1784833181,
      1784833241,
      1784833301,
      1784833392,
      1784833421,
      1784833452,
      1784833541,
      1784833572,
      1784833601,
      1784833632,
      1784833662,
      1784833722,
      1784833753,
      1784833782,
      1784833813,
      1784833842,
      1784833873,
      1784833902,
      1784833962,
      1784833993,
      1784834053,
      1784834113,
      1784834142,
      1784834173,
      1784834202,
      1784834233,
      1784834262,
      1784834294,
      1784834322,
      1784834354,
      1784834414,
      1784834443,
      1784834471,
      1784834503,
      1784834531,
      1784834563,
      1784834591,
      1784834651,
      1784834711,
      1784834771,
      1784834892,
      1784834952,
      1784835012,
      1784835072,
      1784835192,
      1784835252,
      1784835372,
      1784835493,
      1784835613,
      1784835673,
      1784835733,
      1784835793,
      1784835853,
      1784835913,
      1784835965,
      1784836034,
      1784836094,
      1784836146,
      1784836214,
      1784836274,
      1784836334,
      1784836386,
      1784836514,
      1784836574,
      1784836626,
      1784836635,
      1784836686,
      1784836695,
      1784836747,
      1784836755,
      1784836875,
      1784837107,
      1784837167,
      1784837227,
      1784837287,
      1784837347,
      1784837407,
      1784837467,
      1784837708,
      1784837768,
      1784837888,
      1784837948,
      1784838008,
      1784838068,
      1784838140,
      1784838189,
      1784838260,
      1784838309,
      1784838321,
      1784838441,
      1784838489,
      1784838501,
      1784838549,
      1784838609,
      1784838621,
      1784838669,
      1784838681,
      1784838729,
      1784838741,
      1784838789,
      1784838801,
      1784838861,
      1784838921,
      1784838970,
      1784839030,
      1784839042,
      1784839090,
      1784839162,
      1784839222,
      1784839282,
      1784839299,
      1784839342,
      1784839402,
      1784839418,
      1784839480,
      1784839522,
      1784839540,
      1784839582,
      1784839600,
      1784839643,
      1784839666,
      1784839703,
      1784839726,
      1784839763,
      1784839823,
      1784839840,
      1784839883,
      1784839900,
      1784839943,
      1784839960,
      1784840003,
      1784840022,
      1784840063,
      1784840123
    ],
    "wof:geomhash": "f79e8c3d11c656d84877d1ded2079b89",
    "wof:id": 2031947063,
    "wof:repo": "sfomuseum-data-flights-2026-07"
  },
  "bbox": [
    -112.94722222222222,
    39.36944444444445,
    -75.24277777777777,
    41.62916666666667
  ],
  "geometry": {"coordinates":[[-112.94722222222222,39.36944444444445],[-112.77472222222222,39.40861111111111],[-112.59777777777778,39.44888888888889],[-112.4225,39.48833333333334],[-111.72583333333334,39.64138888888889],[-111.65611111111112,39.656388888888884],[-111.48,39.69416666666666],[-111.30138888888888,39.73222222222223],[-111.19527777777778,39.75472222222222],[-111.01888888888888,39.79194444444444],[-110.94972222222222,39.80638888888888],[-110.84194444444444,39.828611111111115],[-110.77055555555556,39.843333333333334],[-110.66416666666667,39.86527777777778],[-110.5925,39.88],[-110.485,39.90222222222222],[-110.30694444444444,39.93833333333333],[-110.05611111111111,39.98888888888889],[-109.94694444444445,40.00833333333333],[-109.87555555555555,40.01972222222222],[-109.69333333333334,40.04833333333333],[-109.58305555555555,40.065555555555555],[-109.51416666666667,40.07611111111112],[-109.40472222222223,40.09305555555556],[-109.2238888888889,40.120555555555555],[-109.12305555555555,40.13583333333333],[-109.05111111111111,40.14666666666667],[-108.93361111111112,40.16416666666667],[-108.78666666666666,40.18583333333333],[-108.68777777777778,40.20055555555556],[-108.4213888888889,40.23916666666667],[-108.3461111111111,40.250277777777775],[-108.16166666666668,40.276666666666664],[-108.02472222222222,40.295833333333334],[-107.30416666666666,40.39472222222222],[-106.72083333333333,40.44888888888889],[-106.53611111111111,40.46222222222222],[-106.36944444444444,40.47416666666667],[-106.18166666666667,40.487500000000004],[-105.96611111111112,40.50555555555555],[-105.78444444444445,40.535555555555554],[-105.42194444444445,40.593333333333334],[-105.24,40.62222222222222],[-105.06,40.650555555555556],[-104.87583333333333,40.678888888888885],[-104.72944444444444,40.70111111111111],[-104.545,40.72916666666667],[-104.36222222222221,40.75666666666667],[-104.18083333333334,40.78361111111111],[-104.00222222222222,40.80972222222222],[-103.63722222222223,40.86222222222222],[-103.455,40.8875],[-103.27194444444444,40.913333333333334],[-102.87916666666666,40.977222222222224],[-102.69805555555556,41.01277777777778],[-102.5175,41.0475],[-102.33416666666666,41.08277777777778],[-102.15555555555557,41.11638888888889],[-101.9775,41.14944444444444],[-101.7975,41.183055555555555],[-101.61694444444444,41.21638888888889],[-101.43833333333333,41.24916666666667],[-101.25916666666667,41.28138888888889],[-101.11305555555555,41.3075],[-100.93416666666667,41.33916666666667],[-100.75083333333333,41.37138888888889],[-100.56611111111111,41.40333333333333],[-100.38611111111112,41.43444444444444],[-100.32527777777777,41.44472222222222],[-100.20138888888889,41.465833333333336],[-100.15333333333334,41.473888888888894],[-100.01722222222222,41.496944444444445],[-99.9738888888889,41.50388888888889],[-99.83388888888888,41.52194444444444],[-99.78916666666666,41.528055555555554],[-99.65166666666667,41.54611111111111],[-99.59944444444444,41.55305555555555],[-99.46583333333334,41.57],[-99.41805555555555,41.57611111111112],[-99.23166666666667,41.60027777777778],[-99.09138888888889,41.60944444444445],[-99.0411111111111,41.61027777777778],[-98.90111111111112,41.61277777777778],[-98.85138888888888,41.61361111111111],[-98.71277777777777,41.61555555555556],[-98.51944444444445,41.61805555555556],[-98.47222222222223,41.618611111111115],[-98.28305555555555,41.62111111111111],[-98.0936111111111,41.623333333333335],[-97.90444444444445,41.625277777777775],[-97.71694444444445,41.626666666666665],[-97.52833333333334,41.62777777777778],[-97.3425,41.62861111111111],[-97.155,41.62916666666667],[-96.96722222222222,41.62916666666667],[-96.77777777777777,41.62916666666667],[-96.59027777777777,41.62861111111111],[-96.1888888888889,41.626666666666665],[-96.00111111111111,41.625277777777775],[-95.81166666666667,41.623333333333335],[-95.62055555555555,41.62166666666667],[-95.44083333333333,41.61944444444445],[-95.2475,41.61666666666667],[-95.05805555555555,41.61361111111111],[-94.77638888888889,41.60888888888889],[-94.67333333333333,41.606944444444444],[-94.59055555555555,41.605000000000004],[-94.28861111111111,41.598333333333336],[-94.20305555555557,41.59638888888889],[-94.08472222222221,41.593611111111116],[-94.00861111111111,41.59166666666667],[-93.89361111111111,41.58888888888889],[-93.70138888888889,41.583333333333336],[-93.62666666666667,41.58111111111111],[-93.50861111111111,41.57777777777778],[-93.4325,41.57555555555556],[-93.31583333333333,41.57194444444445],[-93.24111111111111,41.56944444444445],[-93.12194444444444,41.565555555555555],[-92.92611111111111,41.55888888888889],[-92.85111111111111,41.55611111111111],[-92.6713888888889,41.54972222222222],[-92.47527777777778,41.54222222222222],[-92.34083333333332,41.536944444444444],[-92.28277777777778,41.53444444444444],[-92.14750000000001,41.528888888888886],[-92.09166666666667,41.526666666666664],[-91.99194444444444,41.52194444444444],[-91.8963888888889,41.518055555555556],[-91.79722222222222,41.51305555555555],[-91.70277777777778,41.50972222222222],[-91.51138888888889,41.50083333333333],[-91.3938888888889,41.49444444444445],[-91.31555555555555,41.49111111111111],[-91.19916666666667,41.484722222222224],[-91.11666666666666,41.48111111111111],[-91.00472222222223,41.474722222222226],[-90.91916666666667,41.47083333333334],[-90.72472222222223,41.46055555555556],[-90.525,41.45027777777778],[-90.32777777777777,41.43888888888888],[-89.93111111111112,41.41444444444444],[-89.73611111111111,41.402499999999996],[-89.53861111111111,41.39],[-89.34277777777777,41.37722222222222],[-88.9375,41.349444444444444],[-88.73972222222223,41.33555555555556],[-88.34888888888888,41.306666666666665],[-87.96861111111112,41.277499999999996],[-87.58166666666666,41.24611111111111],[-87.38777777777779,41.230000000000004],[-87.15277777777779,41.21027777777778],[-86.96000000000001,41.19361111111111],[-86.76638888888888,41.17666666666666],[-86.59972222222221,41.16166666666666],[-86.4063888888889,41.14666666666667],[-86.20916666666668,41.132222222222225],[-86.01694444444445,41.11694444444444],[-85.82722222222222,41.10166666666667],[-85.63138888888888,41.08555555555556],[-85.43861111111111,41.06944444444445],[-85.2461111111111,41.05305555555555],[-85.05305555555556,41.03638888888889],[-84.62472222222222,40.99777777777778],[-84.42777777777778,40.97972222222222],[-84.27833333333334,40.965833333333336],[-84.24194444444444,40.96222222222222],[-84.08583333333333,40.9475],[-84.04777777777778,40.943888888888885],[-83.89277777777778,40.928888888888885],[-83.85111111111111,40.92472222222222],[-83.47027777777778,40.88666666666666],[-82.71611111111112,40.80694444444444],[-82.52527777777777,40.78611111111111],[-82.33,40.76444444444444],[-82.13722222222223,40.742222222222225],[-81.94583333333334,40.720555555555556],[-81.75111111111111,40.698055555555555],[-81.5675,40.674166666666665],[-80.79916666666666,40.58111111111111],[-80.60583333333332,40.565],[-80.21833333333333,40.54277777777778],[-80.02555555555556,40.52972222222222],[-79.83166666666666,40.518055555555556],[-79.64083333333333,40.505833333333335],[-79.41055555555556,40.49],[-79.25777777777778,40.478611111111114],[-79.02888888888889,40.46222222222222],[-78.8736111111111,40.450833333333335],[-78.8386111111111,40.44833333333333],[-78.42055555555557,40.41611111111111],[-78.26638888888888,40.40361111111111],[-78.23527777777778,40.401111111111106],[-78.08527777777778,40.388888888888886],[-77.91027777777778,40.374722222222225],[-77.8786111111111,40.37222222222222],[-77.7375,40.36055555555556],[-77.70333333333333,40.35777777777778],[-77.56666666666666,40.346111111111114],[-77.53222222222222,40.34305555555556],[-77.39861111111112,40.331388888888895],[-77.36611111111111,40.328611111111115],[-77.20083333333334,40.314166666666665],[-77.04027777777777,40.29527777777778],[-76.93555555555555,40.27111111111111],[-76.78305555555555,40.23583333333333],[-76.73666666666666,40.225],[-76.63361111111112,40.200833333333335],[-76.44638888888889,40.156666666666666],[-76.30111111111111,40.12277777777778],[-76.16972222222223,40.111666666666665],[-76.13333333333334,40.11666666666667],[-76.03111111111112,40.102222222222224],[-75.91888888888889,40.09444444444445],[-75.88333333333334,40.1],[-75.78333333333333,40.083333333333336],[-75.745,40.04083333333333],[-75.73333333333333,40.016666666666666],[-75.72666666666667,39.97138888888889],[-75.71666666666667,39.95],[-75.71027777777778,39.907222222222224],[-75.7,39.88333333333333],[-75.67166666666667,39.852222222222224],[-75.65,39.833333333333336],[-75.60249999999999,39.82333333333334],[-75.53333333333333,39.80916666666666],[-75.51666666666667,39.81666666666667],[-75.46972222222223,39.82194444444445],[-75.45,39.833333333333336],[-75.40333333333334,39.83527777777778],[-75.38333333333334,39.833333333333336],[-75.34222222222222,39.84722222222222],[-75.31666666666666,39.85],[-75.28305555555555,39.85916666666667],[-75.24277777777777,39.867222222222225]],"type":"LineString"}
}
