{
  "id": 2031967401,
  "type": "Feature",
  "properties": {
    "geom:area": 0,
    "geom:bbox": "-156.033333,19.750000,-152.300000,23.150000",
    "geom:latitude": 21.564440540528963,
    "geom:longitude": -154.29461891969575,
    "src:alt_label": "swim-path",
    "src:geom": "swim",
    "swim:altitudes": [
      "350",
      "350",
      "350",
      "350",
      "350",
      "350",
      "350",
      "350",
      "350",
      "350",
      "350",
      "350",
      "350",
      "350",
      "350",
      "350",
      "350",
      "350",
      "350",
      "350",
      "350T",
      "350T",
      "349T",
      "322T",
      "297T",
      "275T",
      "252T",
      "230T",
      "209T",
      "189T",
      "150T",
      "131T",
      "103T",
      "096T",
      "083T",
      "069T",
      "056T",
      "047T",
      "038T",
      "026T",
      "017T",
      "009T",
      "002"
    ],
    "swim:geom": "path",
    "swim:speeds": [
      450,
      450,
      450,
      450,
      450,
      450,
      450,
      450,
      450,
      450,
      450,
      460,
      460,
      460,
      460,
      460,
      460,
      460,
      460,
      460,
      460,
      460,
      460,
      460,
      460,
      450,
      440,
      430,
      410,
      400,
      380,
      370,
      340,
      300,
      290,
      280,
      280,
      260,
      240,
      210,
      170,
      150,
      150
    ],
    "swim:timestamps": [
      1785005311,
      1785005436,
      1785005497,
      1785005557,
      1785005617,
      1785005677,
      1785005737,
      1785005798,
      1785005858,
      1785005918,
      1785005978,
      1785006038,
      1785006098,
      1785006159,
      1785006218,
      1785006279,
      1785006339,
      1785006399,
      1785006459,
      1785006519,
      1785006580,
      1785006639,
      1785006700,
      1785006760,
      1785006820,
      1785006880,
      1785006941,
      1785007001,
      1785007061,
      1785007121,
      1785007241,
      1785007301,
      1785007422,
      1785007482,
      1785007542,
      1785007602,
      1785007662,
      1785007722,
      1785007782,
      1785007843,
      1785007903,
      1785007963,
      1785008016
    ],
    "wof:geomhash": "dc3b06ecd45f7d366c43a56019d48aaf",
    "wof:id": 2031967401,
    "wof:repo": "sfomuseum-data-flights-2026-07"
  },
  "bbox": [
    -156.03333333333333,
    19.75,
    -152.3,
    23.15
  ],
  "geometry": {"coordinates":[[-152.3,23.15],[-152.55,23.033333333333335],[-152.65,22.966666666666665],[-152.78333333333333,22.916666666666668],[-152.9,22.833333333333332],[-153,22.75],[-153.08333333333334,22.666666666666668],[-153.18333333333334,22.583333333333332],[-153.28333333333333,22.5],[-153.38333333333333,22.4],[-153.48333333333332,22.316666666666666],[-153.58333333333334,22.233333333333334],[-153.68333333333334,22.15],[-153.78333333333333,22.05],[-153.88333333333333,21.966666666666665],[-153.98333333333332,21.883333333333333],[-154.08333333333334,21.783333333333335],[-154.18333333333334,21.7],[-154.28333333333333,21.616666666666667],[-154.38333333333333,21.516666666666666],[-154.48333333333332,21.433333333333334],[-154.56666666666666,21.35],[-154.66666666666666,21.25],[-154.76666666666668,21.166666666666668],[-154.86666666666667,21.083333333333332],[-154.96666666666667,21],[-155.05,20.9],[-155.15,20.816666666666666],[-155.23333333333332,20.75],[-155.31666666666666,20.666666666666668],[-155.48333333333332,20.516666666666666],[-155.56666666666666,20.433333333333334],[-155.71666666666667,20.3],[-155.78333333333333,20.25],[-155.83333333333334,20.183333333333334],[-155.88333333333333,20.116666666666667],[-155.93333333333334,20.05],[-155.96666666666667,19.983333333333334],[-156.01666666666668,19.933333333333334],[-156.01666666666668,19.883333333333333],[-156.03333333333333,19.833333333333332],[-156.03333333333333,19.783333333333335],[-156.03333333333333,19.75]],"type":"LineString"}
}
