{
  "id": 2032054655,
  "type": "Feature",
  "properties": {
    "geom:area": 0,
    "geom:bbox": "-122.526944,37.633333,-114.756111,48.739722",
    "geom:latitude": 43.67331954484857,
    "geom:longitude": -119.55062509492207,
    "src:alt_label": "swim-path",
    "src:geom": "swim",
    "swim:altitudes": [
      "016",
      "025",
      "031",
      "036",
      "044",
      "062",
      "079",
      "097",
      "107",
      "114",
      "122",
      "134",
      "145",
      "157",
      "167",
      "176",
      "188",
      "198",
      "207",
      "216",
      "226",
      "234",
      "241",
      "249",
      "257",
      "265",
      "272",
      "278",
      "285",
      "293",
      "298",
      "303",
      "311",
      "319C",
      "320C",
      "320C",
      "320C",
      "320C",
      "320C",
      "320C",
      "320C",
      "320C",
      "320C",
      "320C",
      "320C",
      "320C",
      "320C",
      "320C",
      "320C",
      "320C",
      "320C",
      "320C",
      "320C",
      "320C",
      "320C",
      "320C",
      "320C",
      "320C",
      "320C",
      "320C",
      "320C",
      "320C",
      "320C",
      "320C",
      "320C",
      "320C",
      "320C",
      "320C",
      "320C",
      "320C",
      "320C",
      "316",
      "316",
      "310C",
      "310C",
      "310C",
      "310C",
      "310C",
      "310C",
      "310C",
      "310C",
      "310C",
      "310C",
      "310C",
      "310C",
      "310C",
      "310C",
      "310C",
      "310C",
      "310C",
      "310C",
      "310C",
      "310C",
      "310C",
      "310C",
      "310C",
      "310C",
      "310C",
      "310C",
      "310C",
      "310C",
      "310C",
      "310C",
      "310C",
      "313",
      "321",
      "322",
      "329C",
      "330C",
      "330C",
      "330C",
      "330C",
      "330C",
      "330C",
      "330C",
      "330C",
      "330C",
      "330C",
      "330C",
      "330C",
      "330C",
      "330C",
      "330C",
      "330C",
      "330C",
      "330C",
      "330C",
      "330C",
      "330C",
      "330C",
      "330C",
      "330C",
      "330C"
    ],
    "swim:geom": "path",
    "swim:speeds": [
      167,
      178,
      190,
      211,
      259,
      281,
      294,
      297,
      326,
      362,
      387,
      405,
      411,
      416,
      425,
      434,
      441,
      444,
      454,
      459,
      463,
      467,
      472,
      480,
      485,
      494,
      510,
      516,
      521,
      523,
      528,
      533,
      537,
      537,
      536,
      536,
      535,
      535,
      535,
      535,
      534,
      533,
      533,
      532,
      531,
      532,
      531,
      532,
      532,
      532,
      531,
      531,
      532,
      532,
      532,
      532,
      532,
      532,
      532,
      532,
      532,
      532,
      531,
      531,
      531,
      531,
      532,
      532,
      533,
      533,
      542,
      545,
      545,
      546,
      546,
      546,
      546,
      546,
      545,
      544,
      544,
      542,
      542,
      541,
      541,
      541,
      540,
      540,
      540,
      540,
      539,
      539,
      538,
      538,
      538,
      536,
      538,
      533,
      538,
      536,
      538,
      536,
      538,
      537,
      537,
      539,
      537,
      538,
      538,
      536,
      537,
      535,
      537,
      531,
      531,
      529,
      530,
      530,
      530,
      529,
      530,
      528,
      529,
      529,
      529,
      528,
      528,
      528,
      529,
      529,
      528,
      528,
      528
    ],
    "swim:timestamps": [
      1785536071,
      1785536117,
      1785536136,
      1785536177,
      1785536237,
      1785536297,
      1785536357,
      1785536417,
      1785536477,
      1785536537,
      1785536597,
      1785536657,
      1785536717,
      1785536778,
      1785536838,
      1785536898,
      1785536958,
      1785537018,
      1785537078,
      1785537138,
      1785537198,
      1785537258,
      1785537318,
      1785537378,
      1785537439,
      1785537498,
      1785537559,
      1785537619,
      1785537678,
      1785537739,
      1785537798,
      1785537859,
      1785537919,
      1785537979,
      1785538039,
      1785538099,
      1785538160,
      1785538219,
      1785538280,
      1785538340,
      1785538399,
      1785538459,
      1785538519,
      1785538580,
      1785538588,
      1785538640,
      1785538648,
      1785538700,
      1785538760,
      1785538820,
      1785538828,
      1785538888,
      1785538948,
      1785539008,
      1785539060,
      1785539068,
      1785539120,
      1785539128,
      1785539180,
      1785539188,
      1785539240,
      1785539248,
      1785539300,
      1785539309,
      1785539361,
      1785539369,
      1785539421,
      1785539429,
      1785539481,
      1785539489,
      1785539549,
      1785539601,
      1785539609,
      1785539661,
      1785539669,
      1785539721,
      1785539729,
      1785539781,
      1785539789,
      1785539841,
      1785539849,
      1785539901,
      1785539909,
      1785539961,
      1785539969,
      1785540021,
      1785540081,
      1785540090,
      1785540142,
      1785540150,
      1785540210,
      1785540270,
      1785540322,
      1785540330,
      1785540382,
      1785540390,
      1785540442,
      1785540450,
      1785540502,
      1785540510,
      1785540562,
      1785540570,
      1785540622,
      1785540630,
      1785540690,
      1785540742,
      1785540751,
      1785540802,
      1785540811,
      1785540862,
      1785540871,
      1785540922,
      1785540931,
      1785540983,
      1785540991,
      1785541043,
      1785541051,
      1785541103,
      1785541111,
      1785541163,
      1785541171,
      1785541223,
      1785541231,
      1785541283,
      1785541291,
      1785541343,
      1785541351,
      1785541403,
      1785541411,
      1785541471,
      1785541532,
      1785541592,
      1785541652
    ],
    "wof:geomhash": "514d4f1640d52cae92ac25fa11e7b877",
    "wof:id": 2032054655,
    "wof:repo": "sfomuseum-data-flights-2026-07"
  },
  "bbox": [
    -122.52694444444444,
    37.63333333333333,
    -114.75611111111111,
    48.73972222222222
  ],
  "geometry": {"coordinates":[[-122.41666666666667,37.63333333333333],[-122.4475,37.65083333333333],[-122.46666666666667,37.666666666666664],[-122.50916666666667,37.67638888888889],[-122.52694444444444,37.73972222222222],[-122.50694444444444,37.81166666666666],[-122.42222222222223,37.85722222222223],[-122.37472222222222,37.93138888888889],[-122.3236111111111,38.01083333333333],[-122.26833333333333,38.097500000000004],[-122.20583333333333,38.19361111111111],[-122.1413888888889,38.29277777777778],[-122.10555555555555,38.397777777777776],[-122.12583333333333,38.51555555555556],[-122.13361111111112,38.635],[-122.14166666666668,38.75472222222222],[-122.15027777777779,38.88055555555555],[-122.15916666666668,39.005],[-122.16777777777779,39.13138888888889],[-122.17694444444444,39.26111111111111],[-122.18583333333333,39.38944444444444],[-122.19472222222223,39.51277777777778],[-122.20194444444445,39.644444444444446],[-122.21361111111112,39.78],[-122.22305555555556,39.91361111111111],[-122.23166666666667,40.077222222222225],[-122.18194444444445,40.20583333333334],[-122.11333333333333,40.338055555555556],[-122.04277777777777,40.473055555555554],[-121.97194444444445,40.60916666666667],[-121.90083333333334,40.745555555555555],[-121.82833333333333,40.88333333333333],[-121.75416666666666,41.02361111111111],[-121.67861111111111,41.16638888888889],[-121.60583333333332,41.30277777777778],[-121.5325,41.44],[-121.4588888888889,41.577222222222225],[-121.38472222222222,41.714444444444446],[-121.31,41.85166666666667],[-121.23416666666667,41.990833333333335],[-121.16250000000001,42.121944444444445],[-121.08777777777777,42.257777777777775],[-121.0111111111111,42.39611111111111],[-120.93555555555555,42.532222222222224],[-120.92166666666667,42.55555555555555],[-120.86055555555555,42.666666666666664],[-120.8475,42.69277777777778],[-120.78388888888888,42.80361111111111],[-120.7075,42.939166666666665],[-120.62972222222221,43.07666666666667],[-120.61611111111111,43.102222222222224],[-120.5375,43.23833333333334],[-120.46083333333334,43.3725],[-120.38166666666666,43.51],[-120.31861111111111,43.61888888888889],[-120.3025,43.64694444444444],[-120.23972222222223,43.755],[-120.22361111111111,43.782777777777774],[-120.16027777777778,43.891666666666666],[-120.14444444444445,43.91833333333333],[-120.08083333333333,44.02722222222222],[-120.065,44.053888888888885],[-120,44.16416666666667],[-119.98527777777778,44.189166666666665],[-119.92055555555557,44.29861111111111],[-119.90527777777778,44.32472222222223],[-119.83888888888889,44.43583333333333],[-119.82444444444444,44.46027777777778],[-119.75916666666667,44.56916666666667],[-119.7425,44.596944444444446],[-119.63194444444444,44.721111111111114],[-119.50055555555555,44.84027777777778],[-119.50305555555556,44.838055555555556],[-119.36833333333333,44.95944444444445],[-119.37027777777777,44.9575],[-119.2375,45.07694444444445],[-119.23972222222223,45.075],[-119.10666666666665,45.19361111111111],[-119.10666666666665,45.19361111111111],[-118.97472222222223,45.31111111111111],[-118.97472222222223,45.31111111111111],[-118.84166666666667,45.42805555555555],[-118.84166666666667,45.42805555555555],[-118.70722222222223,45.546388888888885],[-118.68138888888889,45.56916666666667],[-118.57388888888889,45.66277777777778],[-118.44722222222222,45.77305555555555],[-118.41416666666667,45.80166666666666],[-118.31194444444444,45.88972222222222],[-118.28055555555555,45.91694444444444],[-118.15305555555557,46.02638888888889],[-118.01694444444445,46.1425],[-117.90555555555557,46.23722222222222],[-117.88305555555554,46.25611111111111],[-117.76888888888888,46.35277777777778],[-117.74305555555556,46.375],[-117.63222222222221,46.4675],[-117.60638888888889,46.48972222222222],[-117.49416666666667,46.58305555555556],[-117.46861111111112,46.605000000000004],[-117.35694444444444,46.69694444444444],[-117.33111111111111,46.719722222222224],[-117.2175,46.81194444444444],[-117.19055555555556,46.83361111111111],[-117.05138888888888,46.94777777777777],[-116.93972222222223,47.03944444444444],[-116.91027777777778,47.06166666666666],[-116.79972222222221,47.153055555555554],[-116.7713888888889,47.17472222222222],[-116.66000000000001,47.26611111111111],[-116.63166666666666,47.286944444444444],[-116.52111111111111,47.37722222222222],[-116.4925,47.39888888888889],[-116.38166666666666,47.48861111111111],[-116.35749999999999,47.507777777777775],[-116.21388888888889,47.62166666666667],[-116.21722222222222,47.61888888888889],[-116.07305555555556,47.73277777777778],[-116.065,47.73916666666667],[-115.93333333333334,47.842222222222226],[-115.92027777777778,47.8525],[-115.78888888888889,47.95472222222222],[-115.77888888888889,47.962500000000006],[-115.66277777777778,48.052499999999995],[-115.63361111111112,48.07472222222223],[-115.51861111111111,48.163333333333334],[-115.49111111111111,48.18444444444444],[-115.37249999999999,48.275],[-115.34305555555555,48.297777777777775],[-115.19888888888889,48.407222222222224],[-115.05194444444444,48.51833333333333],[-114.90416666666667,48.62916666666667],[-114.75611111111111,48.73972222222222]],"type":"LineString"}
}
