{
  "id": 2032053805,
  "type": "Feature",
  "properties": {
    "geom:area": 0,
    "geom:bbox": "-122.548889,32.623889,-111.808889,37.656944",
    "geom:latitude": 34.0876455055564,
    "geom:longitude": -117.66940873527801,
    "src:alt_label": "swim-path",
    "src:geom": "swim",
    "swim:altitudes": [
      "009",
      "023",
      "027",
      "051",
      "080",
      "107",
      "117",
      "125",
      "145",
      "152",
      "171",
      "177",
      "192",
      "198",
      "218",
      "233",
      "239",
      "254",
      "259",
      "276",
      "291",
      "305",
      "311",
      "326",
      "332",
      "349",
      "353",
      "361",
      "364",
      "371",
      "376",
      "386",
      "390C",
      "390C",
      "390C",
      "390C",
      "390C",
      "390C",
      "390C",
      "390C",
      "390C",
      "390C",
      "390C",
      "390C",
      "390C",
      "390C",
      "390C",
      "390C",
      "390C",
      "390C",
      "390C",
      "390C",
      "390C",
      "390C",
      "390C",
      "390C",
      "390C",
      "390C",
      "390C",
      "390C",
      "390C",
      "390C",
      "390C",
      "390C",
      "390C",
      "390C",
      "390C",
      "390C",
      "390C",
      "390C",
      "390C",
      "390C",
      "390C",
      "390C",
      "390",
      "390",
      "390",
      "366",
      "340",
      "307",
      "278",
      "252",
      "225",
      "218",
      "199",
      "172",
      "151",
      "134",
      "134",
      "120",
      "119",
      "105",
      "105",
      "090",
      "078",
      "065",
      "060",
      "060",
      "059",
      "049",
      "050",
      "036",
      "035",
      "024",
      "015",
      "006",
      "005",
      "020",
      "032",
      "052",
      "074",
      "086",
      "111",
      "133",
      "157",
      "186",
      "217",
      "246",
      "267",
      "270C",
      "270C",
      "270C",
      "270C",
      "270C",
      "270C",
      "270",
      "270",
      "270",
      "270",
      "270",
      "270",
      "270",
      "270",
      "270",
      "270",
      "250",
      "250",
      "250",
      "248",
      "229",
      "220",
      "216",
      "196",
      "190",
      "186",
      "177",
      "170",
      "170",
      "170",
      "165",
      "159",
      "150",
      "141",
      "136",
      "129",
      "122",
      "113",
      "107",
      "100",
      "096",
      "093",
      "090",
      "085",
      "081",
      "074",
      "073",
      "065",
      "061",
      "053",
      "049",
      "045",
      "041",
      "033",
      "029",
      "022",
      "020",
      "015",
      "013"
    ],
    "swim:geom": "path",
    "swim:speeds": [
      140,
      201,
      204,
      265,
      287,
      300,
      347,
      360,
      353,
      376,
      384,
      388,
      399,
      404,
      425,
      432,
      435,
      439,
      441,
      449,
      461,
      464,
      464,
      460,
      454,
      443,
      442,
      442,
      443,
      450,
      453,
      454,
      454,
      453,
      453,
      452,
      452,
      451,
      450,
      450,
      449,
      449,
      448,
      448,
      448,
      449,
      450,
      454,
      455,
      456,
      457,
      458,
      458,
      459,
      459,
      458,
      458,
      457,
      456,
      455,
      455,
      453,
      453,
      452,
      452,
      451,
      451,
      451,
      450,
      449,
      449,
      449,
      448,
      447,
      447,
      447,
      447,
      446,
      447,
      452,
      453,
      434,
      421,
      411,
      406,
      397,
      371,
      325,
      330,
      302,
      307,
      294,
      300,
      274,
      272,
      267,
      237,
      215,
      219,
      193,
      201,
      193,
      192,
      187,
      161,
      141,
      149,
      210,
      213,
      221,
      270,
      280,
      315,
      369,
      395,
      404,
      403,
      389,
      394,
      407,
      407,
      405,
      404,
      404,
      404,
      407,
      462,
      470,
      474,
      475,
      477,
      478,
      478,
      479,
      477,
      468,
      448,
      416,
      407,
      396,
      390,
      386,
      384,
      370,
      355,
      353,
      339,
      333,
      325,
      323,
      323,
      322,
      311,
      312,
      301,
      302,
      293,
      297,
      290,
      284,
      266,
      253,
      240,
      242,
      233,
      236,
      222,
      223,
      221,
      217,
      203,
      206,
      184,
      183,
      152,
      145,
      141,
      143
    ],
    "swim:timestamps": [
      1785528750,
      1785528793,
      1785528822,
      1785528882,
      1785528943,
      1785529003,
      1785529046,
      1785529063,
      1785529106,
      1785529123,
      1785529166,
      1785529183,
      1785529226,
      1785529243,
      1785529303,
      1785529346,
      1785529363,
      1785529406,
      1785529423,
      1785529483,
      1785529543,
      1785529586,
      1785529603,
      1785529647,
      1785529664,
      1785529707,
      1785529724,
      1785529767,
      1785529784,
      1785529827,
      1785529844,
      1785529887,
      1785529904,
      1785529947,
      1785529964,
      1785530007,
      1785530024,
      1785530067,
      1785530084,
      1785530127,
      1785530144,
      1785530187,
      1785530204,
      1785530247,
      1785530264,
      1785530307,
      1785530324,
      1785530368,
      1785530385,
      1785530428,
      1785530445,
      1785530488,
      1785530505,
      1785530548,
      1785530565,
      1785530608,
      1785530625,
      1785530668,
      1785530685,
      1785530728,
      1785530745,
      1785530788,
      1785530805,
      1785530848,
      1785530865,
      1785530908,
      1785530925,
      1785530968,
      1785531029,
      1785531089,
      1785531149,
      1785531209,
      1785531269,
      1785531329,
      1785531389,
      1785531449,
      1785531509,
      1785531569,
      1785531629,
      1785531690,
      1785531750,
      1785531810,
      1785531870,
      1785531876,
      1785531930,
      1785531990,
      1785532050,
      1785532101,
      1785532110,
      1785532161,
      1785532170,
      1785532224,
      1785532230,
      1785532288,
      1785532351,
      1785532411,
      1785532471,
      1785532522,
      1785532531,
      1785532585,
      1785532591,
      1785532642,
      1785532651,
      1785532705,
      1785532771,
      1785532831,
      1785539569,
      1785539624,
      1785539657,
      1785539685,
      1785539745,
      1785539778,
      1785539838,
      1785539898,
      1785539958,
      1785540018,
      1785540078,
      1785540138,
      1785540198,
      1785540258,
      1785540318,
      1785540378,
      1785540438,
      1785540499,
      1785540559,
      1785540619,
      1785540679,
      1785540736,
      1785540796,
      1785540856,
      1785540916,
      1785540976,
      1785541037,
      1785541097,
      1785541157,
      1785541280,
      1785541340,
      1785541400,
      1785541460,
      1785541520,
      1785541580,
      1785541640,
      1785541697,
      1785541758,
      1785541781,
      1785541818,
      1785541841,
      1785541878,
      1785541901,
      1785541938,
      1785541955,
      1785541998,
      1785542027,
      1785542058,
      1785542081,
      1785542118,
      1785542147,
      1785542178,
      1785542201,
      1785542238,
      1785542255,
      1785542298,
      1785542321,
      1785542359,
      1785542387,
      1785542419,
      1785542447,
      1785542479,
      1785542507,
      1785542539,
      1785542567,
      1785542599,
      1785542627,
      1785542659,
      1785542687,
      1785542719,
      1785542747,
      1785542779
    ],
    "wof:geomhash": "427287a7f80078e7ac38a8a2244c7b31",
    "wof:id": 2032053805,
    "wof:repo": "sfomuseum-data-flights-2026-07"
  },
  "bbox": [
    -122.54888888888888,
    32.62388888888889,
    -111.80888888888889,
    37.65694444444444
  ],
  "geometry": {"coordinates":[[-122.38972222222223,37.62777777777778],[-122.43333333333334,37.65],[-122.44777777777779,37.65083333333333],[-122.5375,37.65694444444444],[-122.5225,37.581388888888895],[-122.48388888888888,37.50666666666667],[-122.48583333333333,37.43583333333333],[-122.48944444444444,37.40972222222222],[-122.505,37.33555555555556],[-122.50888888888889,37.30583333333333],[-122.52305555555556,37.228611111111114],[-122.5286111111111,37.19888888888889],[-122.54277777777777,37.121944444444445],[-122.54888888888888,37.08916666666667],[-122.53972222222222,36.97361111111111],[-122.48472222222222,36.89861111111111],[-122.46333333333334,36.869166666666665],[-122.4063888888889,36.79138888888889],[-122.38527777777779,36.76277777777778],[-122.30694444444444,36.65555555555555],[-122.22583333333334,36.544444444444444],[-122.16666666666667,36.46277777777778],[-122.14527777777778,36.433611111111105],[-122.08749999999999,36.35416666666667],[-122.06666666666666,36.325],[-122.01083333333334,36.2475],[-121.9888888888889,36.217222222222226],[-121.93583333333333,36.14333333333333],[-121.91361111111112,36.11222222222222],[-121.85583333333332,36.03194444444444],[-121.81527777777778,35.99166666666667],[-121.74416666666667,35.94472222222222],[-121.69361111111111,35.91277777777778],[-121.62222222222222,35.8675],[-121.57055555555556,35.834722222222226],[-121.50138888888888,35.79111111111111],[-121.44916666666667,35.75833333333333],[-121.38111111111111,35.71527777777778],[-121.32916666666667,35.68222222222222],[-121.25972222222222,35.63777777777778],[-121.20944444444444,35.60583333333334],[-121.13277777777778,35.55722222222222],[-121.08805555555556,35.52861111111111],[-121.00888888888889,35.48166666666667],[-120.96666666666667,35.45722222222223],[-120.88555555555556,35.41],[-120.84055555555555,35.38388888888889],[-120.75805555555556,35.33583333333333],[-120.71444444444445,35.31027777777778],[-120.63083333333333,35.26111111111111],[-120.58972222222222,35.23722222222222],[-120.50305555555556,35.186388888888885],[-120.46388888888889,35.163333333333334],[-120.37527777777777,35.111111111111114],[-120.34027777777777,35.09055555555556],[-120.24972222222222,35.036944444444444],[-120.21527777777779,35.016666666666666],[-120.12416666666665,34.96277777777778],[-120.09083333333332,34.94277777777778],[-119.995,34.88583333333333],[-119.96888888888888,34.87027777777778],[-119.87416666666665,34.81361111111111],[-119.84472222222222,34.795833333333334],[-119.74972222222222,34.73916666666667],[-119.72277777777778,34.72277777777778],[-119.62805555555555,34.66611111111111],[-119.60055555555554,34.64972222222222],[-119.50527777777778,34.591944444444444],[-119.38305555555554,34.51777777777777],[-119.26277777777777,34.44472222222222],[-119.14055555555557,34.37027777777778],[-119.01916666666666,34.295833333333334],[-118.89944444444446,34.22222222222222],[-118.7786111111111,34.14805555555556],[-118.65916666666668,34.07416666666667],[-118.53777777777778,33.99888888888889],[-118.42,33.924166666666665],[-118.30777777777777,33.83694444444445],[-118.21638888888889,33.76583333333333],[-118.10305555555556,33.680277777777775],[-117.99083333333333,33.594166666666666],[-117.88694444444445,33.51027777777778],[-117.78861111111111,33.42472222222222],[-117.76666666666667,33.4],[-117.69944444444445,33.34111111111111],[-117.61138888888888,33.25833333333333],[-117.52833333333334,33.178888888888885],[-117.45,33.1],[-117.45805555555556,33.10583333333334],[-117.4,33.03333333333333],[-117.39777777777779,33.03444444444444],[-117.33333333333333,32.96666666666667],[-117.3275,32.973333333333336],[-117.25,32.916666666666664],[-117.19166666666668,32.87305555555555],[-117.12555555555555,32.823888888888895],[-117.06472222222222,32.780277777777776],[-117,32.766666666666666],[-116.99583333333334,32.76222222222222],[-116.95,32.71666666666667],[-116.95444444444445,32.72277777777778],[-117,32.68333333333333],[-116.99555555555555,32.68833333333333],[-117.06666666666666,32.7],[-117.11,32.71416666666667],[-117.155,32.725],[-117.2,32.733333333333334],[-117.25,32.75],[-117.27972222222222,32.75472222222222],[-117.31666666666666,32.766666666666666],[-117.36666666666666,32.733333333333334],[-117.35472222222222,32.69833333333333],[-117.27583333333334,32.64944444444444],[-117.16277777777778,32.62388888888889],[-117.03916666666666,32.64],[-116.90944444444445,32.66722222222222],[-116.77777777777777,32.67055555555555],[-116.65,32.66972222222222],[-116.52222222222223,32.6675],[-116.38972222222223,32.66888888888889],[-116.23305555555555,32.683055555555555],[-116.10222222222221,32.69444444444444],[-115.97,32.69972222222222],[-115.83722222222222,32.70583333333334],[-115.70666666666666,32.71194444444445],[-115.57194444444444,32.71805555555556],[-115.42583333333334,32.72416666666667],[-115.29027777777777,32.73083333333334],[-115.13472222222222,32.736111111111114],[-114.97638888888889,32.7425],[-114.82083333333333,32.74861111111111],[-114.66305555555556,32.754444444444445],[-114.50472222222223,32.76027777777778],[-114.34527777777777,32.76583333333333],[-114.18944444444445,32.770833333333336],[-113.86138888888888,32.797777777777775],[-113.71138888888889,32.816111111111105],[-113.59916666666666,32.88305555555556],[-113.5,32.95611111111111],[-113.41194444444444,33.021388888888886],[-113.31527777777778,33.093333333333334],[-113.21972222222223,33.163888888888884],[-113.12444444444444,33.23388888888889],[-113.01444444444445,33.275555555555556],[-112.95,33.28333333333333],[-112.89750000000001,33.278888888888886],[-112.83333333333333,33.28333333333333],[-112.785,33.28388888888889],[-112.73333333333333,33.28333333333333],[-112.67916666666667,33.29388888888889],[-112.63333333333334,33.3],[-112.57222222222222,33.303888888888885],[-112.51666666666667,33.31666666666667],[-112.47416666666666,33.312777777777775],[-112.41666666666667,33.31666666666667],[-112.375,33.32222222222222],[-112.31666666666666,33.333333333333336],[-112.27944444444444,33.330555555555556],[-112.23333333333333,33.333333333333336],[-112.185,33.339444444444446],[-112.15,33.35],[-112.09944444444444,33.346944444444446],[-112.05,33.35],[-112.01944444444445,33.34666666666667],[-111.96666666666667,33.35],[-111.94222222222223,33.345555555555556],[-111.9,33.35],[-111.86861111111111,33.344722222222224],[-111.81666666666666,33.35],[-111.80888888888889,33.36416666666667],[-111.81666666666666,33.4],[-111.83638888888889,33.41],[-111.86666666666666,33.43333333333333],[-111.89222222222223,33.42861111111111],[-111.93333333333334,33.43333333333333],[-111.94416666666667,33.428888888888885],[-111.96666666666667,33.43333333333333],[-111.99083333333333,33.428888888888885]],"type":"LineString"}
}
