{
  "id": 2031942323,
  "type": "Feature",
  "properties": {
    "geom:area": 0,
    "geom:bbox": "-122.564130,36.772390,-121.902490,37.610700",
    "geom:latitude": 37.232993900947655,
    "geom:longitude": -122.2654524561134,
    "src:alt_label": "swim-approach",
    "src:geom": "swim",
    "swim:elevations": [
      4409,
      4267,
      4209,
      3877,
      3654,
      3592,
      3534,
      3190,
      3077,
      3048,
      3048,
      3048,
      3048,
      2906,
      2804,
      2630,
      2444,
      2438,
      2438,
      2438,
      2438,
      2438,
      2409,
      2204,
      2133,
      1864,
      1828,
      1829,
      1829,
      1829,
      1730,
      1585,
      1370,
      1365,
      1237,
      1219,
      1219,
      1096,
      1023,
      996,
      912,
      871,
      826,
      579,
      350,
      335,
      184,
      127,
      29
    ],
    "swim:geom": "approach",
    "swim:timestamps": [
      1784818306,
      1784818343,
      1784818351,
      1784818394,
      1784818423,
      1784818438,
      1784818446,
      1784818488,
      1784818518,
      1784818552,
      1784818582,
      1784818617,
      1784818621,
      1784818666,
      1784818686,
      1784818718,
      1784818760,
      1784818784,
      1784818814,
      1784818846,
      1784818881,
      1784818906,
      1784818922,
      1784818960,
      1784818993,
      1784819035,
      1784819062,
      1784819086,
      1784819114,
      1784819158,
      1784819187,
      1784819208,
      1784819278,
      1784819281,
      1784819331,
      1784819355,
      1784819388,
      1784819428,
      1784819431,
      1784819448,
      1784819476,
      1784819508,
      1784819520,
      1784819575,
      1784819635,
      1784819640,
      1784819691,
      1784819709,
      1784819745
    ],
    "wof:geomhash": "9d7ee037e5589df163cbecb672e34c59",
    "wof:id": 2031942323,
    "wof:repo": "sfomuseum-data-flights-2026-07"
  },
  "bbox": [
    -122.56413,
    36.77239,
    -121.90249,
    37.6107
  ],
  "geometry": {"coordinates":[[-121.90249,36.77239],[-121.91831,36.82911],[-121.9217,36.84069],[-121.97447,36.88349],[-122.02366,36.89553],[-122.04833,36.90132],[-122.06197,36.90459],[-122.1307,36.92111],[-122.17361,36.94462],[-122.21029,36.97603],[-122.24074,37.00207],[-122.27531,37.03182],[-122.27928,37.03525],[-122.32354,37.07354],[-122.34283,37.09021],[-122.37314,37.11624],[-122.41393,37.15046],[-122.43724,37.16941],[-122.46645,37.19318],[-122.4976,37.21838],[-122.53123,37.24558],[-122.55509,37.26505],[-122.56413,37.28184],[-122.54854,37.32147],[-122.52979,37.35637],[-122.50492,37.39863],[-122.47109,37.40981],[-122.43892,37.40452],[-122.40096,37.3976],[-122.34249,37.38756],[-122.30363,37.38582],[-122.27506,37.38469],[-122.18611,37.39901],[-122.183,37.40091],[-122.13434,37.42937],[-122.1118,37.44223],[-122.09338,37.46669],[-122.11648,37.49755],[-122.11834,37.49962],[-122.12991,37.51165],[-122.15423,37.52548],[-122.18496,37.53874],[-122.19616,37.54345],[-122.24522,37.56417],[-122.28964,37.5829],[-122.29318,37.58443],[-122.32422,37.59738],[-122.33479,37.60179],[-122.35574,37.6107]],"type":"LineString"}
}
