{
  "id": 2031978345,
  "type": "Feature",
  "properties": {
    "geom:area": 0,
    "geom:bbox": "-122.333333,33.919167,-118.433333,37.600000",
    "geom:latitude": 35.53303694908209,
    "geom:longitude": -120.63120632856067,
    "src:alt_label": "swim-path",
    "src:geom": "swim",
    "swim:altitudes": [
      "011",
      "037",
      "059",
      "131",
      "156",
      "178",
      "201",
      "236",
      "268",
      "289",
      "313",
      "320C",
      "320C",
      "320C",
      "320C",
      "320C",
      "320C",
      "320C",
      "320C",
      "320",
      "288",
      "246",
      "241",
      "225",
      "212",
      "191",
      "186",
      "172",
      "155",
      "135",
      "133",
      "103",
      "102",
      "076",
      "061",
      "047",
      "043",
      "040",
      "034",
      "029",
      "020",
      "012",
      "004"
    ],
    "swim:geom": "path",
    "swim:speeds": [
      179,
      231,
      268,
      338,
      356,
      374,
      387,
      409,
      449,
      449,
      453,
      455,
      455,
      453,
      452,
      449,
      454,
      456,
      457,
      458,
      457,
      430,
      423,
      415,
      403,
      387,
      389,
      375,
      370,
      363,
      366,
      322,
      324,
      295,
      236,
      231,
      233,
      216,
      180,
      179,
      174,
      156,
      147
    ],
    "swim:timestamps": [
      1785083750,
      1785083819,
      1785083879,
      1785084059,
      1785084119,
      1785084179,
      1785084239,
      1785084358,
      1785084480,
      1785084538,
      1785084660,
      1785084718,
      1785084838,
      1785084899,
      1785084960,
      1785085079,
      1785085199,
      1785085259,
      1785085321,
      1785085379,
      1785085559,
      1785085680,
      1785085694,
      1785085740,
      1785085778,
      1785085844,
      1785085860,
      1785085905,
      1785085959,
      1785086024,
      1785086040,
      1785086145,
      1785086160,
      1785086281,
      1785086384,
      1785086439,
      1785086461,
      1785086499,
      1785086564,
      1785086625,
      1785086685,
      1785086739,
      1785086805
    ],
    "wof:geomhash": "c1e7ac0db357448981a059c8d44f1860",
    "wof:id": 2031978345,
    "wof:repo": "sfomuseum-data-flights-2026-07"
  },
  "bbox": [
    -122.33333333333333,
    33.91916666666666,
    -118.43333333333334,
    37.6
  ],
  "geometry": {"coordinates":[[-118.43333333333334,33.93333333333333],[-118.5111111111111,33.92805555555555],[-118.59638888888888,33.92055555555555],[-118.90027777777779,33.91916666666666],[-118.99194444444444,33.978611111111114],[-119.08027777777778,34.05277777777778],[-119.17111111111112,34.129444444444445],[-119.36194444444443,34.28805555555555],[-119.57388888888889,34.46638888888889],[-119.68222222222222,34.556666666666665],[-119.89361111111111,34.731388888888894],[-120.00638888888889,34.82416666666667],[-120.2238888888889,35.0025],[-120.33333333333333,35.09166666666667],[-120.43194444444445,35.17194444444444],[-120.66444444444446,35.359722222222224],[-120.8736111111111,35.543055555555554],[-120.96944444444445,35.64611111111111],[-121.06194444444444,35.745555555555555],[-121.15972222222223,35.85027777777778],[-121.43527777777778,36.15972222222222],[-121.5975,36.36638888888889],[-121.61666666666666,36.38333333333333],[-121.67527777777778,36.464444444444446],[-121.71666666666667,36.53333333333333],[-121.8,36.63333333333333],[-121.82138888888889,36.64972222222222],[-121.86666666666666,36.71666666666667],[-121.91666666666667,36.8],[-121.95,36.916666666666664],[-121.94500000000001,36.9225],[-122.05,37.083333333333336],[-122.0475,37.09166666666667],[-122.15583333333333,37.23361111111111],[-122.11666666666666,37.36666666666667],[-122.08333333333333,37.416666666666664],[-122.07972222222222,37.427499999999995],[-122.08333333333333,37.46666666666667],[-122.13333333333334,37.516666666666666],[-122.18333333333334,37.53333333333333],[-122.23333333333333,37.56666666666667],[-122.28333333333333,37.583333333333336],[-122.33333333333333,37.6]],"type":"LineString"}
}
