{
  "id": 2032031335,
  "type": "Feature",
  "properties": {
    "geom:area": 0,
    "geom:bbox": "-122.344810,37.434480,-121.340620,37.608390",
    "geom:latitude": 37.52557628734195,
    "geom:longitude": -121.84817433408278,
    "src:alt_label": "swim-approach",
    "src:geom": "swim",
    "swim:elevations": [
      4341,
      4202,
      3844,
      3793,
      3504,
      3442,
      3354,
      3114,
      3049,
      2893,
      2672,
      2456,
      2275,
      2134,
      1949,
      1527,
      1514,
      1353,
      1188,
      1126,
      1008,
      727,
      585,
      513,
      389,
      299,
      201,
      78
    ],
    "swim:geom": "approach",
    "swim:timestamps": [
      1785432403,
      1785432424,
      1785432471,
      1785432481,
      1785432522,
      1785432547,
      1785432575,
      1785432627,
      1785432643,
      1785432679,
      1785432708,
      1785432735,
      1785432761,
      1785432817,
      1785432875,
      1785432931,
      1785432950,
      1785432974,
      1785433011,
      1785433024,
      1785433052,
      1785433105,
      1785433134,
      1785433153,
      1785433187,
      1785433219,
      1785433247,
      1785433277
    ],
    "wof:geomhash": "6017ba56759c320a4f29053a07950d33",
    "wof:id": 2032031335,
    "wof:repo": "sfomuseum-data-flights-2026-07"
  },
  "bbox": [
    -122.34481,
    37.43448,
    -121.34062,
    37.60839
  ],
  "geometry": {"coordinates":[[-121.34062,37.58383],[-121.37883,37.57973],[-121.4606,37.57008],[-121.47886,37.5679],[-121.54932,37.55946],[-121.58931,37.55476],[-121.63372,37.55207],[-121.70839,37.55557],[-121.73189,37.55491],[-121.76604,37.52767],[-121.78166,37.49604],[-121.79628,37.4672],[-121.81715,37.44408],[-121.89205,37.43448],[-121.9671,37.44906],[-122.0349,37.47761],[-122.05678,37.48666],[-122.08362,37.49783],[-122.12313,37.51477],[-122.13733,37.5208],[-122.1661,37.53306],[-122.21883,37.55538],[-122.245,37.56641],[-122.26014,37.5728],[-122.28386,37.58268],[-122.30532,37.59179],[-122.32432,37.59973],[-122.34481,37.60839]],"type":"LineString"}
}
