{
  "id": 2032020011,
  "type": "Feature",
  "properties": {
    "geom:area": 0,
    "geom:bbox": "-122.354700,36.756670,-121.897170,37.612560",
    "geom:latitude": 37.2290296032109,
    "geom:longitude": -122.07590937142865,
    "src:alt_label": "swim-approach",
    "src:geom": "swim",
    "swim:elevations": [
      5516,
      5448,
      5315,
      4938,
      4731,
      4518,
      4184,
      3629,
      3562,
      3175,
      3047,
      2989,
      2655,
      2619,
      2304,
      1942,
      1852,
      1709,
      1554,
      1503,
      1155,
      1057,
      891,
      650,
      578,
      426,
      390,
      232,
      132,
      28
    ],
    "swim:geom": "approach",
    "swim:timestamps": [
      1785310978,
      1785310984,
      1785310997,
      1785311032,
      1785311050,
      1785311070,
      1785311101,
      1785311153,
      1785311160,
      1785311196,
      1785311246,
      1785311259,
      1785311305,
      1785311312,
      1785311351,
      1785311390,
      1785311403,
      1785311438,
      1785311486,
      1785311500,
      1785311548,
      1785311565,
      1785311592,
      1785311636,
      1785311651,
      1785311690,
      1785311700,
      1785311741,
      1785311769,
      1785311798
    ],
    "wof:geomhash": "2f9f5fa9fdedc351b36029846c2ec3bf",
    "wof:id": 2032020011,
    "wof:repo": "sfomuseum-data-flights-2026-07"
  },
  "bbox": [
    -122.3547,
    36.75667,
    -121.89717,
    37.61256
  ],
  "geometry": {"coordinates":[[-121.89717,36.75667],[-121.9011,36.76756],[-121.90674,36.78752],[-121.92327,36.84627],[-121.93115,36.87455],[-121.9405,36.90751],[-121.95481,36.95657],[-121.98546,37.03525],[-121.98948,37.04573],[-122.01032,37.09887],[-122.03604,37.16457],[-122.04224,37.18053],[-122.06451,37.23724],[-122.06772,37.24532],[-122.08587,37.29159],[-122.10466,37.33906],[-122.11059,37.35421],[-122.12621,37.39611],[-122.14413,37.44852],[-122.14877,37.46232],[-122.16389,37.50962],[-122.16929,37.52585],[-122.19045,37.5443],[-122.23525,37.56221],[-122.24936,37.56826],[-122.28043,37.58125],[-122.28787,37.58444],[-122.31611,37.59624],[-122.33508,37.60433],[-122.3547,37.61256]],"type":"LineString"}
}
