{
  "id": 2032047563,
  "type": "Feature",
  "properties": {
    "geom:area": 0,
    "geom:bbox": "-123.399444,37.480000,-122.118611,47.427778",
    "geom:latitude": 42.51559044606525,
    "geom:longitude": -123.06698049717026,
    "src:alt_label": "swim-path",
    "src:geom": "swim",
    "swim:altitudes": [
      "011",
      "014",
      "026",
      "045",
      "072",
      "098",
      "112",
      "130",
      "151",
      "175",
      "193",
      "218",
      "236",
      "253",
      "268",
      "281",
      "298",
      "313",
      "329",
      "343",
      "352",
      "359",
      "366",
      "370C",
      "370C",
      "370C",
      "370C",
      "370C",
      "370C",
      "370C",
      "370C",
      "370C",
      "370C",
      "370C",
      "370C",
      "370C",
      "370C",
      "370C",
      "370C",
      "370C",
      "370C",
      "370C",
      "370C",
      "370C",
      "370C",
      "370C",
      "370C",
      "370C",
      "370C",
      "370C",
      "370C",
      "370C",
      "370C",
      "370C",
      "370C",
      "370C",
      "370C",
      "370C",
      "370C",
      "370C",
      "370C",
      "370C",
      "370C",
      "370C",
      "370C",
      "370C",
      "370C",
      "370C",
      "370C",
      "370C",
      "370C",
      "370C",
      "370C",
      "370C",
      "370C",
      "370C",
      "370C",
      "370C",
      "370C",
      "370C",
      "370C",
      "370C",
      "370C",
      "370C",
      "370C",
      "370C",
      "370C",
      "370C",
      "370C",
      "370C",
      "370C",
      "370C",
      "370C",
      "370C",
      "370C",
      "370C",
      "370",
      "370",
      "370",
      "370",
      "364",
      "338",
      "315",
      "294",
      "273",
      "231",
      "209",
      "201",
      "183",
      "145",
      "126",
      "110C",
      "110",
      "102",
      "099",
      "090",
      "084",
      "075",
      "038",
      "024",
      "015",
      "012",
      "008",
      "005",
      "001"
    ],
    "swim:geom": "path",
    "swim:speeds": [
      174,
      175,
      221,
      261,
      267,
      271,
      310,
      335,
      351,
      353,
      358,
      367,
      378,
      398,
      407,
      416,
      418,
      413,
      404,
      396,
      395,
      397,
      403,
      405,
      404,
      404,
      405,
      406,
      405,
      404,
      403,
      402,
      403,
      404,
      406,
      408,
      410,
      411,
      412,
      414,
      417,
      419,
      420,
      421,
      421,
      421,
      419,
      419,
      416,
      416,
      414,
      413,
      413,
      412,
      412,
      412,
      412,
      412,
      413,
      413,
      414,
      420,
      416,
      419,
      418,
      421,
      420,
      422,
      421,
      421,
      421,
      422,
      421,
      421,
      421,
      421,
      420,
      420,
      420,
      420,
      421,
      422,
      423,
      424,
      425,
      427,
      428,
      429,
      430,
      431,
      432,
      435,
      437,
      438,
      445,
      446,
      448,
      450,
      451,
      451,
      446,
      443,
      441,
      420,
      404,
      382,
      367,
      366,
      357,
      344,
      339,
      294,
      253,
      255,
      247,
      245,
      245,
      245,
      223,
      178,
      174,
      149,
      146,
      145,
      143
    ],
    "swim:timestamps": [
      1785563277,
      1785563289,
      1785563349,
      1785563409,
      1785563469,
      1785563529,
      1785563589,
      1785563649,
      1785563709,
      1785563769,
      1785563829,
      1785563889,
      1785563949,
      1785564009,
      1785564069,
      1785564129,
      1785564190,
      1785564250,
      1785564310,
      1785564370,
      1785564430,
      1785564490,
      1785564550,
      1785564610,
      1785564670,
      1785564730,
      1785564790,
      1785564850,
      1785564910,
      1785564970,
      1785565030,
      1785565090,
      1785565150,
      1785565210,
      1785565270,
      1785565330,
      1785565390,
      1785565450,
      1785565510,
      1785565570,
      1785565630,
      1785565691,
      1785565751,
      1785565811,
      1785565871,
      1785565931,
      1785565991,
      1785566019,
      1785566051,
      1785566079,
      1785566111,
      1785566139,
      1785566171,
      1785566199,
      1785566231,
      1785566259,
      1785566291,
      1785566319,
      1785566351,
      1785566379,
      1785566411,
      1785566439,
      1785566471,
      1785566499,
      1785566531,
      1785566559,
      1785566591,
      1785566619,
      1785566651,
      1785566679,
      1785566711,
      1785566739,
      1785566771,
      1785566799,
      1785566831,
      1785566860,
      1785566891,
      1785566920,
      1785566951,
      1785566980,
      1785567040,
      1785567071,
      1785567100,
      1785567131,
      1785567191,
      1785567280,
      1785567312,
      1785567340,
      1785567372,
      1785567400,
      1785567432,
      1785567492,
      1785567520,
      1785567552,
      1785567672,
      1785567700,
      1785567732,
      1785567792,
      1785567820,
      1785568000,
      1785568060,
      1785568120,
      1785568180,
      1785568240,
      1785568300,
      1785568421,
      1785568472,
      1785568497,
      1785568551,
      1785568671,
      1785568731,
      1785568841,
      1785568917,
      1785568961,
      1785568971,
      1785569021,
      1785569037,
      1785569081,
      1785569321,
      1785569441,
      1785569501,
      1785569523,
      1785569561,
      1785569577,
      1785569621
    ],
    "wof:geomhash": "b8fe0ad041e7575db0795e3b8de0e8ad",
    "wof:id": 2032047563,
    "wof:repo": "sfomuseum-data-flights-2026-07"
  },
  "bbox": [
    -123.39944444444446,
    37.480000000000004,
    -122.11861111111111,
    47.42777777777778
  ],
  "geometry": {"coordinates":[[-122.30777777777777,47.42777777777778],[-122.30777777777777,47.42166666666667],[-122.31,47.36611111111111],[-122.36555555555555,47.31444444444444],[-122.47333333333333,47.30777777777777],[-122.585,47.31111111111111],[-122.70583333333333,47.314166666666665],[-122.83777777777777,47.297777777777775],[-122.97194444444445,47.26166666666666],[-123.08388888888888,47.203611111111115],[-123.15194444444445,47.14138888888889],[-123.26055555555556,47.04055555555556],[-123.34944444444444,46.95805555555556],[-123.39944444444446,46.85805555555556],[-123.39666666666668,46.74527777777778],[-123.39277777777778,46.62972222222222],[-123.3888888888889,46.511944444444445],[-123.38611111111112,46.413333333333334],[-123.3825,46.30138888888889],[-123.37916666666666,46.19166666666666],[-123.3761111111111,46.08277777777778],[-123.37249999999999,45.97083333333334],[-123.36916666666666,45.85861111111111],[-123.36611111111111,45.745],[-123.3625,45.63333333333333],[-123.35916666666667,45.52166666666667],[-123.35527777777777,45.4075],[-123.35222222222221,45.29527777777778],[-123.34916666666666,45.181666666666665],[-123.34583333333333,45.06861111111112],[-123.34194444444444,44.955555555555556],[-123.33888888888889,44.840833333333336],[-123.33555555555554,44.727222222222224],[-123.33222222222221,44.615],[-123.32888888888888,44.5],[-123.32444444444444,44.38583333333333],[-123.31972222222223,44.27222222222222],[-123.315,44.156666666666666],[-123.31055555555555,44.04277777777778],[-123.30583333333333,43.91972222222222],[-123.30111111111111,43.801944444444445],[-123.29666666666667,43.684999999999995],[-123.29222222222222,43.568333333333335],[-123.28722222222223,43.45],[-123.28277777777778,43.331944444444446],[-123.27833333333334,43.21555555555556],[-123.27388888888889,43.10111111111111],[-123.27055555555556,43.05361111111111],[-123.26944444444445,42.984722222222224],[-123.26583333333333,42.939166666666665],[-123.265,42.870555555555555],[-123.26333333333334,42.825],[-123.26055555555556,42.75666666666667],[-123.25833333333334,42.71138888888889],[-123.25638888888889,42.64194444444444],[-123.25333333333333,42.597500000000004],[-123.25194444444445,42.527499999999996],[-123.25,42.48305555555556],[-123.24777777777778,42.4125],[-123.24555555555555,42.36888888888889],[-123.24333333333334,42.297777777777775],[-123.24166666666667,42.25138888888889],[-123.23944444444444,42.18277777777777],[-123.2375,42.13527777777778],[-123.235,42.066111111111105],[-123.23333333333333,42.019999999999996],[-123.23055555555555,41.94944444444444],[-123.22888888888889,41.90222222222222],[-123.22638888888889,41.83305555555556],[-123.22472222222223,41.78527777777778],[-123.22222222222223,41.71638888888889],[-123.22055555555556,41.66777777777777],[-123.21777777777778,41.598333333333336],[-123.21638888888889,41.551944444444445],[-123.21388888888889,41.48166666666667],[-123.2125,41.436388888888885],[-123.21000000000001,41.36611111111111],[-123.20805555555556,41.30638888888888],[-123.20666666666666,41.25194444444445],[-123.19916666666667,41.190555555555555],[-123.18166666666667,41.075],[-123.17277777777778,41.016666666666666],[-123.16555555555556,40.969722222222224],[-123.15527777777778,40.900555555555556],[-123.13527777777779,40.76888888888889],[-123.11055555555555,40.603611111111114],[-123.1,40.53333333333333],[-123.09277777777777,40.484722222222224],[-123.08222222222221,40.413888888888884],[-123.07527777777777,40.36611111111111],[-123.06583333333333,40.30277777777778],[-123.04777777777778,40.180277777777775],[-123.03944444444444,40.125],[-123.02972222222222,40.05916666666666],[-122.99361111111111,39.809999999999995],[-122.98611111111111,39.75805555555556],[-122.97555555555556,39.68555555555555],[-122.95722222222223,39.56083333333333],[-122.94972222222222,39.50805555555556],[-122.89722222222223,39.141666666666666],[-122.87916666666666,39.01694444444444],[-122.86222222222221,38.89527777777778],[-122.84472222222222,38.77444444444444],[-122.8286111111111,38.658055555555556],[-122.8125,38.544444444444444],[-122.78277777777778,38.33277777777778],[-122.76666666666667,38.21666666666667],[-122.75,38.18333333333333],[-122.73333333333333,38.1],[-122.66666666666667,37.9],[-122.6,37.833333333333336],[-122.47555555555556,37.71277777777778],[-122.4,37.63333333333333],[-122.36138888888888,37.60388888888889],[-122.35,37.583333333333336],[-122.32777777777777,37.54222222222222],[-122.31666666666666,37.516666666666666],[-122.29027777777777,37.480000000000004],[-122.11861111111111,37.48638888888889],[-122.21555555555555,37.55166666666666],[-122.26916666666666,37.57416666666667],[-122.28333333333333,37.583333333333336],[-122.31472222222222,37.593333333333334],[-122.33333333333333,37.6],[-122.3586111111111,37.611666666666665]],"type":"LineString"}
}
