{
  "id": 2031981311,
  "type": "Feature",
  "properties": {
    "geom:area": 0,
    "geom:bbox": "-122.551820,36.719150,-121.352570,37.662730",
    "geom:latitude": 37.21092694948309,
    "geom:longitude": -122.02625841623552,
    "src:alt_label": "swim-takeoff",
    "src:geom": "swim",
    "swim:elevations": [
      305,
      514,
      807,
      884,
      1568,
      1685,
      1947,
      2330,
      2797,
      3087,
      3308,
      3497,
      3642,
      3824,
      3971,
      4152,
      4418,
      4493,
      4757,
      4871,
      5312,
      5595,
      5757,
      6049,
      6166,
      6204,
      6297,
      6487,
      6668,
      6814,
      7043,
      7062,
      7168,
      7502,
      7693,
      7911,
      8256,
      8569,
      8884,
      9065
    ],
    "swim:geom": "takeoff",
    "swim:timestamps": [
      1785098106,
      1785098121,
      1785098155,
      1785098166,
      1785098229,
      1785098238,
      1785098257,
      1785098283,
      1785098318,
      1785098334,
      1785098346,
      1785098361,
      1785098389,
      1785098423,
      1785098445,
      1785098461,
      1785098484,
      1785098490,
      1785098513,
      1785098528,
      1785098570,
      1785098605,
      1785098621,
      1785098657,
      1785098671,
      1785098675,
      1785098686,
      1785098709,
      1785098730,
      1785098748,
      1785098785,
      1785098790,
      1785098800,
      1785098848,
      1785098870,
      1785098883,
      1785098925,
      1785098953,
      1785098977,
      1785099009
    ],
    "wof:geomhash": "34c13048c84cd13f4c60f4e2fa774c45",
    "wof:id": 2031981311,
    "wof:repo": "sfomuseum-data-flights-2026-07"
  },
  "bbox": [
    -122.55182,
    36.71915,
    -121.35257,
    37.66273
  ],
  "geometry": {"coordinates":[[-122.39169,37.62603],[-122.40307,37.63079],[-122.43447,37.64332],[-122.4453,37.64754],[-122.52772,37.66273],[-122.53837,37.65583],[-122.55182,37.63448],[-122.54377,37.60169],[-122.51652,37.56143],[-122.50293,37.54167],[-122.49376,37.52814],[-122.48229,37.5114],[-122.45385,37.48087],[-122.40363,37.44478],[-122.36931,37.41944],[-122.3451,37.40151],[-122.30738,37.37359],[-122.29807,37.36666],[-122.2609,37.33911],[-122.23678,37.32114],[-122.16585,37.26989],[-122.10565,37.22747],[-122.07642,37.20873],[-122.00434,37.17297],[-121.97372,37.15799],[-121.96539,37.15393],[-121.9436,37.14333],[-121.8967,37.12055],[-121.85254,37.09759],[-121.81864,37.07353],[-121.75309,37.02346],[-121.74376,37.0164],[-121.72504,37.00227],[-121.63761,36.93626],[-121.59621,36.90511],[-121.57284,36.88811],[-121.49822,36.83054],[-121.44776,36.79177],[-121.406,36.76057],[-121.35257,36.71915]],"type":"LineString"}
}
