{
  "id": 2031946383,
  "type": "Feature",
  "properties": {
    "geom:area": 0,
    "geom:bbox": "-122.401010,37.624640,-121.429330,38.518540",
    "geom:latitude": 38.08356923013686,
    "geom:longitude": -121.9451235282508,
    "src:alt_label": "swim-takeoff",
    "src:geom": "swim",
    "swim:elevations": [
      122,
      338,
      532,
      669,
      777,
      1070,
      1465,
      1676,
      1782,
      1963,
      2312,
      2470,
      2788,
      2982,
      3107,
      3383,
      3632,
      3809,
      4018,
      4199,
      4236,
      4397,
      4478,
      4648,
      4866,
      5062,
      5135,
      5442,
      5723,
      5859,
      6085,
      6313,
      6487,
      6849,
      7056
    ],
    "swim:geom": "takeoff",
    "swim:timestamps": [
      1784834175,
      1784834188,
      1784834217,
      1784834237,
      1784834252,
      1784834290,
      1784834332,
      1784834355,
      1784834365,
      1784834388,
      1784834423,
      1784834437,
      1784834475,
      1784834497,
      1784834507,
      1784834544,
      1784834574,
      1784834598,
      1784834620,
      1784834641,
      1784834645,
      1784834661,
      1784834671,
      1784834684,
      1784834703,
      1784834724,
      1784834734,
      1784834767,
      1784834797,
      1784834814,
      1784834835,
      1784834859,
      1784834877,
      1784834921,
      1784834945
    ],
    "wof:geomhash": "5270468e9b0da29ea60654136f70eea9",
    "wof:id": 2031946383,
    "wof:repo": "sfomuseum-data-flights-2026-07"
  },
  "bbox": [
    -122.40101,
    37.62464,
    -121.42933,
    38.51854
  ],
  "geometry": {"coordinates":[[-122.38878,37.62464],[-122.39955,37.63034],[-122.40101,37.6525],[-122.38107,37.66386],[-122.36241,37.66939],[-122.31205,37.68626],[-122.28596,37.73207],[-122.27692,37.7589],[-122.27247,37.77221],[-122.26288,37.80101],[-122.23445,37.84089],[-122.21823,37.85497],[-122.17396,37.89409],[-122.1474,37.91766],[-122.13521,37.92843],[-122.08809,37.97046],[-122.04892,38.00525],[-122.01441,38.03577],[-121.98298,38.06361],[-121.95297,38.09032],[-121.94644,38.09614],[-121.92212,38.11775],[-121.90752,38.13079],[-121.88731,38.14878],[-121.85833,38.17427],[-121.82564,38.20325],[-121.80879,38.21797],[-121.75632,38.26387],[-121.70521,38.30821],[-121.67792,38.33206],[-121.64064,38.36482],[-121.59948,38.4012],[-121.56839,38.42845],[-121.48094,38.48682],[-121.42933,38.51854]],"type":"LineString"}
}
