{
  "id": 2032005671,
  "type": "Feature",
  "properties": {
    "geom:area": 0,
    "geom:bbox": "-122.350000,34.176389,-118.360556,37.601667",
    "geom:latitude": 35.863365903710516,
    "geom:longitude": -120.54076346061606,
    "src:alt_label": "swim-path",
    "src:geom": "swim",
    "swim:altitudes": [
      "022",
      "060",
      "068",
      "135",
      "169",
      "193",
      "227",
      "251",
      "277",
      "296",
      "314",
      "320C",
      "320C",
      "320C",
      "320C",
      "320C",
      "320C",
      "320C",
      "320C",
      "320C",
      "320C",
      "320C",
      "320",
      "316",
      "307",
      "297",
      "280",
      "280",
      "280",
      "280",
      "279",
      "256",
      "251",
      "221",
      "207",
      "198",
      "184",
      "179",
      "164",
      "157",
      "143",
      "137",
      "124",
      "118",
      "111",
      "109",
      "102",
      "096",
      "089",
      "088",
      "077",
      "075",
      "067",
      "065",
      "060",
      "060",
      "058",
      "046",
      "042",
      "041",
      "037",
      "036",
      "028",
      "026",
      "017",
      "011",
      "009",
      "004",
      "002"
    ],
    "swim:geom": "path",
    "swim:speeds": [
      154,
      278,
      285,
      330,
      340,
      356,
      385,
      407,
      421,
      437,
      450,
      424,
      427,
      400,
      397,
      395,
      394,
      394,
      395,
      396,
      396,
      395,
      394,
      406,
      417,
      420,
      424,
      424,
      434,
      437,
      438,
      429,
      426,
      415,
      405,
      392,
      382,
      369,
      370,
      366,
      361,
      351,
      344,
      324,
      289,
      265,
      249,
      242,
      234,
      224,
      234,
      239,
      236,
      232,
      229,
      220,
      228,
      231,
      214,
      200,
      198,
      192,
      196,
      193,
      184,
      147,
      137,
      133,
      124
    ],
    "swim:timestamps": [
      1785269589,
      1785269709,
      1785269769,
      1785269889,
      1785269949,
      1785270009,
      1785270070,
      1785270130,
      1785270189,
      1785270250,
      1785270310,
      1785270369,
      1785270430,
      1785270489,
      1785270549,
      1785270610,
      1785270670,
      1785270731,
      1785270791,
      1785270851,
      1785270911,
      1785270971,
      1785271031,
      1785271091,
      1785271151,
      1785271211,
      1785271330,
      1785271391,
      1785271451,
      1785271511,
      1785271571,
      1785271631,
      1785271640,
      1785271706,
      1785271751,
      1785271766,
      1785271811,
      1785271826,
      1785271871,
      1785271886,
      1785271931,
      1785271946,
      1785271991,
      1785272006,
      1785272051,
      1785272066,
      1785272112,
      1785272126,
      1785272172,
      1785272181,
      1785272232,
      1785272241,
      1785272292,
      1785272301,
      1785272352,
      1785272361,
      1785272427,
      1785272487,
      1785272532,
      1785272541,
      1785272592,
      1785272601,
      1785272652,
      1785272661,
      1785272721,
      1785272772,
      1785272786,
      1785272832,
      1785272846
    ],
    "wof:geomhash": "0f8b7354de38ab68b1b07bba854d4b85",
    "wof:id": 2032005671,
    "wof:repo": "sfomuseum-data-flights-2026-07"
  },
  "bbox": [
    -122.35,
    34.17638888888889,
    -118.36055555555555,
    37.60166666666667
  ],
  "geometry": {"coordinates":[[-118.36055555555555,34.17638888888889],[-118.47055555555556,34.18583333333333],[-118.51222222222222,34.257222222222225],[-118.62638888888888,34.40333333333333],[-118.69583333333334,34.48111111111111],[-118.7575,34.54833333333333],[-118.83472222222221,34.65361111111111],[-118.90305555555557,34.749722222222225],[-118.98111111111112,34.85888888888889],[-119.05388888888889,34.96083333333333],[-119.13388888888889,35.06638888888889],[-119.25694444444444,35.14055555555556],[-119.37722222222222,35.20138888888889],[-119.49472222222222,35.26027777777778],[-119.60888888888888,35.31777777777778],[-119.7225,35.374722222222225],[-119.83583333333333,35.43138888888889],[-119.94638888888889,35.48638888888889],[-120.06,35.5425],[-120.17833333333334,35.60111111111111],[-120.29333333333334,35.65861111111111],[-120.40611111111112,35.706944444444446],[-120.52666666666667,35.75277777777778],[-120.65027777777779,35.79944444444444],[-120.77916666666667,35.84861111111111],[-120.91083333333334,35.89833333333333],[-121.17666666666668,35.998333333333335],[-121.30888888888889,36.0475],[-121.39583333333334,36.10861111111111],[-121.49388888888889,36.23361111111111],[-121.57416666666666,36.33638888888889],[-121.655,36.43944444444444],[-121.66666666666667,36.46666666666667],[-121.76666666666667,36.56666666666667],[-121.80749999999999,36.632222222222225],[-121.83333333333333,36.666666666666664],[-121.88166666666666,36.72638888888889],[-121.9,36.766666666666666],[-121.91777777777779,36.82611111111112],[-121.93333333333334,36.85],[-121.94527777777778,36.92472222222222],[-121.95,36.95],[-121.97833333333334,37.016666666666666],[-121.98333333333333,37.05],[-122.0286111111111,37.08972222222222],[-122.05,37.11666666666667],[-122.08777777777777,37.1425],[-122.1,37.166666666666664],[-122.14444444444445,37.19166666666666],[-122.15,37.2],[-122.20333333333333,37.24194444444444],[-122.21666666666667,37.25],[-122.25583333333333,37.28611111111111],[-122.25,37.3],[-122.21083333333334,37.3275],[-122.2,37.333333333333336],[-122.11666666666666,37.36666666666667],[-122.1,37.43333333333333],[-122.08555555555554,37.465833333333336],[-122.1,37.483333333333334],[-122.12444444444444,37.51083333333333],[-122.13333333333334,37.516666666666666],[-122.18388888888889,37.538333333333334],[-122.2,37.55],[-122.25,37.56666666666667],[-122.2936111111111,37.58444444444444],[-122.3,37.583333333333336],[-122.33472222222221,37.60166666666667],[-122.35,37.6]],"type":"LineString"}
}
