{
  "id": 2032018985,
  "type": "Feature",
  "properties": {
    "geom:area": 0,
    "geom:bbox": "-122.761570,37.397620,-122.108040,38.506510",
    "geom:latitude": 37.816317863498725,
    "geom:longitude": -122.4790428779219,
    "src:alt_label": "swim-approach",
    "src:geom": "swim",
    "swim:elevations": [
      7338,
      7311,
      7232,
      6756,
      6419,
      6003,
      5745,
      5564,
      5135,
      4773,
      4513,
      4230,
      3747,
      3353,
      3353,
      3353,
      3353,
      3295,
      3063,
      2664,
      2513,
      2428,
      2206,
      2002,
      1967,
      1622,
      1613,
      1528,
      1373,
      1294,
      1135,
      1010,
      827,
      683,
      634,
      482,
      466,
      334,
      240,
      174,
      42
    ],
    "swim:geom": "approach",
    "swim:timestamps": [
      1785350995,
      1785350998,
      1785351007,
      1785351058,
      1785351096,
      1785351143,
      1785351172,
      1785351190,
      1785351235,
      1785351280,
      1785351312,
      1785351362,
      1785351434,
      1785351504,
      1785351555,
      1785351586,
      1785351607,
      1785351639,
      1785351684,
      1785351744,
      1785351771,
      1785351788,
      1785351828,
      1785351866,
      1785351872,
      1785351928,
      1785351931,
      1785351954,
      1785351986,
      1785352000,
      1785352041,
      1785352060,
      1785352083,
      1785352107,
      1785352123,
      1785352151,
      1785352160,
      1785352198,
      1785352225,
      1785352242,
      1785352275
    ],
    "wof:geomhash": "fa64c3cf125d9097db09fe7c4d19442e",
    "wof:id": 2032018985,
    "wof:repo": "sfomuseum-data-flights-2026-07"
  },
  "bbox": [
    -122.76157,
    37.39762,
    -122.10804,
    38.50651
  ],
  "geometry": {"coordinates":[[-122.68885,38.50651],[-122.69037,38.50114],[-122.69481,38.48562],[-122.72001,38.39525],[-122.73864,38.32841],[-122.76077,38.24984],[-122.76157,38.20004],[-122.75126,38.16884],[-122.72923,38.09291],[-122.70819,38.01947],[-122.69334,37.96861],[-122.66545,37.89157],[-122.57519,37.80672],[-122.49253,37.72853],[-122.43681,37.67627],[-122.40664,37.64792],[-122.38624,37.62866],[-122.35635,37.59797],[-122.33131,37.54969],[-122.29341,37.48474],[-122.27587,37.45614],[-122.2644,37.43855],[-122.21522,37.41456],[-122.16472,37.39823],[-122.157,37.39762],[-122.1085,37.43863],[-122.10804,37.44203],[-122.11324,37.46488],[-122.12365,37.49363],[-122.12813,37.50623],[-122.16206,37.53137],[-122.18147,37.53953],[-122.20482,37.54941],[-122.22788,37.5592],[-122.24215,37.56522],[-122.26571,37.57511],[-122.27287,37.57818],[-122.29879,37.58905],[-122.31662,37.59652],[-122.32795,37.60129],[-122.35146,37.61112]],"type":"LineString"}
}
