{
  "id": 2032039133,
  "type": "Feature",
  "properties": {
    "geom:area": 0,
    "geom:bbox": "-122.553889,33.266667,-112.046111,37.669167",
    "geom:latitude": 35.00802007721282,
    "geom:longitude": -117.53696591879061,
    "src:alt_label": "swim-path",
    "src:geom": "swim",
    "swim:altitudes": [
      "020",
      "027",
      "054",
      "079",
      "108",
      "139",
      "166",
      "196",
      "221",
      "244",
      "265",
      "284",
      "302",
      "321",
      "338",
      "353",
      "371",
      "390C",
      "390C",
      "390C",
      "390C",
      "390C",
      "390C",
      "390C",
      "390C",
      "390C",
      "390C",
      "390C",
      "390C",
      "390",
      "390C",
      "390",
      "390C",
      "390C",
      "390",
      "390",
      "390C",
      "390",
      "390C",
      "390",
      "390C",
      "390C",
      "390C",
      "390C",
      "390C",
      "390C",
      "390C",
      "390C",
      "390C",
      "390C",
      "390C",
      "390C",
      "390C",
      "390C",
      "390C",
      "390C",
      "390C",
      "390C",
      "390C",
      "390C",
      "390C",
      "390C",
      "390",
      "389",
      "366",
      "340",
      "308",
      "287",
      "284",
      "263",
      "250",
      "250",
      "250",
      "245",
      "223",
      "208",
      "186",
      "162",
      "162",
      "158",
      "148",
      "144",
      "129",
      "125",
      "115",
      "105",
      "102",
      "088",
      "082",
      "072",
      "069",
      "061",
      "058",
      "051",
      "046",
      "038",
      "028",
      "025",
      "020",
      "018",
      "014"
    ],
    "swim:geom": "path",
    "swim:speeds": [
      164,
      189,
      225,
      275,
      315,
      356,
      357,
      379,
      401,
      421,
      443,
      460,
      476,
      489,
      489,
      494,
      495,
      476,
      473,
      470,
      468,
      466,
      466,
      465,
      465,
      465,
      465,
      465,
      465,
      466,
      465,
      465,
      465,
      464,
      463,
      461,
      463,
      461,
      461,
      459,
      459,
      458,
      458,
      459,
      460,
      461,
      460,
      460,
      460,
      460,
      460,
      460,
      459,
      458,
      456,
      456,
      457,
      458,
      460,
      462,
      462,
      463,
      462,
      461,
      458,
      459,
      459,
      458,
      454,
      438,
      422,
      420,
      421,
      420,
      409,
      386,
      381,
      377,
      377,
      350,
      351,
      345,
      344,
      337,
      323,
      297,
      288,
      282,
      272,
      254,
      247,
      249,
      241,
      234,
      236,
      224,
      192,
      168,
      140,
      127,
      129
    ],
    "swim:timestamps": [
      1785415642,
      1785415670,
      1785415730,
      1785415790,
      1785415850,
      1785415910,
      1785415969,
      1785416029,
      1785416089,
      1785416149,
      1785416209,
      1785416269,
      1785416329,
      1785416391,
      1785416449,
      1785416509,
      1785416569,
      1785416690,
      1785416750,
      1785416810,
      1785416870,
      1785416930,
      1785416990,
      1785417050,
      1785417110,
      1785417170,
      1785417230,
      1785417290,
      1785417350,
      1785417375,
      1785417410,
      1785417435,
      1785417470,
      1785417531,
      1785417555,
      1785417615,
      1785417651,
      1785417681,
      1785417711,
      1785417741,
      1785417831,
      1785417951,
      1785418011,
      1785418131,
      1785418191,
      1785418251,
      1785418311,
      1785418372,
      1785418432,
      1785418492,
      1785418552,
      1785418612,
      1785418672,
      1785418732,
      1785418792,
      1785418852,
      1785418912,
      1785418972,
      1785419032,
      1785419093,
      1785419153,
      1785419213,
      1785419273,
      1785419333,
      1785419393,
      1785419444,
      1785419513,
      1785419564,
      1785419573,
      1785419624,
      1785419694,
      1785419744,
      1785419754,
      1785419874,
      1785419924,
      1785419984,
      1785420045,
      1785420105,
      1785420114,
      1785420135,
      1785420165,
      1785420177,
      1785420225,
      1785420237,
      1785420285,
      1785420345,
      1785420357,
      1785420423,
      1785420465,
      1785420525,
      1785420543,
      1785420585,
      1785420604,
      1785420646,
      1785420664,
      1785420706,
      1785420766,
      1785420784,
      1785420826,
      1785420844,
      1785420886
    ],
    "wof:geomhash": "9c37f555dd912b67464aeb5a703f82d8",
    "wof:id": 2032039133,
    "wof:repo": "sfomuseum-data-flights-2026-07"
  },
  "bbox": [
    -122.55388888888889,
    33.266666666666666,
    -112.0461111111111,
    37.66916666666666
  ],
  "geometry": {"coordinates":[[-122.41666666666667,37.63333333333333],[-122.43083333333334,37.6425],[-122.49694444444445,37.66916666666666],[-122.55388888888889,37.626111111111115],[-122.5111111111111,37.551111111111105],[-122.44500000000001,37.469722222222224],[-122.35916666666667,37.40472222222222],[-122.25194444444445,37.33722222222222],[-122.13833333333334,37.2675],[-122.02083333333333,37.192499999999995],[-121.90083333333334,37.11194444444445],[-121.77555555555556,37.02833333333333],[-121.64305555555556,36.945277777777775],[-121.49944444444445,36.853611111111114],[-121.37916666666666,36.77166666666667],[-121.24638888888889,36.68222222222222],[-121.11416666666666,36.59388888888889],[-120.85499999999999,36.42111111111111],[-120.7325,36.338055555555556],[-120.60888888888888,36.25388888888889],[-120.48666666666666,36.17027777777778],[-120.36472222222221,36.086666666666666],[-120.23083333333334,36.0175],[-120.08666666666666,35.95861111111111],[-119.94444444444444,35.900277777777774],[-119.8,35.840833333333336],[-119.65833333333335,35.782222222222224],[-119.51777777777778,35.72361111111111],[-119.37416666666665,35.66361111111111],[-119.30277777777778,35.63361111111111],[-119.23361111111112,35.60472222222222],[-119.16333333333334,35.57333333333334],[-119.09166666666667,35.544999999999995],[-118.94777777777779,35.48416666666667],[-118.88277777777778,35.45611111111111],[-118.74138888888889,35.39527777777778],[-118.67416666666666,35.3675],[-118.58999999999999,35.33027777777778],[-118.53083333333333,35.30583333333333],[-118.45166666666667,35.271388888888886],[-118.24583333333334,35.183611111111105],[-117.97111111111111,35.06388888888888],[-117.83777777777777,35.005833333333335],[-117.56916666666666,34.8875],[-117.43388888888889,34.82777777777778],[-117.29527777777777,34.76611111111111],[-117.1613888888889,34.70638888888889],[-117.025,34.64527777777778],[-116.8888888888889,34.58416666666667],[-116.75333333333333,34.52305555555555],[-116.61861111111111,34.46194444444445],[-116.48222222222222,34.4],[-116.34888888888888,34.33888888888889],[-116.21361111111112,34.276944444444446],[-116.08083333333333,34.215833333333336],[-115.94722222222222,34.153888888888886],[-115.81055555555555,34.090833333333336],[-115.67666666666668,34.02861111111111],[-115.54055555555556,33.965],[-115.40583333333333,33.901666666666664],[-115.27,33.83777777777778],[-115.13527777777779,33.774166666666666],[-115.00222222222222,33.71083333333333],[-114.86888888888888,33.6475],[-114.73194444444445,33.59166666666667],[-114.60472222222222,33.56583333333333],[-114.43583333333333,33.5325],[-114.30666666666666,33.507222222222225],[-114.28805555555556,33.50361111111111],[-114.16416666666667,33.47916666666667],[-114.0111111111111,33.44833333333333],[-113.89027777777778,33.424166666666665],[-113.87444444444444,33.42111111111111],[-113.60444444444444,33.36666666666667],[-113.48666666666666,33.3425],[-113.35888888888888,33.31944444444445],[-113.2375,33.29861111111111],[-113.11305555555555,33.28055555555555],[-113.11194444444443,33.280277777777776],[-113.05,33.266666666666666],[-112.99722222222222,33.27611111111111],[-112.96666666666667,33.28333333333333],[-112.88277777777778,33.27916666666667],[-112.85,33.28333333333333],[-112.7786111111111,33.29666666666667],[-112.68472222222222,33.33166666666667],[-112.66666666666667,33.333333333333336],[-112.56666666666666,33.38333333333333],[-112.51833333333333,33.39527777777778],[-112.44083333333333,33.422777777777775],[-112.41666666666667,33.43333333333333],[-112.36055555555555,33.42833333333333],[-112.33333333333333,33.43333333333333],[-112.28055555555555,33.42861111111111],[-112.25,33.43333333333333],[-112.20361111111112,33.42861111111111],[-112.1388888888889,33.42861111111111],[-112.11666666666666,33.43333333333333],[-112.08805555555556,33.428888888888885],[-112.06666666666666,33.43333333333333],[-112.0461111111111,33.428888888888885]],"type":"LineString"}
}
