{
  "id": 2031953945,
  "type": "Feature",
  "properties": {
    "geom:area": 0,
    "geom:bbox": "-122.367490,37.449280,-121.276750,37.615630",
    "geom:latitude": 37.52643803755632,
    "geom:longitude": -121.82784508511169,
    "src:alt_label": "swim-approach",
    "src:geom": "swim",
    "swim:elevations": [
      5016,
      4939,
      4514,
      4294,
      4073,
      3918,
      3810,
      3801,
      3777,
      3693,
      3583,
      3382,
      3157,
      3062,
      2956,
      2889,
      2745,
      2712,
      2549,
      2379,
      2147,
      1990,
      1880,
      1789,
      1742,
      1718,
      1552,
      1431,
      1250,
      1090,
      968,
      756,
      526,
      454,
      358,
      244,
      186,
      63,
      1655
    ],
    "swim:geom": "approach",
    "swim:timestamps": [
      1784935675,
      1784935686,
      1784935734,
      1784935762,
      1784935789,
      1784935809,
      1784935858,
      1784935864,
      1784935867,
      1784935888,
      1784935912,
      1784935944,
      1784935976,
      1784935990,
      1784936010,
      1784936022,
      1784936051,
      1784936059,
      1784936088,
      1784936122,
      1784936158,
      1784936185,
      1784936212,
      1784936241,
      1784936247,
      1784936250,
      1784936277,
      1784936298,
      1784936337,
      1784936366,
      1784936381,
      1784936409,
      1784936449,
      1784936475,
      1784936503,
      1784936531,
      1784936551,
      1784936583,
      1784936606
    ],
    "wof:geomhash": "965776c09a648012c71b14faa88c2a9c",
    "wof:id": 2031953945,
    "wof:repo": "sfomuseum-data-flights-2026-07"
  },
  "bbox": [
    -122.36749,
    37.44928,
    -121.27675,
    37.61563
  ],
  "geometry": {"coordinates":[[-121.27675,37.59111],[-121.29564,37.58871],[-121.38216,37.57906],[-121.43332,37.57318],[-121.47915,37.5679],[-121.51476,37.5638],[-121.59458,37.5544],[-121.60357,37.55318],[-121.60797,37.55235],[-121.63279,37.53903],[-121.65699,37.52047],[-121.68959,37.49555],[-121.72186,37.47192],[-121.74046,37.46783],[-121.76923,37.46636],[-121.78623,37.46561],[-121.82709,37.46372],[-121.83807,37.46324],[-121.87607,37.45907],[-121.92007,37.44978],[-121.9684,37.44928],[-122.00106,37.46332],[-122.0331,37.4769],[-122.06544,37.49059],[-122.07189,37.49335],[-122.07508,37.49471],[-122.1036,37.5068],[-122.12568,37.51604],[-122.16434,37.53239],[-122.19047,37.5434],[-122.20357,37.54895],[-122.22758,37.55899],[-122.25962,37.57258],[-122.27813,37.58042],[-122.29617,37.58803],[-122.31425,37.59555],[-122.32725,37.60096],[-122.3487,37.61002],[-122.36749,37.61563]],"type":"LineString"}
}
