{
  "id": 2031991565,
  "type": "Feature",
  "properties": {
    "geom:area": 0,
    "geom:bbox": "-123.517778,37.521944,-122.100000,49.157222",
    "geom:latitude": 43.17828686874795,
    "geom:longitude": -123.18376041101142,
    "src:alt_label": "swim-path",
    "src:geom": "swim",
    "swim:altitudes": [
      "041",
      "067",
      "070",
      "095",
      "118",
      "144",
      "190",
      "214",
      "250",
      "265",
      "311",
      "325",
      "340",
      "352",
      "362",
      "370C",
      "370C",
      "370C",
      "370C",
      "370C",
      "370C",
      "370C",
      "370C",
      "370C",
      "370C",
      "370C",
      "370C",
      "370C",
      "370C",
      "370C",
      "370C",
      "370C",
      "370C",
      "370C",
      "370C",
      "370C",
      "370C",
      "370C",
      "370C",
      "370C",
      "370C",
      "370C",
      "370C",
      "370C",
      "370C",
      "370C",
      "370C",
      "370C",
      "370C",
      "370C",
      "370C",
      "370C",
      "370C",
      "370C",
      "370C",
      "370C",
      "370C",
      "370C",
      "370C",
      "370C",
      "370C",
      "370C",
      "370C",
      "370C",
      "370C",
      "370C",
      "370C",
      "370C",
      "370C",
      "370C",
      "370C",
      "370C",
      "370C",
      "370C",
      "370C",
      "370C",
      "370C",
      "370C",
      "370C",
      "370C",
      "370",
      "337",
      "327",
      "304",
      "280",
      "264",
      "240",
      "210",
      "187",
      "180",
      "172",
      "164",
      "143",
      "135",
      "125",
      "118",
      "109",
      "110C",
      "106",
      "101",
      "093",
      "073",
      "060",
      "047",
      "037",
      "031",
      "030",
      "023",
      "020",
      "011",
      "007",
      "003"
    ],
    "swim:geom": "path",
    "swim:speeds": [
      225,
      259,
      263,
      270,
      310,
      335,
      376,
      383,
      398,
      415,
      431,
      431,
      427,
      424,
      423,
      422,
      422,
      422,
      421,
      421,
      422,
      423,
      424,
      425,
      426,
      428,
      429,
      431,
      431,
      432,
      433,
      434,
      436,
      437,
      438,
      438,
      438,
      437,
      436,
      435,
      434,
      434,
      434,
      436,
      441,
      442,
      443,
      444,
      444,
      444,
      442,
      443,
      442,
      437,
      434,
      434,
      434,
      432,
      431,
      430,
      429,
      413,
      409,
      407,
      405,
      404,
      403,
      404,
      401,
      399,
      398,
      396,
      396,
      394,
      392,
      387,
      384,
      384,
      380,
      380,
      382,
      438,
      442,
      440,
      435,
      420,
      411,
      370,
      341,
      331,
      329,
      321,
      324,
      323,
      312,
      310,
      306,
      282,
      256,
      258,
      250,
      250,
      245,
      235,
      228,
      226,
      188,
      184,
      180,
      165,
      154,
      151
    ],
    "swim:timestamps": [
      1785174636,
      1785174696,
      1785174756,
      1785174816,
      1785174876,
      1785174936,
      1785175056,
      1785175116,
      1785175237,
      1785175297,
      1785175477,
      1785175537,
      1785175597,
      1785175657,
      1785175717,
      1785175777,
      1785175837,
      1785175897,
      1785175957,
      1785176018,
      1785176078,
      1785176138,
      1785176198,
      1785176258,
      1785176318,
      1785176378,
      1785176438,
      1785176558,
      1785176618,
      1785176678,
      1785176739,
      1785176799,
      1785176919,
      1785176979,
      1785177039,
      1785177099,
      1785177159,
      1785177219,
      1785177279,
      1785177339,
      1785177399,
      1785177459,
      1785177520,
      1785177580,
      1785177760,
      1785177820,
      1785177880,
      1785177946,
      1785178000,
      1785178060,
      1785178120,
      1785178126,
      1785178187,
      1785178240,
      1785178247,
      1785178307,
      1785178361,
      1785178421,
      1785178487,
      1785178547,
      1785178607,
      1785178667,
      1785178727,
      1785178787,
      1785178847,
      1785178901,
      1785178968,
      1785179028,
      1785179088,
      1785179142,
      1785179148,
      1785179202,
      1785179208,
      1785179268,
      1785179328,
      1785179448,
      1785179502,
      1785179508,
      1785179568,
      1785179629,
      1785179749,
      1785180109,
      1785180169,
      1785180229,
      1785180290,
      1785180350,
      1785180410,
      1785180530,
      1785180590,
      1785180614,
      1785180650,
      1785180675,
      1785180735,
      1785180770,
      1785180795,
      1785180830,
      1785180855,
      1785180890,
      1785180920,
      1785180950,
      1785180975,
      1785181071,
      1785181131,
      1785181191,
      1785181221,
      1785181251,
      1785181275,
      1785181341,
      1785181371,
      1785181431,
      1785181455,
      1785181491
    ],
    "wof:geomhash": "1dd7dc643b8125132b6091f17efaac53",
    "wof:id": 2031991565,
    "wof:repo": "sfomuseum-data-flights-2026-07"
  },
  "bbox": [
    -123.51777777777778,
    37.52194444444444,
    -122.1,
    49.157222222222224
  ],
  "geometry": {"coordinates":[[-123.04861111111111,49.157222222222224],[-123.03777777777778,49.093333333333334],[-123.08972222222222,49.02916666666667],[-123.18972222222223,48.99805555555556],[-123.31055555555555,48.96611111111111],[-123.43944444444445,48.93055555555555],[-123.51777777777778,48.75666666666667],[-123.50972222222222,48.65277777777778],[-123.4961111111111,48.448055555555555],[-123.48805555555556,48.33111111111111],[-123.46277777777777,47.95666666666667],[-123.45472222222223,47.837500000000006],[-123.44694444444445,47.721944444444446],[-123.43944444444445,47.60416666666667],[-123.43194444444445,47.48833333333334],[-123.42416666666666,47.37111111111111],[-123.41694444444445,47.256388888888885],[-123.40916666666668,47.13861111111111],[-123.40555555555557,47.022777777777776],[-123.40166666666667,46.906388888888884],[-123.39777777777779,46.78916666666667],[-123.39416666666668,46.67194444444444],[-123.39055555555557,46.55472222222222],[-123.38694444444445,46.434999999999995],[-123.38333333333334,46.327222222222225],[-123.37972222222221,46.208333333333336],[-123.3761111111111,46.088055555555556],[-123.36861111111111,45.84861111111111],[-123.36527777777778,45.72944444444445],[-123.36166666666666,45.6075],[-123.35805555555555,45.48638888888889],[-123.35444444444444,45.36694444444444],[-123.34722222222221,45.12138888888889],[-123.34333333333333,44.99722222222222],[-123.33972222222222,44.873333333333335],[-123.33638888888889,44.75],[-123.33277777777778,44.62777777777778],[-123.32916666666667,44.50527777777778],[-123.32416666666666,44.38444444444444],[-123.31944444444444,44.265],[-123.31472222222222,44.14361111111111],[-123.31027777777777,44.03333333333333],[-123.30583333333333,43.91027777777778],[-123.30083333333333,43.78861111111111],[-123.2863888888889,43.42194444444444],[-123.28166666666667,43.299166666666665],[-123.27666666666667,43.17472222222222],[-123.26805555555555,43.01638888888889],[-123.26722222222222,42.92666666666666],[-123.2625,42.80305555555555],[-123.25777777777778,42.67722222222222],[-123.25555555555556,42.64833333333333],[-123.25,42.52611111111111],[-123.24861111111112,42.43],[-123.24583333333334,42.406666666666666],[-123.24305555555556,42.2875],[-123.24,42.19888888888889],[-123.23527777777778,42.07055555555556],[-123.23027777777779,41.93833333333333],[-123.22583333333334,41.818333333333335],[-123.22166666666666,41.70055555555556],[-123.2175,41.58527777777778],[-123.21388888888889,41.47222222222222],[-123.20972222222223,41.36027777777778],[-123.20666666666666,41.24861111111111],[-123.20416666666667,41.1475],[-123.20055555555555,41.013333333333335],[-123.19777777777779,40.90083333333333],[-123.19527777777778,40.78777777777778],[-123.19305555555556,40.70138888888889],[-123.19277777777778,40.69277777777778],[-123.19027777777778,40.59],[-123.19,40.58444444444444],[-123.18722222222223,40.474722222222226],[-123.18472222222222,40.3675],[-123.17944444444444,40.155],[-123.17694444444444,40.051111111111105],[-123.17666666666668,40.04972222222222],[-123.17333333333333,39.92361111111111],[-123.16805555555555,39.81916666666667],[-123.15833333333335,39.60638888888889],[-123.03166666666667,38.96388888888889],[-122.95583333333333,38.85666666666667],[-122.91833333333334,38.73638888888889],[-122.88361111111112,38.620555555555555],[-122.84972222222221,38.50555555555555],[-122.8175,38.394999999999996],[-122.76194444444444,38.205000000000005],[-122.72972222222222,38.093611111111116],[-122.71666666666667,38.05],[-122.70416666666667,38.005833333333335],[-122.68333333333334,37.96666666666667],[-122.65,37.88333333333333],[-122.62027777777777,37.85],[-122.58333333333333,37.81666666666667],[-122.55138888888888,37.78444444444444],[-122.51666666666667,37.75],[-122.48388888888888,37.72138888888889],[-122.43333333333334,37.7],[-122.4025,37.69194444444444],[-122.35,37.68333333333333],[-122.24194444444444,37.63861111111111],[-122.16305555555556,37.613055555555555],[-122.10166666666666,37.57361111111111],[-122.1,37.53333333333333],[-122.12583333333333,37.52194444444444],[-122.16666666666667,37.53333333333333],[-122.23333333333333,37.56666666666667],[-122.24472222222222,37.566111111111105],[-122.29555555555555,37.58777777777778],[-122.31666666666666,37.6],[-122.3425,37.6075]],"type":"LineString"}
}
