{
  "id": 2032054337,
  "type": "Feature",
  "properties": {
    "geom:area": 0,
    "geom:bbox": "-122.549440,36.745480,-121.261820,37.667120",
    "geom:latitude": 37.217596149666264,
    "geom:longitude": -121.95935403290765,
    "src:alt_label": "swim-takeoff",
    "src:geom": "swim",
    "swim:elevations": [
      122,
      300,
      885,
      1061,
      1248,
      1901,
      1953,
      2947,
      3246,
      3371,
      3743,
      3936,
      5395,
      5651,
      5930,
      6152,
      6279,
      6612,
      6663,
      7152,
      7562,
      8193,
      8294,
      8459,
      8500,
      8829,
      8875,
      183,
      598,
      798,
      1096,
      1153,
      1397,
      1819,
      2137,
      2907,
      3234,
      3470,
      4081,
      4207,
      4394,
      4650,
      5152,
      5568,
      5832,
      6174,
      6441,
      6625,
      6933,
      7013,
      7197,
      7461,
      7695,
      7817,
      7900,
      8100,
      8421,
      8501,
      8618,
      8776,
      8892,
      9017
    ],
    "swim:geom": "takeoff",
    "swim:timestamps": [
      1785483627,
      1785483641,
      1785483682,
      1785483698,
      1785483724,
      1785483776,
      1785483782,
      1785483860,
      1785483886,
      1785483908,
      1785483952,
      1785483968,
      1785484106,
      1785484137,
      1785484164,
      1785484193,
      1785484208,
      1785484247,
      1785484253,
      1785484313,
      1785484374,
      1785484431,
      1785484443,
      1785484468,
      1785484474,
      1785484528,
      1785484535,
      1785565658,
      1785565690,
      1785565707,
      1785565734,
      1785565743,
      1785565776,
      1785565814,
      1785565835,
      1785565885,
      1785565907,
      1785565925,
      1785565973,
      1785565991,
      1785566015,
      1785566041,
      1785566089,
      1785566125,
      1785566147,
      1785566180,
      1785566207,
      1785566228,
      1785566266,
      1785566278,
      1785566305,
      1785566338,
      1785566365,
      1785566378,
      1785566389,
      1785566411,
      1785566452,
      1785566461,
      1785566483,
      1785566511,
      1785566529,
      1785566552
    ],
    "wof:geomhash": "333b4d8c592ddd2082bab5e55b5e801e",
    "wof:id": 2032054337,
    "wof:repo": "sfomuseum-data-flights-2026-07"
  },
  "bbox": [
    -122.54944,
    36.74548,
    -121.26182,
    37.66712
  ],
  "geometry": {"coordinates":[[-122.38247,37.62181],[-122.39317,37.62639],[-122.42609,37.64065],[-122.43873,37.64594],[-122.46353,37.65711],[-122.52899,37.66166],[-122.53554,37.65695],[-122.5145,37.56523],[-122.49717,37.53273],[-122.48127,37.50206],[-122.42024,37.44867],[-122.39405,37.4303],[-122.16358,37.26057],[-122.11056,37.2212],[-122.06108,37.1845],[-122.00951,37.1463],[-121.98303,37.12678],[-121.91175,37.07355],[-121.89915,37.06406],[-121.7879,36.98062],[-121.66783,36.89913],[-121.52552,36.86795],[-121.4956,36.86277],[-121.43249,36.85195],[-121.41712,36.84934],[-121.27961,36.82388],[-121.26182,36.8207],[-122.3955,37.62725],[-122.4246,37.64007],[-122.43962,37.64666],[-122.46527,37.65785],[-122.47447,37.66187],[-122.51759,37.66712],[-122.54944,37.63035],[-122.53824,37.60387],[-122.47614,37.55549],[-122.44836,37.53394],[-122.4258,37.51648],[-122.36395,37.46849],[-122.3394,37.44944],[-122.30459,37.42215],[-122.26606,37.39192],[-122.19277,37.33447],[-122.13627,37.29035],[-122.10194,37.26326],[-122.05045,37.22283],[-122.00726,37.18881],[-121.96846,37.16653],[-121.89017,37.13148],[-121.86506,37.12033],[-121.80829,37.09505],[-121.73631,37.06328],[-121.68173,37.03071],[-121.658,37.01172],[-121.6418,36.99621],[-121.60566,36.96315],[-121.53799,36.90124],[-121.52335,36.88755],[-121.48534,36.85271],[-121.43824,36.80957],[-121.40706,36.78105],[-121.36858,36.74548]],"type":"LineString"}
}
