{
  "id": 2032007113,
  "type": "Feature",
  "properties": {
    "geom:area": 0,
    "geom:bbox": "-122.614444,37.628056,-73.450278,43.856111",
    "geom:latitude": 42.29641354070008,
    "geom:longitude": -97.80155230172457,
    "src:alt_label": "swim-path",
    "src:geom": "swim",
    "swim:altitudes": [
      "009",
      "024",
      "040",
      "060",
      "081",
      "101",
      "111",
      "126",
      "143",
      "159",
      "174",
      "189",
      "203",
      "215",
      "225",
      "237",
      "243",
      "263",
      "263",
      "271",
      "271",
      "278",
      "285",
      "285",
      "291",
      "296",
      "297",
      "304",
      "306",
      "312",
      "314",
      "320",
      "325",
      "326",
      "330C",
      "330C",
      "330C",
      "330C",
      "330C",
      "330C",
      "330C",
      "330C",
      "330C",
      "330C",
      "330C",
      "330C",
      "330C",
      "330C",
      "330C",
      "330C",
      "330C",
      "330C",
      "330C",
      "330C",
      "330C",
      "330C",
      "330C",
      "330C",
      "330C",
      "330C",
      "330C",
      "330C",
      "330C",
      "330C",
      "330C",
      "330C",
      "330C",
      "330C",
      "330C",
      "330C",
      "330C",
      "330C",
      "330C",
      "330C",
      "330C",
      "330C",
      "330C",
      "330C",
      "330C",
      "330C",
      "330C",
      "330C",
      "330C",
      "330C",
      "330C",
      "330C",
      "330C",
      "330C",
      "330C",
      "330C",
      "330C",
      "330C",
      "330C",
      "330C",
      "330C",
      "330C",
      "330C",
      "330C",
      "330C",
      "330C",
      "330C",
      "330C",
      "330C",
      "330C",
      "330C",
      "330C",
      "330C",
      "330C",
      "330C",
      "330C",
      "330C",
      "330C",
      "330C",
      "330C",
      "330C",
      "330C",
      "330C",
      "330C",
      "330C",
      "330C",
      "330C",
      "330C",
      "330C",
      "330C",
      "330C",
      "330C",
      "330C",
      "330C",
      "330C",
      "330C",
      "330C",
      "330C",
      "330C",
      "330C",
      "330C",
      "330C",
      "332",
      "336",
      "341",
      "346",
      "350C",
      "350C",
      "350C",
      "350C",
      "350C",
      "350C",
      "350C",
      "350C",
      "350C",
      "350C",
      "350C",
      "350C",
      "350C",
      "350C",
      "350C",
      "350C",
      "350C",
      "350C",
      "350C",
      "350C",
      "350C",
      "350C",
      "350C",
      "350C",
      "350C",
      "350C",
      "350C",
      "350C",
      "350C",
      "350C",
      "350C",
      "350C",
      "350C",
      "350C",
      "350C",
      "350C",
      "350C",
      "350C",
      "350C",
      "350C",
      "350C",
      "350C",
      "350C",
      "350C",
      "350C",
      "350C",
      "350C",
      "350C",
      "350C",
      "350C",
      "350C",
      "350C",
      "350C",
      "350C",
      "350C",
      "350C",
      "350C",
      "350C",
      "350C",
      "350C",
      "350C",
      "350C",
      "350C",
      "350C",
      "350C",
      "350C",
      "350C",
      "350C",
      "350C",
      "350C",
      "350C",
      "350C",
      "350C",
      "350C",
      "350C",
      "350C",
      "350C",
      "350C",
      "350C",
      "350C",
      "350C",
      "350C",
      "350C",
      "350C",
      "350C",
      "350C",
      "350C",
      "350C",
      "350C",
      "350C",
      "350C",
      "350C",
      "350C",
      "350C",
      "350C",
      "350C",
      "350C",
      "350C",
      "350C",
      "350C",
      "350C",
      "350C",
      "350C",
      "350C",
      "350C",
      "350C",
      "350C",
      "350C",
      "350C",
      "350C",
      "350C",
      "350C",
      "350C",
      "350C",
      "350C",
      "350C",
      "350C",
      "350C",
      "350C",
      "350C",
      "350C",
      "358",
      "365",
      "370C",
      "370C",
      "370C",
      "370C",
      "370C",
      "370C",
      "370C",
      "370C",
      "370C",
      "370C",
      "370C",
      "370C",
      "370C",
      "370C",
      "370C",
      "370C",
      "370C",
      "370C",
      "370C",
      "370C",
      "370C",
      "370C",
      "370C",
      "370C",
      "370C",
      "370C",
      "370C",
      "370C",
      "370C",
      "370C",
      "370C",
      "370C",
      "370C",
      "370C",
      "370C",
      "370C",
      "370C",
      "370C",
      "370C",
      "370C",
      "370C",
      "370C",
      "370C",
      "370C",
      "370C",
      "370",
      "367",
      "366",
      "362",
      "358",
      "356",
      "352C",
      "351C",
      "350",
      "350",
      "348",
      "347",
      "343",
      "342",
      "338",
      "337",
      "332",
      "311",
      "289",
      "266",
      "246",
      "226",
      "203",
      "200",
      "200",
      "194",
      "190C",
      "190C",
      "190C",
      "190C",
      "190",
      "189C",
      "186",
      "174",
      "161",
      "160",
      "156",
      "146",
      "144",
      "141",
      "130",
      "125",
      "112",
      "104",
      "093",
      "088",
      "075",
      "071",
      "058",
      "056",
      "053",
      "042",
      "040",
      "040",
      "040",
      "040",
      "038",
      "037",
      "028",
      "027",
      "020",
      "020",
      "020",
      "020",
      "013",
      "006"
    ],
    "swim:geom": "path",
    "swim:speeds": [
      160,
      195,
      245,
      267,
      276,
      295,
      340,
      365,
      376,
      384,
      397,
      407,
      414,
      425,
      436,
      444,
      461,
      476,
      482,
      482,
      482,
      482,
      494,
      490,
      499,
      506,
      505,
      508,
      507,
      509,
      508,
      508,
      510,
      508,
      511,
      509,
      512,
      510,
      515,
      518,
      517,
      521,
      518,
      516,
      517,
      515,
      516,
      514,
      514,
      515,
      512,
      513,
      511,
      511,
      510,
      510,
      510,
      510,
      510,
      510,
      508,
      507,
      508,
      508,
      508,
      508,
      508,
      508,
      509,
      510,
      510,
      510,
      509,
      509,
      509,
      506,
      505,
      504,
      501,
      501,
      499,
      497,
      496,
      496,
      497,
      498,
      512,
      514,
      515,
      516,
      518,
      518,
      518,
      518,
      517,
      516,
      516,
      515,
      516,
      515,
      512,
      511,
      512,
      513,
      514,
      516,
      514,
      517,
      517,
      519,
      523,
      522,
      525,
      526,
      526,
      527,
      526,
      526,
      526,
      527,
      528,
      528,
      528,
      528,
      527,
      527,
      527,
      527,
      523,
      522,
      522,
      523,
      523,
      524,
      524,
      523,
      523,
      523,
      522,
      522,
      523,
      524,
      526,
      526,
      527,
      526,
      526,
      528,
      527,
      528,
      527,
      527,
      527,
      526,
      526,
      525,
      525,
      526,
      526,
      525,
      525,
      525,
      524,
      524,
      523,
      524,
      524,
      525,
      526,
      528,
      530,
      531,
      533,
      534,
      535,
      535,
      535,
      536,
      537,
      537,
      538,
      539,
      539,
      539,
      532,
      531,
      531,
      530,
      529,
      530,
      530,
      532,
      533,
      534,
      534,
      536,
      535,
      536,
      536,
      537,
      538,
      538,
      539,
      539,
      539,
      539,
      539,
      539,
      541,
      541,
      542,
      540,
      538,
      537,
      537,
      537,
      537,
      538,
      547,
      549,
      550,
      550,
      551,
      551,
      551,
      550,
      550,
      549,
      550,
      552,
      549,
      550,
      551,
      552,
      551,
      550,
      549,
      549,
      548,
      547,
      548,
      551,
      551,
      551,
      549,
      548,
      544,
      543,
      544,
      532,
      529,
      523,
      518,
      509,
      508,
      510,
      511,
      511,
      511,
      513,
      513,
      511,
      505,
      505,
      507,
      509,
      505,
      497,
      493,
      494,
      493,
      494,
      494,
      494,
      494,
      495,
      494,
      488,
      481,
      481,
      480,
      481,
      481,
      481,
      482,
      481,
      482,
      480,
      481,
      482,
      482,
      483,
      484,
      484,
      483,
      483,
      483,
      482,
      478,
      477,
      474,
      473,
      472,
      471,
      470,
      467,
      466,
      465,
      465,
      458,
      458,
      461,
      462,
      462,
      464,
      465,
      467,
      466,
      454,
      453,
      453,
      453,
      453,
      453,
      454,
      467,
      469,
      457,
      444,
      429,
      391,
      390,
      390,
      384,
      381,
      380,
      361,
      348,
      340,
      338,
      336,
      327,
      311,
      316,
      314,
      306,
      310,
      310,
      307,
      307,
      302,
      307,
      308,
      309,
      299,
      297,
      293,
      296,
      295,
      291,
      290,
      279,
      268,
      253,
      223,
      217,
      178,
      181,
      165,
      169,
      148,
      152,
      139,
      138
    ],
    "swim:timestamps": [
      1785246686,
      1785246746,
      1785246806,
      1785246866,
      1785246926,
      1785246986,
      1785247046,
      1785247106,
      1785247166,
      1785247226,
      1785247286,
      1785247346,
      1785247406,
      1785247466,
      1785247526,
      1785247587,
      1785247647,
      1785247767,
      1785247778,
      1785247827,
      1785247838,
      1785247898,
      1785247947,
      1785247958,
      1785248019,
      1785248067,
      1785248079,
      1785248127,
      1785248139,
      1785248187,
      1785248199,
      1785248259,
      1785248307,
      1785248319,
      1785248367,
      1785248379,
      1785248427,
      1785248439,
      1785248487,
      1785248499,
      1785248547,
      1785248619,
      1785248679,
      1785248728,
      1785248739,
      1785248788,
      1785248800,
      1785248848,
      1785248908,
      1785248920,
      1785248968,
      1785248980,
      1785249028,
      1785249040,
      1785249088,
      1785249100,
      1785249148,
      1785249160,
      1785249208,
      1785249220,
      1785249280,
      1785249328,
      1785249340,
      1785249388,
      1785249400,
      1785249448,
      1785249460,
      1785249521,
      1785249581,
      1785249641,
      1785249701,
      1785249821,
      1785249881,
      1785249941,
      1785250001,
      1785250061,
      1785250181,
      1785250242,
      1785250362,
      1785250422,
      1785250482,
      1785250542,
      1785250602,
      1785250662,
      1785250722,
      1785250782,
      1785250842,
      1785250902,
      1785250962,
      1785251023,
      1785251143,
      1785251203,
      1785251263,
      1785251323,
      1785251383,
      1785251443,
      1785251503,
      1785251563,
      1785251623,
      1785251683,
      1785251744,
      1785251804,
      1785251864,
      1785251924,
      1785251984,
      1785252044,
      1785252083,
      1785252104,
      1785252143,
      1785252164,
      1785252203,
      1785252224,
      1785252284,
      1785252323,
      1785252344,
      1785252465,
      1785252503,
      1785252525,
      1785252585,
      1785252645,
      1785252683,
      1785252705,
      1785252743,
      1785252765,
      1785252803,
      1785252825,
      1785252864,
      1785252885,
      1785252924,
      1785252945,
      1785252984,
      1785253044,
      1785253104,
      1785253164,
      1785253224,
      1785253284,
      1785253344,
      1785253404,
      1785253464,
      1785253524,
      1785253585,
      1785253645,
      1785253765,
      1785253825,
      1785253885,
      1785253924,
      1785253984,
      1785254005,
      1785254045,
      1785254065,
      1785254105,
      1785254125,
      1785254165,
      1785254185,
      1785254225,
      1785254245,
      1785254306,
      1785254345,
      1785254366,
      1785254426,
      1785254465,
      1785254486,
      1785254525,
      1785254546,
      1785254585,
      1785254645,
      1785254666,
      1785254766,
      1785254826,
      1785254886,
      1785254946,
      1785255006,
      1785255126,
      1785255198,
      1785255258,
      1785255318,
      1785255378,
      1785255438,
      1785255511,
      1785255571,
      1785255631,
      1785255691,
      1785255811,
      1785255871,
      1785255931,
      1785255991,
      1785256051,
      1785256111,
      1785256171,
      1785256232,
      1785256292,
      1785256352,
      1785256424,
      1785256484,
      1785256544,
      1785256594,
      1785256604,
      1785256654,
      1785256664,
      1785256715,
      1785256775,
      1785256784,
      1785256835,
      1785256844,
      1785256904,
      1785256955,
      1785256965,
      1785257015,
      1785257085,
      1785257135,
      1785257145,
      1785257256,
      1785257325,
      1785257376,
      1785257385,
      1785257436,
      1785257445,
      1785257505,
      1785257565,
      1785257626,
      1785257676,
      1785257686,
      1785257746,
      1785257806,
      1785257857,
      1785257866,
      1785257917,
      1785257986,
      1785258037,
      1785258046,
      1785258106,
      1785258166,
      1785258226,
      1785258277,
      1785258286,
      1785258347,
      1785258397,
      1785258407,
      1785258458,
      1785258518,
      1785258578,
      1785258635,
      1785258695,
      1785258755,
      1785258815,
      1785258875,
      1785258935,
      1785258998,
      1785259115,
      1785259176,
      1785259236,
      1785259296,
      1785259356,
      1785259416,
      1785259476,
      1785259536,
      1785259596,
      1785259656,
      1785259716,
      1785259777,
      1785259837,
      1785259957,
      1785260017,
      1785260137,
      1785260197,
      1785260257,
      1785260317,
      1785260438,
      1785260479,
      1785260498,
      1785260540,
      1785260618,
      1785260720,
      1785260738,
      1785260780,
      1785260798,
      1785260858,
      1785260900,
      1785260978,
      1785261020,
      1785261038,
      1785261099,
      1785261140,
      1785261159,
      1785261201,
      1785261219,
      1785261261,
      1785261279,
      1785261323,
      1785261339,
      1785261383,
      1785261399,
      1785261441,
      1785261459,
      1785261504,
      1785261519,
      1785261564,
      1785261579,
      1785261624,
      1785261639,
      1785261684,
      1785261699,
      1785261760,
      1785261802,
      1785261820,
      1785261880,
      1785261940,
      1785261982,
      1785262000,
      1785262044,
      1785262060,
      1785262105,
      1785262162,
      1785262180,
      1785262225,
      1785262240,
      1785262285,
      1785262300,
      1785262342,
      1785262361,
      1785262405,
      1785262421,
      1785262463,
      1785262481,
      1785262525,
      1785262645,
      1785262703,
      1785262766,
      1785262826,
      1785262883,
      1785262958,
      1785263003,
      1785263018,
      1785263078,
      1785263124,
      1785263138,
      1785263184,
      1785263198,
      1785263233,
      1785263244,
      1785263258,
      1785263304,
      1785263353,
      1785263364,
      1785263378,
      1785263413,
      1785263424,
      1785263439,
      1785263484,
      1785263499,
      1785263533,
      1785263559,
      1785263593,
      1785263619,
      1785263664,
      1785263679,
      1785263713,
      1785263724,
      1785263739,
      1785263785,
      1785263799,
      1785263845,
      1785263859,
      1785263905,
      1785263953,
      1785263965,
      1785264013,
      1785264025,
      1785264074,
      1785264085,
      1785264193,
      1785264205,
      1785264265,
      1785264325
    ],
    "wof:geomhash": "bcd8d8e858b102b374172cc5e90b0220",
    "wof:id": 2032007113,
    "wof:repo": "sfomuseum-data-flights-2026-07"
  },
  "bbox": [
    -122.61444444444444,
    37.628055555555555,
    -73.45027777777779,
    43.85611111111111
  ],
  "geometry": {"coordinates":[[-122.39583333333334,37.628055555555555],[-122.45138888888889,37.651666666666664],[-122.52361111111111,37.68472222222222],[-122.60722222222222,37.71527777777778],[-122.61444444444444,37.78666666666666],[-122.53444444444445,37.834722222222226],[-122.43416666666667,37.87972222222222],[-122.32333333333332,37.928888888888885],[-122.20777777777778,37.980000000000004],[-122.08999999999999,38.03194444444444],[-121.96611111111112,38.08638888888889],[-121.84055555555555,38.14111111111111],[-121.71083333333334,38.19777777777777],[-121.58027777777778,38.25416666666667],[-121.44555555555556,38.3125],[-121.31638888888888,38.382222222222225],[-121.19305555555556,38.458333333333336],[-120.90444444444445,38.63583333333333],[-120.90055555555556,38.6375],[-120.77111111111111,38.7175],[-120.76611111111112,38.719722222222224],[-120.62805555555555,38.80333333333333],[-120.49361111111111,38.88583333333333],[-120.48833333333333,38.886944444444445],[-120.34638888888888,38.97361111111111],[-120.20527777777778,39.05916666666666],[-120.20222222222222,39.05972222222222],[-120.08555555555554,39.130833333333335],[-120.05666666666666,39.14666666666667],[-119.93972222222223,39.217777777777776],[-119.91277777777778,39.233333333333334],[-119.76722222222222,39.31944444444445],[-119.65,39.38944444444444],[-119.62138888888889,39.406388888888884],[-119.50222222222222,39.476111111111116],[-119.47333333333333,39.49277777777778],[-119.35333333333332,39.56333333333333],[-119.3261111111111,39.57944444444445],[-119.20444444444445,39.65],[-119.18083333333334,39.663888888888884],[-119.05277777777778,39.738055555555555],[-118.87249999999999,39.841944444444444],[-118.71527777777779,39.918055555555554],[-118.57888888888888,39.97361111111111],[-118.55111111111111,39.984722222222224],[-118.41583333333334,40.04],[-118.38611111111112,40.051944444444445],[-118.24972222222222,40.10666666666667],[-118.08305555555555,40.17361111111111],[-118.05944444444444,40.183055555555555],[-117.91444444444446,40.23083333333334],[-117.88722222222223,40.23888888888889],[-117.74666666666667,40.28111111111111],[-117.71666666666667,40.290277777777774],[-117.57555555555555,40.33222222222223],[-117.54222222222222,40.341944444444444],[-117.40111111111112,40.38361111111111],[-117.3711111111111,40.3925],[-117.2286111111111,40.43416666666666],[-117.19500000000001,40.443888888888885],[-117.02111111111111,40.49472222222222],[-116.87694444444443,40.53666666666666],[-116.8411111111111,40.54694444444444],[-116.69916666666667,40.58777777777778],[-116.66611111111112,40.59722222222222],[-116.52333333333333,40.63805555555555],[-116.49027777777778,40.6475],[-116.31694444444445,40.696666666666665],[-116.14250000000001,40.745555555555555],[-115.96527777777779,40.79527777777778],[-115.79083333333332,40.843611111111116],[-115.43861111111111,40.940555555555555],[-115.26277777777777,40.98833333333334],[-115.08805555555556,41.035555555555554],[-114.91027777777778,41.083333333333336],[-114.73722222222223,41.12916666666667],[-114.3863888888889,41.22166666666667],[-114.21000000000001,41.26777777777777],[-113.86305555555555,41.3575],[-113.69527777777778,41.41361111111111],[-113.52638888888889,41.47222222222222],[-113.36083333333333,41.528888888888886],[-113.19277777777778,41.58638888888889],[-113.02527777777777,41.64333333333333],[-112.85722222222222,41.7],[-112.68166666666667,41.75888888888889],[-112.5075,41.816944444444445],[-112.33194444444445,41.875],[-112.16333333333334,41.93055555555555],[-111.985,41.98888888888889],[-111.62916666666666,42.10416666666667],[-111.4525,42.16083333333333],[-111.27277777777778,42.21805555555556],[-111.09555555555555,42.274166666666666],[-110.91861111111112,42.330000000000005],[-110.7388888888889,42.38583333333333],[-110.56138888888889,42.441111111111105],[-110.38055555555555,42.49666666666667],[-110.20166666666667,42.55138888888889],[-110.01722222222222,42.59388888888889],[-109.82972222222222,42.62305555555555],[-109.6413888888889,42.65222222222222],[-109.45111111111112,42.68138888888889],[-109.25944444444444,42.71055555555556],[-109.06944444444444,42.73888888888889],[-108.87583333333333,42.7675],[-108.76277777777777,42.78527777777778],[-108.685,42.79527777777778],[-108.56861111111111,42.81222222222222],[-108.48916666666666,42.82333333333334],[-108.37277777777777,42.84],[-108.29583333333333,42.850833333333334],[-108.09722222222221,42.87861111111111],[-107.98111111111112,42.89361111111111],[-107.90138888888889,42.90333333333333],[-107.49083333333333,42.95277777777778],[-107.37583333333333,42.96638888888889],[-107.29555555555555,42.975833333333334],[-107.09861111111111,42.99888888888889],[-106.94083333333333,43.01694444444444],[-106.77666666666667,43.03527777777778],[-106.7363888888889,43.04],[-106.57722222222222,43.05777777777777],[-106.53722222222223,43.06222222222222],[-106.38027777777778,43.07944444444445],[-106.3411111111111,43.08388888888889],[-106.18166666666667,43.10166666666667],[-106.14194444444445,43.10638888888889],[-105.98666666666666,43.12388888888889],[-105.9475,43.12833333333333],[-105.79166666666667,43.14555555555555],[-105.5925,43.1675],[-105.3938888888889,43.18888888888888],[-105.19777777777779,43.209722222222226],[-105.00083333333333,43.23027777777778],[-104.80111111111111,43.25083333333333],[-104.6036111111111,43.27055555555555],[-104.44583333333334,43.28638888888889],[-104.24527777777777,43.30583333333333],[-104.04777777777778,43.32833333333333],[-103.85222222222221,43.3575],[-103.65777777777778,43.38611111111111],[-103.26194444444444,43.44333333333333],[-103.06222222222222,43.47166666666667],[-102.86583333333333,43.49916666666667],[-102.71888888888888,43.519444444444446],[-102.51527777777778,43.54722222222222],[-102.46722222222222,43.553888888888885],[-102.31722222222221,43.57416666666667],[-102.26916666666666,43.58027777777778],[-102.12388888888889,43.599722222222226],[-102.04027777777777,43.61083333333333],[-101.92583333333334,43.62583333333333],[-101.84305555555555,43.63638888888889],[-101.72722222222222,43.651111111111106],[-101.64750000000001,43.66138888888889],[-101.44972222222222,43.686388888888885],[-101.33,43.70138888888889],[-101.25083333333333,43.71138888888889],[-101.05138888888888,43.73583333333333],[-100.93194444444445,43.750277777777775],[-100.85472222222222,43.75944444444445],[-100.73611111111111,43.77361111111111],[-100.65722222222223,43.783055555555556],[-100.53888888888889,43.79694444444444],[-100.34027777777777,43.82027777777778],[-100.26166666666667,43.82944444444445],[-99.94416666666667,43.85611111111111],[-99.74194444444444,43.847500000000004],[-99.53833333333333,43.83638888888889],[-99.33638888888889,43.825],[-99.13416666666667,43.81333333333333],[-98.72500000000001,43.788333333333334],[-98.49472222222222,43.77361111111111],[-98.25,43.7575],[-98.04305555555555,43.74333333333333],[-97.83999999999999,43.72916666666667],[-97.63666666666667,43.714444444444446],[-97.39194444444445,43.696666666666665],[-97.18527777777778,43.68111111111111],[-96.98388888888888,43.66555555555556],[-96.78,43.651111111111106],[-96.36916666666666,43.656666666666666],[-96.16361111111112,43.65972222222222],[-95.96194444444444,43.66222222222222],[-95.76055555555556,43.66444444444444],[-95.55777777777777,43.66638888888889],[-95.35638888888889,43.66777777777777],[-95.15361111111112,43.66888888888889],[-94.94888888888889,43.66972222222222],[-94.74694444444445,43.67027777777778],[-94.54027777777777,43.67027777777778],[-94.29583333333333,43.66972222222222],[-94.09277777777777,43.666666666666664],[-93.8863888888889,43.66138888888889],[-93.73111111111112,43.65694444444444],[-93.69,43.655833333333334],[-93.5261111111111,43.65138888888889],[-93.485,43.650277777777774],[-93.32138888888889,43.644999999999996],[-93.1125,43.638333333333335],[-93.07194444444444,43.636944444444445],[-92.90777777777778,43.63138888888889],[-92.86333333333333,43.62972222222222],[-92.65805555555556,43.62222222222222],[-92.49388888888889,43.61611111111111],[-92.45027777777779,43.614444444444445],[-92.29166666666667,43.608333333333334],[-92.03472222222221,43.597500000000004],[-91.86944444444444,43.59055555555556],[-91.82777777777777,43.58861111111111],[-91.45722222222223,43.57361111111111],[-91.25,43.57222222222222],[-91.0436111111111,43.57027777777778],[-91.00527777777778,43.57],[-90.83916666666666,43.56805555555556],[-90.79833333333333,43.56777777777778],[-90.58999999999999,43.565],[-90.38388888888889,43.544999999999995],[-90.1725,43.514722222222225],[-90.01444444444445,43.49166666666667],[-89.96638888888889,43.484722222222224],[-89.75805555555556,43.45416666666667],[-89.55277777777778,43.42333333333333],[-89.39611111111111,43.39972222222222],[-89.34888888888888,43.3925],[-89.19166666666668,43.36833333333333],[-88.94166666666668,43.32972222222222],[-88.78472222222221,43.305],[-88.74666666666667,43.29722222222222],[-88.5436111111111,43.266666666666666],[-88.33888888888889,43.23361111111111],[-88.13416666666667,43.20027777777778],[-87.9388888888889,43.168055555555554],[-87.93194444444445,43.16694444444444],[-87.73027777777779,43.13333333333333],[-87.53277777777778,43.099722222222226],[-87.52944444444444,43.09916666666667],[-87.33166666666666,43.065555555555555],[-87.13444444444445,43.03138888888889],[-86.93027777777779,42.99583333333334],[-86.77083333333333,42.967222222222226],[-86.56972222222223,42.93138888888889],[-86.32944444444443,42.888333333333335],[-86.13527777777779,42.85305555555556],[-85.93972222222223,42.816944444444445],[-85.7425,42.78],[-85.5436111111111,42.74277777777778],[-85.14750000000001,42.67222222222222],[-84.95055555555555,42.659166666666664],[-84.75416666666666,42.64833333333333],[-84.54694444444445,42.63638888888889],[-84.35305555555556,42.63333333333333],[-84.16000000000001,42.635555555555555],[-83.97,42.63805555555555],[-83.77472222222222,42.640277777777776],[-83.58,42.64222222222222],[-83.38527777777779,42.64361111111111],[-83.19083333333333,42.64472222222222],[-82.99722222222222,42.64555555555555],[-82.80111111111111,42.64611111111111],[-82.455,42.64611111111111],[-82.26361111111112,42.64527777777778],[-81.89,42.594166666666666],[-81.68222222222222,42.56083333333333],[-81.495,42.5325],[-81.30722222222222,42.53055555555555],[-80.92916666666667,42.536944444444444],[-80.80833333333334,42.53611111111111],[-80.74555555555555,42.53972222222222],[-80.62222222222222,42.54111111111111],[-80.37333333333332,42.544444444444444],[-80.06472222222222,42.54722222222222],[-80.00222222222222,42.547777777777775],[-79.85444444444444,42.54694444444444],[-79.81472222222222,42.549166666666665],[-79.63,42.55],[-79.48694444444445,42.55],[-79.26833333333333,42.551111111111105],[-79.12638888888888,42.55083333333333],[-79.08972222222222,42.551111111111105],[-78.90694444444445,42.55083333333333],[-78.76555555555555,42.55027777777777],[-78.72611111111111,42.55027777777777],[-78.58361111111111,42.54972222222222],[-78.5461111111111,42.54944444444444],[-78.40416666666667,42.54888888888889],[-78.36722222222221,42.54861111111111],[-78.22222222222223,42.5475],[-78.18333333333334,42.54722222222222],[-78.04138888888889,42.54611111111111],[-78.00472222222223,42.54555555555555],[-77.8625,42.54416666666666],[-77.8236111111111,42.54388888888889],[-77.68444444444445,42.54222222222222],[-77.65222222222222,42.541666666666664],[-77.50694444444444,42.53972222222222],[-77.47222222222223,42.53916666666667],[-77.32805555555555,42.53722222222222],[-77.29416666666667,42.53666666666666],[-77.15111111111112,42.534166666666664],[-77.11722222222221,42.53333333333333],[-76.93944444444445,42.53055555555555],[-76.80611111111111,42.52777777777778],[-76.765,42.526944444444446],[-76.5936111111111,42.52361111111111],[-76.38,42.52055555555555],[-76.28305555555555,42.519444444444446],[-76.2088888888889,42.51833333333333],[-76.07694444444444,42.49777777777778],[-76.04166666666667,42.48972222222222],[-75.90944444444445,42.46083333333333],[-75.77944444444444,42.43333333333333],[-75.71000000000001,42.41888888888889],[-75.5761111111111,42.39111111111111],[-75.54388888888889,42.384166666666665],[-75.4088888888889,42.35305555555556],[-75.37888888888888,42.340833333333336],[-75.28083333333333,42.275277777777774],[-75.25666666666666,42.25694444444444],[-75.16083333333334,42.184999999999995],[-75.13722222222223,42.16694444444444],[-75.0425,42.095555555555556],[-75.01722222222222,42.07638888888889],[-74.92444444444445,42.00527777777778],[-74.68138888888889,41.81916666666667],[-74.56694444444445,41.73111111111111],[-74.43972222222223,41.6325],[-74.32666666666667,41.544444444444444],[-74.22111111111111,41.46194444444445],[-74.14750000000001,41.34055555555556],[-74.14222222222223,41.260555555555555],[-74.14055555555557,41.231388888888894],[-74.13388888888889,41.126111111111115],[-74.12888888888888,41.047777777777775],[-74.1275,41.02194444444444],[-74.12249999999999,40.94333333333333],[-74.11805555555554,40.92333333333333],[-74.08333333333333,40.86666666666667],[-74.07249999999999,40.85722222222223],[-74.06583333333333,40.83972222222222],[-74.04055555555556,40.77305555555555],[-74.01666666666667,40.7],[-74.00861111111111,40.68833333333333],[-74.00166666666667,40.669444444444444],[-73.98333333333333,40.61666666666667],[-73.97777777777777,40.60638888888889],[-73.97083333333333,40.58777777777778],[-73.93444444444445,40.53],[-73.91611111111112,40.516666666666666],[-73.86666666666666,40.483333333333334],[-73.82527777777777,40.47222222222222],[-73.75,40.483333333333334],[-73.72333333333333,40.50611111111111],[-73.6538888888889,40.543055555555554],[-73.635,40.55333333333333],[-73.58333333333333,40.583333333333336],[-73.56666666666666,40.59027777777778],[-73.5475,40.60055555555556],[-73.49583333333334,40.64833333333333],[-73.48583333333333,40.66416666666667],[-73.46027777777778,40.72222222222222],[-73.45777777777778,40.73777777777778],[-73.45027777777779,40.79138888888889],[-73.5,40.833333333333336],[-73.50583333333333,40.84055555555556],[-73.56666666666666,40.85],[-73.57083333333333,40.838055555555556],[-73.61666666666666,40.81666666666667],[-73.62277777777777,40.8125],[-73.68333333333334,40.75],[-73.68388888888889,40.73555555555556],[-73.70972222222223,40.70277777777778],[-73.73527777777778,40.67027777777778]],"type":"LineString"}
}
