{
  "id": 2031967661,
  "type": "Feature",
  "properties": {
    "geom:area": 0,
    "geom:bbox": "-126.968333,37.653889,-122.453333,38.130000",
    "geom:latitude": 37.94938687634949,
    "geom:longitude": -124.69941037276024,
    "src:alt_label": "swim-path",
    "src:geom": "swim",
    "swim:altitudes": [
      "032",
      "042",
      "054C",
      "060",
      "076C",
      "083",
      "104",
      "116",
      "137",
      "150C",
      "169C",
      "175",
      "187C",
      "202C",
      "206",
      "218C",
      "223",
      "238",
      "244C",
      "259",
      "274",
      "286",
      "294C",
      "298C",
      "300C",
      "300",
      "300C",
      "300",
      "300C",
      "300",
      "300C",
      "300",
      "300C",
      "300C",
      "300C",
      "300C",
      "300C",
      "300C",
      "300C",
      "300C"
    ],
    "swim:geom": "path",
    "swim:speeds": [
      180,
      244,
      280,
      286,
      300,
      300,
      310,
      353,
      371,
      380,
      390,
      391,
      400,
      420,
      417,
      420,
      423,
      424,
      430,
      449,
      455,
      460,
      470,
      468,
      469,
      470,
      468,
      470,
      467,
      460,
      467,
      470,
      466,
      466,
      466,
      465,
      464,
      463,
      462,
      462
    ],
    "swim:timestamps": [
      1784999910,
      1784999970,
      1785000017,
      1785000030,
      1785000077,
      1785000090,
      1785000151,
      1785000211,
      1785000271,
      1785000317,
      1785000377,
      1785000391,
      1785000437,
      1785000497,
      1785000511,
      1785000557,
      1785000571,
      1785000631,
      1785000677,
      1785000751,
      1785000811,
      1785000872,
      1785000918,
      1785000932,
      1785000992,
      1785001038,
      1785001112,
      1785001158,
      1785001172,
      1785001218,
      1785001232,
      1785001278,
      1785001352,
      1785001412,
      1785001472,
      1785001532,
      1785001593,
      1785001653,
      1785001713,
      1785001773
    ],
    "wof:geomhash": "27a103414253ed2519d0c904196232af",
    "wof:id": 2031967661,
    "wof:repo": "sfomuseum-data-flights-2026-07"
  },
  "bbox": [
    -126.96833333333333,
    37.653888888888886,
    -122.45333333333333,
    38.13
  ],
  "geometry": {"coordinates":[[-122.45333333333333,37.653888888888886],[-122.52444444444444,37.67611111111111],[-122.58333333333333,37.666666666666664],[-122.62388888888889,37.68222222222222],[-122.7,37.68333333333333],[-122.73,37.68833333333333],[-122.8386111111111,37.69499999999999],[-122.95861111111111,37.70194444444445],[-123.08749999999999,37.716944444444444],[-123.16666666666667,37.733333333333334],[-123.3,37.766666666666666],[-123.345,37.790277777777774],[-123.43333333333334,37.81666666666667],[-123.56666666666666,37.85],[-123.61444444444444,37.869166666666665],[-123.71666666666667,37.9],[-123.75444444444445,37.910555555555554],[-123.89944444444446,37.933055555555555],[-124,37.93333333333333],[-124.20833333333334,37.95722222222223],[-124.37083333333332,37.969166666666666],[-124.5325,37.98083333333334],[-124.65,37.983333333333334],[-124.69638888888889,37.9925],[-124.86166666666666,38.00388888888889],[-124.98333333333333,38],[-125.18777777777778,38.025555555555556],[-125.3,38.03333333333333],[-125.35194444444444,38.03638888888889],[-125.46666666666667,38.03333333333333],[-125.51305555555555,38.04666666666667],[-125.63333333333334,38.05],[-125.84027777777777,38.06666666666667],[-126.00555555555556,38.07666666666667],[-126.16777777777779,38.086111111111116],[-126.3175,38.09444444444445],[-126.48055555555555,38.103611111111114],[-126.64305555555556,38.112500000000004],[-126.80388888888889,38.12083333333334],[-126.96833333333333,38.13]],"type":"LineString"}
}
