{
  "id": 2032040051,
  "type": "Feature",
  "properties": {
    "geom:area": 0,
    "geom:bbox": "-123.218889,37.633611,-122.235556,44.133889",
    "geom:latitude": 40.84241690119032,
    "geom:longitude": -122.6806926350748,
    "src:alt_label": "swim-path",
    "src:geom": "swim",
    "swim:altitudes": [
      "018",
      "034",
      "041",
      "067",
      "095",
      "111",
      "121",
      "122",
      "138",
      "158",
      "171",
      "201",
      "220",
      "223",
      "234",
      "235",
      "245",
      "247",
      "260",
      "267",
      "270",
      "275",
      "278",
      "286",
      "292",
      "314",
      "318C",
      "320C",
      "320C",
      "320C",
      "320C",
      "320C",
      "320C",
      "320C",
      "320C",
      "320C",
      "320C",
      "320C",
      "320C",
      "320C",
      "320C",
      "320C",
      "320C",
      "320C",
      "320C",
      "320C",
      "320C",
      "320C",
      "320C",
      "320C",
      "320C",
      "320C",
      "320C",
      "320C",
      "320C",
      "320C",
      "320C",
      "320C",
      "320C",
      "320",
      "320",
      "320",
      "320",
      "320",
      "320",
      "320",
      "301",
      "276",
      "253",
      "225",
      "198",
      "173",
      "146",
      "122",
      "103",
      "101",
      "094",
      "088",
      "080",
      "074",
      "063",
      "056",
      "052",
      "049",
      "045",
      "043",
      "040",
      "037",
      "024",
      "025",
      "021",
      "020",
      "013",
      "012",
      "007",
      "004",
      "004"
    ],
    "swim:geom": "path",
    "swim:speeds": [
      146,
      176,
      246,
      284,
      297,
      292,
      345,
      373,
      380,
      407,
      409,
      416,
      413,
      435,
      440,
      445,
      449,
      453,
      462,
      465,
      469,
      471,
      478,
      479,
      483,
      479,
      474,
      472,
      473,
      476,
      473,
      474,
      473,
      474,
      473,
      473,
      473,
      472,
      473,
      473,
      473,
      473,
      474,
      474,
      475,
      475,
      476,
      476,
      476,
      476,
      476,
      476,
      477,
      477,
      477,
      477,
      477,
      476,
      476,
      476,
      476,
      477,
      477,
      478,
      477,
      478,
      478,
      486,
      484,
      465,
      453,
      438,
      428,
      415,
      385,
      319,
      300,
      303,
      299,
      296,
      279,
      278,
      254,
      248,
      237,
      240,
      214,
      204,
      192,
      177,
      167,
      161,
      145,
      148,
      145,
      146,
      55
    ],
    "swim:timestamps": [
      1785433800,
      1785433864,
      1785433920,
      1785433980,
      1785434040,
      1785434089,
      1785434149,
      1785434161,
      1785434209,
      1785434281,
      1785434330,
      1785434390,
      1785434450,
      1785434461,
      1785434510,
      1785434521,
      1785434570,
      1785434593,
      1785434653,
      1785434690,
      1785434713,
      1785434750,
      1785434773,
      1785434810,
      1785434833,
      1785434930,
      1785434954,
      1785434990,
      1785435014,
      1785435051,
      1785435074,
      1785435111,
      1785435134,
      1785435171,
      1785435194,
      1785435254,
      1785435291,
      1785435314,
      1785435351,
      1785435374,
      1785435411,
      1785435434,
      1785435471,
      1785435495,
      1785435531,
      1785435555,
      1785435591,
      1785435615,
      1785435651,
      1785435675,
      1785435711,
      1785435735,
      1785435772,
      1785435795,
      1785435832,
      1785435855,
      1785435892,
      1785435952,
      1785435975,
      1785436012,
      1785436035,
      1785436072,
      1785436095,
      1785436132,
      1785436155,
      1785436192,
      1785436252,
      1785436312,
      1785436372,
      1785436432,
      1785436492,
      1785436553,
      1785436613,
      1785436673,
      1785436733,
      1785436793,
      1785436822,
      1785436853,
      1785436876,
      1785436913,
      1785436936,
      1785436973,
      1785436996,
      1785437033,
      1785437056,
      1785437093,
      1785437117,
      1785437153,
      1785437188,
      1785437213,
      1785437249,
      1785437273,
      1785437309,
      1785437334,
      1785437357,
      1785437394,
      1785437454
    ],
    "wof:geomhash": "eed63392417693d53396febcc0b84244",
    "wof:id": 2032040051,
    "wof:repo": "sfomuseum-data-flights-2026-07"
  },
  "bbox": [
    -123.21888888888888,
    37.63361111111111,
    -122.23555555555555,
    44.13388888888889
  ],
  "geometry": {"coordinates":[[-122.41027777777778,37.63361111111111],[-122.46666666666667,37.65],[-122.51777777777778,37.68583333333333],[-122.52583333333334,37.763888888888886],[-122.49638888888889,37.841944444444444],[-122.46833333333333,37.89722222222222],[-122.42083333333333,37.99111111111111],[-122.41083333333334,38.00833333333333],[-122.36888888888888,38.09027777777778],[-122.30444444444444,38.21361111111111],[-122.25694444444444,38.30166666666666],[-122.23555555555555,38.41555555555556],[-122.2575,38.529444444444444],[-122.26305555555555,38.55083333333333],[-122.27888888888889,38.65277777777778],[-122.2825,38.675],[-122.29638888888888,38.77833333333333],[-122.30194444444444,38.79666666666667],[-122.32638888888889,38.94972222222222],[-122.33805555555556,39.035],[-122.3475,39.081388888888895],[-122.35944444444443,39.16611111111111],[-122.36833333333333,39.21277777777778],[-122.38222222222221,39.29972222222222],[-122.39027777777778,39.34777777777778],[-122.4238888888889,39.56361111111111],[-122.43388888888889,39.61555555555556],[-122.44638888888889,39.69333333333333],[-122.45527777777778,39.7475],[-122.46833333333333,39.82527777777778],[-122.47666666666667,39.87694444444445],[-122.48944444444444,39.95472222222222],[-122.49833333333333,40.009166666666665],[-122.51194444444444,40.089444444444446],[-122.52055555555556,40.14222222222222],[-122.54277777777777,40.276666666666664],[-122.55583333333333,40.353611111111114],[-122.565,40.40861111111111],[-122.5775,40.484722222222224],[-122.58666666666666,40.53861111111111],[-122.59972222222221,40.61694444444444],[-122.6086111111111,40.66833333333333],[-122.62194444444444,40.74805555555556],[-122.63083333333333,40.80083333333333],[-122.64416666666668,40.87888888888889],[-122.65333333333334,40.933055555555555],[-122.66638888888889,41.01027777777778],[-122.67527777777778,41.06333333333333],[-122.6888888888889,41.1425],[-122.69805555555556,41.19638888888888],[-122.71138888888889,41.27333333333333],[-122.72055555555556,41.327222222222225],[-122.73416666666667,41.405],[-122.74055555555556,41.44305555555555],[-122.75416666666666,41.52166666666667],[-122.76305555555555,41.57472222222223],[-122.77694444444444,41.65416666666667],[-122.8,41.78611111111111],[-122.80888888888889,41.837500000000006],[-122.82305555555556,41.91722222222222],[-122.8325,41.97166666666667],[-122.84583333333333,42.04888888888889],[-122.85555555555555,42.10444444444445],[-122.86916666666666,42.18138888888889],[-122.87916666666666,42.236666666666665],[-122.89305555555556,42.31527777777777],[-122.91666666666667,42.4475],[-122.94055555555556,42.5825],[-122.96472222222222,42.717777777777776],[-122.99027777777778,42.856944444444444],[-123.01888888888888,42.981388888888894],[-123.0461111111111,43.10027777777778],[-123.07277777777777,43.217777777777776],[-123.0961111111111,43.318333333333335],[-123.12083333333332,43.426944444444445],[-123.14277777777778,43.521388888888886],[-123.15583333333333,43.57166666666667],[-123.16222222222223,43.60416666666667],[-123.17305555555556,43.64611111111111],[-123.18111111111112,43.68555555555555],[-123.19166666666668,43.72527777777778],[-123.19861111111112,43.76111111111111],[-123.18583333333333,43.7975],[-123.16694444444445,43.82638888888889],[-123.1575,43.85888888888889],[-123.1675,43.88972222222222],[-123.18972222222223,43.916666666666664],[-123.21166666666667,43.93888888888888],[-123.21861111111112,43.976111111111116],[-123.21722222222222,43.99055555555556],[-123.21888888888888,44.02361111111111],[-123.2175,44.03611111111111],[-123.21888888888888,44.06472222222222],[-123.21833333333333,44.07694444444445],[-123.21888888888888,44.096944444444446],[-123.21888888888888,44.117222222222225],[-123.21861111111112,44.13388888888889]],"type":"LineString"}
}
