{
  "id": 2031990203,
  "type": "Feature",
  "properties": {
    "geom:area": 0,
    "geom:bbox": "-122.333333,37.497222,-70.739167,42.455833",
    "geom:latitude": 40.576777930786974,
    "geom:longitude": -96.33555648982052,
    "src:alt_label": "swim-path",
    "src:geom": "swim",
    "swim:altitudes": [
      "007",
      "023",
      "025",
      "030",
      "034",
      "058",
      "080",
      "081",
      "104",
      "113",
      "127",
      "131",
      "150",
      "163",
      "182",
      "185",
      "200",
      "210",
      "224",
      "226",
      "237",
      "240",
      "247",
      "249",
      "258",
      "261",
      "267",
      "269",
      "275",
      "276",
      "283",
      "283",
      "287",
      "287",
      "295",
      "294",
      "303",
      "303",
      "314",
      "314",
      "320",
      "328",
      "336",
      "336",
      "340C",
      "340C",
      "340C",
      "340C",
      "340C",
      "340C",
      "340C",
      "340C",
      "340C",
      "340C",
      "340C",
      "340C",
      "340C",
      "340C",
      "340C",
      "340C",
      "340C",
      "340C",
      "340C",
      "340C",
      "340C",
      "340C",
      "340C",
      "340C",
      "340C",
      "340C",
      "340C",
      "340C",
      "340C",
      "340C",
      "340C",
      "340C",
      "340C",
      "340C",
      "340C",
      "340C",
      "340C",
      "340C",
      "340C",
      "340C",
      "340C",
      "340C",
      "340C",
      "340C",
      "340C",
      "340C",
      "340C",
      "340C",
      "340C",
      "340C",
      "340C",
      "341C",
      "340C",
      "340C",
      "340C",
      "340C",
      "340C",
      "340C",
      "341C",
      "340C",
      "340C",
      "340C",
      "340C",
      "340C",
      "340C",
      "340C",
      "340C",
      "340C",
      "340C",
      "340C",
      "340C",
      "341C",
      "340C",
      "340C",
      "341C",
      "340C",
      "340C",
      "340C",
      "340C",
      "340C",
      "340C",
      "340C",
      "340C",
      "340C",
      "340C",
      "340C",
      "340C",
      "340C",
      "340C",
      "340C",
      "340C",
      "340C",
      "341C",
      "340C",
      "340C",
      "340C",
      "340C",
      "340C",
      "340C",
      "340C",
      "340C",
      "340C",
      "340C",
      "340C",
      "341C",
      "341C",
      "341C",
      "341C",
      "340C",
      "340C",
      "340C",
      "340C",
      "340C",
      "340C",
      "341C",
      "340C",
      "340C",
      "340C",
      "340C",
      "340C",
      "340C",
      "340C",
      "340C",
      "340C",
      "340C",
      "341C",
      "341C",
      "340C",
      "340C",
      "340C",
      "340C",
      "340C",
      "340C",
      "340C",
      "340C",
      "340C",
      "340C",
      "340C",
      "340C",
      "341C",
      "340C",
      "340C",
      "340C",
      "340C",
      "340C",
      "340C",
      "340C",
      "340C",
      "340",
      "347",
      "350",
      "350",
      "350",
      "350",
      "350",
      "350",
      "350",
      "350",
      "350",
      "350",
      "350",
      "350",
      "350",
      "347",
      "343",
      "340C",
      "340C",
      "340C",
      "340C",
      "340C",
      "340C",
      "340C",
      "340C",
      "340C",
      "340C",
      "340C",
      "340C",
      "340C",
      "340C",
      "340C",
      "340C",
      "340C",
      "340C",
      "340C",
      "340C",
      "340C",
      "340C",
      "340C",
      "340C",
      "340C",
      "340C",
      "340C",
      "340C",
      "340C",
      "340C",
      "340C",
      "340C",
      "340C",
      "340C",
      "340C",
      "340C",
      "340C",
      "340C",
      "340C",
      "340C",
      "340C",
      "340C",
      "340C",
      "340C",
      "340C",
      "340C",
      "340C",
      "340C",
      "340C",
      "340C",
      "340C",
      "340C",
      "340C",
      "340C",
      "340C",
      "340C",
      "340C",
      "340C",
      "341C",
      "340C",
      "340C",
      "340C",
      "340C",
      "340C",
      "340C",
      "340C",
      "340C",
      "340C",
      "340C",
      "340C",
      "340C",
      "340C",
      "340C",
      "340C",
      "340C",
      "340C",
      "340C",
      "340C",
      "340C",
      "340C",
      "340C",
      "340C",
      "340C",
      "340C",
      "340C",
      "340C",
      "340C",
      "340C",
      "340C",
      "340C",
      "340C",
      "340C",
      "340C",
      "340C",
      "340C",
      "340C",
      "340C",
      "340C",
      "340C",
      "340C",
      "340C",
      "340C",
      "340C",
      "340C",
      "340C",
      "340C",
      "340C",
      "340C",
      "340C",
      "340C",
      "340C",
      "340C",
      "340C",
      "340C",
      "340C",
      "340C",
      "340C",
      "340C",
      "340C",
      "340C",
      "340C",
      "340C",
      "340C",
      "340C",
      "340C",
      "340C",
      "340C",
      "340C",
      "340C",
      "340C",
      "340C",
      "340C",
      "340C",
      "340C",
      "340C",
      "340C",
      "340C",
      "340C",
      "340C",
      "340C",
      "340C",
      "340C",
      "340C",
      "340C",
      "340C",
      "340C",
      "340C",
      "340C",
      "340C",
      "340C",
      "340C",
      "340C",
      "340C",
      "340C",
      "340C",
      "340C",
      "340C",
      "340C",
      "340C",
      "340C",
      "340C",
      "340C",
      "340C",
      "340C",
      "340C",
      "340C",
      "340C",
      "340C",
      "340C",
      "340C",
      "340C",
      "340C",
      "340C",
      "340C",
      "340C",
      "340C",
      "340C",
      "340C",
      "340C",
      "340C",
      "340C",
      "340C",
      "340C",
      "340C",
      "339C",
      "340C",
      "340C",
      "340C",
      "340C",
      "340C",
      "340C",
      "340C",
      "340C",
      "340C",
      "340C",
      "340C",
      "340C",
      "340C",
      "340C",
      "340C",
      "340C",
      "340C",
      "340C",
      "340C",
      "340C",
      "340C",
      "340C",
      "340C",
      "340C",
      "340C",
      "340C",
      "340C",
      "340C",
      "340C",
      "340C",
      "340C",
      "340C",
      "337",
      "322",
      "306",
      "291",
      "275",
      "262",
      "235",
      "222",
      "212",
      "201",
      "194",
      "162",
      "143",
      "117",
      "111",
      "109",
      "103",
      "080",
      "078",
      "070",
      "066",
      "064",
      "055",
      "051",
      "042",
      "032",
      "029",
      "023",
      "014",
      "007",
      "004"
    ],
    "swim:geom": "path",
    "swim:speeds": [
      173,
      182,
      203,
      217,
      264,
      267,
      286,
      280,
      299,
      346,
      352,
      363,
      368,
      377,
      384,
      383,
      393,
      398,
      407,
      407,
      409,
      412,
      411,
      413,
      419,
      419,
      420,
      420,
      425,
      428,
      432,
      433,
      441,
      446,
      456,
      456,
      458,
      457,
      458,
      457,
      455,
      456,
      451,
      451,
      453,
      453,
      454,
      455,
      455,
      454,
      454,
      454,
      454,
      460,
      454,
      454,
      454,
      453,
      454,
      452,
      452,
      452,
      451,
      451,
      451,
      451,
      451,
      451,
      452,
      452,
      452,
      452,
      452,
      452,
      452,
      452,
      452,
      452,
      451,
      451,
      450,
      450,
      449,
      450,
      449,
      447,
      445,
      445,
      444,
      443,
      443,
      442,
      442,
      440,
      437,
      436,
      434,
      434,
      434,
      431,
      431,
      431,
      432,
      433,
      435,
      437,
      437,
      436,
      434,
      432,
      430,
      428,
      426,
      426,
      426,
      426,
      425,
      426,
      426,
      424,
      423,
      422,
      448,
      453,
      444,
      431,
      430,
      432,
      446,
      451,
      452,
      454,
      453,
      453,
      453,
      452,
      452,
      451,
      451,
      451,
      451,
      450,
      450,
      450,
      448,
      447,
      446,
      447,
      447,
      446,
      446,
      446,
      445,
      446,
      445,
      446,
      446,
      446,
      446,
      450,
      434,
      433,
      433,
      431,
      431,
      430,
      430,
      430,
      432,
      433,
      433,
      433,
      433,
      432,
      432,
      432,
      432,
      432,
      433,
      434,
      434,
      436,
      437,
      439,
      430,
      415,
      412,
      409,
      406,
      405,
      404,
      403,
      403,
      400,
      404,
      396,
      399,
      400,
      400,
      400,
      399,
      399,
      401,
      426,
      427,
      428,
      428,
      428,
      428,
      429,
      429,
      429,
      429,
      430,
      431,
      433,
      433,
      434,
      434,
      435,
      435,
      436,
      437,
      438,
      437,
      437,
      438,
      439,
      440,
      440,
      440,
      439,
      439,
      438,
      438,
      438,
      436,
      436,
      436,
      435,
      437,
      438,
      438,
      438,
      437,
      437,
      436,
      436,
      436,
      436,
      435,
      435,
      435,
      435,
      434,
      433,
      439,
      432,
      438,
      434,
      431,
      434,
      433,
      434,
      435,
      434,
      437,
      439,
      441,
      438,
      437,
      440,
      436,
      438,
      436,
      439,
      437,
      439,
      437,
      439,
      438,
      439,
      438,
      439,
      438,
      439,
      440,
      439,
      441,
      439,
      442,
      439,
      443,
      445,
      443,
      448,
      442,
      447,
      442,
      444,
      442,
      444,
      443,
      445,
      444,
      444,
      445,
      444,
      445,
      445,
      445,
      446,
      447,
      447,
      448,
      447,
      449,
      447,
      449,
      448,
      449,
      448,
      447,
      446,
      447,
      445,
      447,
      447,
      446,
      446,
      446,
      446,
      446,
      447,
      449,
      448,
      449,
      449,
      450,
      449,
      450,
      449,
      449,
      448,
      449,
      448,
      448,
      448,
      448,
      449,
      449,
      448,
      448,
      447,
      447,
      447,
      447,
      446,
      446,
      446,
      446,
      445,
      445,
      445,
      445,
      444,
      444,
      444,
      444,
      444,
      445,
      446,
      445,
      444,
      444,
      445,
      445,
      445,
      445,
      445,
      445,
      445,
      444,
      445,
      446,
      445,
      445,
      446,
      446,
      445,
      445,
      444,
      445,
      444,
      445,
      445,
      444,
      445,
      444,
      445,
      444,
      443,
      442,
      421,
      419,
      417,
      416,
      416,
      415,
      415,
      416,
      416,
      418,
      419,
      419,
      416,
      416,
      417,
      417,
      417,
      415,
      413,
      410,
      408,
      407,
      407,
      414,
      422,
      430,
      426,
      424,
      422,
      382,
      380,
      371,
      370,
      363,
      353,
      344,
      332,
      312,
      289,
      260,
      237,
      236,
      236,
      217,
      201,
      202,
      194,
      196,
      189,
      182,
      180,
      156,
      131,
      121
    ],
    "swim:timestamps": [
      1785152968,
      1785153018,
      1785153028,
      1785153071,
      1785153079,
      1785153139,
      1785153191,
      1785153199,
      1785153259,
      1785153319,
      1785153371,
      1785153379,
      1785153439,
      1785153491,
      1785153551,
      1785153559,
      1785153619,
      1785153671,
      1785153732,
      1785153739,
      1785153792,
      1785153799,
      1785153852,
      1785153860,
      1785153912,
      1785153920,
      1785153972,
      1785153980,
      1785154032,
      1785154040,
      1785154092,
      1785154100,
      1785154152,
      1785154160,
      1785154212,
      1785154220,
      1785154272,
      1785154280,
      1785154333,
      1785154340,
      1785154400,
      1785154460,
      1785154513,
      1785154520,
      1785154573,
      1785154580,
      1785154641,
      1785154693,
      1785154701,
      1785154753,
      1785154761,
      1785154813,
      1785154821,
      1785154835,
      1785154873,
      1785154881,
      1785154895,
      1785154941,
      1785154955,
      1785154994,
      1785155001,
      1785155015,
      1785155054,
      1785155061,
      1785155075,
      1785155121,
      1785155135,
      1785155174,
      1785155196,
      1785155234,
      1785155241,
      1785155256,
      1785155294,
      1785155301,
      1785155354,
      1785155361,
      1785155422,
      1785155436,
      1785155474,
      1785155496,
      1785155534,
      1785155556,
      1785155594,
      1785155617,
      1785155677,
      1785155737,
      1785155775,
      1785155797,
      1785155835,
      1785155857,
      1785155895,
      1785155917,
      1785155955,
      1785155977,
      1785156015,
      1785156037,
      1785156097,
      1785156157,
      1785156338,
      1785156458,
      1785156518,
      1785156578,
      1785156638,
      1785156698,
      1785156818,
      1785156879,
      1785156939,
      1785157059,
      1785157119,
      1785157179,
      1785157239,
      1785157299,
      1785157359,
      1785157419,
      1785157480,
      1785157540,
      1785157600,
      1785157660,
      1785157720,
      1785157780,
      1785157840,
      1785157900,
      1785157960,
      1785158081,
      1785158141,
      1785158201,
      1785158261,
      1785158311,
      1785158321,
      1785158371,
      1785158381,
      1785158441,
      1785158492,
      1785158552,
      1785158561,
      1785158621,
      1785158732,
      1785158792,
      1785158802,
      1785158852,
      1785158862,
      1785158887,
      1785158912,
      1785158922,
      1785158972,
      1785158982,
      1785159007,
      1785159033,
      1785159042,
      1785159068,
      1785159093,
      1785159128,
      1785159153,
      1785159188,
      1785159273,
      1785159308,
      1785159333,
      1785159368,
      1785159393,
      1785159428,
      1785159453,
      1785159488,
      1785159513,
      1785159548,
      1785159573,
      1785159633,
      1785159668,
      1785159694,
      1785159754,
      1785159789,
      1785159814,
      1785159849,
      1785159874,
      1785159909,
      1785159934,
      1785159969,
      1785159994,
      1785160029,
      1785160054,
      1785160089,
      1785160114,
      1785160149,
      1785160174,
      1785160234,
      1785160295,
      1785160355,
      1785160415,
      1785160472,
      1785160532,
      1785160592,
      1785160652,
      1785160712,
      1785160772,
      1785160832,
      1785160889,
      1785160949,
      1785161129,
      1785161189,
      1785161253,
      1785161309,
      1785161369,
      1785161430,
      1785161490,
      1785161550,
      1785161610,
      1785161670,
      1785161730,
      1785161790,
      1785161850,
      1785161910,
      1785161970,
      1785162030,
      1785162090,
      1785162151,
      1785162223,
      1785162283,
      1785162343,
      1785162403,
      1785162463,
      1785162515,
      1785162583,
      1785162643,
      1785162703,
      1785162763,
      1785162824,
      1785162884,
      1785162944,
      1785163004,
      1785163184,
      1785163244,
      1785163304,
      1785163364,
      1785163424,
      1785163484,
      1785163545,
      1785163605,
      1785163669,
      1785163729,
      1785163785,
      1785163845,
      1785163965,
      1785164025,
      1785164090,
      1785164145,
      1785164205,
      1785164266,
      1785164326,
      1785164386,
      1785164446,
      1785164506,
      1785164566,
      1785164626,
      1785164686,
      1785164746,
      1785164811,
      1785164871,
      1785164912,
      1785164931,
      1785164972,
      1785165032,
      1785165051,
      1785165092,
      1785165111,
      1785165153,
      1785165171,
      1785165213,
      1785165231,
      1785165291,
      1785165333,
      1785165351,
      1785165411,
      1785165453,
      1785165471,
      1785165513,
      1785165531,
      1785165573,
      1785165592,
      1785165633,
      1785165652,
      1785165693,
      1785165712,
      1785165753,
      1785165772,
      1785165813,
      1785165832,
      1785165873,
      1785165892,
      1785165934,
      1785165952,
      1785165994,
      1785166012,
      1785166054,
      1785166072,
      1785166114,
      1785166132,
      1785166174,
      1785166192,
      1785166234,
      1785166252,
      1785166294,
      1785166313,
      1785166354,
      1785166373,
      1785166433,
      1785166474,
      1785166534,
      1785166553,
      1785166594,
      1785166613,
      1785166673,
      1785166715,
      1785166733,
      1785166793,
      1785166835,
      1785166853,
      1785166895,
      1785166913,
      1785166955,
      1785166973,
      1785167015,
      1785167033,
      1785167094,
      1785167135,
      1785167154,
      1785167195,
      1785167214,
      1785167255,
      1785167315,
      1785167375,
      1785167436,
      1785167454,
      1785167496,
      1785167556,
      1785167574,
      1785167616,
      1785167634,
      1785167676,
      1785167694,
      1785167736,
      1785167754,
      1785167796,
      1785167815,
      1785167856,
      1785167875,
      1785167916,
      1785167935,
      1785167976,
      1785168036,
      1785168055,
      1785168096,
      1785168115,
      1785168175,
      1785168235,
      1785168277,
      1785168295,
      1785168337,
      1785168355,
      1785168397,
      1785168415,
      1785168475,
      1785168535,
      1785168577,
      1785168637,
      1785168656,
      1785168697,
      1785168757,
      1785168776,
      1785168817,
      1785168938,
      1785168998,
      1785169058,
      1785169178,
      1785169238,
      1785169298,
      1785169358,
      1785169418,
      1785169478,
      1785169538,
      1785169598,
      1785169659,
      1785169719,
      1785169779,
      1785169899,
      1785170019,
      1785170079,
      1785170139,
      1785170199,
      1785170259,
      1785170319,
      1785170380,
      1785170440,
      1785170448,
      1785170500,
      1785170568,
      1785170628,
      1785170680,
      1785170740,
      1785170808,
      1785170860,
      1785170868,
      1785170928,
      1785170988,
      1785171048,
      1785171108,
      1785171169,
      1785171289,
      1785171341,
      1785171349,
      1785171409,
      1785171461,
      1785171469,
      1785171521,
      1785171589,
      1785171649,
      1785171709,
      1785171829,
      1785171890,
      1785171950,
      1785172010,
      1785172070,
      1785172130,
      1785172190,
      1785172250,
      1785172310,
      1785172370,
      1785172430,
      1785172508,
      1785172550,
      1785172574,
      1785172611,
      1785172634,
      1785172671,
      1785172749,
      1785172791,
      1785172814,
      1785172851,
      1785172870,
      1785172971,
      1785173031,
      1785173109,
      1785173151,
      1785173169,
      1785173211,
      1785173332,
      1785173349,
      1785173409,
      1785173452,
      1785173469,
      1785173512,
      1785173529,
      1785173572,
      1785173632,
      1785173650,
      1785173692,
      1785173752,
      1785173812,
      1785173835
    ],
    "wof:geomhash": "a7ff767df5e2a4b550e942fc1eab345b",
    "wof:id": 2031990203,
    "wof:repo": "sfomuseum-data-flights-2026-07"
  },
  "bbox": [
    -122.33333333333333,
    37.49722222222222,
    -70.73916666666666,
    42.45583333333334
  ],
  "geometry": {"coordinates":[[-71,42.38333333333333],[-70.97694444444444,42.419444444444444],[-70.96666666666667,42.43333333333333],[-70.93,42.45583333333334],[-70.9113888888889,42.45416666666667],[-70.82666666666667,42.45388888888889],[-70.75083333333333,42.40861111111111],[-70.74944444444445,42.405833333333334],[-70.73916666666666,42.30916666666666],[-70.83083333333333,42.25],[-70.91916666666667,42.21],[-70.94833333333334,42.2025],[-71.08333333333333,42.22],[-71.19416666666667,42.22527777777778],[-71.33777777777777,42.23277777777778],[-71.36749999999999,42.23361111111111],[-71.51444444444445,42.23972222222222],[-71.63805555555557,42.245555555555555],[-71.79138888888889,42.25083333333333],[-71.81916666666666,42.25222222222222],[-71.94583333333334,42.257222222222225],[-71.97805555555556,42.25833333333333],[-72.10111111111111,42.26277777777778],[-72.13333333333334,42.26444444444444],[-72.25861111111111,42.26888888888889],[-72.29305555555555,42.269999999999996],[-72.41722222222222,42.27388888888889],[-72.44861111111112,42.275277777777774],[-72.5775,42.27972222222222],[-72.61194444444443,42.280833333333334],[-72.74138888888889,42.284166666666664],[-72.74138888888889,42.285],[-72.91111111111111,42.28916666666667],[-72.91250000000001,42.290277777777774],[-73.08527777777778,42.27972222222222],[-73.085,42.279444444444444],[-73.25722222222223,42.264722222222225],[-73.26027777777777,42.26444444444444],[-73.42861111111111,42.24944444444444],[-73.42611111111111,42.249722222222225],[-73.59555555555555,42.23444444444444],[-73.76722222222222,42.218333333333334],[-73.93333333333334,42.20277777777778],[-73.93333333333334,42.2025],[-74.10111111111111,42.18666666666666],[-74.10416666666666,42.186388888888885],[-74.2725,42.169999999999995],[-74.44027777777778,42.15361111111111],[-74.44027777777778,42.15361111111111],[-74.6086111111111,42.13666666666666],[-74.60305555555556,42.13722222222222],[-74.7761111111111,42.11972222222222],[-74.77055555555556,42.12027777777778],[-74.80555555555556,42.11638888888889],[-74.94361111111111,42.1025],[-74.93777777777778,42.10305555555556],[-74.97166666666666,42.099722222222226],[-75.10666666666665,42.08555555555556],[-75.13972222222223,42.081944444444446],[-75.26638888888888,42.07055555555556],[-75.30083333333333,42.07],[-75.31,42.07],[-75.44638888888889,42.07888888888889],[-75.46666666666667,42.081388888888895],[-75.47444444444444,42.08222222222223],[-75.63388888888889,42.10055555555556],[-75.6413888888889,42.10166666666667],[-75.78027777777778,42.11333333333334],[-75.80916666666667,42.11361111111111],[-75.94944444444445,42.112500000000004],[-75.97194444444445,42.112500000000004],[-75.9786111111111,42.112500000000004],[-76.11999999999999,42.111111111111114],[-76.13944444444445,42.111111111111114],[-76.28694444444444,42.1],[-76.30638888888889,42.09722222222222],[-76.46777777777778,42.074444444444445],[-76.48861111111111,42.07166666666667],[-76.61888888888888,42.05472222222222],[-76.65194444444445,42.052499999999995],[-76.78472222222221,42.05138888888889],[-76.82027777777778,42.051111111111105],[-76.95333333333333,42.05027777777777],[-76.9888888888889,42.05],[-77.15277777777779,42.04888888888889],[-77.32027777777778,42.047777777777775],[-77.45083333333334,42.046388888888885],[-77.4875,42.04611111111111],[-77.61611111111111,42.044444444444444],[-77.65361111111112,42.04416666666666],[-77.78444444444445,42.0425],[-77.81694444444445,42.04222222222222],[-77.94805555555556,42.040277777777774],[-77.98027777777779,42.03972222222222],[-78.10666666666665,42.03333333333333],[-78.1438888888889,42.028888888888886],[-78.2961111111111,42.01111111111111],[-78.4538888888889,41.9925],[-78.93111111111112,41.93444444444444],[-79.2575,41.89361111111111],[-79.43361111111112,41.87138888888889],[-79.59305555555555,41.85055555555556],[-79.75138888888888,41.830000000000005],[-79.90972222222223,41.80916666666666],[-80.22972222222222,41.76638888888889],[-80.38861111111112,41.74472222222222],[-80.54833333333333,41.72277777777778],[-80.86583333333333,41.67833333333333],[-81.02416666666666,41.655833333333334],[-81.17972222222222,41.63333333333333],[-81.33666666666666,41.61083333333333],[-81.49,41.588055555555556],[-81.64555555555556,41.565],[-81.78388888888888,41.54416666666666],[-81.93777777777778,41.52111111111111],[-82.0886111111111,41.498333333333335],[-82.24416666666667,41.474444444444444],[-82.39805555555556,41.45055555555556],[-82.55166666666666,41.42666666666666],[-82.70361111111112,41.40277777777778],[-82.8536111111111,41.37861111111111],[-83.00638888888889,41.35416666666667],[-83.15555555555557,41.3125],[-83.43944444444445,41.17777777777778],[-83.58444444444444,41.12],[-83.74305555555556,41.10444444444445],[-83.89888888888889,41.09166666666667],[-84.03472222222221,41.07694444444445],[-84.0786111111111,41.06305555555555],[-84.18388888888889,41.02361111111111],[-84.22833333333334,41.0075],[-84.38138888888888,40.95388888888889],[-84.48861111111111,40.91611111111111],[-84.63694444444445,40.86638888888889],[-84.68305555555555,40.85166666666667],[-84.83527777777778,40.80361111111111],[-85.09416666666667,40.72027777777778],[-85.245,40.67055555555555],[-85.28916666666666,40.65611111111111],[-85.39750000000001,40.62083333333334],[-85.43833333333333,40.6075],[-85.5025,40.58833333333334],[-85.55055555555555,40.57833333333333],[-85.59416666666667,40.57138888888889],[-85.70972222222223,40.55833333333333],[-85.75611111111111,40.55361111111111],[-85.82111111111111,40.546388888888885],[-85.87027777777777,40.5425],[-85.91444444444446,40.53805555555555],[-85.98361111111112,40.530833333333334],[-86.03,40.52611111111111],[-86.14444444444445,40.514722222222225],[-86.22194444444445,40.50611111111111],[-86.30388888888889,40.4975],[-86.54166666666667,40.471944444444446],[-86.62638888888888,40.46333333333334],[-86.7025,40.45444444444445],[-86.78777777777778,40.44444444444444],[-86.8611111111111,40.43833333333333],[-86.91861111111112,40.43694444444444],[-87.01777777777778,40.44305555555555],[-87.1036111111111,40.44777777777777],[-87.16305555555556,40.450833333333335],[-87.26416666666667,40.45638888888889],[-87.32111111111111,40.45916666666667],[-87.47500000000001,40.4675],[-87.57416666666666,40.47222222222222],[-87.63194444444444,40.47527777777778],[-87.79222222222222,40.48305555555556],[-87.88972222222223,40.488055555555555],[-87.94805555555556,40.490833333333335],[-88.04916666666666,40.495555555555555],[-88.10666666666665,40.49805555555556],[-88.20555555555556,40.5025],[-88.26277777777777,40.50527777777778],[-88.36166666666666,40.50972222222222],[-88.41888888888889,40.511944444444445],[-88.51861111111111,40.51638888888889],[-88.57888888888888,40.51888888888889],[-88.67861111111111,40.52305555555555],[-88.7363888888889,40.525277777777774],[-88.83749999999999,40.52916666666667],[-88.90083333333334,40.531666666666666],[-89.06138888888889,40.53777777777778],[-89.22055555555556,40.55027777777777],[-89.35444444444444,40.60166666666667],[-89.48472222222222,40.656388888888884],[-89.61194444444443,40.709722222222226],[-89.73944444444444,40.76305555555555],[-89.86833333333333,40.81666666666667],[-89.99805555555555,40.87027777777778],[-90.1286111111111,40.924166666666665],[-90.2575,40.97694444444445],[-90.3736111111111,41.03333333333333],[-90.48527777777778,41.089444444444446],[-90.60416666666666,41.149166666666666],[-90.97111111111111,41.336111111111116],[-91.09916666666666,41.40333333333333],[-91.2238888888889,41.467777777777776],[-91.3425,41.53],[-91.46194444444444,41.594166666666666],[-91.57249999999999,41.6675],[-91.67888888888889,41.74472222222222],[-91.82944444444443,41.76861111111111],[-91.98972222222223,41.76416666666667],[-92.14777777777779,41.75944444444445],[-92.30805555555555,41.75472222222222],[-92.46611111111112,41.74944444444444],[-92.62388888888889,41.74388888888889],[-92.78527777777778,41.73833333333334],[-92.95583333333333,41.73222222222223],[-93.11416666666666,41.726111111111116],[-93.27305555555556,41.719722222222224],[-93.43222222222222,41.71333333333334],[-93.59138888888889,41.70666666666667],[-93.78611111111111,41.698055555555555],[-93.93527777777778,41.691111111111105],[-94.09527777777777,41.683611111111105],[-94.25555555555556,41.67611111111111],[-94.39555555555556,41.66916666666666],[-94.57777777777777,41.66],[-94.74111111111111,41.651111111111106],[-94.90194444444445,41.6425],[-95.06277777777777,41.63361111111111],[-95.22638888888889,41.62444444444444],[-95.3863888888889,41.61527777777778],[-95.54805555555555,41.605555555555554],[-95.72027777777778,41.595],[-96.2075,41.56388888888888],[-96.38222222222221,41.55222222222222],[-96.5436111111111,41.54138888888889],[-96.70416666666667,41.530277777777776],[-96.86472222222221,41.51888888888889],[-97.025,41.507222222222225],[-97.18611111111112,41.49527777777778],[-97.34722222222221,41.483333333333334],[-97.49861111111112,41.47083333333334],[-97.65833333333335,41.459722222222226],[-97.82694444444444,41.44555555555555],[-97.98861111111111,41.43277777777777],[-98.30777777777777,41.40611111111111],[-98.47,41.39222222222222],[-98.65361111111112,41.37638888888889],[-98.79055555555556,41.36416666666667],[-98.94972222222222,41.35],[-99.10722222222222,41.33583333333333],[-99.26694444444445,41.32083333333334],[-99.42972222222222,41.30583333333333],[-99.59027777777777,41.29055555555556],[-99.74805555555555,41.275277777777774],[-99.90722222222223,41.25944444444445],[-100.05777777777777,41.2325],[-100.21000000000001,41.19472222222222],[-100.35805555555555,41.159166666666664],[-100.53666666666666,41.11694444444444],[-100.6863888888889,41.08166666666667],[-100.79444444444444,41.05305555555555],[-100.83638888888889,41.04722222222222],[-100.94472222222223,41.01972222222222],[-101.09555555555555,40.98861111111111],[-101.135,40.98166666666667],[-101.24972222222222,40.955000000000005],[-101.28861111111111,40.948611111111106],[-101.40333333333334,40.92333333333333],[-101.44194444444445,40.91638888888889],[-101.55805555555555,40.89138888888889],[-101.59694444444445,40.88361111111111],[-101.75583333333333,40.86666666666667],[-101.88027777777778,40.864444444444445],[-101.915,40.87111111111111],[-102.07388888888889,40.88722222222222],[-102.19361111111111,40.8975],[-102.23194444444445,40.897777777777776],[-102.35138888888888,40.875],[-102.38777777777779,40.87],[-102.50805555555556,40.84277777777778],[-102.53944444444444,40.83527777777778],[-102.66000000000001,40.80222222222222],[-102.68916666666667,40.79555555555555],[-102.81055555555555,40.76111111111111],[-102.84166666666667,40.7525],[-102.96166666666667,40.71638888888889],[-102.98972222222223,40.708333333333336],[-103.10944444444443,40.669444444444444],[-103.13222222222221,40.663333333333334],[-103.25916666666667,40.62722222222222],[-103.28361111111111,40.62361111111111],[-103.41361111111112,40.59111111111111],[-103.4375,40.58777777777778],[-103.56944444444444,40.55638888888888],[-103.59138888888889,40.55166666666666],[-103.72444444444444,40.519999999999996],[-103.74777777777778,40.51611111111111],[-103.88305555555554,40.49444444444445],[-103.93722222222223,40.49055555555556],[-104.04472222222222,40.477222222222224],[-104.09527777777777,40.47138888888889],[-104.20194444444445,40.458333333333336],[-104.25333333333333,40.45277777777778],[-104.35944444444443,40.44],[-104.41222222222223,40.43388888888889],[-104.5175,40.420833333333334],[-104.57111111111111,40.414722222222224],[-104.73,40.39527777777778],[-104.83694444444444,40.38111111111111],[-104.99722222222222,40.361111111111114],[-105.04805555555555,40.35583333333334],[-105.1588888888889,40.3425],[-105.20611111111111,40.336111111111116],[-105.36749999999999,40.315555555555555],[-105.47722222222222,40.300555555555555],[-105.52666666666667,40.294999999999995],[-105.68583333333333,40.27444444444444],[-105.7975,40.25833333333333],[-105.84527777777777,40.253055555555555],[-105.9588888888889,40.23694444444445],[-106.00694444444444,40.23166666666667],[-106.12222222222222,40.215],[-106.16805555555555,40.21],[-106.28361111111111,40.19361111111111],[-106.32805555555555,40.18833333333333],[-106.48555555555555,40.166666666666664],[-106.60055555555554,40.15],[-106.65444444444445,40.143055555555556],[-106.75861111111111,40.12722222222222],[-106.81166666666667,40.12083333333334],[-106.91722222222222,40.10527777777778],[-107.07527777777777,40.08305555555556],[-107.23388888888888,40.06111111111111],[-107.39250000000001,40.03638888888889],[-107.4238888888889,40.0325],[-107.55055555555555,40.01416666666667],[-107.70916666666668,39.99027777777778],[-107.74194444444444,39.98527777777778],[-107.87055555555555,39.96611111111111],[-107.89972222222222,39.961666666666666],[-108.02722222222222,39.94222222222222],[-108.06305555555555,39.93666666666666],[-108.18305555555555,39.91833333333333],[-108.24388888888889,39.90888888888889],[-108.34416666666667,39.89333333333333],[-108.37833333333333,39.88805555555555],[-108.5025,39.868611111111115],[-108.53611111111111,39.86333333333334],[-108.66166666666668,39.843611111111116],[-108.72111111111111,39.83416666666667],[-108.81527777777778,39.81916666666667],[-108.97194444444445,39.79416666666666],[-109.0325,39.784166666666664],[-109.12805555555555,39.76861111111111],[-109.18944444444445,39.75861111111111],[-109.34638888888888,39.73305555555556],[-109.505,39.70666666666667],[-109.59805555555555,39.691111111111105],[-109.66166666666668,39.68055555555555],[-109.75472222222223,39.665],[-109.81833333333333,39.65416666666667],[-109.91305555555556,39.63805555555555],[-109.97333333333333,39.62777777777778],[-110.12888888888888,39.60111111111111],[-110.28694444444444,39.573888888888895],[-110.38194444444444,39.55722222222222],[-110.5363888888889,39.53],[-110.59861111111111,39.51916666666666],[-110.6913888888889,39.50277777777778],[-110.84638888888888,39.475],[-110.90777777777778,39.46416666666667],[-111.00111111111111,39.447222222222216],[-111.31166666666667,39.39083333333333],[-111.46694444444445,39.36222222222222],[-111.6236111111111,39.33305555555556],[-111.93166666666667,39.275277777777774],[-112.08777777777777,39.245555555555555],[-112.2461111111111,39.21527777777778],[-112.39944444444446,39.18555555555555],[-112.55499999999999,39.155277777777776],[-112.7088888888889,39.125277777777775],[-112.86194444444443,39.094722222222224],[-113.01583333333333,39.064166666666665],[-113.16888888888889,39.03361111111111],[-113.32222222222222,39.0025],[-113.4738888888889,38.97166666666667],[-113.77972222222222,38.90888888888889],[-114.08638888888889,38.844722222222224],[-114.26944444444445,38.80611111111111],[-114.42111111111112,38.77388888888889],[-114.57249999999999,38.74138888888889],[-114.72500000000001,38.70861111111111],[-114.87833333333333,38.67527777777777],[-115.03027777777778,38.64222222222222],[-115.18027777777779,38.60916666666667],[-115.18277777777779,38.60916666666667],[-115.33138888888888,38.57555555555556],[-115.47527777777778,38.54388888888889],[-115.62694444444443,38.51027777777778],[-115.77638888888889,38.47555555555556],[-115.92694444444444,38.44138888888889],[-116.11222222222221,38.39888888888889],[-116.22916666666667,38.371944444444445],[-116.26305555555555,38.36416666666667],[-116.41333333333334,38.32916666666667],[-116.56222222222222,38.29416666666666],[-116.71194444444444,38.25888888888889],[-116.85416666666666,38.22527777777778],[-116.99583333333334,38.19166666666666],[-117.27666666666667,38.12388888888889],[-117.37027777777777,38.10138888888889],[-117.40138888888889,38.093611111111116],[-117.54277777777777,38.05916666666666],[-117.65138888888889,38.0325],[-117.68138888888889,38.025277777777774],[-117.7911111111111,38.00194444444445],[-117.97166666666666,37.98222222222223],[-118.11694444444444,37.966944444444444],[-118.26444444444445,37.95111111111111],[-118.55444444444444,37.91916666666666],[-118.69861111111112,37.903055555555554],[-118.8436111111111,37.88666666666666],[-118.98972222222223,37.87],[-119.13333333333334,37.853611111111114],[-119.27583333333334,37.83694444444445],[-119.42,37.82],[-119.56194444444444,37.80305555555555],[-119.7025,37.78638888888889],[-119.84416666666667,37.76916666666666],[-119.98472222222222,37.75194444444445],[-120.18333333333334,37.733333333333334],[-120.27388888888889,37.715833333333336],[-120.33333333333333,37.7],[-120.4225,37.69694444444444],[-120.48333333333333,37.68333333333333],[-120.57055555555556,37.68],[-120.76666666666667,37.65],[-120.84138888888889,37.647777777777776],[-120.9,37.63333333333333],[-120.96972222222223,37.632222222222225],[-121.01666666666667,37.63333333333333],[-121.22305555555556,37.598333333333336],[-121.3411111111111,37.58361111111111],[-121.5,37.56666666666667],[-121.56916666666666,37.55722222222222],[-121.6,37.55],[-121.66388888888889,37.54111111111111],[-121.82138888888889,37.50361111111111],[-121.85,37.5],[-121.93333333333334,37.5],[-121.98027777777779,37.49722222222222],[-122,37.5],[-122.05055555555555,37.50083333333333],[-122.06666666666666,37.5],[-122.11583333333333,37.511944444444445],[-122.17333333333333,37.53611111111111],[-122.18333333333334,37.55],[-122.22916666666667,37.55972222222222],[-122.28027777777778,37.58111111111111],[-122.32055555555556,37.59805555555556],[-122.33333333333333,37.6]],"type":"LineString"}
}
