{
  "id": 2031995761,
  "type": "Feature",
  "properties": {
    "geom:area": 0,
    "geom:bbox": "-121.987222,33.275278,-111.772778,37.101389",
    "geom:latitude": 34.582332405235306,
    "geom:longitude": -116.96135616333645,
    "src:alt_label": "swim-path",
    "src:geom": "swim",
    "swim:altitudes": [
      "262",
      "280",
      "293",
      "306",
      "308",
      "329",
      "331",
      "360",
      "362",
      "373",
      "389C",
      "390C",
      "390C",
      "390C",
      "390C",
      "390C",
      "390C",
      "390C",
      "390C",
      "390C",
      "390C",
      "390C",
      "390C",
      "390C",
      "390C",
      "390C",
      "390C",
      "390C",
      "390C",
      "390C",
      "390C",
      "390C",
      "390C",
      "390C",
      "390C",
      "390C",
      "390C",
      "390C",
      "390C",
      "390C",
      "390C",
      "390C",
      "390C",
      "390C",
      "390C",
      "390C",
      "390C",
      "390C",
      "390C",
      "390C",
      "390C",
      "390C",
      "390C",
      "390C",
      "390C",
      "390C",
      "390C",
      "390C",
      "390C",
      "386",
      "376",
      "358",
      "330",
      "302",
      "277",
      "250",
      "250",
      "250",
      "220",
      "220",
      "204",
      "190",
      "186",
      "171",
      "170",
      "167",
      "156",
      "150",
      "141",
      "126",
      "112",
      "091",
      "082",
      "074",
      "071",
      "067",
      "063",
      "053",
      "047",
      "037",
      "028",
      "022",
      "021",
      "016",
      "010"
    ],
    "swim:geom": "path",
    "swim:speeds": [
      434,
      445,
      465,
      480,
      474,
      477,
      477,
      458,
      459,
      460,
      460,
      458,
      458,
      457,
      456,
      454,
      454,
      453,
      453,
      453,
      453,
      453,
      453,
      453,
      453,
      453,
      453,
      453,
      453,
      453,
      443,
      435,
      433,
      430,
      429,
      429,
      429,
      429,
      430,
      433,
      434,
      434,
      434,
      434,
      435,
      435,
      435,
      434,
      433,
      428,
      426,
      426,
      426,
      425,
      425,
      424,
      424,
      420,
      418,
      422,
      434,
      448,
      450,
      455,
      444,
      421,
      416,
      415,
      416,
      397,
      390,
      368,
      358,
      342,
      338,
      318,
      317,
      318,
      316,
      307,
      296,
      260,
      246,
      246,
      240,
      230,
      227,
      226,
      209,
      188,
      180,
      149,
      132,
      131,
      132
    ],
    "swim:timestamps": [
      1785204788,
      1785204838,
      1785204898,
      1785204959,
      1785204969,
      1785205019,
      1785205029,
      1785205139,
      1785205149,
      1785205199,
      1785205269,
      1785205329,
      1785205389,
      1785205449,
      1785205509,
      1785205559,
      1785205570,
      1785205619,
      1785205630,
      1785205679,
      1785205690,
      1785205740,
      1785205750,
      1785205810,
      1785205860,
      1785205870,
      1785205920,
      1785205930,
      1785205980,
      1785205990,
      1785206050,
      1785206110,
      1785206170,
      1785206231,
      1785206280,
      1785206291,
      1785206351,
      1785206411,
      1785206471,
      1785206591,
      1785206651,
      1785206711,
      1785206771,
      1785206831,
      1785206891,
      1785206952,
      1785207012,
      1785207072,
      1785207132,
      1785207252,
      1785207372,
      1785207432,
      1785207492,
      1785207552,
      1785207673,
      1785207733,
      1785207793,
      1785207913,
      1785207973,
      1785208090,
      1785208153,
      1785208270,
      1785208334,
      1785208391,
      1785208451,
      1785208574,
      1785208634,
      1785208691,
      1785208811,
      1785208871,
      1785208931,
      1785208992,
      1785209052,
      1785209112,
      1785209122,
      1785209182,
      1785209232,
      1785209248,
      1785209292,
      1785209352,
      1785209412,
      1785209542,
      1785209597,
      1785209653,
      1785209663,
      1785209713,
      1785209723,
      1785209777,
      1785209833,
      1785209891,
      1785209963,
      1785210013,
      1785210023,
      1785210073,
      1785210133
    ],
    "wof:geomhash": "dbd9758b06f36107aadd8836b6f5dbc8",
    "wof:id": 2031995761,
    "wof:repo": "sfomuseum-data-flights-2026-07"
  },
  "bbox": [
    -121.98722222222223,
    33.275277777777774,
    -111.77277777777778,
    37.10138888888889
  ],
  "geometry": {"coordinates":[[-121.98722222222223,37.10138888888889],[-121.8711111111111,37.03944444444444],[-121.74277777777777,36.96361111111111],[-121.60749999999999,36.88361111111111],[-121.59638888888888,36.87277777777778],[-121.47472222222223,36.80472222222222],[-121.46361111111112,36.79277777777778],[-121.22555555555556,36.655],[-121.2088888888889,36.64194444444444],[-121.09777777777778,36.57833333333333],[-120.94916666666667,36.48833333333334],[-120.82916666666667,36.408055555555556],[-120.70722222222223,36.32666666666667],[-120.58722222222222,36.24611111111111],[-120.46694444444445,36.165],[-120.36749999999999,36.09777777777778],[-120.34555555555555,36.08305555555556],[-120.24805555555555,36.016666666666666],[-120.2275,36.0025],[-120.1286111111111,35.93527777777778],[-120.10694444444444,35.92055555555555],[-120.00944444444444,35.853611111111114],[-119.98833333333333,35.839444444444446],[-119.86972222222222,35.755833333333335],[-119.77333333333333,35.687777777777775],[-119.75277777777778,35.67333333333333],[-119.65611111111112,35.605000000000004],[-119.63555555555556,35.590833333333336],[-119.53777777777778,35.5225],[-119.5175,35.50805555555556],[-119.4025,35.42527777777777],[-119.2936111111111,35.34666666666667],[-119.18333333333334,35.2675],[-119.07249999999999,35.18805555555555],[-118.98361111111112,35.12388888888889],[-118.96444444444445,35.11027777777778],[-118.85444444444444,35.030277777777776],[-118.74694444444445,34.952222222222225],[-118.63722222222223,34.8725],[-118.42111111111112,34.714444444444446],[-118.31305555555555,34.63444444444444],[-118.19916666666667,34.55083333333333],[-118.09555555555555,34.47416666666667],[-117.9738888888889,34.41],[-117.82388888888889,34.37416666666667],[-117.68333333333334,34.34027777777778],[-117.5425,34.30638888888888],[-117.40361111111112,34.272777777777776],[-117.26527777777778,34.23916666666667],[-117.005,34.175],[-116.7213888888889,34.10444444444445],[-116.58527777777778,34.07055555555556],[-116.44888888888889,34.03611111111111],[-116.31361111111111,34.001666666666665],[-116.04083333333332,33.93194444444444],[-115.90444444444445,33.89722222222222],[-115.76805555555555,33.861666666666665],[-115.50138888888888,33.79222222222222],[-115.37027777777777,33.757777777777775],[-115.12027777777777,33.69194444444444],[-114.965,33.65083333333333],[-114.6975,33.58388888888889],[-114.53277777777778,33.55166666666666],[-114.40194444444445,33.52583333333333],[-114.25638888888889,33.49722222222222],[-113.96777777777778,33.439722222222215],[-113.83472222222221,33.41305555555555],[-113.71583333333334,33.388888888888886],[-113.44777777777779,33.335],[-113.31833333333333,33.312777777777775],[-113.19083333333333,33.291666666666664],[-113.07,33.275277777777774],[-112.95111111111112,33.276944444444446],[-112.83583333333333,33.28],[-112.8,33.28333333333333],[-112.7,33.3],[-112.62277777777777,33.299166666666665],[-112.58333333333333,33.3],[-112.51611111111112,33.30888888888889],[-112.41611111111112,33.318333333333335],[-112.31888888888888,33.327222222222225],[-112.1,33.35],[-112.03333333333333,33.35],[-111.96722222222222,33.346111111111114],[-111.95,33.35],[-111.88972222222223,33.345],[-111.86666666666666,33.35],[-111.8,33.35],[-111.77277777777778,33.3775],[-111.81666666666666,33.416666666666664],[-111.88333333333334,33.43333333333333],[-111.92583333333334,33.428888888888885],[-111.93333333333334,33.43333333333333],[-111.96861111111112,33.42861111111111],[-112.01222222222222,33.428888888888885]],"type":"LineString"}
}
