{
  "id": 2031946909,
  "type": "Feature",
  "properties": {
    "geom:area": 0,
    "geom:bbox": "-122.397500,25.787222,-80.328056,38.518611",
    "geom:latitude": 33.66726283670275,
    "geom:longitude": -101.04484232306294,
    "src:alt_label": "swim-path",
    "src:geom": "swim",
    "swim:altitudes": [
      "007",
      "030",
      "037",
      "043",
      "058",
      "077",
      "092",
      "109",
      "121",
      "138",
      "153",
      "160",
      "167",
      "176",
      "188",
      "199",
      "208",
      "216",
      "225",
      "232",
      "240",
      "246",
      "254",
      "260",
      "261",
      "266",
      "266",
      "270",
      "271",
      "275",
      "277",
      "286",
      "292",
      "297",
      "298",
      "306",
      "310C",
      "310C",
      "310C",
      "310C",
      "310C",
      "310C",
      "310",
      "310",
      "310",
      "310",
      "310",
      "310",
      "313",
      "316",
      "320",
      "324",
      "328C",
      "330C",
      "330C",
      "330C",
      "330C",
      "330C",
      "330C",
      "330C",
      "330C",
      "330C",
      "330C",
      "330C",
      "330C",
      "330C",
      "330C",
      "330C",
      "330C",
      "330C",
      "330C",
      "330C",
      "330C",
      "330C",
      "330C",
      "330C",
      "330C",
      "330C",
      "330C",
      "330C",
      "330C",
      "330C",
      "330C",
      "330C",
      "330C",
      "330C",
      "330C",
      "330C",
      "330C",
      "330C",
      "330C",
      "330C",
      "330C",
      "330C",
      "330C",
      "330C",
      "330C",
      "330C",
      "330C",
      "330C",
      "330C",
      "330C",
      "330C",
      "330C",
      "330C",
      "330C",
      "330C",
      "330C",
      "330C",
      "330C",
      "330C",
      "330C",
      "330C",
      "330C",
      "330C",
      "330C",
      "330C",
      "330C",
      "330C",
      "330C",
      "330C",
      "330C",
      "330C",
      "330C",
      "330C",
      "330C",
      "330C",
      "330C",
      "330C",
      "330C",
      "330C",
      "330C",
      "330C",
      "330C",
      "330C",
      "330C",
      "330C",
      "330C",
      "330C",
      "330C",
      "330C",
      "330C",
      "330C",
      "330C",
      "330C",
      "330C",
      "330C",
      "330C",
      "330C",
      "330C",
      "330C",
      "330C",
      "330C",
      "330C",
      "330C",
      "330C",
      "330C",
      "330C",
      "330C",
      "330C",
      "330C",
      "330C",
      "330C",
      "330C",
      "330C",
      "330C",
      "330C",
      "330C",
      "330C",
      "330C",
      "330C",
      "330C",
      "330C",
      "330C",
      "330C",
      "330C",
      "330C",
      "330C",
      "330C",
      "330C",
      "330C",
      "330C",
      "330C",
      "330C",
      "330C",
      "330C",
      "330C",
      "330C",
      "330C",
      "330C",
      "330C",
      "330C",
      "330C",
      "330C",
      "330C",
      "330C",
      "330C",
      "330C",
      "330C",
      "330C",
      "330C",
      "330C",
      "330C",
      "330C",
      "330C",
      "330C",
      "330C",
      "330C",
      "330C",
      "330C",
      "330C",
      "330C",
      "330C",
      "330C",
      "332",
      "341",
      "350C",
      "350C",
      "350C",
      "350C",
      "350C",
      "350C",
      "350C",
      "350C",
      "350C",
      "350C",
      "350C",
      "350C",
      "350C",
      "350C",
      "350C",
      "350C",
      "350C",
      "350C",
      "350C",
      "350C",
      "350C",
      "350C",
      "350C",
      "350C",
      "350C",
      "350C",
      "350C",
      "350C",
      "350C",
      "350C",
      "350C",
      "350C",
      "350C",
      "350C",
      "350C",
      "350C",
      "350C",
      "350C",
      "350C",
      "350C",
      "350C",
      "350C",
      "350C",
      "350C",
      "350C",
      "350C",
      "350C",
      "350C",
      "350C",
      "350C",
      "350C",
      "350C",
      "350C",
      "350C",
      "350C",
      "350C",
      "350C",
      "350C",
      "350C",
      "350C",
      "350C",
      "350C",
      "350C",
      "350C",
      "350C",
      "350C",
      "350C",
      "350C",
      "350C",
      "350C",
      "350C",
      "350C",
      "350C",
      "350C",
      "350C",
      "350C",
      "350C",
      "350C",
      "350C",
      "350C",
      "350C",
      "350C",
      "350C",
      "350C",
      "350C",
      "350C",
      "350C",
      "350C",
      "350C",
      "350C",
      "350C",
      "350C",
      "350C",
      "350C",
      "350C",
      "350C",
      "350C",
      "350C",
      "350C",
      "350C",
      "350C",
      "350C",
      "350C",
      "350C",
      "350C",
      "350C",
      "350C",
      "350C",
      "350C",
      "350C",
      "350C",
      "350C",
      "350C",
      "350C",
      "350C",
      "350C",
      "350C",
      "350C",
      "350C",
      "350C",
      "350C",
      "350C",
      "350C",
      "350C",
      "350C",
      "350C",
      "350C",
      "350C",
      "350C",
      "350C",
      "350C",
      "350C",
      "350C",
      "350C",
      "350C",
      "350C",
      "350C",
      "350C",
      "350C",
      "350C",
      "350C",
      "350C",
      "350C",
      "350C",
      "350C",
      "350C",
      "350C",
      "350C",
      "350C",
      "350",
      "350",
      "350",
      "350",
      "350",
      "350",
      "330",
      "311",
      "289",
      "265",
      "243",
      "225",
      "206",
      "188",
      "171",
      "152",
      "133",
      "115",
      "102",
      "090",
      "086",
      "071",
      "059",
      "058",
      "051",
      "051",
      "043",
      "041",
      "031",
      "021",
      "013",
      "005"
    ],
    "swim:geom": "path",
    "swim:speeds": [
      175,
      206,
      209,
      233,
      268,
      288,
      297,
      321,
      355,
      358,
      366,
      393,
      416,
      434,
      436,
      440,
      450,
      461,
      466,
      472,
      476,
      482,
      485,
      490,
      488,
      490,
      492,
      498,
      497,
      501,
      502,
      502,
      501,
      499,
      500,
      500,
      500,
      500,
      500,
      500,
      500,
      500,
      501,
      501,
      501,
      502,
      503,
      503,
      503,
      502,
      501,
      500,
      499,
      498,
      497,
      496,
      496,
      495,
      495,
      495,
      495,
      494,
      493,
      492,
      491,
      489,
      487,
      485,
      485,
      485,
      487,
      488,
      487,
      487,
      486,
      486,
      486,
      486,
      487,
      488,
      492,
      492,
      491,
      491,
      491,
      490,
      490,
      489,
      487,
      487,
      486,
      486,
      486,
      486,
      486,
      487,
      488,
      489,
      491,
      492,
      493,
      493,
      492,
      492,
      492,
      491,
      491,
      492,
      491,
      491,
      491,
      491,
      491,
      491,
      491,
      491,
      490,
      489,
      489,
      487,
      487,
      486,
      486,
      487,
      487,
      487,
      488,
      488,
      488,
      487,
      487,
      487,
      487,
      487,
      487,
      487,
      488,
      489,
      490,
      490,
      491,
      492,
      489,
      487,
      486,
      478,
      476,
      476,
      475,
      475,
      475,
      475,
      473,
      470,
      470,
      470,
      469,
      470,
      471,
      474,
      477,
      479,
      479,
      480,
      480,
      480,
      480,
      476,
      475,
      473,
      472,
      471,
      470,
      470,
      470,
      470,
      470,
      470,
      470,
      471,
      471,
      472,
      472,
      473,
      473,
      472,
      471,
      470,
      469,
      469,
      468,
      467,
      467,
      466,
      466,
      466,
      465,
      465,
      465,
      465,
      465,
      465,
      464,
      465,
      465,
      466,
      466,
      467,
      468,
      468,
      467,
      467,
      467,
      466,
      469,
      469,
      463,
      461,
      462,
      463,
      465,
      466,
      465,
      463,
      462,
      461,
      460,
      457,
      459,
      456,
      458,
      456,
      454,
      455,
      453,
      453,
      452,
      451,
      451,
      452,
      452,
      451,
      453,
      453,
      454,
      455,
      456,
      457,
      457,
      457,
      457,
      456,
      456,
      455,
      455,
      453,
      453,
      453,
      453,
      453,
      455,
      456,
      456,
      457,
      457,
      458,
      458,
      459,
      459,
      460,
      460,
      461,
      462,
      462,
      463,
      463,
      462,
      463,
      463,
      463,
      463,
      464,
      464,
      464,
      464,
      464,
      464,
      464,
      463,
      463,
      463,
      462,
      456,
      454,
      454,
      456,
      457,
      457,
      458,
      458,
      458,
      458,
      459,
      459,
      459,
      459,
      459,
      459,
      459,
      459,
      459,
      459,
      459,
      457,
      457,
      457,
      458,
      458,
      459,
      461,
      461,
      461,
      462,
      461,
      460,
      458,
      457,
      456,
      455,
      455,
      455,
      456,
      456,
      456,
      457,
      458,
      459,
      459,
      460,
      458,
      457,
      456,
      454,
      453,
      452,
      451,
      451,
      451,
      446,
      444,
      443,
      443,
      443,
      443,
      443,
      444,
      443,
      443,
      443,
      443,
      443,
      456,
      471,
      473,
      473,
      446,
      440,
      439,
      439,
      440,
      441,
      441,
      429,
      402,
      388,
      380,
      375,
      366,
      359,
      352,
      345,
      340,
      328,
      312,
      289,
      280,
      280,
      273,
      275,
      246,
      239,
      222,
      224,
      213,
      183,
      155,
      150
    ],
    "swim:timestamps": [
      1784874183,
      1784874243,
      1784874267,
      1784874303,
      1784874363,
      1784874423,
      1784874483,
      1784874543,
      1784874603,
      1784874663,
      1784874723,
      1784874783,
      1784874843,
      1784874903,
      1784874963,
      1784875023,
      1784875083,
      1784875143,
      1784875203,
      1784875263,
      1784875323,
      1784875383,
      1784875443,
      1784875484,
      1784875504,
      1784875544,
      1784875564,
      1784875604,
      1784875624,
      1784875664,
      1784875684,
      1784875744,
      1784875804,
      1784875845,
      1784875864,
      1784875924,
      1784875965,
      1784875984,
      1784876044,
      1784876085,
      1784876145,
      1784876164,
      1784876205,
      1784876224,
      1784876284,
      1784876325,
      1784876385,
      1784876404,
      1784876445,
      1784876464,
      1784876505,
      1784876524,
      1784876565,
      1784876584,
      1784876625,
      1784876644,
      1784876685,
      1784876704,
      1784876745,
      1784876764,
      1784876805,
      1784876824,
      1784876865,
      1784876925,
      1784876985,
      1784877045,
      1784877106,
      1784877166,
      1784877226,
      1784877286,
      1784877346,
      1784877406,
      1784877466,
      1784877526,
      1784877586,
      1784877646,
      1784877706,
      1784877766,
      1784877826,
      1784877886,
      1784877945,
      1784878005,
      1784878065,
      1784878125,
      1784878185,
      1784878245,
      1784878305,
      1784878365,
      1784878425,
      1784878485,
      1784878545,
      1784878605,
      1784878665,
      1784878726,
      1784878786,
      1784878846,
      1784878906,
      1784878966,
      1784879026,
      1784879086,
      1784879146,
      1784879206,
      1784879266,
      1784879326,
      1784879386,
      1784879446,
      1784879506,
      1784879552,
      1784879566,
      1784879612,
      1784879626,
      1784879672,
      1784879686,
      1784879732,
      1784879746,
      1784879792,
      1784879806,
      1784879854,
      1784879866,
      1784879912,
      1784879926,
      1784879973,
      1784879986,
      1784880032,
      1784880046,
      1784880106,
      1784880152,
      1784880166,
      1784880213,
      1784880226,
      1784880273,
      1784880286,
      1784880346,
      1784880394,
      1784880407,
      1784880467,
      1784880512,
      1784880527,
      1784880575,
      1784880587,
      1784880635,
      1784880693,
      1784880755,
      1784880815,
      1784880875,
      1784880936,
      1784880994,
      1784881053,
      1784881113,
      1784881173,
      1784881235,
      1784881293,
      1784881355,
      1784881397,
      1784881415,
      1784881457,
      1784881473,
      1784881517,
      1784881534,
      1784881577,
      1784881595,
      1784881637,
      1784881653,
      1784881697,
      1784881715,
      1784881757,
      1784881773,
      1784881817,
      1784881833,
      1784881877,
      1784881893,
      1784881937,
      1784881955,
      1784881997,
      1784882013,
      1784882057,
      1784882075,
      1784882117,
      1784882135,
      1784882177,
      1784882193,
      1784882237,
      1784882253,
      1784882297,
      1784882313,
      1784882357,
      1784882373,
      1784882417,
      1784882434,
      1784882477,
      1784882493,
      1784882537,
      1784882553,
      1784882597,
      1784882614,
      1784882657,
      1784882673,
      1784882717,
      1784882734,
      1784882777,
      1784882793,
      1784882837,
      1784882853,
      1784882897,
      1784882915,
      1784882957,
      1784882974,
      1784883017,
      1784883077,
      1784883138,
      1784883198,
      1784883258,
      1784883318,
      1784883378,
      1784883438,
      1784883498,
      1784883558,
      1784883618,
      1784883678,
      1784883738,
      1784883798,
      1784883858,
      1784883918,
      1784883978,
      1784884038,
      1784884098,
      1784884158,
      1784884210,
      1784884218,
      1784884268,
      1784884278,
      1784884328,
      1784884388,
      1784884398,
      1784884450,
      1784884458,
      1784884518,
      1784884570,
      1784884578,
      1784884638,
      1784884698,
      1784884751,
      1784884758,
      1784884811,
      1784884818,
      1784884878,
      1784884928,
      1784884938,
      1784884988,
      1784884999,
      1784885048,
      1784885108,
      1784885119,
      1784885168,
      1784885179,
      1784885239,
      1784885299,
      1784885349,
      1784885359,
      1784885409,
      1784885479,
      1784885529,
      1784885539,
      1784885589,
      1784885599,
      1784885649,
      1784885659,
      1784885709,
      1784885719,
      1784885769,
      1784885779,
      1784885830,
      1784885891,
      1784885899,
      1784885949,
      1784885959,
      1784886019,
      1784886071,
      1784886079,
      1784886131,
      1784886139,
      1784886199,
      1784886249,
      1784886259,
      1784886309,
      1784886319,
      1784886369,
      1784886379,
      1784886429,
      1784886439,
      1784886489,
      1784886499,
      1784886545,
      1784886605,
      1784886665,
      1784886726,
      1784886786,
      1784886846,
      1784886906,
      1784886966,
      1784887026,
      1784887086,
      1784887146,
      1784887206,
      1784887266,
      1784887326,
      1784887386,
      1784887446,
      1784887506,
      1784887566,
      1784887626,
      1784887686,
      1784887746,
      1784887866,
      1784887872,
      1784887926,
      1784887986,
      1784887992,
      1784888047,
      1784888107,
      1784888167,
      1784888173,
      1784888227,
      1784888291,
      1784888347,
      1784888407,
      1784888467,
      1784888527,
      1784888533,
      1784888587,
      1784888647,
      1784888707,
      1784888767,
      1784888827,
      1784888887,
      1784888947,
      1784889007,
      1784889067,
      1784889124,
      1784889188,
      1784889244,
      1784889304,
      1784889368,
      1784889424,
      1784889485,
      1784889548,
      1784889605,
      1784889665,
      1784889728,
      1784889785,
      1784889848,
      1784889908,
      1784889965,
      1784890025,
      1784890089,
      1784890145,
      1784890205,
      1784890265,
      1784890326,
      1784890446,
      1784890506,
      1784890566,
      1784890626,
      1784890686,
      1784890746,
      1784890806,
      1784890866,
      1784890926,
      1784890986,
      1784891046,
      1784891106,
      1784891167,
      1784891227,
      1784891287,
      1784891347,
      1784891407,
      1784891467,
      1784891527,
      1784891587,
      1784891647,
      1784891707,
      1784891767,
      1784891825,
      1784891885,
      1784891948,
      1784892008,
      1784892066,
      1784892120,
      1784892128,
      1784892180,
      1784892188,
      1784892235,
      1784892248,
      1784892307,
      1784892368,
      1784892428,
      1784892488
    ],
    "wof:geomhash": "473afe3ec5813dc00f2482bb47cd7e9e",
    "wof:id": 2031946909,
    "wof:repo": "sfomuseum-data-flights-2026-07"
  },
  "bbox": [
    -122.39750000000001,
    25.787222222222223,
    -80.32805555555555,
    38.51861111111111
  ],
  "geometry": {"coordinates":[[-122.39750000000001,37.628055555555555],[-122.39,37.66972222222222],[-122.36666666666666,37.68333333333333],[-122.3436111111111,37.7175],[-122.35749999999999,37.78638888888889],[-122.3863888888889,37.86333333333334],[-122.37555555555555,37.92805555555555],[-122.25722222222223,37.965833333333336],[-122.13833333333334,37.986666666666665],[-122.01166666666667,37.98888888888889],[-121.88138888888888,37.98972222222222],[-121.74638888888889,37.99027777777778],[-121.60194444444444,37.99055555555556],[-121.44916666666667,37.990833333333335],[-121.29638888888888,37.99111111111111],[-121.14194444444445,37.99111111111111],[-120.98666666666666,38.009166666666665],[-120.82722222222222,38.03444444444444],[-120.66638888888889,38.05888888888889],[-120.50305555555556,38.083333333333336],[-120.33638888888889,38.10805555555556],[-120.17111111111112,38.1325],[-120.00083333333333,38.157777777777774],[-119.87277777777777,38.17444444444444],[-119.83194444444445,38.18222222222222],[-119.70416666666667,38.200833333333335],[-119.65972222222223,38.206944444444446],[-119.52972222222222,38.223888888888894],[-119.48444444444445,38.231944444444444],[-119.35638888888889,38.24944444444444],[-119.32249999999999,38.25472222222222],[-119.1463888888889,38.27916666666667],[-118.9738888888889,38.30277777777778],[-118.83666666666666,38.32083333333334],[-118.80138888888888,38.32611111111112],[-118.59305555555555,38.35416666666667],[-118.49055555555556,38.367777777777775],[-118.42,38.37722222222222],[-118.245,38.400277777777774],[-118.15805555555556,38.41166666666666],[-117.98138888888889,38.43416666666666],[-117.91083333333334,38.44305555555555],[-117.80805555555555,38.45611111111111],[-117.73388888888888,38.465],[-117.55805555555555,38.486111111111114],[-117.45111111111112,38.499722222222225],[-117.27222222222223,38.51861111111111],[-117.20111111111112,38.51777777777777],[-117.095,38.514722222222225],[-117.02083333333333,38.51277777777778],[-116.91388888888889,38.50944444444445],[-116.84194444444444,38.50694444444444],[-116.73694444444445,38.50361111111111],[-116.66472222222222,38.50111111111111],[-116.56,38.4975],[-116.4888888888889,38.49527777777778],[-116.38666666666667,38.49166666666667],[-116.315,38.48916666666667],[-116.2088888888889,38.48527777777778],[-116.13805555555557,38.4825],[-116.03527777777778,38.478611111111114],[-115.965,38.475833333333334],[-115.85916666666667,38.47166666666667],[-115.68583333333333,38.464444444444446],[-115.51361111111112,38.456944444444446],[-115.34222222222222,38.44944444444444],[-115.17,38.44166666666666],[-114.99888888888889,38.43333333333333],[-114.8286111111111,38.42527777777777],[-114.65666666666667,38.41694444444444],[-114.48527777777778,38.408055555555556],[-114.31055555555555,38.39388888888889],[-114.14555555555556,38.35583333333334],[-113.9825,38.31777777777778],[-113.81666666666666,38.278888888888886],[-113.6538888888889,38.23972222222222],[-113.4875,38.19916666666666],[-113.32527777777777,38.15972222222222],[-113.16000000000001,38.11944444444445],[-112.99194444444444,38.07805555555556],[-112.82805555555555,38.0375],[-112.66277777777778,37.99611111111111],[-112.49472222222222,37.95416666666667],[-112.33111111111111,37.91277777777778],[-112.16666666666667,37.87111111111111],[-112.00194444444445,37.828611111111115],[-111.83694444444444,37.79111111111111],[-111.6725,37.75361111111111],[-111.50888888888889,37.71611111111111],[-111.37555555555555,37.68527777777778],[-111.18194444444445,37.640277777777776],[-111.01833333333333,37.60166666666667],[-110.88833333333334,37.571111111111115],[-110.72527777777778,37.5325],[-110.5625,37.493611111111115],[-110.39944444444446,37.45416666666667],[-110.23555555555555,37.41444444444444],[-110.065,37.37305555555555],[-109.90083333333334,37.33277777777778],[-109.73555555555555,37.291666666666664],[-109.57277777777777,37.25138888888889],[-109.40722222222223,37.209722222222226],[-109.24583333333334,37.16888888888889],[-109.08027777777778,37.12694444444445],[-108.91833333333334,37.08583333333333],[-108.75638888888889,37.04388888888889],[-108.59277777777777,37.001666666666665],[-108.46083333333334,36.9675],[-108.43111111111112,36.959722222222226],[-108.30083333333333,36.925555555555555],[-108.2675,36.916666666666664],[-108.13833333333334,36.8825],[-108.10527777777777,36.87361111111111],[-107.97611111111111,36.839444444444446],[-107.94416666666667,36.83111111111111],[-107.81416666666667,36.796388888888885],[-107.78222222222222,36.78777777777778],[-107.65333333333334,36.753055555555555],[-107.62194444444444,36.74444444444445],[-107.49444444444444,36.71027777777778],[-107.46277777777777,36.70166666666667],[-107.33527777777778,36.66722222222222],[-107.30361111111111,36.65833333333333],[-107.17611111111111,36.623333333333335],[-107.14472222222223,36.61472222222223],[-106.98555555555555,36.571111111111115],[-106.85638888888889,36.53527777777778],[-106.82555555555555,36.526666666666664],[-106.69638888888889,36.49055555555556],[-106.66694444444445,36.48222222222223],[-106.53888888888889,36.44638888888888],[-106.50888888888889,36.43805555555555],[-106.33805555555556,36.39],[-106.21416666666667,36.35472222222222],[-106.17583333333334,36.34388888888889],[-106.01555555555555,36.29805555555556],[-105.90305555555557,36.26916666666666],[-105.86305555555555,36.26],[-105.73472222222222,36.23111111111111],[-105.69694444444445,36.222500000000004],[-105.56888888888888,36.19305555555555],[-105.43277777777779,36.16166666666666],[-105.27055555555556,36.12444444444444],[-105.11166666666666,36.08777777777778],[-104.95166666666667,36.05],[-104.79333333333334,36.0125],[-104.6363888888889,35.97555555555556],[-104.47944444444444,35.93805555555555],[-104.32555555555555,35.901111111111106],[-104.16638888888889,35.86277777777778],[-104.01055555555556,35.824444444444445],[-103.86222222222221,35.76888888888889],[-103.71527777777779,35.71138888888889],[-103.61805555555554,35.67194444444444],[-103.57111111111111,35.65472222222222],[-103.47500000000001,35.61527777777778],[-103.42861111111111,35.598888888888894],[-103.33138888888888,35.559444444444445],[-103.28305555555555,35.54138888888889],[-103.18444444444445,35.50222222222222],[-103.135,35.4825],[-103.03888888888889,35.44416666666666],[-102.98694444444445,35.42333333333333],[-102.89222222222223,35.385555555555555],[-102.83944444444444,35.364444444444445],[-102.7461111111111,35.32666666666667],[-102.69305555555556,35.305277777777775],[-102.57194444444444,35.256388888888885],[-102.54305555555555,35.24472222222222],[-102.43,35.198611111111106],[-102.40027777777779,35.18666666666666],[-102.28861111111111,35.14111111111111],[-102.25861111111111,35.12888888888889],[-102.14583333333334,35.08277777777778],[-102.11694444444444,35.07083333333334],[-102.00638888888889,35.025277777777774],[-101.97694444444444,35.013333333333335],[-101.86611111111111,34.9675],[-101.83583333333333,34.955000000000005],[-101.7238888888889,34.90833333333333],[-101.69527777777778,34.896388888888886],[-101.585,34.85055555555556],[-101.55388888888889,34.837500000000006],[-101.4413888888889,34.79055555555556],[-101.41250000000001,34.77861111111111],[-101.30222222222221,34.73222222222223],[-101.27166666666666,34.719166666666666],[-101.16083333333334,34.67222222222222],[-101.1325,34.66027777777778],[-101.02222222222223,34.61361111111111],[-100.99222222222222,34.60111111111111],[-100.8825,34.55444444444444],[-100.85444444444444,34.5425],[-100.74333333333334,34.495],[-100.71555555555555,34.48305555555556],[-100.60499999999999,34.43555555555555],[-100.575,34.422777777777775],[-100.46694444444445,34.37638888888889],[-100.43777777777778,34.36361111111111],[-100.33777777777777,34.32027777777778],[-100.30027777777778,34.30416666666667],[-100.19916666666667,34.26027777777778],[-100.16277777777778,34.24444444444445],[-100.05944444444444,34.19944444444444],[-100.025,34.18444444444444],[-99.92027777777778,34.13861111111111],[-99.88611111111112,34.12361111111111],[-99.78138888888888,34.0775],[-99.63805555555557,34.01444444444444],[-99.50166666666667,33.95388888888889],[-99.36277777777777,33.89222222222222],[-99.22666666666667,33.83166666666667],[-99.08777777777777,33.769444444444446],[-98.95138888888889,33.70805555555556],[-98.81361111111111,33.645833333333336],[-98.69,33.59],[-98.5436111111111,33.52305555555555],[-98.4225,33.467777777777776],[-98.28777777777778,33.40611111111111],[-98.15222222222222,33.34388888888889],[-98.00861111111111,33.29138888888889],[-97.86861111111111,33.24055555555556],[-97.72777777777777,33.189166666666665],[-97.58555555555554,33.13722222222222],[-97.44666666666667,33.086111111111116],[-97.30583333333333,33.03388888888889],[-97.16416666666667,32.98111111111111],[-97.05,32.93805555555555],[-97.02055555555556,32.92777777777778],[-96.91027777777778,32.8875],[-96.88083333333333,32.87555555555556],[-96.77333333333333,32.83527777777778],[-96.63694444444445,32.78388888888889],[-96.60777777777777,32.7725],[-96.5,32.73222222222223],[-96.47222222222223,32.72138888888889],[-96.33666666666666,32.66972222222222],[-96.23027777777779,32.629444444444445],[-96.20138888888889,32.61805555555556],[-96.06694444444445,32.56638888888889],[-95.93,32.51361111111111],[-95.81305555555555,32.468611111111116],[-95.79444444444444,32.46138888888889],[-95.67722222222223,32.41583333333333],[-95.65972222222223,32.40888888888889],[-95.52222222222223,32.35527777777778],[-95.40305555555557,32.308611111111105],[-95.38527777777779,32.301944444444445],[-95.265,32.25472222222222],[-95.23555555555555,32.24305555555556],[-95.12972222222221,32.20138888888889],[-94.99472222222222,32.14805555555556],[-94.99027777777778,32.14611111111111],[-94.86027777777777,32.09444444444445],[-94.85583333333332,32.09277777777778],[-94.7225,32.03944444444444],[-94.58611111111111,31.985],[-94.455,31.9325],[-94.45277777777778,31.93138888888889],[-94.32111111111111,31.878333333333334],[-94.18138888888889,31.821666666666665],[-94.05083333333333,31.76861111111111],[-94.04666666666667,31.766944444444444],[-93.91361111111112,31.712777777777777],[-93.90305555555557,31.708333333333332],[-93.77944444444444,31.657777777777778],[-93.76777777777778,31.653055555555554],[-93.64194444444445,31.601111111111113],[-93.63277777777778,31.5975],[-93.52416666666666,31.552500000000002],[-93.49694444444445,31.54138888888889],[-93.38777777777779,31.496111111111112],[-93.24166666666667,31.435277777777777],[-93.2286111111111,31.43],[-93.10638888888889,31.378888888888888],[-93.0925,31.373055555555556],[-92.95777777777778,31.316944444444445],[-92.83527777777778,31.26527777777778],[-92.82333333333332,31.260277777777777],[-92.69861111111112,31.2075],[-92.68944444444445,31.203611111111112],[-92.55638888888889,31.147222222222222],[-92.42777777777778,31.092777777777776],[-92.42055555555557,31.08972222222222],[-92.29222222222222,31.034722222222225],[-92.29472222222222,31.035833333333336],[-92.16055555555556,30.97833333333333],[-92.15805555555556,30.97722222222222],[-92.02527777777777,30.92027777777778],[-92.02527777777777,30.920555555555556],[-91.89194444444445,30.863055555555558],[-91.89194444444445,30.86277777777778],[-91.77083333333333,30.801666666666666],[-91.63944444444445,30.749722222222225],[-91.50722222222223,30.6875],[-91.37527777777777,30.629444444444445],[-91.24305555555556,30.573055555555555],[-91.1111111111111,30.514444444444443],[-90.97888888888889,30.45722222222222],[-90.84694444444445,30.399444444444445],[-90.71444444444445,30.33972222222222],[-90.58416666666666,30.281944444444445],[-90.45166666666667,30.223333333333333],[-90.32083333333333,30.165555555555553],[-90.19027777777778,30.10666666666667],[-90.05972222222222,30.048611111111114],[-89.92916666666667,29.989722222222223],[-89.79777777777778,29.93027777777778],[-89.67,29.871666666666666],[-89.53944444444444,29.813055555555557],[-89.41055555555556,29.753888888888888],[-89.28138888888888,29.69472222222222],[-89.15277777777779,29.635555555555555],[-88.89611111111111,29.516111111111112],[-88.88361111111112,29.51],[-88.76916666666666,29.45638888888889],[-88.64083333333333,29.39638888888889],[-88.6261111111111,29.389444444444443],[-88.5125,29.335833333333333],[-88.38333333333334,29.27472222222222],[-88.25361111111111,29.21333333333333],[-88.23972222222223,29.206666666666667],[-88.12638888888888,29.152777777777775],[-87.97722222222222,29.081666666666667],[-87.87083333333332,29.030555555555555],[-87.74333333333334,28.96944444444444],[-87.61777777777777,28.90888888888889],[-87.49972222222222,28.846944444444443],[-87.47361111111111,28.8325],[-87.37722222222222,28.780277777777776],[-87.25472222222223,28.714444444444442],[-87.13194444444444,28.648611111111112],[-87.00805555555556,28.581666666666667],[-86.88611111111112,28.51527777777778],[-86.76444444444445,28.449166666666667],[-86.64111111111112,28.381944444444446],[-86.51694444444445,28.31388888888889],[-86.39527777777778,28.246944444444445],[-86.2575,28.171111111111113],[-86.12722222222222,28.099166666666665],[-86.01472222222222,28.036944444444448],[-85.89222222222223,27.968888888888888],[-85.76527777777778,27.898055555555555],[-85.65416666666667,27.83611111111111],[-85.535,27.769166666666667],[-85.40777777777778,27.698055555555555],[-85.32,27.648333333333333],[-85.19638888888889,27.578888888888887],[-85.035,27.53777777777778],[-84.93027777777779,27.519166666666667],[-84.77055555555556,27.47972222222222],[-84.6438888888889,27.42888888888889],[-84.51888888888888,27.378611111111113],[-84.39222222222223,27.32777777777778],[-84.26694444444445,27.276944444444442],[-84.1413888888889,27.225277777777777],[-84.015,27.174166666666668],[-83.8888888888889,27.122777777777777],[-83.76555555555555,27.072222222222223],[-83.51555555555555,26.96944444444444],[-83.39,26.9175],[-83.29055555555556,26.83111111111111],[-83.25194444444445,26.70583333333333],[-83.22444444444444,26.57638888888889],[-83.19722222222222,26.448055555555555],[-83.09805555555555,26.366666666666667],[-82.96277777777777,26.351944444444445],[-82.82916666666667,26.339166666666664],[-82.69416666666667,26.32638888888889],[-82.56,26.31388888888889],[-82.42305555555556,26.300555555555555],[-82.28861111111111,26.2875],[-82.155,26.274444444444445],[-82.03138888888888,26.26222222222222],[-81.91333333333334,26.250555555555554],[-81.79416666666667,26.2375],[-81.68833333333333,26.1975],[-81.58694444444444,26.153055555555554],[-81.48611111111111,26.109444444444446],[-81.39083333333333,26.067777777777778],[-81.29583333333333,26.02638888888889],[-81.20111111111112,25.985],[-81.10805555555555,25.943055555555556],[-81.01916666666666,25.904999999999998],[-80.93861111111111,25.87527777777778],[-80.86,25.845277777777778],[-80.78,25.81416666666667],[-80.70861111111111,25.7875],[-80.70083333333334,25.787222222222223],[-80.6275,25.78888888888889],[-80.62166666666666,25.789166666666667],[-80.56527777777778,25.790833333333335],[-80.55333333333333,25.792222222222225],[-80.48694444444445,25.79361111111111],[-80.42444444444445,25.797777777777778],[-80.37416666666665,25.799722222222226],[-80.32805555555555,25.801944444444445]],"type":"LineString"}
}
