{
  "id": 2032025117,
  "type": "Feature",
  "properties": {
    "geom:area": 0,
    "geom:bbox": "-156.466667,20.783333,-122.406389,37.658889",
    "geom:latitude": 29.21323132536363,
    "geom:longitude": -139.47545324883777,
    "src:alt_label": "swim-path",
    "src:geom": "swim",
    "swim:altitudes": [
      "011",
      "025",
      "033",
      "045",
      "058C",
      "065",
      "083C",
      "089",
      "101C",
      "116",
      "129",
      "141C",
      "145",
      "158C",
      "161",
      "173C",
      "177",
      "186C",
      "189",
      "218",
      "229",
      "239",
      "248",
      "258",
      "273",
      "285",
      "295",
      "305",
      "315",
      "327",
      "337",
      "340",
      "340C",
      "340",
      "340C",
      "340",
      "340C",
      "340C",
      "340C",
      "340",
      "340",
      "340",
      "340",
      "340",
      "340",
      "340",
      "340",
      "340",
      "340",
      "340",
      "340",
      "340",
      "340T",
      "340T",
      "340T",
      "340T",
      "340T",
      "333T",
      "323T",
      "303T",
      "281T",
      "258T",
      "236T",
      "215T",
      "194T",
      "173T",
      "151T",
      "129T",
      "111T",
      "099T",
      "088T",
      "078T",
      "070T",
      "062T",
      "053T",
      "044T",
      "033T",
      "022T",
      "013T",
      "005T"
    ],
    "swim:geom": "path",
    "swim:speeds": [
      178,
      197,
      192,
      265,
      270,
      275,
      280,
      283,
      300,
      363,
      390,
      400,
      401,
      410,
      404,
      410,
      412,
      420,
      420,
      430,
      432,
      437,
      444,
      448,
      448,
      443,
      443,
      442,
      442,
      440,
      437,
      450,
      435,
      440,
      435,
      440,
      435,
      434,
      433,
      460,
      460,
      460,
      460,
      450,
      460,
      460,
      460,
      460,
      460,
      460,
      460,
      460,
      470,
      460,
      460,
      460,
      450,
      450,
      440,
      440,
      440,
      430,
      420,
      410,
      400,
      390,
      380,
      370,
      350,
      320,
      290,
      270,
      250,
      250,
      240,
      230,
      220,
      200,
      160,
      150
    ],
    "swim:timestamps": [
      1785346831,
      1785346870,
      1785346892,
      1785346952,
      1785346992,
      1785347012,
      1785347052,
      1785347072,
      1785347112,
      1785347192,
      1785347252,
      1785347292,
      1785347312,
      1785347352,
      1785347372,
      1785347412,
      1785347432,
      1785347472,
      1785347492,
      1785347613,
      1785347673,
      1785347733,
      1785347793,
      1785347853,
      1785347913,
      1785347973,
      1785348033,
      1785348093,
      1785348153,
      1785348213,
      1785348273,
      1785348323,
      1785348394,
      1785348443,
      1785348454,
      1785348503,
      1785348514,
      1785348634,
      1785348694,
      1785361221,
      1785361281,
      1785361341,
      1785361401,
      1785361461,
      1785361522,
      1785361581,
      1785361642,
      1785361702,
      1785361822,
      1785361882,
      1785361942,
      1785362003,
      1785362062,
      1785362123,
      1785362243,
      1785362304,
      1785362363,
      1785362424,
      1785362484,
      1785362544,
      1785362604,
      1785362664,
      1785362724,
      1785362785,
      1785362845,
      1785362905,
      1785362965,
      1785363026,
      1785363085,
      1785363146,
      1785363206,
      1785363266,
      1785363326,
      1785363386,
      1785363447,
      1785363506,
      1785363567,
      1785363627,
      1785363687,
      1785363747
    ],
    "wof:geomhash": "1eef9c5655319f3a4b50c0ade79ba860",
    "wof:id": 2032025117,
    "wof:repo": "sfomuseum-data-flights-2026-07"
  },
  "bbox": [
    -156.46666666666667,
    20.783333333333335,
    -122.4063888888889,
    37.65888888888889
  ],
  "geometry": {"coordinates":[[-122.4063888888889,37.63194444444444],[-122.45,37.65],[-122.46777777777778,37.65888888888889],[-122.54277777777777,37.64944444444444],[-122.58333333333333,37.61666666666667],[-122.6036111111111,37.61027777777778],[-122.65,37.56666666666667],[-122.69055555555556,37.573055555555555],[-122.76666666666667,37.55],[-122.90361111111112,37.50666666666667],[-123.01222222222222,37.44222222222222],[-123.08333333333333,37.38333333333333],[-123.1236111111111,37.37555555555556],[-123.2,37.31666666666667],[-123.23666666666666,37.30722222222222],[-123.31666666666666,37.25],[-123.35194444444444,37.23694444444445],[-123.43333333333334,37.18333333333333],[-123.46888888888888,37.16555555555556],[-123.70722222222223,37.01916666666666],[-123.82555555555555,36.94611111111111],[-123.94638888888889,36.87111111111111],[-124.07055555555556,36.79388888888889],[-124.19388888888889,36.717222222222226],[-124.315,36.64138888888889],[-124.43388888888889,36.565555555555555],[-124.55333333333333,36.49],[-124.67472222222223,36.41416666666667],[-124.7936111111111,36.33861111111111],[-124.91305555555556,36.2625],[-125.02833333333334,36.18888888888888],[-125.1,36.083333333333336],[-125.28472222222221,36.02388888888889],[-125.36666666666666,35.95],[-125.40333333333334,35.9475],[-125.46666666666667,35.9],[-125.51972222222223,35.87166666666667],[-125.74944444444445,35.72166666666667],[-125.86555555555555,35.64555555555555],[-152.43333333333334,23.083333333333332],[-152.55,23.033333333333335],[-152.66666666666666,22.95],[-152.76666666666668,22.85],[-152.85,22.766666666666666],[-152.96666666666667,22.683333333333334],[-153.06666666666666,22.616666666666667],[-153.18333333333334,22.533333333333335],[-153.3,22.466666666666665],[-153.53333333333333,22.316666666666666],[-153.65,22.25],[-153.76666666666668,22.2],[-153.9,22.15],[-154.01666666666668,22.1],[-154.15,22.033333333333335],[-154.4,21.933333333333334],[-154.51666666666668,21.883333333333333],[-154.65,21.816666666666666],[-154.76666666666668,21.766666666666666],[-154.88333333333333,21.716666666666665],[-155,21.666666666666668],[-155.11666666666667,21.616666666666667],[-155.23333333333332,21.566666666666666],[-155.35,21.516666666666666],[-155.46666666666667,21.466666666666665],[-155.56666666666666,21.416666666666668],[-155.68333333333334,21.366666666666667],[-155.78333333333333,21.316666666666666],[-155.88333333333333,21.266666666666666],[-155.98333333333332,21.233333333333334],[-156.06666666666666,21.183333333333334],[-156.13333333333333,21.133333333333333],[-156.18333333333334,21.083333333333332],[-156.23333333333332,21.016666666666666],[-156.26666666666668,20.966666666666665],[-156.31666666666666,20.9],[-156.35,20.85],[-156.4,20.8],[-156.45,20.783333333333335],[-156.46666666666667,20.833333333333332],[-156.43333333333334,20.866666666666667]],"type":"LineString"}
}
