{
  "id": 2031962921,
  "type": "Feature",
  "properties": {
    "geom:area": 0,
    "geom:bbox": "-122.960590,37.332470,-122.114320,38.484810",
    "geom:latitude": 37.78767664601302,
    "geom:longitude": -122.49461085380351,
    "src:alt_label": "swim-approach",
    "src:geom": "swim",
    "swim:elevations": [
      7538,
      7356,
      7207,
      6851,
      6685,
      6439,
      6093,
      5946,
      5758,
      5483,
      5428,
      5347,
      5159,
      4802,
      4589,
      4197,
      3962,
      3733,
      3488,
      3413,
      3394,
      3311,
      3353,
      3353,
      3353,
      3330,
      3149,
      3020,
      2819,
      2684,
      2384,
      2332,
      2194,
      2160,
      2015,
      1924,
      1905,
      1829,
      1763,
      1560,
      1524,
      1516,
      1345,
      1194,
      1135,
      944,
      913,
      800,
      673,
      519,
      410,
      264,
      182,
      59
    ],
    "swim:geom": "approach",
    "swim:timestamps": [
      1784982688,
      1784982708,
      1784982727,
      1784982766,
      1784982786,
      1784982816,
      1784982855,
      1784982874,
      1784982896,
      1784982924,
      1784982932,
      1784982943,
      1784982966,
      1784983007,
      1784983031,
      1784983077,
      1784983103,
      1784983126,
      1784983157,
      1784983179,
      1784983189,
      1784983215,
      1784983257,
      1784983275,
      1784983300,
      1784983340,
      1784983365,
      1784983386,
      1784983420,
      1784983440,
      1784983489,
      1784983495,
      1784983520,
      1784983533,
      1784983581,
      1784983619,
      1784983627,
      1784983666,
      1784983686,
      1784983725,
      1784983758,
      1784983782,
      1784983815,
      1784983854,
      1784983863,
      1784983912,
      1784983931,
      1784983961,
      1784983989,
      1784984023,
      1784984052,
      1784984091,
      1784984110,
      1784984149
    ],
    "wof:geomhash": "14d32d729cb65b125c31283330ddaf80",
    "wof:id": 2031962921,
    "wof:repo": "sfomuseum-data-flights-2026-07"
  },
  "bbox": [
    -122.96059,
    37.33247,
    -122.11432,
    38.48481
  ],
  "geometry": {"coordinates":[[-122.96059,38.48481],[-122.93844,38.45516],[-122.91598,38.42505],[-122.87171,38.3653],[-122.84837,38.33395],[-122.81515,38.28917],[-122.7735,38.22865],[-122.76028,38.19889],[-122.74984,38.16335],[-122.73676,38.11862],[-122.73273,38.10496],[-122.72743,38.08665],[-122.71671,38.04969],[-122.69802,37.9849],[-122.68736,37.94801],[-122.65291,37.88036],[-122.61825,37.84764],[-122.58869,37.81982],[-122.55278,37.78611],[-122.52988,37.76441],[-122.51989,37.75482],[-122.49513,37.73102],[-122.45572,37.69422],[-122.43931,37.67883],[-122.41583,37.65675],[-122.37792,37.621],[-122.35789,37.59856],[-122.34528,37.57732],[-122.32482,37.54246],[-122.31288,37.52193],[-122.29813,37.4715],[-122.29945,37.46528],[-122.3056,37.43914],[-122.30922,37.42465],[-122.32183,37.37383],[-122.31066,37.3371],[-122.3003,37.33247],[-122.24947,37.34234],[-122.22661,37.35541],[-122.18859,37.3851],[-122.15807,37.41136],[-122.13603,37.43046],[-122.11432,37.4604],[-122.11523,37.49816],[-122.12158,37.50516],[-122.16316,37.532],[-122.17979,37.53891],[-122.20612,37.55],[-122.23162,37.56074],[-122.26053,37.57292],[-122.28252,37.58214],[-122.31019,37.59376],[-122.32352,37.59943],[-122.35018,37.61065]],"type":"LineString"}
}
