{
  "id": 2032024823,
  "type": "Feature",
  "properties": {
    "geom:area": 0,
    "geom:bbox": "-122.546000,37.189260,-121.244570,37.665270",
    "geom:latitude": 37.38131588823852,
    "geom:longitude": -121.9996183654348,
    "src:alt_label": "swim-takeoff",
    "src:geom": "swim",
    "swim:elevations": [
      152,
      313,
      740,
      1060,
      1158,
      1583,
      2425,
      3183,
      3363,
      3780,
      4206,
      4549,
      4786,
      5090,
      5523,
      5569,
      5659,
      5906,
      6210,
      6633,
      6903,
      7186,
      7322,
      7642,
      7689,
      7787,
      7986,
      8077
    ],
    "swim:geom": "takeoff",
    "swim:timestamps": [
      1785351355,
      1785351366,
      1785351402,
      1785351434,
      1785351452,
      1785351501,
      1785351562,
      1785351619,
      1785351639,
      1785351684,
      1785351725,
      1785351758,
      1785351784,
      1785351815,
      1785351866,
      1785351872,
      1785351880,
      1785351911,
      1785351948,
      1785352000,
      1785352030,
      1785352069,
      1785352088,
      1785352138,
      1785352142,
      1785352160,
      1785352189,
      1785352203
    ],
    "wof:geomhash": "d28f2766bcd569b74498fdd9716b5185",
    "wof:id": 2032024823,
    "wof:repo": "sfomuseum-data-flights-2026-07"
  },
  "bbox": [
    -122.546,
    37.18926,
    -121.24457,
    37.66527
  ],
  "geometry": {"coordinates":[[-122.39119,37.62578],[-122.40078,37.62997],[-122.43233,37.64346],[-122.46235,37.65678],[-122.48155,37.66527],[-122.546,37.65291],[-122.5266,37.57759],[-122.48394,37.5055],[-122.46181,37.48299],[-122.39263,37.44235],[-122.32109,37.40901],[-122.25558,37.39509],[-122.20308,37.38461],[-122.13764,37.37166],[-122.02992,37.3502],[-122.01813,37.34782],[-121.99906,37.34401],[-121.93127,37.33045],[-121.84884,37.31378],[-121.73032,37.28976],[-121.66264,37.27602],[-121.5704,37.25716],[-121.52566,37.24795],[-121.40538,37.22336],[-121.39515,37.22111],[-121.34957,37.21128],[-121.27923,37.19647],[-121.24457,37.18926]],"type":"LineString"}
}
