{
  "id": 2032006521,
  "type": "Feature",
  "properties": {
    "geom:area": 0,
    "geom:bbox": "-122.355010,37.492480,-121.251740,37.612660",
    "geom:latitude": 37.542572454826704,
    "geom:longitude": -121.81033712807921,
    "src:alt_label": "swim-approach",
    "src:geom": "swim",
    "swim:elevations": [
      4635,
      4318,
      3987,
      3731,
      3541,
      3466,
      3336,
      3051,
      2895,
      2759,
      2591,
      2268,
      2134,
      1920,
      1863,
      1652,
      1405,
      1258,
      979,
      917,
      730,
      610,
      456,
      341,
      271,
      122,
      87,
      25
    ],
    "swim:geom": "approach",
    "swim:timestamps": [
      1785252748,
      1785252781,
      1785252813,
      1785252842,
      1785252880,
      1785252902,
      1785252937,
      1785253016,
      1785253048,
      1785253073,
      1785253093,
      1785253133,
      1785253165,
      1785253192,
      1785253200,
      1785253235,
      1785253280,
      1785253305,
      1785253346,
      1785253357,
      1785253405,
      1785253431,
      1785253461,
      1785253489,
      1785253506,
      1785253540,
      1785253548,
      1785253566
    ],
    "wof:geomhash": "67be35e05d815d9390d3b7eae1a75daa",
    "wof:id": 2032006521,
    "wof:repo": "sfomuseum-data-flights-2026-07"
  },
  "bbox": [
    -122.35501,
    37.49248,
    -121.25174,
    37.61266
  ],
  "geometry": {"coordinates":[[-121.25174,37.59435],[-121.31667,37.58629],[-121.37987,37.57935],[-121.43658,37.57292],[-121.50721,37.56478],[-121.54366,37.56033],[-121.601,37.55356],[-121.71298,37.52964],[-121.75729,37.51901],[-121.79024,37.51103],[-121.81797,37.5044],[-121.87122,37.49248],[-121.91571,37.49326],[-121.95283,37.49523],[-121.96426,37.49586],[-122.01262,37.49878],[-122.0731,37.50225],[-122.10451,37.50733],[-122.15168,37.52713],[-122.16361,37.53217],[-122.21725,37.55477],[-122.2436,37.56576],[-122.27196,37.57779],[-122.29623,37.58801],[-122.30955,37.5937],[-122.33547,37.6044],[-122.34179,37.60706],[-122.35501,37.61266]],"type":"LineString"}
}
