{
  "id": 2031956587,
  "type": "Feature",
  "properties": {
    "geom:area": 0,
    "geom:bbox": "-123.503210,37.262180,-122.094320,37.614580",
    "geom:latitude": 37.38985084521307,
    "geom:longitude": -122.6962078865576,
    "src:alt_label": "swim-approach",
    "src:geom": "swim",
    "swim:elevations": [
      5458,
      5370,
      5012,
      4828,
      4489,
      4091,
      3950,
      3793,
      3540,
      3394,
      3230,
      3166,
      3161,
      3107,
      3049,
      3048,
      3048,
      3048,
      3048,
      3048,
      3048,
      2890,
      2739,
      2613,
      2468,
      2382,
      2107,
      1990,
      1904,
      1662,
      1187,
      994,
      944,
      914,
      914,
      838,
      692,
      569,
      448,
      339,
      211,
      103,
      118
    ],
    "swim:geom": "approach",
    "swim:timestamps": [
      1784958364,
      1784958373,
      1784958409,
      1784958427,
      1784958461,
      1784958500,
      1784958515,
      1784958530,
      1784958557,
      1784958572,
      1784958605,
      1784958632,
      1784958635,
      1784958664,
      1784958692,
      1784958734,
      1784958761,
      1784958797,
      1784958826,
      1784958861,
      1784958883,
      1784958922,
      1784958948,
      1784958969,
      1784959008,
      1784959031,
      1784959077,
      1784959101,
      1784959113,
      1784959143,
      1784959184,
      1784959202,
      1784959223,
      1784959247,
      1784959274,
      1784959312,
      1784959345,
      1784959369,
      1784959402,
      1784959425,
      1784959464,
      1784959490,
      1784959514
    ],
    "wof:geomhash": "878ce614dd161f4666479f79058f4dd0",
    "wof:id": 2031956587,
    "wof:repo": "sfomuseum-data-flights-2026-07"
  },
  "bbox": [
    -123.50321,
    37.26218,
    -122.09432,
    37.61458
  ],
  "geometry": {"coordinates":[[-123.50321,37.45617],[-123.48279,37.44994],[-123.40308,37.42535],[-123.36494,37.41364],[-123.29072,37.39067],[-123.20675,37.36475],[-123.17484,37.35483],[-123.1431,37.34501],[-123.08716,37.32761],[-123.0568,37.31819],[-122.9929,37.29817],[-122.94495,37.28322],[-122.93984,37.28161],[-122.89272,37.26681],[-122.84588,37.26218],[-122.77551,37.27817],[-122.72975,37.2888],[-122.66941,37.30287],[-122.62154,37.31405],[-122.5617,37.32792],[-122.52452,37.33656],[-122.4597,37.35153],[-122.4162,37.36153],[-122.38129,37.36958],[-122.31712,37.38427],[-122.27929,37.39298],[-122.20988,37.41724],[-122.18,37.43533],[-122.16607,37.44384],[-122.13232,37.46438],[-122.09432,37.49225],[-122.0961,37.50869],[-122.11711,37.5165],[-122.14287,37.52358],[-122.16864,37.53412],[-122.20243,37.54844],[-122.23205,37.56092],[-122.25255,37.56954],[-122.27919,37.58076],[-122.29496,37.5874],[-122.32241,37.59898],[-122.34149,37.60694],[-122.35927,37.61458]],"type":"LineString"}
}
