{
  "id": 2032053029,
  "type": "Feature",
  "properties": {
    "geom:area": 0,
    "geom:bbox": "-122.400550,37.623500,-121.261750,37.991080",
    "geom:latitude": 37.93424450536875,
    "geom:longitude": -121.95024058243726,
    "src:alt_label": "swim-takeoff",
    "src:geom": "swim",
    "swim:elevations": [
      183,
      484,
      756,
      913,
      1219,
      1561,
      2027,
      2103,
      2157,
      2134,
      2142,
      2566,
      2710,
      2794,
      2957,
      3168,
      3349,
      3572,
      3821,
      4187,
      4336,
      4804,
      5095,
      5473,
      5567,
      5752,
      6016,
      6109,
      6374,
      6509,
      6804,
      6902
    ],
    "swim:geom": "takeoff",
    "swim:timestamps": [
      1785564865,
      1785564896,
      1785564927,
      1785564951,
      1785564987,
      1785565011,
      1785565048,
      1785565060,
      1785565082,
      1785565129,
      1785565151,
      1785565187,
      1785565205,
      1785565235,
      1785565253,
      1785565280,
      1785565316,
      1785565346,
      1785565367,
      1785565400,
      1785565415,
      1785565458,
      1785565490,
      1785565523,
      1785565532,
      1785565553,
      1785565583,
      1785565595,
      1785565629,
      1785565643,
      1785565677,
      1785565690
    ],
    "wof:geomhash": "0b459184627d655b3160201ed9b4b2ed",
    "wof:id": 2032053029,
    "wof:repo": "sfomuseum-data-flights-2026-07"
  },
  "bbox": [
    -122.40055,
    37.6235,
    -121.26175,
    37.99108
  ],
  "geometry": {"coordinates":[[-122.38656,37.6235],[-122.40055,37.64026],[-122.38305,37.66235],[-122.36702,37.68274],[-122.34079,37.71984],[-122.33979,37.74922],[-122.36096,37.79268],[-122.36792,37.80657],[-122.38118,37.83369],[-122.38486,37.89488],[-122.37966,37.92385],[-122.33293,37.95138],[-122.3032,37.95734],[-122.25296,37.96711],[-122.22276,37.97314],[-122.1753,37.98269],[-122.10451,37.98865],[-122.04262,37.98879],[-121.99837,37.989],[-121.92755,37.98938],[-121.89515,37.98959],[-121.80221,37.99003],[-121.73026,37.99031],[-121.65591,37.99055],[-121.63564,37.99059],[-121.58795,37.99071],[-121.51944,37.99093],[-121.48967,37.99094],[-121.41046,37.99099],[-121.37526,37.99103],[-121.29452,37.99108],[-121.26175,37.99106]],"type":"LineString"}
}
