{
  "id": 2032024673,
  "type": "Feature",
  "properties": {
    "geom:area": 0,
    "geom:bbox": "-120.299722,38.308333,-87.952778,41.983889",
    "geom:latitude": 39.96141094177856,
    "geom:longitude": -103.98368012514345,
    "src:alt_label": "swim-path",
    "src:geom": "swim",
    "swim:altitudes": [
      "270",
      "282",
      "293",
      "304",
      "310C",
      "310C",
      "310C",
      "310C",
      "310",
      "319",
      "330C",
      "330C",
      "330C",
      "330C",
      "330C",
      "330C",
      "330C",
      "330C",
      "330C",
      "330C",
      "330C",
      "330C",
      "330C",
      "330C",
      "330C",
      "330C",
      "330C",
      "330C",
      "330C",
      "330C",
      "330C",
      "330C",
      "330C",
      "330C",
      "330C",
      "330C",
      "330C",
      "330C",
      "330C",
      "330C",
      "330C",
      "330C",
      "330C",
      "330C",
      "330C",
      "330C",
      "330C",
      "330C",
      "330C",
      "330C",
      "330C",
      "330C",
      "330C",
      "330C",
      "330C",
      "330C",
      "330C",
      "330C",
      "330C",
      "330C",
      "330C",
      "330C",
      "330C",
      "330C",
      "330C",
      "330C",
      "330C",
      "330C",
      "330C",
      "330C",
      "330",
      "338",
      "346",
      "350C",
      "350C",
      "350C",
      "350C",
      "350C",
      "350C",
      "350C",
      "350C",
      "350C",
      "350C",
      "350C",
      "350C",
      "350C",
      "350C",
      "350C",
      "350C",
      "350C",
      "350C",
      "350C",
      "350C",
      "350C",
      "350C",
      "350C",
      "350C",
      "350C",
      "350C",
      "350C",
      "350C",
      "350C",
      "350C",
      "350C",
      "350C",
      "350C",
      "350C",
      "350C",
      "350C",
      "350C",
      "350C",
      "350C",
      "350C",
      "350C",
      "350C",
      "350C",
      "350C",
      "350C",
      "350C",
      "350C",
      "350C",
      "350C",
      "350C",
      "350C",
      "350C",
      "350C",
      "350C",
      "350C",
      "350C",
      "350C",
      "350C",
      "350C",
      "350C",
      "350C",
      "350C",
      "350C",
      "350C",
      "350C",
      "350C",
      "350C",
      "350C",
      "350C",
      "350C",
      "350C",
      "350C",
      "350C",
      "350C",
      "350C",
      "350C",
      "350C",
      "350C",
      "350C",
      "350C",
      "350C",
      "350C",
      "350C",
      "350C",
      "350C",
      "350C",
      "350C",
      "350C",
      "350C",
      "350C",
      "350C",
      "350C",
      "350C",
      "350C",
      "350C",
      "350C",
      "350C",
      "350C",
      "350C",
      "350C",
      "350C",
      "350C",
      "350C",
      "350C",
      "350C",
      "350C",
      "350C",
      "350C",
      "350C",
      "350C",
      "350C",
      "350C",
      "350C",
      "350C",
      "350C",
      "350C",
      "350C",
      "350C",
      "350C",
      "350C",
      "350C",
      "350C",
      "350C",
      "350C",
      "350C",
      "350C",
      "350C",
      "350C",
      "350C",
      "350C",
      "350C",
      "350C",
      "350C",
      "350C",
      "350C",
      "350C",
      "350C",
      "350C",
      "350C",
      "350C",
      "350C",
      "350C",
      "350C",
      "350C",
      "350C",
      "350C",
      "350",
      "350",
      "347",
      "342C",
      "340C",
      "340C",
      "340",
      "340",
      "340",
      "340",
      "340",
      "340",
      "340",
      "340",
      "340",
      "340",
      "332",
      "322",
      "306",
      "297",
      "285",
      "277",
      "266",
      "258",
      "246",
      "240",
      "226",
      "223",
      "207",
      "203",
      "188",
      "184",
      "170",
      "155",
      "151",
      "132",
      "112C",
      "110C",
      "110C",
      "107",
      "097",
      "078",
      "061",
      "050",
      "040",
      "034",
      "026",
      "018",
      "010"
    ],
    "swim:geom": "path",
    "swim:speeds": [
      491,
      514,
      518,
      518,
      519,
      519,
      518,
      516,
      514,
      514,
      507,
      505,
      504,
      503,
      502,
      502,
      503,
      505,
      505,
      505,
      506,
      507,
      508,
      510,
      511,
      512,
      512,
      512,
      512,
      511,
      510,
      508,
      507,
      506,
      507,
      508,
      508,
      509,
      509,
      511,
      511,
      511,
      511,
      511,
      511,
      510,
      510,
      509,
      509,
      508,
      507,
      506,
      505,
      505,
      504,
      503,
      502,
      500,
      500,
      499,
      495,
      493,
      489,
      486,
      485,
      485,
      485,
      485,
      485,
      485,
      485,
      486,
      485,
      484,
      485,
      484,
      482,
      482,
      484,
      486,
      490,
      493,
      495,
      496,
      496,
      496,
      496,
      495,
      495,
      494,
      494,
      494,
      494,
      493,
      492,
      490,
      488,
      486,
      485,
      483,
      482,
      481,
      481,
      480,
      480,
      480,
      481,
      482,
      482,
      485,
      484,
      483,
      484,
      483,
      484,
      484,
      483,
      483,
      484,
      483,
      483,
      484,
      483,
      483,
      484,
      483,
      484,
      483,
      483,
      484,
      483,
      484,
      484,
      484,
      484,
      485,
      485,
      485,
      486,
      486,
      486,
      486,
      487,
      487,
      488,
      488,
      489,
      489,
      490,
      490,
      491,
      491,
      493,
      493,
      494,
      494,
      495,
      496,
      497,
      497,
      497,
      498,
      498,
      498,
      498,
      498,
      499,
      499,
      499,
      499,
      498,
      498,
      498,
      498,
      498,
      498,
      498,
      498,
      498,
      500,
      498,
      498,
      497,
      497,
      495,
      494,
      490,
      489,
      488,
      487,
      486,
      486,
      486,
      486,
      486,
      485,
      485,
      485,
      485,
      485,
      485,
      485,
      486,
      486,
      487,
      487,
      487,
      488,
      488,
      489,
      489,
      490,
      490,
      490,
      490,
      491,
      491,
      491,
      491,
      492,
      492,
      481,
      479,
      478,
      477,
      477,
      477,
      476,
      476,
      476,
      475,
      475,
      475,
      475,
      474,
      475,
      474,
      474,
      473,
      463,
      456,
      446,
      431,
      431,
      425,
      416,
      421,
      405,
      404,
      392,
      398,
      386,
      372,
      374,
      363,
      354,
      351,
      351,
      314,
      283,
      269,
      259,
      223,
      219,
      195,
      167,
      152,
      151
    ],
    "swim:timestamps": [
      1785384884,
      1785384946,
      1785385006,
      1785385064,
      1785385126,
      1785385186,
      1785385244,
      1785385306,
      1785385366,
      1785385424,
      1785385605,
      1785385666,
      1785385726,
      1785385785,
      1785385846,
      1785385907,
      1785385965,
      1785386025,
      1785386087,
      1785386145,
      1785386205,
      1785386267,
      1785386325,
      1785386385,
      1785386446,
      1785386506,
      1785386566,
      1785386626,
      1785386686,
      1785386746,
      1785386806,
      1785386866,
      1785386926,
      1785386986,
      1785387046,
      1785387106,
      1785387166,
      1785387226,
      1785387286,
      1785387347,
      1785387407,
      1785387467,
      1785387527,
      1785387587,
      1785387647,
      1785387707,
      1785387827,
      1785387887,
      1785387947,
      1785388007,
      1785388067,
      1785388127,
      1785388187,
      1785388247,
      1785388307,
      1785388368,
      1785388428,
      1785388548,
      1785388608,
      1785388668,
      1785388728,
      1785388788,
      1785388848,
      1785388908,
      1785388968,
      1785389028,
      1785389088,
      1785389148,
      1785389208,
      1785389268,
      1785389328,
      1785389388,
      1785389448,
      1785389508,
      1785389568,
      1785389628,
      1785389689,
      1785389749,
      1785389809,
      1785389869,
      1785389929,
      1785389989,
      1785390049,
      1785390109,
      1785390169,
      1785390229,
      1785390289,
      1785390349,
      1785390409,
      1785390469,
      1785390529,
      1785390589,
      1785390649,
      1785390709,
      1785390769,
      1785390829,
      1785390889,
      1785390949,
      1785391009,
      1785391069,
      1785391130,
      1785391190,
      1785391250,
      1785391310,
      1785391370,
      1785391430,
      1785391490,
      1785391550,
      1785391610,
      1785391632,
      1785391642,
      1785391670,
      1785391702,
      1785391730,
      1785391752,
      1785391764,
      1785391790,
      1785391812,
      1785391824,
      1785391850,
      1785391872,
      1785391883,
      1785391910,
      1785391932,
      1785391945,
      1785391970,
      1785392002,
      1785392030,
      1785392053,
      1785392062,
      1785392090,
      1785392113,
      1785392123,
      1785392150,
      1785392173,
      1785392182,
      1785392210,
      1785392233,
      1785392242,
      1785392270,
      1785392293,
      1785392302,
      1785392353,
      1785392364,
      1785392413,
      1785392422,
      1785392473,
      1785392482,
      1785392533,
      1785392542,
      1785392593,
      1785392602,
      1785392653,
      1785392664,
      1785392713,
      1785392722,
      1785392783,
      1785392833,
      1785392843,
      1785392893,
      1785392903,
      1785392953,
      1785392964,
      1785393013,
      1785393024,
      1785393073,
      1785393082,
      1785393133,
      1785393193,
      1785393203,
      1785393253,
      1785393264,
      1785393313,
      1785393325,
      1785393383,
      1785393433,
      1785393445,
      1785393493,
      1785393503,
      1785393543,
      1785393564,
      1785393602,
      1785393613,
      1785393624,
      1785393673,
      1785393683,
      1785393723,
      1785393743,
      1785393784,
      1785393803,
      1785393853,
      1785393864,
      1785393902,
      1785393913,
      1785393925,
      1785393973,
      1785393983,
      1785394023,
      1785394033,
      1785394043,
      1785394081,
      1785394103,
      1785394144,
      1785394163,
      1785394201,
      1785394213,
      1785394223,
      1785394264,
      1785394284,
      1785394321,
      1785394344,
      1785394381,
      1785394404,
      1785394443,
      1785394463,
      1785394503,
      1785394525,
      1785394561,
      1785394585,
      1785394621,
      1785394643,
      1785394681,
      1785394703,
      1785394743,
      1785394763,
      1785394802,
      1785394823,
      1785394863,
      1785394883,
      1785394925,
      1785394943,
      1785394982,
      1785395004,
      1785395042,
      1785395065,
      1785395104,
      1785395125,
      1785395162,
      1785395185,
      1785395222,
      1785395244,
      1785395282,
      1785395304,
      1785395344,
      1785395365,
      1785395403,
      1785395426,
      1785395462,
      1785395484,
      1785395522,
      1785395545,
      1785395584,
      1785395622,
      1785395642,
      1785395704,
      1785395762,
      1785395823,
      1785395882,
      1785395944,
      1785396000,
      1785396060,
      1785396122,
      1785396180,
      1785396240,
      1785396300,
      1785396362,
      1785396422,
      1785396482
    ],
    "wof:geomhash": "276b05facf7b2376eae733e7496671f4",
    "wof:id": 2032024673,
    "wof:repo": "sfomuseum-data-flights-2026-07"
  },
  "bbox": [
    -120.29972222222221,
    38.30833333333333,
    -87.95277777777778,
    41.98388888888889
  ],
  "geometry": {"coordinates":[[-120.29972222222221,38.30833333333333],[-120.09555555555555,38.336666666666666],[-119.91472222222222,38.36083333333333],[-119.75638888888889,38.37888888888889],[-119.55388888888889,38.40833333333333],[-119.39583333333334,38.428888888888885],[-119.21777777777778,38.45],[-119.03888888888889,38.47416666666667],[-118.86166666666666,38.49611111111111],[-118.68388888888889,38.51722222222222],[-118.1563888888889,38.581388888888895],[-117.96277777777777,38.60388888888889],[-117.7863888888889,38.62416666666667],[-117.63166666666666,38.64194444444444],[-117.43777777777778,38.66361111111111],[-117.26194444444444,38.68555555555555],[-117.06833333333333,38.718333333333334],[-116.89361111111111,38.74805555555556],[-116.7175,38.777499999999996],[-116.54527777777777,38.80611111111111],[-116.36833333333333,38.835],[-116.20944444444444,38.86083333333333],[-116.03388888888888,38.88916666666667],[-115.85666666666665,38.9175],[-115.67861111111111,38.94555555555555],[-115.49944444444445,38.97361111111111],[-115.31972222222223,39.00138888888889],[-115.13944444444445,39.02916666666667],[-114.96055555555556,39.05611111111111],[-114.7825,39.08277777777778],[-114.60472222222222,39.10888888888889],[-114.42472222222223,39.13527777777778],[-114.24972222222222,39.16083333333333],[-114.07111111111111,39.186388888888885],[-113.8913888888889,39.211666666666666],[-113.71111111111111,39.23694444444445],[-113.5325,39.26138888888889],[-113.35194444444444,39.28611111111111],[-113.17222222222223,39.31166666666666],[-112.99194444444444,39.343333333333334],[-112.81222222222222,39.373333333333335],[-112.63444444444445,39.402499999999996],[-112.45333333333333,39.431666666666665],[-112.27944444444444,39.45944444444445],[-112.1,39.48777777777778],[-111.9213888888889,39.51583333333333],[-111.56222222222222,39.57138888888889],[-111.38305555555554,39.598888888888894],[-111.20305555555557,39.62583333333333],[-111.025,39.652499999999996],[-110.84444444444443,39.67916666666667],[-110.66861111111112,39.70472222222222],[-110.48916666666666,39.730555555555554],[-110.31027777777777,39.755833333333335],[-110.13166666666666,39.78111111111111],[-109.95277777777778,39.80583333333333],[-109.77555555555556,39.83027777777778],[-109.41916666666667,39.87833333333333],[-109.23722222222223,39.902499999999996],[-109.0611111111111,39.92527777777777],[-108.88333333333334,39.94027777777777],[-108.70361111111112,39.95166666666667],[-108.52666666666667,39.962500000000006],[-108.35055555555554,39.973333333333336],[-108.17583333333334,39.98388888888889],[-107.99888888888889,39.994166666666665],[-107.825,40.00388888888889],[-107.64777777777779,40.013333333333335],[-107.4725,40.022777777777776],[-107.29833333333333,40.03194444444444],[-107.1261111111111,40.04055555555556],[-106.95166666666667,40.04888888888889],[-106.7775,40.05722222222222],[-106.60388888888889,40.06888888888889],[-106.42861111111111,40.08083333333334],[-106.25444444444445,40.09166666666667],[-106.07972222222222,40.102222222222224],[-105.90666666666667,40.112500000000004],[-105.73,40.12305555555555],[-105.55222222222221,40.13333333333333],[-105.37555555555555,40.143055555555556],[-105.19388888888889,40.15277777777778],[-105.015,40.16222222222222],[-104.83277777777778,40.17166666666667],[-104.65111111111112,40.18055555555555],[-104.4713888888889,40.189166666666665],[-104.2925,40.197222222222216],[-104.11,40.205555555555556],[-103.93166666666667,40.213055555555556],[-103.75055555555555,40.220555555555556],[-103.57277777777777,40.22777777777778],[-103.39222222222223,40.234722222222224],[-103.21444444444445,40.24138888888889],[-103.03583333333333,40.2475],[-102.85777777777777,40.25361111111111],[-102.68027777777779,40.259166666666665],[-102.51888888888888,40.26416666666667],[-102.3436111111111,40.26916666666666],[-102.16666666666667,40.274166666666666],[-101.99277777777777,40.27861111111111],[-101.81861111111111,40.283055555555556],[-101.64500000000001,40.286944444444444],[-101.47027777777778,40.29083333333333],[-101.29694444444445,40.29416666666666],[-101.12583333333333,40.2975],[-100.95111111111112,40.300555555555555],[-100.77805555555555,40.30305555555555],[-100.60222222222221,40.30555555555555],[-100.3938888888889,40.30833333333333],[-100.33749999999999,40.30888888888889],[-100.30749999999999,40.30888888888889],[-100.21944444444445,40.309999999999995],[-100.1325,40.31111111111111],[-100.04583333333333,40.31166666666666],[-100.00972222222222,40.31194444444444],[-99.9563888888889,40.31194444444444],[-99.87138888888889,40.31305555555555],[-99.83388888888888,40.31333333333333],[-99.78111111111112,40.31305555555555],[-99.69666666666667,40.314166666666665],[-99.65861111111111,40.31444444444444],[-99.62916666666666,40.31444444444444],[-99.5225,40.315],[-99.48305555555555,40.31527777777777],[-99.455,40.31527777777777],[-99.34638888888888,40.315555555555555],[-99.2786111111111,40.31583333333333],[-99.16944444444445,40.31583333333333],[-99.13277777777778,40.31583333333333],[-99.10388888888889,40.31583333333333],[-98.99444444444444,40.31583333333333],[-98.955,40.31583333333333],[-98.92666666666668,40.31583333333333],[-98.81805555555555,40.31583333333333],[-98.77916666666667,40.315555555555555],[-98.75027777777778,40.315555555555555],[-98.64305555555556,40.31527777777777],[-98.60444444444444,40.315],[-98.5475,40.31472222222222],[-98.465,40.31444444444444],[-98.4263888888889,40.314166666666665],[-98.37666666666667,40.31388888888888],[-98.24972222222222,40.31305555555555],[-98.19250000000001,40.312777777777775],[-98.07416666666666,40.31166666666666],[-98.02194444444444,40.311388888888885],[-97.89444444444445,40.309999999999995],[-97.83666666666666,40.309444444444445],[-97.71805555555555,40.308055555555555],[-97.66305555555556,40.3075],[-97.50222222222222,40.30555555555555],[-97.48722222222223,40.305277777777775],[-97.32472222222222,40.30305555555555],[-97.30416666666666,40.302499999999995],[-97.14527777777778,40.30027777777777],[-97.12416666666665,40.29972222222222],[-96.94111111111111,40.29666666666667],[-96.78527777777778,40.29361111111111],[-96.7611111111111,40.293055555555554],[-96.60305555555556,40.29],[-96.5786111111111,40.28944444444444],[-96.42222222222223,40.28583333333333],[-96.41944444444445,40.28583333333333],[-96.24555555555555,40.281666666666666],[-96.23972222222223,40.281666666666666],[-96.06333333333333,40.27722222222222],[-96.03555555555555,40.27638888888889],[-95.88277777777778,40.2725],[-95.7025,40.26722222222222],[-95.67166666666667,40.26638888888889],[-95.52305555555556,40.261944444444445],[-95.4925,40.26111111111111],[-95.34333333333333,40.256388888888885],[-95.30944444444444,40.25527777777778],[-95.13083333333333,40.24944444444444],[-94.98388888888888,40.244166666666665],[-94.94694444444445,40.24277777777778],[-94.80333333333333,40.23777777777778],[-94.76583333333333,40.23638888888889],[-94.6613888888889,40.23222222222223],[-94.58555555555554,40.22944444444445],[-94.48194444444445,40.22555555555556],[-94.44305555555556,40.223888888888894],[-94.40694444444445,40.222500000000004],[-94.265,40.21888888888889],[-94.22638888888889,40.22027777777778],[-94.1261111111111,40.23083333333334],[-94.08555555555554,40.236111111111114],[-93.95111111111112,40.25277777777778],[-93.88111111111111,40.26166666666666],[-93.74138888888889,40.27972222222222],[-93.7063888888889,40.284166666666664],[-93.60444444444444,40.29722222222222],[-93.56722222222221,40.301944444444445],[-93.53444444444445,40.30638888888888],[-93.39583333333334,40.323888888888895],[-93.36,40.32833333333333],[-93.25722222222223,40.34138888888889],[-93.22,40.34583333333334],[-93.18555555555555,40.35027777777778],[-93.08166666666666,40.363055555555555],[-93.01055555555556,40.37166666666667],[-92.90611111111112,40.38444444444444],[-92.86638888888888,40.38944444444444],[-92.7275,40.40611111111111],[-92.69027777777778,40.410555555555554],[-92.69333333333334,40.41],[-92.5461111111111,40.427499999999995],[-92.49388888888889,40.43333333333333],[-92.4038888888889,40.44361111111111],[-92.31722222222221,40.453611111111115],[-92.22444444444444,40.46388888888889],[-92.15361111111112,40.471944444444446],[-92.04583333333333,40.48388888888889],[-91.97555555555556,40.49166666666667],[-91.86749999999999,40.50361111111111],[-91.79777777777778,40.51138888888889],[-91.6913888888889,40.522777777777776],[-91.6211111111111,40.530277777777776],[-91.51416666666667,40.541666666666664],[-91.44305555555556,40.55],[-91.34305555555555,40.57416666666667],[-91.27694444444444,40.59583333333334],[-91.17527777777778,40.630833333333335],[-91.1111111111111,40.653055555555554],[-91.01638888888888,40.68611111111111],[-90.95277777777778,40.71],[-90.86138888888888,40.74444444444445],[-90.79833333333333,40.76777777777777],[-90.705,40.80222222222222],[-90.6413888888889,40.825833333333335],[-90.54833333333333,40.86],[-90.48305555555555,40.88361111111111],[-90.3888888888889,40.918055555555554],[-90.32527777777777,40.941111111111105],[-90.23055555555555,40.97527777777778],[-90.16722222222222,40.998333333333335],[-90.07444444444444,41.031666666666666],[-90.00944444444444,41.055],[-89.91583333333334,41.08861111111111],[-89.85499999999999,41.11055555555556],[-89.76777777777778,41.141666666666666],[-89.7088888888889,41.16222222222222],[-89.62194444444444,41.19333333333333],[-89.58333333333333,41.20722222222223],[-89.48111111111112,41.24333333333333],[-89.45583333333333,41.25222222222222],[-89.34583333333333,41.29083333333333],[-89.32138888888889,41.299166666666665],[-89.21555555555555,41.33638888888889],[-89.19083333333333,41.34638888888889],[-89.09527777777777,41.37833333333333],[-89,41.416666666666664],[-88.9713888888889,41.421388888888885],[-88.85083333333333,41.463055555555556],[-88.72277777777778,41.507222222222225],[-88.60805555555555,41.55138888888889],[-88.50416666666666,41.61138888888889],[-88.4375,41.68555555555555],[-88.38333333333334,41.766666666666666],[-88.35,41.833333333333336],[-88.30527777777777,41.89111111111111],[-88.26666666666667,41.95],[-88.2,41.983333333333334],[-88.13333333333334,41.983333333333334],[-88.06472222222222,41.98361111111111],[-88.00861111111111,41.98361111111111],[-87.95277777777778,41.98388888888889]],"type":"LineString"}
}
