{
  "id": 2031994671,
  "type": "Feature",
  "properties": {
    "geom:area": 0,
    "geom:bbox": "-122.403250,37.626190,-121.246600,37.991330",
    "geom:latitude": 37.93615673532091,
    "geom:longitude": -121.94177178970082,
    "src:alt_label": "swim-takeoff",
    "src:geom": "swim",
    "swim:elevations": [
      213,
      583,
      1439,
      1815,
      2146,
      2297,
      2833,
      3106,
      3146,
      3261,
      3299,
      3774,
      3970,
      4601,
      4789,
      5116,
      5748,
      6378,
      6562,
      6779,
      6860
    ],
    "swim:geom": "takeoff",
    "swim:timestamps": [
      1785199071,
      1785199103,
      1785199196,
      1785199226,
      1785199257,
      1785199273,
      1785199318,
      1785199345,
      1785199351,
      1785199375,
      1785199381,
      1785199458,
      1785199479,
      1785199556,
      1785199574,
      1785199611,
      1785199686,
      1785199766,
      1785199795,
      1785199825,
      1785199834
    ],
    "wof:geomhash": "cd160611726538c76547eac9e4440512",
    "wof:id": 2031994671,
    "wof:repo": "sfomuseum-data-flights-2026-07"
  },
  "bbox": [
    -122.40325,
    37.62619,
    -121.2466,
    37.99133
  ],
  "geometry": {"coordinates":[[-122.39236,37.62619],[-122.40325,37.64731],[-122.33837,37.73816],[-122.3514,37.77284],[-122.36904,37.80913],[-122.37856,37.82832],[-122.38552,37.88808],[-122.37628,37.92396],[-122.37056,37.93112],[-122.3346,37.95138],[-122.32323,37.95348],[-122.16597,37.98393],[-122.11903,37.98822],[-121.94073,37.9895],[-121.89743,37.98984],[-121.80748,37.9902],[-121.62305,37.9908],[-121.42353,37.99119],[-121.34853,37.99133],[-121.27037,37.99128],[-121.2466,37.99127]],"type":"LineString"}
}
