{
  "id": 2031977901,
  "type": "Feature",
  "properties": {
    "geom:area": 0,
    "geom:bbox": "-122.759167,37.313333,-74.234167,43.431667",
    "geom:latitude": 42.171913607629406,
    "geom:longitude": -99.18019634528719,
    "src:alt_label": "swim-path",
    "src:geom": "swim",
    "swim:altitudes": [
      "027",
      "061",
      "084",
      "093",
      "100",
      "104",
      "108",
      "125",
      "130",
      "130",
      "130",
      "149",
      "161",
      "177",
      "207",
      "259",
      "274",
      "287",
      "301",
      "319",
      "335",
      "334",
      "340C",
      "340C",
      "340C",
      "340C",
      "340C",
      "340C",
      "340C",
      "340C",
      "340C",
      "340C",
      "340C",
      "340C",
      "340C",
      "340C",
      "343",
      "350",
      "350",
      "350",
      "350",
      "350",
      "350",
      "354",
      "360C",
      "360C",
      "360C",
      "360C",
      "360C",
      "360C",
      "360C",
      "360C",
      "360C",
      "360C",
      "360C",
      "360C",
      "360C",
      "360C",
      "360C",
      "360C",
      "360C",
      "360C",
      "360C",
      "360C",
      "360C",
      "360C",
      "360C",
      "360C",
      "360C",
      "360C",
      "360C",
      "360C",
      "360C",
      "360C",
      "360C",
      "360C",
      "360C",
      "360C",
      "360C",
      "360C",
      "360C",
      "360C",
      "360C",
      "360C",
      "360C",
      "360C",
      "360C",
      "360C",
      "360C",
      "360C",
      "360C",
      "360C",
      "360C",
      "360C",
      "360C",
      "360C",
      "360C",
      "360C",
      "360C",
      "360C",
      "360C",
      "360C",
      "360C",
      "360C",
      "360C",
      "360C",
      "360C",
      "360C",
      "360C",
      "360C",
      "360C",
      "360C",
      "360C",
      "360C",
      "360C",
      "360C",
      "360C",
      "360C",
      "360C",
      "360C",
      "360C",
      "360C",
      "360C",
      "360C",
      "360C",
      "360C",
      "360C",
      "360C",
      "360C",
      "360C",
      "360C",
      "360C",
      "360C",
      "360C",
      "360C",
      "360C",
      "360C",
      "360C",
      "360C",
      "360C",
      "360C",
      "360C",
      "360C",
      "360C",
      "360C",
      "360C",
      "360C",
      "360C",
      "360C",
      "360C",
      "360C",
      "360C",
      "360C",
      "360C",
      "360",
      "360",
      "360",
      "365",
      "377",
      "380C",
      "380C",
      "380C",
      "380C",
      "380C",
      "380C",
      "380C",
      "380C",
      "380C",
      "380C",
      "380C",
      "380C",
      "380C",
      "380C",
      "380C",
      "380C",
      "380C",
      "380C",
      "380C",
      "380C",
      "380C",
      "380C",
      "380C",
      "380C",
      "380C",
      "380C",
      "380C",
      "380C",
      "380C",
      "380C",
      "380C",
      "380C",
      "380C",
      "380C",
      "380C",
      "380C",
      "380C",
      "380C",
      "380C",
      "380C",
      "380C",
      "380C",
      "380C",
      "380C",
      "380C",
      "380C",
      "380C",
      "380C",
      "380C",
      "380C",
      "380C",
      "380C",
      "380C",
      "380C",
      "380C",
      "380C",
      "380C",
      "380C",
      "380C",
      "380C",
      "380C",
      "380C",
      "380C",
      "380C",
      "380C",
      "380C",
      "380C",
      "380C",
      "380C",
      "380C",
      "380C",
      "380C",
      "380C",
      "380C",
      "380C",
      "380C",
      "380C",
      "380C",
      "380C",
      "380C",
      "380C",
      "380C",
      "380C",
      "380C",
      "380C",
      "380C",
      "380C",
      "380C",
      "380C",
      "380",
      "390C",
      "390C",
      "390C",
      "390C",
      "390C",
      "390C",
      "390C",
      "390C",
      "390C",
      "390",
      "385",
      "380C",
      "380C",
      "380C",
      "380C",
      "380C",
      "380C",
      "380C",
      "380C",
      "380C",
      "380C",
      "380C",
      "380C",
      "380C",
      "380C",
      "380C",
      "380C",
      "380C",
      "380C",
      "380C",
      "380C",
      "380C",
      "380C",
      "380C",
      "380C",
      "380C",
      "380C",
      "380C",
      "380C",
      "380C",
      "380C",
      "380C",
      "380C",
      "380C",
      "380C",
      "380C",
      "380C",
      "380C",
      "380C",
      "380C",
      "380C",
      "380C",
      "380C",
      "380C",
      "380C",
      "380C",
      "380C",
      "380C",
      "380C",
      "380C",
      "380C",
      "380C",
      "380C",
      "380C",
      "380C",
      "380C",
      "380C",
      "380C",
      "380C",
      "380C",
      "380C",
      "380C",
      "380C",
      "380C",
      "380C",
      "380C",
      "380C",
      "380C",
      "380C",
      "380C",
      "380C",
      "380C",
      "380C",
      "380C",
      "380C",
      "380C",
      "380C",
      "380C",
      "380C",
      "380C",
      "380C",
      "380C",
      "380C",
      "380C",
      "380C",
      "380",
      "376",
      "334",
      "326",
      "319",
      "311",
      "302",
      "294",
      "287",
      "273",
      "265",
      "259",
      "247",
      "228",
      "208",
      "171",
      "153",
      "143",
      "136",
      "125",
      "113",
      "110",
      "110",
      "110",
      "110",
      "110",
      "110",
      "110",
      "105",
      "100",
      "090",
      "086",
      "075",
      "068",
      "063",
      "060",
      "060",
      "060",
      "060",
      "051",
      "048",
      "039",
      "033",
      "029",
      "024",
      "019",
      "011",
      "009",
      "002"
    ],
    "swim:geom": "path",
    "swim:speeds": [
      227,
      270,
      271,
      272,
      285,
      282,
      283,
      289,
      306,
      302,
      304,
      298,
      315,
      312,
      382,
      408,
      419,
      429,
      439,
      439,
      434,
      434,
      432,
      433,
      437,
      441,
      445,
      449,
      453,
      456,
      461,
      462,
      463,
      462,
      460,
      459,
      456,
      434,
      432,
      436,
      436,
      436,
      409,
      421,
      423,
      415,
      408,
      404,
      399,
      398,
      396,
      393,
      390,
      391,
      391,
      392,
      392,
      393,
      393,
      395,
      395,
      396,
      396,
      398,
      399,
      399,
      400,
      399,
      399,
      399,
      398,
      398,
      397,
      397,
      397,
      397,
      397,
      397,
      397,
      397,
      404,
      405,
      405,
      405,
      405,
      405,
      404,
      404,
      404,
      403,
      403,
      402,
      402,
      400,
      400,
      399,
      396,
      397,
      399,
      399,
      400,
      401,
      402,
      405,
      405,
      405,
      407,
      407,
      408,
      408,
      408,
      408,
      408,
      408,
      408,
      408,
      408,
      408,
      408,
      408,
      407,
      408,
      408,
      409,
      409,
      410,
      411,
      412,
      412,
      413,
      413,
      415,
      415,
      416,
      413,
      407,
      408,
      407,
      406,
      404,
      404,
      404,
      404,
      404,
      404,
      403,
      407,
      409,
      410,
      411,
      413,
      414,
      415,
      416,
      417,
      418,
      418,
      418,
      415,
      412,
      411,
      411,
      411,
      412,
      412,
      414,
      415,
      415,
      416,
      416,
      416,
      416,
      415,
      416,
      416,
      417,
      417,
      417,
      417,
      416,
      416,
      415,
      414,
      414,
      414,
      414,
      414,
      414,
      414,
      415,
      415,
      416,
      416,
      417,
      416,
      416,
      416,
      418,
      418,
      417,
      415,
      415,
      415,
      415,
      415,
      414,
      414,
      415,
      416,
      417,
      418,
      419,
      421,
      419,
      419,
      417,
      417,
      415,
      415,
      414,
      414,
      413,
      413,
      413,
      415,
      417,
      417,
      418,
      418,
      419,
      421,
      423,
      423,
      424,
      424,
      424,
      424,
      424,
      424,
      423,
      424,
      424,
      424,
      420,
      418,
      415,
      414,
      414,
      414,
      412,
      412,
      410,
      409,
      408,
      407,
      408,
      407,
      408,
      408,
      408,
      409,
      409,
      408,
      409,
      409,
      409,
      410,
      411,
      413,
      414,
      414,
      413,
      410,
      412,
      407,
      407,
      405,
      405,
      403,
      405,
      401,
      404,
      400,
      402,
      400,
      402,
      405,
      405,
      407,
      407,
      411,
      410,
      411,
      409,
      409,
      407,
      406,
      407,
      406,
      406,
      405,
      405,
      405,
      404,
      404,
      404,
      405,
      405,
      405,
      405,
      405,
      406,
      406,
      407,
      407,
      408,
      408,
      408,
      408,
      408,
      408,
      408,
      406,
      405,
      404,
      400,
      400,
      398,
      397,
      396,
      395,
      396,
      397,
      398,
      397,
      397,
      396,
      398,
      403,
      406,
      383,
      373,
      376,
      380,
      382,
      378,
      411,
      399,
      397,
      377,
      370,
      368,
      366,
      362,
      361,
      360,
      358,
      354,
      350,
      344,
      334,
      333,
      332,
      330,
      302,
      250,
      252,
      250,
      251,
      247,
      248,
      248,
      241,
      245,
      239,
      241,
      241,
      234,
      238,
      238,
      237,
      234,
      236,
      230,
      224,
      203,
      199,
      178,
      182,
      176,
      121,
      124,
      124
    ],
    "swim:timestamps": [
      1785101645,
      1785101720,
      1785101765,
      1785101780,
      1785101835,
      1785101885,
      1785101901,
      1785101955,
      1785102015,
      1785102065,
      1785102075,
      1785102140,
      1785102200,
      1785102366,
      1785102486,
      1785102666,
      1785102718,
      1785102778,
      1785102847,
      1785102898,
      1785102958,
      1785102967,
      1785103027,
      1785103079,
      1785103147,
      1785103207,
      1785103267,
      1785103319,
      1785103387,
      1785103447,
      1785103559,
      1785103628,
      1785103740,
      1785103860,
      1785103980,
      1785104100,
      1785104220,
      1785104341,
      1785104461,
      1785104521,
      1785104581,
      1785104641,
      1785104761,
      1785104942,
      1785105062,
      1785105122,
      1785105182,
      1785105242,
      1785105362,
      1785105422,
      1785105543,
      1785105663,
      1785105783,
      1785105829,
      1785105903,
      1785105949,
      1785105963,
      1785106015,
      1785106069,
      1785106144,
      1785106195,
      1785106249,
      1785106255,
      1785106310,
      1785106324,
      1785106370,
      1785106384,
      1785106444,
      1785106504,
      1785106564,
      1785106624,
      1785106670,
      1785106730,
      1785106796,
      1785106856,
      1785106865,
      1785106925,
      1785106985,
      1785107031,
      1785107045,
      1785107151,
      1785107217,
      1785107271,
      1785107337,
      1785107391,
      1785107457,
      1785107511,
      1785107571,
      1785107631,
      1785107691,
      1785107752,
      1785107812,
      1785107818,
      1785107878,
      1785107932,
      1785107938,
      1785107992,
      1785108052,
      1785108058,
      1785108112,
      1785108118,
      1785108172,
      1785108232,
      1785108292,
      1785108352,
      1785108358,
      1785108412,
      1785108419,
      1785108473,
      1785108539,
      1785108593,
      1785108653,
      1785108659,
      1785108713,
      1785108773,
      1785108833,
      1785108839,
      1785108899,
      1785108959,
      1785109020,
      1785109080,
      1785109133,
      1785109194,
      1785109254,
      1785109260,
      1785109320,
      1785109380,
      1785109434,
      1785109494,
      1785109554,
      1785109560,
      1785109614,
      1785109681,
      1785109741,
      1785109801,
      1785109854,
      1785109861,
      1785109921,
      1785109975,
      1785110155,
      1785110215,
      1785110275,
      1785110335,
      1785110395,
      1785110455,
      1785110575,
      1785110636,
      1785110696,
      1785110756,
      1785110816,
      1785110876,
      1785110936,
      1785111056,
      1785111236,
      1785111296,
      1785111357,
      1785111417,
      1785111477,
      1785111537,
      1785111597,
      1785111657,
      1785111717,
      1785111777,
      1785111837,
      1785111917,
      1785111957,
      1785112017,
      1785112037,
      1785112097,
      1785112138,
      1785112217,
      1785112277,
      1785112337,
      1785112400,
      1785112458,
      1785112518,
      1785112558,
      1785112578,
      1785112638,
      1785112678,
      1785112738,
      1785112760,
      1785112820,
      1785112859,
      1785112878,
      1785112919,
      1785112938,
      1785112979,
      1785113001,
      1785113039,
      1785113058,
      1785113118,
      1785113159,
      1785113178,
      1785113219,
      1785113239,
      1785113279,
      1785113419,
      1785113479,
      1785113539,
      1785113719,
      1785113839,
      1785113899,
      1785113960,
      1785114020,
      1785114140,
      1785114200,
      1785114260,
      1785114320,
      1785114380,
      1785114440,
      1785114512,
      1785114563,
      1785114623,
      1785114683,
      1785114753,
      1785114813,
      1785114863,
      1785114873,
      1785114923,
      1785114933,
      1785114993,
      1785115043,
      1785115113,
      1785115164,
      1785115224,
      1785115233,
      1785115284,
      1785115293,
      1785115344,
      1785115404,
      1785115464,
      1785115524,
      1785115584,
      1785115644,
      1785115704,
      1785115764,
      1785115824,
      1785115885,
      1785115945,
      1785116005,
      1785116065,
      1785116125,
      1785116245,
      1785116305,
      1785116365,
      1785116425,
      1785116485,
      1785116605,
      1785116726,
      1785116786,
      1785116846,
      1785116906,
      1785116966,
      1785117026,
      1785117086,
      1785117146,
      1785117206,
      1785117266,
      1785117326,
      1785117386,
      1785117447,
      1785117507,
      1785117567,
      1785117627,
      1785117687,
      1785117747,
      1785117807,
      1785117867,
      1785117927,
      1785117987,
      1785118047,
      1785118107,
      1785118148,
      1785118168,
      1785118208,
      1785118228,
      1785118269,
      1785118288,
      1785118329,
      1785118348,
      1785118389,
      1785118408,
      1785118449,
      1785118468,
      1785118528,
      1785118588,
      1785118629,
      1785118648,
      1785118689,
      1785118749,
      1785118768,
      1785118809,
      1785118828,
      1785118869,
      1785118889,
      1785118929,
      1785118949,
      1785118989,
      1785119009,
      1785119050,
      1785119069,
      1785119110,
      1785119129,
      1785119189,
      1785119230,
      1785119249,
      1785119290,
      1785119309,
      1785119350,
      1785119369,
      1785119410,
      1785119429,
      1785119470,
      1785119489,
      1785119530,
      1785119549,
      1785119590,
      1785119609,
      1785119650,
      1785119670,
      1785119730,
      1785119790,
      1785119831,
      1785119850,
      1785119891,
      1785119910,
      1785119951,
      1785119970,
      1785120011,
      1785120030,
      1785120090,
      1785120131,
      1785120150,
      1785120191,
      1785120210,
      1785120270,
      1785120311,
      1785120371,
      1785120431,
      1785120491,
      1785120671,
      1785120852,
      1785120912,
      1785120972,
      1785121032,
      1785121272,
      1785121332,
      1785121392,
      1785121452,
      1785121512,
      1785121572,
      1785121633,
      1785121753,
      1785121813,
      1785121873,
      1785121933,
      1785121993,
      1785122053,
      1785122173,
      1785122233,
      1785122261,
      1785122293,
      1785122321,
      1785122382,
      1785122442,
      1785122474,
      1785122502,
      1785122534,
      1785122561,
      1785122594,
      1785122654,
      1785122681,
      1785122714,
      1785122742,
      1785122774,
      1785122834,
      1785122862,
      1785122894,
      1785122922,
      1785122954,
      1785122982,
      1785123014,
      1785123074,
      1785123134,
      1785123156,
      1785123194,
      1785123216,
      1785123254,
      1785123276,
      1785123336,
      1785123375,
      1785123435
    ],
    "wof:geomhash": "b2cca302d232ad6c97621f4494a4eb47",
    "wof:id": 2031977901,
    "wof:repo": "sfomuseum-data-flights-2026-07"
  },
  "bbox": [
    -122.75916666666667,
    37.31333333333333,
    -74.23416666666667,
    43.431666666666665
  ],
  "geometry": {"coordinates":[[-74.23416666666667,40.62861111111111],[-74.28333333333333,40.7],[-74.28944444444444,40.755],[-74.28333333333333,40.78333333333333],[-74.3,40.85],[-74.31722222222221,40.907777777777774],[-74.33333333333333,40.916666666666664],[-74.38333333333334,40.983333333333334],[-74.33333333333333,41.05],[-74.28166666666667,41.113055555555555],[-74.26666666666667,41.13333333333333],[-74.25,41.21666666666667],[-74.3,41.28333333333333],[-74.49166666666667,41.46472222222223],[-74.7225,41.56472222222222],[-75.0886111111111,41.72083333333334],[-75.22722222222222,41.779444444444444],[-75.36333333333333,41.836666666666666],[-75.50666666666666,41.89694444444444],[-75.65027777777779,41.956944444444446],[-75.79222222222222,42.015277777777776],[-75.7863888888889,42.01305555555555],[-75.94833333333334,42.088055555555556],[-76.06138888888889,42.14861111111111],[-76.21416666666667,42.22888888888889],[-76.35833333333333,42.28805555555555],[-76.51722222222222,42.32416666666667],[-76.64833333333334,42.35333333333333],[-76.84444444444443,42.39833333333333],[-77.00972222222222,42.433611111111105],[-77.32305555555556,42.43555555555555],[-77.53027777777778,42.431666666666665],[-77.85166666666666,42.42583333333333],[-78.20027777777779,42.41833333333333],[-78.54527777777777,42.41],[-78.89055555555557,42.40277777777778],[-79.2175,42.474722222222226],[-79.52944444444444,42.55],[-79.84027777777777,42.61388888888889],[-80.00527777777778,42.62138888888889],[-80.16888888888889,42.62833333333333],[-80.33277777777778,42.63527777777778],[-80.60444444444444,42.74027777777778],[-81.05583333333333,42.809999999999995],[-81.37722222222222,42.830555555555556],[-81.53333333333333,42.842222222222226],[-81.68722222222223,42.85305555555556],[-81.83777777777777,42.86333333333334],[-82.14,42.88361111111111],[-82.28444444444445,42.89277777777778],[-82.58361111111111,42.91166666666666],[-82.87972222222221,42.92944444444444],[-83.17305555555556,42.946666666666665],[-83.2725,42.952222222222225],[-83.46777777777778,42.96277777777778],[-83.57,42.968333333333334],[-83.61055555555555,42.970555555555556],[-83.74694444444445,42.9775],[-83.86527777777778,42.98361111111111],[-84.05638888888889,42.99305555555556],[-84.19305555555556,42.999722222222225],[-84.31583333333333,43.00527777777778],[-84.34416666666667,43.00666666666667],[-84.46972222222223,43.0125],[-84.49666666666667,43.01361111111111],[-84.61944444444444,43.021388888888886],[-84.64805555555556,43.02444444444444],[-84.79694444444445,43.04138888888889],[-84.94611111111111,43.05833333333333],[-85.09638888888888,43.075],[-85.27416666666666,43.09444444444445],[-85.36583333333333,43.10444444444445],[-85.51416666666667,43.12027777777778],[-85.69055555555556,43.138888888888886],[-85.83749999999999,43.15416666666667],[-85.86333333333333,43.15694444444444],[-86.01194444444444,43.17222222222222],[-86.15166666666667,43.18611111111111],[-86.2786111111111,43.19694444444444],[-86.30611111111111,43.197222222222216],[-86.58555555555554,43.18805555555555],[-86.73777777777778,43.18277777777777],[-86.89111111111112,43.17722222222222],[-87.0425,43.171388888888885],[-87.19777777777779,43.165277777777774],[-87.35027777777778,43.159166666666664],[-87.49305555555556,43.153055555555554],[-87.64777777777779,43.146388888888886],[-87.80027777777778,43.13972222222222],[-87.95416666666667,43.132777777777775],[-88.10694444444444,43.12555555555556],[-88.25944444444444,43.11833333333333],[-88.28833333333333,43.1175],[-88.43861111111111,43.119166666666665],[-88.56,43.12],[-88.56166666666667,43.12138888888889],[-88.71194444444444,43.1225],[-88.865,43.125],[-88.86749999999999,43.12583333333333],[-89.01805555555555,43.12722222222222],[-89.01916666666666,43.1275],[-89.17194444444445,43.12777777777778],[-89.32527777777777,43.12888888888889],[-89.48027777777779,43.132222222222225],[-89.64111111111112,43.132777777777775],[-89.63583333333334,43.132777777777775],[-89.7961111111111,43.13361111111111],[-89.79083333333332,43.13361111111111],[-89.95,43.134166666666665],[-90.10111111111111,43.13444444444444],[-90.25916666666667,43.13472222222222],[-90.39833333333334,43.13472222222222],[-90.42916666666667,43.13472222222222],[-90.55277777777778,43.13444444444444],[-90.70777777777778,43.13388888888889],[-90.89472222222223,43.13305555555556],[-90.89222222222223,43.13333333333333],[-91.04805555555555,43.132222222222225],[-91.2,43.13111111111111],[-91.35527777777777,43.13],[-91.50694444444444,43.12833333333333],[-91.66305555555556,43.126666666666665],[-91.81611111111111,43.124722222222225],[-91.97,43.1225],[-91.97,43.1225],[-92.12583333333333,43.12027777777778],[-92.28111111111112,43.117777777777775],[-92.43805555555556,43.11472222222223],[-92.59444444444443,43.11194444444445],[-92.75,43.10861111111111],[-92.75,43.10861111111111],[-92.9088888888889,43.105000000000004],[-93.06555555555555,43.10138888888889],[-93.2225,43.097500000000004],[-93.37805555555555,43.10333333333333],[-93.52805555555555,43.129444444444445],[-93.52805555555555,43.129444444444445],[-93.67583333333334,43.15555555555555],[-93.8286111111111,43.18194444444444],[-94.28111111111112,43.25888888888889],[-94.43055555555556,43.28388888888889],[-94.58111111111111,43.30888888888889],[-94.73055555555555,43.33361111111111],[-94.88055555555555,43.35805555555556],[-95.03222222222222,43.3825],[-95.33388888888888,43.427499999999995],[-95.49027777777778,43.43083333333333],[-95.64583333333334,43.431666666666665],[-95.80555555555556,43.43138888888889],[-95.96111111111111,43.43055555555555],[-96.12194444444444,43.42972222222222],[-96.27972222222222,43.42861111111111],[-96.59861111111111,43.425555555555555],[-97.07527777777777,43.420833333333334],[-97.23583333333333,43.41888888888889],[-97.39583333333334,43.416666666666664],[-97.55722222222222,43.41416666666667],[-97.71555555555555,43.411944444444444],[-97.87222222222222,43.409166666666664],[-98.02944444444444,43.40611111111111],[-98.185,43.403055555555554],[-98.34333333333333,43.39944444444444],[-98.49916666666667,43.395833333333336],[-98.65583333333333,43.39222222222222],[-98.85722222222222,43.386944444444445],[-98.97416666666666,43.38388888888889],[-99.11055555555555,43.38],[-99.17333333333333,43.378055555555555],[-99.33361111111111,43.373333333333335],[-99.43027777777779,43.37027777777778],[-99.65194444444445,43.363055555555555],[-99.81055555555555,43.3575],[-99.96694444444445,43.35194444444445],[-100.12388888888889,43.345555555555556],[-100.28527777777778,43.33972222222222],[-100.44416666666667,43.333333333333336],[-100.53972222222222,43.32944444444445],[-100.6036111111111,43.32694444444445],[-100.76027777777777,43.32027777777778],[-100.85472222222222,43.31583333333333],[-101.01277777777777,43.30888888888889],[-101.08472222222221,43.30305555555555],[-101.24111111111111,43.29472222222222],[-101.32777777777777,43.29416666666666],[-101.39166666666668,43.29111111111111],[-101.45472222222223,43.28777777777778],[-101.54888888888888,43.283055555555556],[-101.64277777777778,43.27833333333333],[-101.71194444444444,43.27055555555555],[-101.80194444444444,43.269999999999996],[-101.87249999999999,43.26638888888889],[-102.03,43.257777777777775],[-102.11583333333333,43.253055555555555],[-102.18972222222223,43.24916666666667],[-102.27527777777777,43.244166666666665],[-102.34638888888888,43.24],[-102.43166666666667,43.23527777777778],[-102.82166666666666,43.21194444444445],[-102.98027777777779,43.20194444444445],[-103.13666666666667,43.19194444444444],[-103.60499999999999,43.16083333333333],[-103.91888888888889,43.13861111111111],[-104.0736111111111,43.1275],[-104.23055555555555,43.11611111111111],[-104.38611111111112,43.10444444444445],[-104.69694444444445,43.080555555555556],[-104.85138888888888,43.068333333333335],[-105.00583333333333,43.05583333333333],[-105.16361111111112,43.043055555555554],[-105.32055555555556,43.03],[-105.4775,43.016666666666666],[-105.63472222222222,43.003055555555555],[-105.7925,42.98916666666667],[-105.94916666666667,42.97527777777778],[-106.10555555555555,42.961111111111116],[-106.29222222222222,42.94416666666666],[-106.44861111111112,42.92944444444444],[-106.60277777777777,42.914722222222224],[-106.60277777777777,42.914722222222224],[-106.75722222222223,42.9],[-106.75722222222223,42.9],[-106.91083333333334,42.885],[-107.05222222222221,42.87111111111111],[-107.22027777777778,42.85416666666667],[-107.36138888888888,42.83972222222222],[-107.51888888888888,42.82361111111111],[-107.54777777777778,42.82055555555556],[-107.67583333333334,42.80722222222222],[-107.7063888888889,42.803888888888885],[-107.83277777777778,42.79055555555556],[-107.98861111111111,42.77388888888889],[-108.14611111111111,42.75666666666667],[-108.30583333333333,42.73916666666667],[-108.46333333333334,42.72138888888889],[-108.62166666666666,42.703611111111115],[-108.7775,42.68555555555555],[-108.93472222222222,42.6675],[-109.0925,42.64888888888889],[-109.25027777777778,42.63027777777778],[-109.40583333333333,42.611666666666665],[-109.56305555555555,42.592222222222226],[-109.72,42.573055555555555],[-109.87638888888888,42.55333333333333],[-110.1875,42.51416666666667],[-110.33972222222222,42.49444444444445],[-110.49361111111111,42.474444444444444],[-110.6463888888889,42.45416666666667],[-110.79805555555555,42.43388888888889],[-111.10222222222221,42.39277777777778],[-111.43694444444445,42.34666666666667],[-111.58749999999999,42.32555555555556],[-111.7363888888889,42.30416666666667],[-111.88722222222223,42.2825],[-112.0363888888889,42.26111111111111],[-112.185,42.239444444444445],[-112.33416666666666,42.217222222222226],[-112.47694444444444,42.18805555555555],[-112.61916666666666,42.14222222222222],[-112.76,42.09666666666667],[-112.89472222222223,42.04972222222222],[-113.03333333333333,42.00194444444445],[-113.17111111111112,41.95444444444445],[-113.30805555555555,41.90694444444444],[-113.44944444444445,41.85777777777778],[-113.58583333333333,41.809999999999995],[-113.72277777777778,41.761944444444445],[-113.8611111111111,41.713055555555556],[-114,41.663888888888884],[-114.13861111111112,41.61416666666667],[-114.27833333333334,41.564166666666665],[-114.41666666666667,41.51444444444444],[-114.55388888888889,41.46472222222223],[-114.68833333333333,41.41583333333333],[-114.7713888888889,41.38583333333333],[-114.82277777777777,41.36666666666667],[-114.9038888888889,41.33722222222222],[-114.95611111111111,41.31777777777778],[-115.03611111111111,41.2875],[-115.08999999999999,41.26833333333333],[-115.16888888888889,41.23888888888889],[-115.22055555555556,41.22],[-115.30055555555555,41.18944444444444],[-115.35277777777777,41.17055555555555],[-115.43194444444445,41.14083333333333],[-115.48555555555555,41.12111111111111],[-115.61833333333333,41.071111111111115],[-115.75111111111111,41.02111111111111],[-115.83277777777778,40.99055555555556],[-115.88527777777779,40.97027777777778],[-115.96722222222222,40.939166666666665],[-116.10111111111111,40.8875],[-116.15444444444445,40.8675],[-116.23527777777778,40.836666666666666],[-116.28694444444444,40.81638888888889],[-116.36749999999999,40.78611111111111],[-116.41916666666667,40.76555555555556],[-116.49916666666667,40.73527777777778],[-116.55,40.71472222222223],[-116.63111111111111,40.683055555555555],[-116.68222222222222,40.66305555555555],[-116.76277777777777,40.63166666666667],[-116.81222222222222,40.61222222222222],[-116.8913888888889,40.581388888888895],[-116.9413888888889,40.56444444444444],[-117.07916666666667,40.528055555555554],[-117.19194444444445,40.49888888888889],[-117.21722222222222,40.492222222222225],[-117.33027777777778,40.462500000000006],[-117.35499999999999,40.45583333333334],[-117.46805555555555,40.42611111111111],[-117.49555555555555,40.41861111111111],[-117.60805555555555,40.388888888888886],[-117.63472222222222,40.38166666666667],[-117.74833333333333,40.35111111111111],[-117.77472222222222,40.344166666666666],[-117.8888888888889,40.31333333333333],[-117.91583333333334,40.30638888888888],[-118.02916666666667,40.275555555555556],[-118.05305555555556,40.26916666666666],[-118.17222222222223,40.236666666666665],[-118.19472222222223,40.230555555555554],[-118.33361111111111,40.192499999999995],[-118.47,40.155],[-118.58333333333333,40.12361111111111],[-118.60666666666665,40.11694444444444],[-118.71861111111112,40.08305555555556],[-118.74305555555556,40.07555555555556],[-118.85111111111111,40.04277777777778],[-118.87555555555555,40.035555555555554],[-118.98277777777778,40.00333333333333],[-119.00555555555556,39.99638888888889],[-119.16527777777779,39.9475],[-119.24722222222222,39.9225],[-119.29805555555555,39.90694444444444],[-119.37972222222221,39.88194444444444],[-119.43166666666667,39.865833333333335],[-119.53999999999999,39.83222222222223],[-119.64500000000001,39.79972222222222],[-119.77972222222222,39.757777777777775],[-119.91583333333334,39.71527777777778],[-120.04583333333333,39.67444444444444],[-120.40305555555557,39.56083333333333],[-120.8025,39.43222222222222],[-120.92750000000001,39.39138888888889],[-121.05555555555556,39.349722222222226],[-121.16916666666667,39.29388888888889],[-121.67416666666666,39.164722222222224],[-121.81138888888889,39.13944444444444],[-121.94277777777778,39.10027777777778],[-122.05333333333333,39.04194444444444],[-122.12916666666666,38.958333333333336],[-122.20194444444445,38.875],[-122.275,38.79194444444444],[-122.42083333333333,38.625277777777775],[-122.4925,38.54277777777778],[-122.56444444444445,38.45944444444445],[-122.63361111111112,38.37972222222222],[-122.70333333333333,38.299166666666665],[-122.75916666666667,38.21472222222223],[-122.70944444444444,38.02583333333333],[-122.68388888888889,37.93694444444444],[-122.66666666666667,37.88333333333333],[-122.63166666666666,37.86027777777778],[-122.58333333333333,37.81666666666667],[-122.51666666666667,37.75],[-122.45,37.7],[-122.43277777777779,37.672777777777775],[-122.4,37.63333333333333],[-122.37694444444443,37.62],[-122.35,37.583333333333336],[-122.33888888888889,37.55888888888889],[-122.30138888888888,37.496944444444445],[-122.28333333333333,37.45],[-122.26361111111112,37.436388888888885],[-122.26666666666667,37.4],[-122.28027777777778,37.3725],[-122.24305555555556,37.31333333333333],[-122.2,37.31666666666667],[-122.16472222222222,37.31666666666667],[-122.11666666666666,37.333333333333336],[-122.08722222222222,37.33777777777778],[-122.06666666666666,37.38333333333333],[-122.06083333333333,37.39833333333333],[-122.05194444444444,37.46083333333333],[-122.10305555555556,37.50611111111111],[-122.13333333333334,37.516666666666666],[-122.16611111111112,37.533055555555556],[-122.2,37.55],[-122.22166666666666,37.556666666666665],[-122.25,37.56666666666667],[-122.3,37.583333333333336],[-122.31305555555555,37.595],[-122.35111111111111,37.611111111111114]],"type":"LineString"}
}
