{
  "id": 2031968539,
  "type": "Feature",
  "properties": {
    "geom:area": 0,
    "geom:bbox": "-119.625833,26.075556,-79.921389,38.513611",
    "geom:latitude": 34.992021854330076,
    "geom:longitude": -98.57738883638095,
    "src:alt_label": "swim-path",
    "src:geom": "swim",
    "swim:altitudes": [
      "287",
      "296",
      "298",
      "308",
      "312",
      "317",
      "318",
      "322",
      "323",
      "328C",
      "330C",
      "330C",
      "330C",
      "330C",
      "330C",
      "330C",
      "330C",
      "330C",
      "330C",
      "330C",
      "330C",
      "331C",
      "331C",
      "331C",
      "330C",
      "330C",
      "330C",
      "330C",
      "330C",
      "330C",
      "330C",
      "330C",
      "330C",
      "331C",
      "330C",
      "330C",
      "330C",
      "330C",
      "330C",
      "330C",
      "330C",
      "331C",
      "330C",
      "330C",
      "330C",
      "331C",
      "330C",
      "330C",
      "330C",
      "330C",
      "330C",
      "330C",
      "330C",
      "330C",
      "330C",
      "330C",
      "330C",
      "330C",
      "330C",
      "330C",
      "330C",
      "330C",
      "330C",
      "330C",
      "330C",
      "330C",
      "330C",
      "330C",
      "330C",
      "330C",
      "330C",
      "331C",
      "331C",
      "330C",
      "330C",
      "330C",
      "330C",
      "330C",
      "330C",
      "330C",
      "330C",
      "330C",
      "330C",
      "330C",
      "330C",
      "330C",
      "330C",
      "330C",
      "330C",
      "330C",
      "330C",
      "330C",
      "330C",
      "330C",
      "330C",
      "330C",
      "330C",
      "330C",
      "330C",
      "330C",
      "330C",
      "330C",
      "331C",
      "330C",
      "330C",
      "330C",
      "330C",
      "330C",
      "330C",
      "330C",
      "330C",
      "330C",
      "330C",
      "330C",
      "330C",
      "330C",
      "330C",
      "330C",
      "330C",
      "330C",
      "331C",
      "331C",
      "330C",
      "330C",
      "330C",
      "330C",
      "330C",
      "330C",
      "330C",
      "330C",
      "330C",
      "330C",
      "330C",
      "330C",
      "330C",
      "330C",
      "330C",
      "330C",
      "331C",
      "331C",
      "330C",
      "330C",
      "330C",
      "330C",
      "330C",
      "330C",
      "331C",
      "331C",
      "330C",
      "330C",
      "330C",
      "330C",
      "330C",
      "330C",
      "330C",
      "330C",
      "330C",
      "330C",
      "334",
      "341",
      "348C",
      "350C",
      "350C",
      "350C",
      "350C",
      "350C",
      "350C",
      "350C",
      "350C",
      "350C",
      "350C",
      "350C",
      "350C",
      "350C",
      "350C",
      "350C",
      "350C",
      "350C",
      "350C",
      "350C",
      "350C",
      "350C",
      "350C",
      "350C",
      "350C",
      "350C",
      "350C",
      "350C",
      "350C",
      "350C",
      "350C",
      "350C",
      "350C",
      "350C",
      "350C",
      "350C",
      "350C",
      "350C",
      "350C",
      "350C",
      "350C",
      "350C",
      "350C",
      "350C",
      "350C",
      "350C",
      "350C",
      "350C",
      "350C",
      "350C",
      "350C",
      "350C",
      "350C",
      "350C",
      "350C",
      "350C",
      "350C",
      "350C",
      "350C",
      "350C",
      "350C",
      "350C",
      "350C",
      "351C",
      "350C",
      "350C",
      "350C",
      "350C",
      "350C",
      "350C",
      "350C",
      "350C",
      "350C",
      "350C",
      "350C",
      "350C",
      "350C",
      "350C",
      "350C",
      "350C",
      "350C",
      "350C",
      "350C",
      "350C",
      "350C",
      "350C",
      "350C",
      "350C",
      "350C",
      "350C",
      "350C",
      "350C",
      "350C",
      "350C",
      "350C",
      "350C",
      "350C",
      "350C",
      "350C",
      "350C",
      "350C",
      "350C",
      "350C",
      "350C",
      "350C",
      "350C",
      "350C",
      "350C",
      "350C",
      "350C",
      "350C",
      "350C",
      "350C",
      "350C",
      "350C",
      "350C",
      "350C",
      "350C",
      "350C",
      "350C",
      "350C",
      "350C",
      "350C",
      "350C",
      "350C",
      "350C",
      "350C",
      "350C",
      "350C",
      "350C",
      "350C",
      "350C",
      "350C",
      "350C",
      "350C",
      "350C",
      "350C",
      "350C",
      "350C",
      "350C",
      "350C",
      "350C",
      "350C",
      "350C",
      "350C",
      "350C",
      "350C",
      "350C",
      "350C",
      "350C",
      "350C",
      "350C",
      "350C",
      "350C",
      "351C",
      "350C",
      "350C",
      "350C",
      "350C",
      "350C",
      "350C",
      "350C",
      "350C",
      "350C",
      "350C",
      "350C",
      "350C",
      "350C",
      "350C",
      "350C",
      "350C",
      "350C",
      "350C",
      "350C",
      "350C",
      "350C",
      "349C",
      "350C",
      "349C",
      "350C",
      "350C",
      "350C",
      "350C",
      "350C",
      "350C",
      "350C",
      "350C",
      "350C",
      "349C",
      "350C",
      "350C",
      "351C",
      "350C",
      "350C",
      "350C",
      "350C",
      "349C",
      "350C",
      "350C",
      "350C",
      "350C",
      "350C",
      "350C",
      "350C",
      "350C",
      "350C",
      "350C",
      "350C",
      "350C",
      "350C",
      "350C",
      "350C",
      "350C",
      "350C",
      "350C",
      "350C",
      "350C",
      "350C",
      "350C",
      "350C",
      "350C",
      "349C",
      "350C",
      "350C",
      "350C",
      "350C",
      "350C",
      "350C",
      "350C",
      "349",
      "340",
      "325",
      "315",
      "306",
      "299",
      "292",
      "282",
      "278",
      "272",
      "268",
      "263",
      "253",
      "249",
      "243",
      "240C",
      "240C",
      "240",
      "240",
      "233",
      "222",
      "211",
      "192",
      "174",
      "156",
      "138",
      "126",
      "119",
      "104",
      "095",
      "081",
      "070",
      "070",
      "070",
      "070",
      "070",
      "070",
      "070",
      "069",
      "068",
      "065",
      "061",
      "054",
      "049",
      "035",
      "030",
      "025",
      "021",
      "020",
      "020",
      "020",
      "020",
      "020",
      "014",
      "007",
      "001"
    ],
    "swim:geom": "path",
    "swim:speeds": [
      492,
      493,
      498,
      494,
      493,
      494,
      495,
      494,
      497,
      500,
      503,
      500,
      497,
      497,
      496,
      498,
      498,
      497,
      491,
      488,
      486,
      485,
      485,
      485,
      484,
      481,
      479,
      478,
      477,
      476,
      475,
      476,
      476,
      476,
      474,
      472,
      471,
      470,
      470,
      474,
      477,
      479,
      479,
      477,
      476,
      476,
      477,
      477,
      478,
      478,
      478,
      478,
      477,
      475,
      475,
      475,
      475,
      475,
      475,
      475,
      475,
      474,
      474,
      474,
      474,
      474,
      474,
      475,
      476,
      478,
      479,
      480,
      481,
      482,
      482,
      482,
      482,
      482,
      482,
      482,
      482,
      482,
      482,
      481,
      481,
      481,
      481,
      480,
      480,
      479,
      479,
      478,
      477,
      476,
      473,
      471,
      470,
      472,
      472,
      472,
      473,
      474,
      474,
      474,
      473,
      472,
      471,
      471,
      471,
      470,
      469,
      468,
      466,
      465,
      464,
      461,
      464,
      461,
      464,
      461,
      465,
      464,
      466,
      465,
      466,
      465,
      465,
      465,
      464,
      464,
      463,
      463,
      462,
      462,
      462,
      462,
      463,
      464,
      466,
      466,
      466,
      463,
      459,
      458,
      458,
      459,
      460,
      460,
      460,
      461,
      460,
      460,
      460,
      460,
      459,
      459,
      458,
      459,
      460,
      461,
      462,
      461,
      462,
      462,
      463,
      464,
      463,
      462,
      460,
      459,
      458,
      458,
      459,
      460,
      461,
      461,
      462,
      463,
      464,
      464,
      464,
      465,
      468,
      466,
      468,
      466,
      468,
      467,
      468,
      467,
      468,
      466,
      467,
      466,
      467,
      465,
      466,
      464,
      464,
      463,
      463,
      463,
      463,
      462,
      462,
      462,
      463,
      463,
      463,
      463,
      463,
      463,
      463,
      463,
      463,
      463,
      463,
      463,
      463,
      463,
      464,
      464,
      464,
      464,
      464,
      464,
      463,
      463,
      463,
      463,
      463,
      462,
      461,
      461,
      460,
      460,
      459,
      456,
      453,
      450,
      448,
      447,
      448,
      448,
      449,
      449,
      450,
      450,
      452,
      456,
      459,
      456,
      461,
      457,
      464,
      462,
      465,
      466,
      466,
      466,
      466,
      466,
      466,
      467,
      466,
      468,
      467,
      469,
      468,
      471,
      470,
      471,
      473,
      472,
      473,
      472,
      472,
      472,
      472,
      472,
      473,
      473,
      474,
      474,
      475,
      474,
      474,
      474,
      474,
      473,
      473,
      473,
      472,
      471,
      472,
      470,
      470,
      471,
      469,
      469,
      469,
      468,
      468,
      470,
      467,
      467,
      468,
      467,
      468,
      468,
      469,
      469,
      470,
      470,
      470,
      470,
      470,
      470,
      470,
      470,
      470,
      470,
      470,
      469,
      469,
      469,
      469,
      469,
      469,
      470,
      469,
      469,
      469,
      468,
      468,
      466,
      466,
      465,
      467,
      465,
      463,
      464,
      464,
      465,
      464,
      465,
      464,
      464,
      464,
      464,
      464,
      465,
      464,
      464,
      464,
      464,
      464,
      463,
      463,
      462,
      462,
      459,
      458,
      457,
      457,
      457,
      457,
      457,
      457,
      458,
      458,
      459,
      460,
      460,
      461,
      462,
      462,
      462,
      462,
      462,
      462,
      462,
      462,
      462,
      462,
      462,
      462,
      462,
      461,
      461,
      460,
      461,
      461,
      462,
      463,
      457,
      445,
      439,
      435,
      433,
      430,
      424,
      423,
      421,
      420,
      419,
      418,
      418,
      416,
      412,
      408,
      394,
      382,
      366,
      356,
      348,
      347,
      337,
      300,
      301,
      292,
      291,
      290,
      291,
      290,
      290,
      289,
      289,
      290,
      289,
      288,
      273,
      268,
      270,
      265,
      248,
      209,
      202,
      188,
      184,
      187,
      186,
      179,
      143,
      144
    ],
    "swim:timestamps": [
      1785046488,
      1785046548,
      1785046559,
      1785046619,
      1785046679,
      1785046728,
      1785046739,
      1785046789,
      1785046799,
      1785046859,
      1785046909,
      1785047029,
      1785047089,
      1785047099,
      1785047149,
      1785047219,
      1785047269,
      1785047279,
      1785047329,
      1785047339,
      1785047399,
      1785047459,
      1785047509,
      1785047519,
      1785047579,
      1785047639,
      1785047689,
      1785047699,
      1785047749,
      1785047809,
      1785047869,
      1785047929,
      1785047989,
      1785048049,
      1785048109,
      1785048169,
      1785048230,
      1785048290,
      1785048350,
      1785048410,
      1785048470,
      1785048530,
      1785048590,
      1785048650,
      1785048710,
      1785048770,
      1785048830,
      1785048890,
      1785048950,
      1785049010,
      1785049070,
      1785049130,
      1785049190,
      1785049211,
      1785049250,
      1785049271,
      1785049331,
      1785049370,
      1785049391,
      1785049430,
      1785049451,
      1785049490,
      1785049512,
      1785049550,
      1785049572,
      1785049610,
      1785049632,
      1785049671,
      1785049692,
      1785049731,
      1785049752,
      1785049791,
      1785049812,
      1785049851,
      1785049872,
      1785049911,
      1785049932,
      1785049971,
      1785049992,
      1785050031,
      1785050052,
      1785050091,
      1785050112,
      1785050151,
      1785050172,
      1785050211,
      1785050232,
      1785050271,
      1785050292,
      1785050331,
      1785050352,
      1785050412,
      1785050472,
      1785050532,
      1785050592,
      1785050652,
      1785050712,
      1785050772,
      1785050832,
      1785050892,
      1785050952,
      1785051012,
      1785051072,
      1785051132,
      1785051192,
      1785051253,
      1785051313,
      1785051373,
      1785051433,
      1785051493,
      1785051553,
      1785051613,
      1785051673,
      1785051733,
      1785051793,
      1785051819,
      1785051853,
      1785051877,
      1785051913,
      1785051937,
      1785051973,
      1785051997,
      1785052033,
      1785052057,
      1785052093,
      1785052117,
      1785052153,
      1785052177,
      1785052213,
      1785052237,
      1785052273,
      1785052297,
      1785052333,
      1785052357,
      1785052393,
      1785052417,
      1785052453,
      1785052477,
      1785052513,
      1785052539,
      1785052573,
      1785052598,
      1785052633,
      1785052660,
      1785052693,
      1785052718,
      1785052753,
      1785052779,
      1785052813,
      1785052839,
      1785052873,
      1785052898,
      1785052933,
      1785052958,
      1785053019,
      1785053079,
      1785053138,
      1785053200,
      1785053258,
      1785053318,
      1785053378,
      1785053438,
      1785053498,
      1785053558,
      1785053620,
      1785053678,
      1785053738,
      1785053798,
      1785053858,
      1785053918,
      1785053978,
      1785054040,
      1785054098,
      1785054161,
      1785054218,
      1785054278,
      1785054338,
      1785054400,
      1785054461,
      1785054518,
      1785054552,
      1785054579,
      1785054612,
      1785054638,
      1785054672,
      1785054698,
      1785054732,
      1785054758,
      1785054792,
      1785054818,
      1785054852,
      1785054878,
      1785054912,
      1785054938,
      1785054972,
      1785054998,
      1785055032,
      1785055059,
      1785055092,
      1785055119,
      1785055152,
      1785055181,
      1785055212,
      1785055239,
      1785055272,
      1785055299,
      1785055332,
      1785055361,
      1785055392,
      1785055422,
      1785055452,
      1785055479,
      1785055512,
      1785055539,
      1785055572,
      1785055599,
      1785055632,
      1785055661,
      1785055693,
      1785055722,
      1785055753,
      1785055781,
      1785055813,
      1785055839,
      1785055873,
      1785055933,
      1785055993,
      1785056053,
      1785056113,
      1785056173,
      1785056233,
      1785056293,
      1785056353,
      1785056413,
      1785056473,
      1785056533,
      1785056593,
      1785056653,
      1785056713,
      1785056773,
      1785056833,
      1785056893,
      1785056953,
      1785057013,
      1785057073,
      1785057133,
      1785057193,
      1785057253,
      1785057313,
      1785057373,
      1785057433,
      1785057459,
      1785057493,
      1785057519,
      1785057553,
      1785057579,
      1785057613,
      1785057639,
      1785057673,
      1785057700,
      1785057733,
      1785057760,
      1785057820,
      1785057853,
      1785057880,
      1785057913,
      1785057940,
      1785057973,
      1785058000,
      1785058033,
      1785058060,
      1785058093,
      1785058120,
      1785058153,
      1785058180,
      1785058213,
      1785058240,
      1785058273,
      1785058300,
      1785058333,
      1785058360,
      1785058393,
      1785058420,
      1785058453,
      1785058480,
      1785058514,
      1785058540,
      1785058574,
      1785058600,
      1785058617,
      1785058634,
      1785058677,
      1785058694,
      1785058720,
      1785058737,
      1785058754,
      1785058780,
      1785058797,
      1785058814,
      1785058840,
      1785058857,
      1785058874,
      1785058900,
      1785058917,
      1785058934,
      1785058960,
      1785058977,
      1785059020,
      1785059037,
      1785059080,
      1785059097,
      1785059140,
      1785059157,
      1785059200,
      1785059218,
      1785059260,
      1785059278,
      1785059320,
      1785059338,
      1785059380,
      1785059398,
      1785059440,
      1785059458,
      1785059500,
      1785059518,
      1785059578,
      1785059621,
      1785059638,
      1785059698,
      1785059758,
      1785059818,
      1785059878,
      1785059938,
      1785059973,
      1785059998,
      1785060058,
      1785060093,
      1785060118,
      1785060153,
      1785060178,
      1785060213,
      1785060238,
      1785060273,
      1785060298,
      1785060333,
      1785060358,
      1785060393,
      1785060418,
      1785060453,
      1785060478,
      1785060513,
      1785060538,
      1785060573,
      1785060598,
      1785060634,
      1785060658,
      1785060694,
      1785060718,
      1785060754,
      1785060778,
      1785060814,
      1785060874,
      1785060898,
      1785060934,
      1785060958,
      1785060994,
      1785061019,
      1785061054,
      1785061079,
      1785061114,
      1785061139,
      1785061174,
      1785061234,
      1785061259,
      1785061294,
      1785061354,
      1785061379,
      1785061414,
      1785061439,
      1785061474,
      1785061499,
      1785061534,
      1785061559,
      1785061594,
      1785061619,
      1785061655,
      1785061679,
      1785061715,
      1785061739,
      1785061775,
      1785061799,
      1785061835,
      1785061859,
      1785061895,
      1785061919,
      1785061955,
      1785062015,
      1785062039,
      1785062075,
      1785062099,
      1785062135,
      1785062195,
      1785062220,
      1785062255,
      1785062280,
      1785062315,
      1785062375,
      1785062435,
      1785062495,
      1785062555,
      1785062616,
      1785062676,
      1785062736,
      1785062796,
      1785062856,
      1785062891,
      1785062915,
      1785062975,
      1785063035,
      1785063096,
      1785063156,
      1785063216,
      1785063227,
      1785063276,
      1785063282,
      1785063336,
      1785063348,
      1785063396,
      1785063402,
      1785063457,
      1785063516,
      1785063577,
      1785063588,
      1785063637,
      1785063654,
      1785063697,
      1785063757,
      1785063768,
      1785063817,
      1785063828,
      1785063877,
      1785063888,
      1785063949,
      1785064003,
      1785064057
    ],
    "wof:geomhash": "361eb03cd310081c9ebf66add755b9d7",
    "wof:id": 2031968539,
    "wof:repo": "sfomuseum-data-flights-2026-07"
  },
  "bbox": [
    -119.62583333333333,
    26.075555555555557,
    -79.9213888888889,
    38.51361111111111
  ],
  "geometry": {"coordinates":[[-119.62583333333333,38.21],[-119.45361111111112,38.234722222222224],[-119.42611111111111,38.24],[-119.24805555555555,38.264722222222225],[-119.07777777777777,38.288333333333334],[-118.94027777777778,38.30638888888888],[-118.90527777777778,38.31166666666666],[-118.7675,38.32916666666667],[-118.73222222222222,38.33527777777778],[-118.55749999999999,38.35888888888889],[-118.42027777777778,38.37694444444445],[-118.06638888888888,38.42305555555555],[-117.89527777777778,38.44499999999999],[-117.85916666666667,38.44972222222222],[-117.72,38.467222222222226],[-117.50666666666666,38.493611111111115],[-117.36777777777777,38.510555555555555],[-117.33111111111111,38.51361111111111],[-117.19277777777778,38.51305555555555],[-117.15666666666667,38.51],[-116.985,38.495555555555555],[-116.81305555555555,38.48111111111111],[-116.67583333333334,38.46944444444445],[-116.64027777777778,38.46611111111111],[-116.46861111111112,38.45111111111111],[-116.30166666666666,38.436388888888885],[-116.16722222222222,38.42444444444444],[-116.13277777777778,38.42111111111111],[-116.00138888888888,38.409166666666664],[-115.83527777777778,38.39361111111111],[-115.66611111111112,38.378055555555555],[-115.49861111111112,38.36194444444445],[-115.33083333333333,38.34583333333334],[-115.185,38.331388888888895],[-115.01777777777778,38.31472222222222],[-114.85416666666666,38.29805555555556],[-114.69083333333333,38.28138888888889],[-114.52527777777777,38.26416666666667],[-114.36083333333333,38.25388888888889],[-114.19361111111111,38.26444444444444],[-114.02333333333333,38.27611111111111],[-113.85472222222222,38.28722222222222],[-113.6863888888889,38.29833333333333],[-113.51638888888888,38.30916666666666],[-113.34861111111111,38.319722222222225],[-113.18111111111112,38.33027777777778],[-113.01305555555555,38.34055555555556],[-112.84277777777777,38.35027777777778],[-112.67277777777778,38.36027777777778],[-112.50472222222223,38.36944444444445],[-112.33416666666666,38.37888888888889],[-112.16444444444446,38.3875],[-111.99694444444445,38.39111111111111],[-111.93222222222222,38.3925],[-111.82833333333333,38.39472222222222],[-111.76305555555555,38.396388888888886],[-111.59388888888888,38.400277777777774],[-111.49333333333334,38.40222222222222],[-111.4263888888889,38.40361111111111],[-111.32638888888889,38.405833333333334],[-111.25972222222222,38.40694444444444],[-111.15722222222223,38.40888888888889],[-111.09055555555555,38.41],[-110.99111111111111,38.411944444444444],[-110.92416666666666,38.41305555555555],[-110.83555555555554,38.414722222222224],[-110.76805555555555,38.41583333333333],[-110.66722222222222,38.41694444444444],[-110.59972222222221,38.41888888888889],[-110.46444444444445,38.4225],[-110.43083333333334,38.42333333333333],[-110.29388888888889,38.42666666666666],[-110.2611111111111,38.42722222222222],[-110.12305555555555,38.43],[-110.08999999999999,38.43055555555555],[-109.95333333333333,38.43333333333333],[-109.91972222222223,38.43388888888889],[-109.78472222222221,38.436388888888885],[-109.74888888888889,38.43694444444444],[-109.6125,38.43944444444444],[-109.57833333333333,38.44],[-109.44277777777778,38.44194444444444],[-109.4113888888889,38.44222222222222],[-109.27361111111111,38.443888888888885],[-109.23972222222223,38.44444444444444],[-109.10472222222222,38.44611111111111],[-109.07055555555556,38.44638888888888],[-108.9363888888889,38.44777777777777],[-108.9025,38.448055555555555],[-108.7675,38.44944444444444],[-108.73361111111112,38.44972222222222],[-108.56666666666666,38.44305555555555],[-108.40111111111112,38.42305555555555],[-108.2025,38.39944444444444],[-108.04805555555555,38.355000000000004],[-107.89500000000001,38.301944444444445],[-107.7425,38.25194444444445],[-107.5786111111111,38.23277777777778],[-107.41416666666667,38.21277777777778],[-107.24944444444445,38.19305555555555],[-107.08777777777777,38.17333333333333],[-106.92166666666667,38.15277777777778],[-106.7538888888889,38.13166666666667],[-106.59166666666667,38.111111111111114],[-106.42916666666667,38.09],[-106.28305555555555,38.071111111111115],[-106.11777777777777,38.04944444444444],[-105.95527777777778,38.02777777777778],[-105.79305555555555,38.00611111111111],[-105.63055555555555,37.98416666666667],[-105.46694444444445,37.961666666666666],[-105.30638888888889,37.93944444444444],[-105.14611111111111,37.91722222222222],[-104.98416666666667,37.894444444444446],[-104.82583333333334,37.87166666666667],[-104.75583333333333,37.86027777777778],[-104.66583333333334,37.84861111111111],[-104.59666666666666,37.83694444444445],[-104.50527777777778,37.825],[-104.43666666666667,37.81666666666667],[-104.34277777777777,37.80138888888889],[-104.27527777777777,37.79055555555556],[-104.18111111111112,37.77722222222222],[-104.11833333333333,37.7675],[-104.01888888888888,37.7525],[-103.95583333333333,37.74305555555556],[-103.85916666666667,37.72833333333333],[-103.7975,37.71888888888889],[-103.69333333333334,37.70305555555556],[-103.63861111111112,37.69444444444444],[-103.535,37.67833333333333],[-103.48,37.669999999999995],[-103.37472222222222,37.65333333333333],[-103.32305555555556,37.64527777777778],[-103.21694444444445,37.62861111111111],[-103.16555555555556,37.62027777777778],[-103.05527777777777,37.60305555555556],[-103.00305555555556,37.594722222222224],[-102.89527777777778,37.5775],[-102.84333333333333,37.56916666666667],[-102.73388888888888,37.55138888888889],[-102.68555555555555,37.54361111111111],[-102.57833333333333,37.52611111111111],[-102.53,37.518055555555556],[-102.435,37.5025],[-102.37416666666665,37.492222222222225],[-102.2775,37.47638888888889],[-102.21666666666667,37.46611111111111],[-102.11999999999999,37.44972222222222],[-102.05777777777777,37.439166666666665],[-101.96361111111112,37.42333333333333],[-101.9038888888889,37.41305555555555],[-101.80583333333333,37.396388888888886],[-101.7475,37.38638888888889],[-101.5911111111111,37.35944444444445],[-101.4375,37.33277777777778],[-101.28166666666667,37.305277777777775],[-101.12777777777777,37.27777777777778],[-100.9413888888889,37.24444444444445],[-100.78388888888888,37.21611111111111],[-100.63138888888888,37.18861111111111],[-100.47361111111111,37.16],[-100.32083333333333,37.13194444444444],[-100.16444444444446,37.10277777777778],[-100.00833333333334,37.07361111111111],[-99.84944444444444,37.04361111111111],[-99.68916666666667,37.013333333333335],[-99.53166666666667,36.98305555555556],[-99.375,36.95277777777778],[-99.25166666666667,36.928888888888885],[-99.09722222222221,36.89861111111111],[-98.94305555555556,36.867777777777775],[-98.78555555555555,36.836666666666666],[-98.62916666666666,36.805277777777775],[-98.47333333333333,36.77388888888889],[-98.31638888888888,36.742222222222225],[-98.16166666666668,36.71027777777778],[-98.00527777777778,36.67805555555555],[-97.85,36.645833333333336],[-97.68777777777778,36.61194444444445],[-97.60944444444443,36.59277777777778],[-97.53277777777778,36.57944444444445],[-97.45305555555557,36.56027777777778],[-97.38833333333334,36.54861111111111],[-97.29666666666667,36.52722222222222],[-97.23305555555555,36.51555555555556],[-97.1413888888889,36.493611111111115],[-97.07805555555555,36.48222222222223],[-96.985,36.461666666666666],[-96.9213888888889,36.44833333333333],[-96.83055555555555,36.42666666666666],[-96.76722222222222,36.414722222222224],[-96.67500000000001,36.39361111111111],[-96.61277777777777,36.38111111111111],[-96.50611111111111,36.3575],[-96.4588888888889,36.346944444444446],[-96.36888888888888,36.32694444444445],[-96.30638888888889,36.31305555555555],[-96.21583333333334,36.29277777777778],[-96.15222222222222,36.27861111111111],[-96.06333333333333,36.25833333333333],[-96,36.244166666666665],[-95.91111111111111,36.22416666666667],[-95.84805555555555,36.209722222222226],[-95.7611111111111,36.18583333333333],[-95.69444444444444,36.160555555555554],[-95.61777777777777,36.13111111111111],[-95.55055555555555,36.105555555555554],[-95.47444444444444,36.07666666666667],[-95.38916666666667,36.04388888888889],[-95.33083333333333,36.02166666666667],[-95.24555555555555,35.98888888888889],[-95.18777777777778,35.96666666666667],[-95.10138888888888,35.93333333333333],[-95.04555555555555,35.91138888888889],[-94.95861111111111,35.87777777777778],[-94.90194444444445,35.85583333333334],[-94.81444444444445,35.82166666666667],[-94.76,35.80027777777777],[-94.67222222222223,35.76611111111111],[-94.615,35.743611111111115],[-94.52805555555555,35.70944444444445],[-94.47333333333333,35.68805555555555],[-94.41611111111112,35.665277777777774],[-94.32416666666666,35.62888888888889],[-94.18333333333334,35.57277777777778],[-94.04277777777777,35.51694444444444],[-93.90305555555557,35.458333333333336],[-93.76555555555555,35.39611111111111],[-93.62805555555555,35.33527777777778],[-93.48916666666666,35.27333333333333],[-93.35388888888889,35.21277777777778],[-93.22,35.15277777777778],[-93.05694444444444,35.07916666666667],[-92.92305555555556,35.01861111111111],[-92.78694444444444,34.95638888888889],[-92.65361111111112,34.89555555555555],[-92.52055555555556,34.83444444444444],[-92.38694444444445,34.772777777777776],[-92.25611111111111,34.712500000000006],[-92.12555555555555,34.653055555555554],[-91.99083333333333,34.59777777777778],[-91.85527777777777,34.54055555555556],[-91.7213888888889,34.48388888888889],[-91.58749999999999,34.42666666666666],[-91.4538888888889,34.36972222222222],[-91.325,34.31444444444444],[-91.19111111111111,34.25694444444444],[-91.05833333333334,34.197222222222216],[-90.9325,34.12361111111111],[-90.80555555555556,34.05027777777777],[-90.76027777777777,34.02472222222222],[-90.67888888888889,33.97666666666667],[-90.63388888888889,33.94944444444444],[-90.5525,33.90277777777778],[-90.50555555555556,33.87361111111111],[-90.42527777777778,33.82833333333333],[-90.37833333333333,33.79888888888889],[-90.29694444444445,33.75277777777778],[-90.25222222222222,33.72361111111111],[-90.16888888888889,33.67722222222222],[-90.12972222222221,33.65083333333333],[-90.00416666666666,33.575833333333335],[-89.91472222222222,33.526666666666664],[-89.87166666666666,33.5],[-89.78555555555555,33.44944444444444],[-89.74555555555555,33.42305555555555],[-89.65694444444445,33.3725],[-89.61777777777777,33.347500000000004],[-89.53,33.296388888888885],[-89.49055555555556,33.27111111111111],[-89.39972222222222,33.217777777777776],[-89.35083333333333,33.18555555555555],[-89.27333333333333,33.14138888888889],[-89.235,33.11833333333333],[-89.14472222222223,33.06333333333333],[-89.10916666666667,33.04194444444444],[-89.01833333333333,32.986666666666665],[-88.98333333333333,32.965],[-88.89111111111112,32.90888888888889],[-88.85777777777777,32.888333333333335],[-88.76472222222222,32.831388888888895],[-88.73166666666667,32.81083333333333],[-88.63777777777779,32.753055555555555],[-88.58027777777778,32.717777777777776],[-88.51277777777777,32.67611111111111],[-88.47694444444444,32.65416666666667],[-88.38555555555556,32.597500000000004],[-88.35083333333333,32.575833333333335],[-88.30222222222221,32.54611111111111],[-88.26194444444444,32.52027777777778],[-88.17722222222223,32.468333333333334],[-88.15222222222222,32.452222222222225],[-88.10194444444444,32.420833333333334],[-88.05305555555556,32.39],[-88.02722222222222,32.37416666666667],[-87.97944444444444,32.34388888888889],[-87.92972222222222,32.312777777777775],[-87.9038888888889,32.29666666666667],[-87.85472222222222,32.26555555555556],[-87.80083333333333,32.23166666666667],[-87.77972222222222,32.218333333333334],[-87.73083333333334,32.1875],[-87.6825,32.15694444444444],[-87.6575,32.14111111111111],[-87.58833333333332,32.097500000000004],[-87.56388888888888,32.081944444444446],[-87.46638888888889,32.019999999999996],[-87.43694444444445,32.00138888888889],[-87.34444444444443,31.9425],[-87.31388888888888,31.923055555555557],[-87.22194444444445,31.864444444444445],[-87.19833333333334,31.849166666666665],[-87.09972222222221,31.785833333333336],[-87.07583333333334,31.770555555555553],[-86.97805555555556,31.70777777777778],[-86.95277777777778,31.691388888888888],[-86.8561111111111,31.629166666666666],[-86.83277777777778,31.61416666666667],[-86.735,31.550833333333333],[-86.71000000000001,31.534722222222225],[-86.61388888888888,31.47222222222222],[-86.59083333333332,31.45722222222222],[-86.49277777777777,31.393333333333334],[-86.47,31.378611111111113],[-86.34944444444444,31.299722222222226],[-86.2525,31.23638888888889],[-86.22722222222222,31.21972222222222],[-86.10694444444444,31.140555555555554],[-85.98666666666666,31.06138888888889],[-85.8586111111111,30.976388888888888],[-85.73777777777778,30.89638888888889],[-85.61805555555554,30.816666666666666],[-85.56138888888889,30.77777777777778],[-85.49888888888889,30.737222222222222],[-85.37972222222221,30.65722222222222],[-85.32444444444444,30.621666666666666],[-85.26055555555556,30.5775],[-85.20611111111111,30.540000000000003],[-85.1413888888889,30.496944444444445],[-85.0886111111111,30.461944444444445],[-85.02444444444444,30.41777777777778],[-84.9713888888889,30.380833333333335],[-84.90527777777778,30.336944444444445],[-84.85305555555556,30.303055555555556],[-84.78666666666666,30.25638888888889],[-84.7363888888889,30.221944444444443],[-84.67055555555557,30.177222222222223],[-84.62055555555555,30.141666666666666],[-84.55194444444444,30.09638888888889],[-84.5025,30.0625],[-84.43555555555555,30.016111111111112],[-84.3863888888889,29.982499999999998],[-84.31944444444444,29.93638888888889],[-84.27416666666666,29.899166666666666],[-84.22194444444445,29.8375],[-84.18444444444445,29.796111111111113],[-84.12694444444443,29.736944444444447],[-84.09027777777777,29.698055555555555],[-84.03388888888888,29.638333333333332],[-83.98055555555555,29.58138888888889],[-83.88861111111112,29.483333333333334],[-83.85138888888888,29.44361111111111],[-83.7961111111111,29.384166666666665],[-83.76027777777777,29.34583333333333],[-83.7063888888889,29.2875],[-83.66972222222223,29.248055555555556],[-83.61472222222221,29.18888888888889],[-83.57805555555555,29.149444444444445],[-83.52305555555556,29.090277777777775],[-83.48666666666666,29.050555555555555],[-83.43166666666667,28.99138888888889],[-83.33999999999999,28.891944444444444],[-83.30194444444444,28.850555555555555],[-83.24833333333333,28.7925],[-83.15027777777779,28.685555555555556],[-83.11888888888888,28.65083333333333],[-83.05805555555555,28.584444444444443],[-83.02777777777777,28.551111111111112],[-82.96666666666667,28.484444444444446],[-82.93666666666667,28.45138888888889],[-82.87527777777777,28.384166666666665],[-82.8386111111111,28.343333333333334],[-82.78527777777778,28.284722222222225],[-82.74805555555555,28.24361111111111],[-82.69333333333334,28.183333333333334],[-82.65722222222223,28.143333333333334],[-82.60333333333332,28.083888888888886],[-82.56694444444445,28.043333333333337],[-82.52,27.980277777777776],[-82.50222222222222,27.93027777777778],[-82.47611111111111,27.858333333333334],[-82.44694444444445,27.81388888888889],[-82.39555555555556,27.751944444444444],[-82.36083333333333,27.710277777777776],[-82.31166666666667,27.651944444444442],[-82.2286111111111,27.552777777777777],[-82.19472222222223,27.514722222222222],[-82.14416666666668,27.459444444444443],[-82.11055555555555,27.422777777777778],[-82.05666666666666,27.373333333333335],[-81.96222222222222,27.291944444444447],[-81.92527777777778,27.26],[-81.86916666666666,27.211111111111112],[-81.83222222222221,27.179166666666667],[-81.7775,27.131944444444446],[-81.68305555555555,27.05],[-81.57888888888888,26.96],[-81.52527777777777,26.861666666666668],[-81.47833333333334,26.752777777777776],[-81.43444444444445,26.651666666666664],[-81.38805555555557,26.54416666666667],[-81.3475,26.449444444444445],[-81.2775,26.372222222222224],[-81.19194444444445,26.308333333333334],[-81.14027777777778,26.26972222222222],[-81.10805555555555,26.244722222222222],[-81.0286111111111,26.18305555555556],[-80.94611111111111,26.140555555555554],[-80.85722222222222,26.126944444444444],[-80.76805555555555,26.116666666666667],[-80.67833333333334,26.116666666666667],[-80.65861111111111,26.115555555555556],[-80.58722222222222,26.116944444444446],[-80.5775,26.116666666666667],[-80.49805555555555,26.11722222222222],[-80.48,26.116666666666667],[-80.40972222222223,26.121944444444445],[-80.39916666666667,26.121944444444445],[-80.32055555555556,26.131666666666668],[-80.23111111111112,26.141111111111112],[-80.14555555555556,26.15083333333333],[-80.13,26.15138888888889],[-80.06222222222222,26.15361111111111],[-80.03722222222223,26.153055555555554],[-79.98333333333333,26.153055555555554],[-79.92305555555556,26.135833333333334],[-79.9213888888889,26.124444444444446],[-79.93805555555556,26.091388888888886],[-79.94861111111112,26.08722222222222],[-79.99194444444444,26.075555555555557],[-80.00361111111111,26.075555555555557],[-80.06166666666667,26.07611111111111],[-80.10083333333333,26.075833333333332],[-80.14,26.076666666666668]],"type":"LineString"}
}
