{
  "id": 2031947363,
  "type": "Feature",
  "properties": {
    "geom:area": 0,
    "geom:bbox": "-122.397160,37.636040,-121.446050,38.508690",
    "geom:latitude": 38.056146179552464,
    "geom:longitude": -121.91398425610362,
    "src:alt_label": "swim-takeoff",
    "src:geom": "swim",
    "swim:elevations": [
      538,
      737,
      935,
      1202,
      1944,
      2215,
      2788,
      2907,
      3352,
      3597,
      3744,
      4502,
      4610,
      5326,
      5724,
      5894,
      5992,
      6545,
      6809,
      7096,
      7140,
      7275
    ],
    "swim:geom": "takeoff",
    "swim:timestamps": [
      1784829715,
      1784829740,
      1784829758,
      1784829793,
      1784829864,
      1784829881,
      1784829923,
      1784829933,
      1784829983,
      1784830018,
      1784830031,
      1784830099,
      1784830112,
      1784830185,
      1784830226,
      1784830243,
      1784830255,
      1784830319,
      1784830356,
      1784830391,
      1784830398,
      1784830417
    ],
    "wof:geomhash": "48468dfafd6a9acfd10bdd6465a7c224",
    "wof:id": 2031947363,
    "wof:repo": "sfomuseum-data-flights-2026-07"
  },
  "bbox": [
    -122.39716,
    37.63604,
    -121.44605,
    38.50869
  ],
  "geometry": {"coordinates":[[-122.39716,37.63604],[-122.38941,37.65199],[-122.37272,37.65757],[-122.3378,37.67045],[-122.23983,37.70782],[-122.21517,37.71836],[-122.17342,37.76336],[-122.16228,37.77555],[-122.10675,37.83615],[-122.06289,37.88503],[-122.04639,37.9034],[-121.9546,38.00493],[-121.93673,38.02464],[-121.83371,38.13763],[-121.77278,38.20418],[-121.74741,38.23184],[-121.73016,38.25067],[-121.63179,38.35758],[-121.57176,38.42236],[-121.50258,38.47419],[-121.48793,38.48312],[-121.44605,38.50869]],"type":"LineString"}
}
