{
  "id": 2031976921,
  "type": "Feature",
  "properties": {
    "geom:area": 0,
    "geom:bbox": "-122.755060,37.283380,-122.146550,37.611570",
    "geom:latitude": 37.416940243524635,
    "geom:longitude": -122.38440552655777,
    "src:alt_label": "swim-approach",
    "src:geom": "swim",
    "swim:elevations": [
      2895,
      2821,
      2741,
      2681,
      2576,
      2435,
      2438,
      2337,
      2286,
      2195,
      2172,
      2042,
      1577,
      1405,
      1373,
      1373,
      1353,
      1222,
      1199,
      1168,
      1076,
      972,
      795,
      700,
      575,
      459,
      335,
      241,
      125,
      55
    ],
    "swim:geom": "approach",
    "swim:timestamps": [
      1785091545,
      1785091570,
      1785091602,
      1785091625,
      1785091675,
      1785091734,
      1785091749,
      1785091796,
      1785091811,
      1785091830,
      1785091833,
      1785091852,
      1785091905,
      1785091943,
      1785091958,
      1785091964,
      1785091993,
      1785092011,
      1785092015,
      1785092019,
      1785092027,
      1785092041,
      1785092079,
      1785092100,
      1785092121,
      1785092147,
      1785092184,
      1785092218,
      1785092248,
      1785092273
    ],
    "wof:geomhash": "4453fc0976f7225c2bcc1252a16b5e94",
    "wof:id": 2031976921,
    "wof:repo": "sfomuseum-data-flights-2026-07"
  },
  "bbox": [
    -122.75506,
    37.28338,
    -122.14655,
    37.61157
  ],
  "geometry": {"coordinates":[[-122.75506,37.28338],[-122.71168,37.29308],[-122.6575,37.30552],[-122.61901,37.31445],[-122.54142,37.33248],[-122.45204,37.35315],[-122.4295,37.35836],[-122.35949,37.37443],[-122.33651,37.3797],[-122.30978,37.3858],[-122.305,37.3869],[-122.28005,37.39258],[-122.21855,37.422],[-122.18276,37.45083],[-122.16876,37.46219],[-122.16292,37.46697],[-122.14655,37.49313],[-122.15393,37.50994],[-122.15624,37.51288],[-122.15912,37.51636],[-122.16478,37.52282],[-122.17503,37.53298],[-122.21023,37.55176],[-122.23017,37.56013],[-122.24954,37.56826],[-122.27131,37.57749],[-122.29561,37.58769],[-122.31711,37.59671],[-122.3366,37.60495],[-122.35242,37.61157]],"type":"LineString"}
}
