{
  "id": 2032049855,
  "type": "Feature",
  "properties": {
    "geom:area": 0,
    "geom:bbox": "-122.340556,37.491111,-74.233333,41.003611",
    "geom:latitude": 39.99707013217527,
    "geom:longitude": -98.3814806981884,
    "src:alt_label": "swim-path",
    "src:geom": "swim",
    "swim:altitudes": [
      "024",
      "046",
      "074",
      "085",
      "100",
      "106",
      "126",
      "151",
      "150",
      "193",
      "213",
      "231",
      "249",
      "268",
      "281",
      "297",
      "307",
      "318",
      "333",
      "349",
      "357",
      "360C",
      "360C",
      "360C",
      "360C",
      "360C",
      "360C",
      "360C",
      "360C",
      "360C",
      "360C",
      "360C",
      "360C",
      "360C",
      "360C",
      "360C",
      "360C",
      "360C",
      "360C",
      "360C",
      "360C",
      "360C",
      "360C",
      "360C",
      "360C",
      "360C",
      "360C",
      "360C",
      "360C",
      "360C",
      "360C",
      "360C",
      "360C",
      "360C",
      "360C",
      "360C",
      "360C",
      "360C",
      "360C",
      "360C",
      "360C",
      "360C",
      "360C",
      "360C",
      "360C",
      "360C",
      "360C",
      "360C",
      "360C",
      "360C",
      "360C",
      "360C",
      "360C",
      "360C",
      "360C",
      "360C",
      "360C",
      "360C",
      "360C",
      "360C",
      "360C",
      "360C",
      "360C",
      "360C",
      "360C",
      "360C",
      "360C",
      "360C",
      "360C",
      "360C",
      "360C",
      "360C",
      "360C",
      "360C",
      "360C",
      "360C",
      "360C",
      "360C",
      "360C",
      "360C",
      "360C",
      "360C",
      "360C",
      "360C",
      "360C",
      "360C",
      "360C",
      "360C",
      "360C",
      "360C",
      "360C",
      "360C",
      "360C",
      "360C",
      "360C",
      "360C",
      "360C",
      "360C",
      "360C",
      "360C",
      "360C",
      "360C",
      "360C",
      "360C",
      "360C",
      "360C",
      "360C",
      "360C",
      "360C",
      "360C",
      "360C",
      "360C",
      "360C",
      "360C",
      "360C",
      "360C",
      "360C",
      "360C",
      "360C",
      "360C",
      "360C",
      "360C",
      "360C",
      "360C",
      "360C",
      "360C",
      "360C",
      "360C",
      "360C",
      "360C",
      "360C",
      "360C",
      "360C",
      "360C",
      "360C",
      "360C",
      "360C",
      "360C",
      "360C",
      "360C",
      "360C",
      "360C",
      "360C",
      "360C",
      "360C",
      "360C",
      "360C",
      "360C",
      "360C",
      "360C",
      "360C",
      "360C",
      "360C",
      "360C",
      "360C",
      "360C",
      "360C",
      "360C",
      "360C",
      "360C",
      "360C",
      "360C",
      "360C",
      "360C",
      "360C",
      "360C",
      "360C",
      "360C",
      "360C",
      "360C",
      "360C",
      "360C",
      "360C",
      "360C",
      "360C",
      "360C",
      "360C",
      "360C",
      "360C",
      "360C",
      "360C",
      "360C",
      "360C",
      "360C",
      "360C",
      "360C",
      "360C",
      "360C",
      "360C",
      "360C",
      "360C",
      "360C",
      "360C",
      "360C",
      "360C",
      "360C",
      "360C",
      "360C",
      "360C",
      "360C",
      "360C",
      "360C",
      "360C",
      "360",
      "371",
      "380C",
      "380C",
      "380C",
      "380C",
      "380C",
      "380C",
      "380C",
      "380C",
      "380C",
      "380C",
      "380C",
      "380C",
      "380C",
      "380C",
      "380C",
      "380C",
      "380C",
      "380C",
      "380C",
      "380C",
      "380C",
      "380C",
      "380C",
      "380C",
      "380C",
      "380C",
      "380C",
      "380C",
      "380C",
      "380C",
      "380C",
      "380C",
      "380C",
      "380C",
      "380C",
      "380C",
      "380C",
      "380C",
      "380C",
      "380C",
      "380C",
      "380C",
      "380C",
      "380C",
      "380C",
      "380C",
      "380C",
      "380C",
      "380C",
      "380C",
      "380C",
      "380C",
      "380C",
      "380C",
      "380C",
      "380C",
      "380C",
      "380C",
      "380C",
      "380C",
      "380C",
      "380C",
      "380C",
      "380C",
      "380C",
      "380C",
      "380C",
      "380C",
      "380C",
      "380C",
      "380C",
      "380C",
      "380C",
      "380C",
      "380C",
      "380C",
      "380C",
      "380C",
      "380C",
      "380C",
      "380C",
      "380C",
      "380C",
      "380C",
      "380C",
      "380C",
      "380C",
      "380C",
      "380C",
      "380C",
      "380C",
      "380C",
      "380C",
      "380C",
      "380C",
      "380C",
      "380C",
      "380C",
      "380C",
      "380C",
      "380C",
      "380C",
      "380C",
      "380C",
      "380C",
      "380C",
      "380C",
      "380C",
      "380C",
      "380C",
      "380C",
      "380C",
      "380C",
      "380C",
      "380C",
      "380C",
      "380C",
      "380C",
      "380C",
      "380C",
      "380C",
      "380C",
      "380C",
      "380C",
      "380C",
      "380C",
      "380C",
      "380C",
      "380C",
      "380C",
      "380C",
      "380C",
      "380C",
      "380C",
      "380C",
      "380C",
      "380C",
      "380C",
      "380C",
      "380C",
      "380C",
      "380C",
      "380C",
      "380C",
      "380C",
      "380C",
      "380C",
      "380C",
      "380C",
      "380C",
      "380C",
      "380C",
      "380C",
      "380C",
      "380C",
      "380",
      "380",
      "376",
      "374",
      "367",
      "362",
      "355",
      "353",
      "346",
      "345",
      "337",
      "335",
      "327",
      "326",
      "320C",
      "320C",
      "320C",
      "320C",
      "320C",
      "320C",
      "320C",
      "320C",
      "320C",
      "320C",
      "320C",
      "320C",
      "320C",
      "320C",
      "320C",
      "320C",
      "320C",
      "320C",
      "320C",
      "320C",
      "320C",
      "314",
      "302",
      "295",
      "291",
      "277",
      "256",
      "239",
      "219",
      "197",
      "179",
      "157",
      "138",
      "122",
      "106",
      "102",
      "090",
      "080",
      "070",
      "041",
      "030",
      "020",
      "011",
      "004"
    ],
    "swim:geom": "path",
    "swim:speeds": [
      230,
      259,
      271,
      271,
      283,
      296,
      336,
      355,
      368,
      395,
      417,
      435,
      449,
      454,
      461,
      473,
      487,
      499,
      500,
      463,
      458,
      453,
      451,
      449,
      449,
      449,
      448,
      448,
      463,
      464,
      464,
      464,
      464,
      465,
      465,
      465,
      466,
      466,
      465,
      465,
      464,
      464,
      464,
      463,
      462,
      460,
      459,
      457,
      456,
      454,
      453,
      452,
      452,
      452,
      452,
      452,
      451,
      450,
      450,
      450,
      449,
      449,
      447,
      448,
      447,
      447,
      447,
      447,
      446,
      447,
      447,
      448,
      448,
      449,
      449,
      449,
      450,
      450,
      450,
      450,
      450,
      450,
      450,
      450,
      450,
      449,
      449,
      447,
      450,
      443,
      442,
      444,
      443,
      444,
      443,
      443,
      443,
      443,
      443,
      443,
      443,
      443,
      443,
      444,
      444,
      445,
      446,
      446,
      447,
      447,
      447,
      447,
      447,
      448,
      447,
      447,
      447,
      446,
      446,
      446,
      446,
      446,
      446,
      445,
      445,
      444,
      444,
      443,
      442,
      440,
      439,
      437,
      436,
      435,
      435,
      435,
      436,
      437,
      437,
      437,
      437,
      438,
      438,
      440,
      441,
      441,
      443,
      446,
      444,
      444,
      446,
      445,
      446,
      445,
      446,
      445,
      445,
      444,
      444,
      443,
      443,
      442,
      443,
      442,
      442,
      441,
      441,
      440,
      440,
      439,
      438,
      438,
      438,
      438,
      438,
      438,
      439,
      440,
      440,
      440,
      439,
      436,
      435,
      434,
      432,
      431,
      430,
      429,
      429,
      428,
      427,
      428,
      428,
      429,
      431,
      432,
      434,
      434,
      432,
      431,
      431,
      430,
      430,
      430,
      430,
      431,
      430,
      431,
      431,
      432,
      432,
      433,
      433,
      434,
      434,
      435,
      434,
      434,
      435,
      434,
      433,
      433,
      433,
      432,
      432,
      424,
      421,
      420,
      418,
      416,
      414,
      416,
      413,
      416,
      413,
      416,
      413,
      416,
      413,
      414,
      415,
      416,
      416,
      416,
      417,
      416,
      418,
      419,
      417,
      421,
      418,
      422,
      418,
      423,
      424,
      421,
      425,
      421,
      425,
      421,
      426,
      421,
      426,
      425,
      427,
      427,
      429,
      427,
      429,
      428,
      430,
      431,
      431,
      433,
      432,
      435,
      437,
      437,
      437,
      439,
      438,
      439,
      438,
      438,
      437,
      438,
      438,
      438,
      438,
      438,
      439,
      438,
      440,
      438,
      441,
      440,
      442,
      441,
      442,
      441,
      443,
      441,
      443,
      447,
      443,
      445,
      444,
      445,
      445,
      446,
      446,
      447,
      447,
      448,
      449,
      449,
      450,
      450,
      450,
      450,
      449,
      450,
      450,
      452,
      452,
      455,
      456,
      456,
      453,
      451,
      452,
      452,
      453,
      453,
      455,
      456,
      457,
      457,
      458,
      458,
      458,
      459,
      459,
      460,
      460,
      460,
      460,
      460,
      460,
      460,
      460,
      461,
      461,
      461,
      461,
      461,
      462,
      462,
      463,
      461,
      463,
      461,
      463,
      461,
      463,
      462,
      463,
      463,
      464,
      465,
      464,
      465,
      465,
      465,
      464,
      464,
      464,
      463,
      463,
      463,
      463,
      463,
      452,
      446,
      437,
      435,
      433,
      431,
      421,
      420,
      414,
      412,
      409,
      408,
      401,
      400,
      402,
      403,
      403,
      403,
      408,
      408,
      409,
      410,
      412,
      414,
      415,
      415,
      401,
      400,
      399,
      399,
      400,
      401,
      401,
      398,
      405,
      399,
      401,
      391,
      409,
      414,
      413,
      394,
      382,
      363,
      358,
      347,
      341,
      267,
      258,
      241,
      235,
      219,
      224,
      184,
      158,
      141
    ],
    "swim:timestamps": [
      1785525760,
      1785525820,
      1785525880,
      1785525907,
      1785525940,
      1785525967,
      1785526027,
      1785526087,
      1785526147,
      1785526268,
      1785526328,
      1785526388,
      1785526448,
      1785526508,
      1785526564,
      1785526628,
      1785526688,
      1785526744,
      1785526808,
      1785526864,
      1785526929,
      1785526984,
      1785527045,
      1785527109,
      1785527169,
      1785527225,
      1785527289,
      1785527345,
      1785527405,
      1785527465,
      1785527525,
      1785527585,
      1785527646,
      1785527706,
      1785527766,
      1785527826,
      1785527886,
      1785527946,
      1785528006,
      1785528066,
      1785528126,
      1785528186,
      1785528246,
      1785528367,
      1785528427,
      1785528487,
      1785528547,
      1785528607,
      1785528667,
      1785528727,
      1785528787,
      1785528847,
      1785528908,
      1785528968,
      1785529028,
      1785529088,
      1785529148,
      1785529184,
      1785529208,
      1785529244,
      1785529268,
      1785529304,
      1785529328,
      1785529364,
      1785529388,
      1785529424,
      1785529448,
      1785529484,
      1785529509,
      1785529544,
      1785529569,
      1785529604,
      1785529629,
      1785529689,
      1785529725,
      1785529749,
      1785529809,
      1785529869,
      1785529905,
      1785529929,
      1785529965,
      1785529989,
      1785530049,
      1785530109,
      1785530166,
      1785530205,
      1785530230,
      1785530266,
      1785530286,
      1785530346,
      1785530406,
      1785530446,
      1785530466,
      1785530506,
      1785530526,
      1785530566,
      1785530586,
      1785530626,
      1785530646,
      1785530686,
      1785530706,
      1785530746,
      1785530767,
      1785530827,
      1785530887,
      1785530947,
      1785530987,
      1785531047,
      1785531067,
      1785531107,
      1785531127,
      1785531167,
      1785531227,
      1785531247,
      1785531287,
      1785531307,
      1785531347,
      1785531367,
      1785531428,
      1785531488,
      1785531528,
      1785531548,
      1785531588,
      1785531648,
      1785531668,
      1785531708,
      1785531728,
      1785531768,
      1785531788,
      1785531848,
      1785531888,
      1785531908,
      1785531948,
      1785532029,
      1785532069,
      1785532089,
      1785532149,
      1785532189,
      1785532209,
      1785532249,
      1785532269,
      1785532309,
      1785532329,
      1785532389,
      1785532441,
      1785532449,
      1785532509,
      1785532522,
      1785532561,
      1785532569,
      1785532582,
      1785532629,
      1785532642,
      1785532682,
      1785532702,
      1785532742,
      1785532762,
      1785532802,
      1785532819,
      1785532862,
      1785532879,
      1785532922,
      1785532939,
      1785532982,
      1785532999,
      1785533042,
      1785533059,
      1785533102,
      1785533119,
      1785533162,
      1785533183,
      1785533222,
      1785533239,
      1785533282,
      1785533299,
      1785533343,
      1785533360,
      1785533420,
      1785533480,
      1785533540,
      1785533600,
      1785533664,
      1785533724,
      1785533784,
      1785533840,
      1785533904,
      1785533964,
      1785534024,
      1785534084,
      1785534144,
      1785534204,
      1785534264,
      1785534324,
      1785534385,
      1785534445,
      1785534505,
      1785534559,
      1785534619,
      1785534625,
      1785534685,
      1785534739,
      1785534745,
      1785534799,
      1785534805,
      1785534859,
      1785534919,
      1785534925,
      1785534979,
      1785535045,
      1785535099,
      1785535106,
      1785535166,
      1785535226,
      1785535280,
      1785535286,
      1785535340,
      1785535346,
      1785535406,
      1785535460,
      1785535520,
      1785535526,
      1785535586,
      1785535646,
      1785535700,
      1785535760,
      1785535820,
      1785535880,
      1785535940,
      1785536001,
      1785536061,
      1785536121,
      1785536172,
      1785536181,
      1785536232,
      1785536241,
      1785536293,
      1785536301,
      1785536353,
      1785536361,
      1785536421,
      1785536481,
      1785536533,
      1785536541,
      1785536593,
      1785536601,
      1785536653,
      1785536661,
      1785536721,
      1785536773,
      1785536782,
      1785536833,
      1785536842,
      1785536893,
      1785536902,
      1785536962,
      1785537013,
      1785537022,
      1785537074,
      1785537082,
      1785537134,
      1785537142,
      1785537194,
      1785537202,
      1785537254,
      1785537262,
      1785537322,
      1785537382,
      1785537434,
      1785537442,
      1785537494,
      1785537502,
      1785537563,
      1785537614,
      1785537623,
      1785537674,
      1785537683,
      1785537734,
      1785537743,
      1785537795,
      1785537803,
      1785537855,
      1785537863,
      1785537923,
      1785537975,
      1785537983,
      1785538035,
      1785538043,
      1785538095,
      1785538103,
      1785538155,
      1785538163,
      1785538215,
      1785538223,
      1785538275,
      1785538284,
      1785538335,
      1785538344,
      1785538395,
      1785538404,
      1785538455,
      1785538464,
      1785538516,
      1785538524,
      1785538576,
      1785538584,
      1785538636,
      1785538644,
      1785538696,
      1785538704,
      1785538756,
      1785538764,
      1785538816,
      1785538824,
      1785538876,
      1785538936,
      1785538944,
      1785539004,
      1785539056,
      1785539065,
      1785539116,
      1785539125,
      1785539176,
      1785539185,
      1785539236,
      1785539245,
      1785539305,
      1785539357,
      1785539365,
      1785539425,
      1785539485,
      1785539537,
      1785539545,
      1785539597,
      1785539605,
      1785539657,
      1785539777,
      1785539837,
      1785539897,
      1785539957,
      1785540078,
      1785540138,
      1785540198,
      1785540258,
      1785540318,
      1785540378,
      1785540438,
      1785540498,
      1785540558,
      1785540618,
      1785540678,
      1785540739,
      1785540799,
      1785540859,
      1785540919,
      1785540979,
      1785541039,
      1785541099,
      1785541159,
      1785541219,
      1785541260,
      1785541279,
      1785541320,
      1785541339,
      1785541380,
      1785541399,
      1785541440,
      1785541459,
      1785541500,
      1785541520,
      1785541560,
      1785541580,
      1785541620,
      1785541640,
      1785541680,
      1785541700,
      1785541740,
      1785541760,
      1785541820,
      1785541861,
      1785541880,
      1785541921,
      1785541940,
      1785541981,
      1785542000,
      1785542041,
      1785542060,
      1785542101,
      1785542120,
      1785542161,
      1785542180,
      1785542221,
      1785542241,
      1785542281,
      1785542301,
      1785542341,
      1785542361,
      1785542421,
      1785542461,
      1785542481,
      1785542541,
      1785542581,
      1785542601,
      1785542642,
      1785542661,
      1785542702,
      1785542762,
      1785542822,
      1785542882,
      1785542942,
      1785543002,
      1785543062,
      1785543122,
      1785543182,
      1785543242,
      1785543302,
      1785543362,
      1785543423,
      1785543467,
      1785543483,
      1785543543,
      1785543603,
      1785543663,
      1785543723,
      1785543783,
      1785543843,
      1785543903,
      1785543963,
      1785544023,
      1785544083,
      1785544143,
      1785544204,
      1785544260,
      1785544324,
      1785544500,
      1785544561,
      1785544621,
      1785544684,
      1785544744
    ],
    "wof:geomhash": "0c07905aa734106072d8d04a6588088c",
    "wof:id": 2032049855,
    "wof:repo": "sfomuseum-data-flights-2026-07"
  },
  "bbox": [
    -122.34055555555555,
    37.49111111111111,
    -74.23333333333333,
    41.00361111111111
  ],
  "geometry": {"coordinates":[[-74.23333333333333,40.63333333333333],[-74.31666666666666,40.666666666666664],[-74.4,40.7],[-74.43722222222223,40.706944444444446],[-74.48333333333333,40.733333333333334],[-74.53361111111111,40.74055555555556],[-74.64194444444445,40.77194444444444],[-74.76277777777777,40.80583333333333],[-74.89361111111111,40.843333333333334],[-75.15722222222223,40.915],[-75.29888888888888,40.8925],[-75.45777777777778,40.85472222222222],[-75.61527777777778,40.81722222222223],[-75.77444444444444,40.778888888888886],[-75.90444444444445,40.74805555555556],[-76.0736111111111,40.70666666666667],[-76.24388888888889,40.664722222222224],[-76.42416666666666,40.60861111111111],[-76.58611111111111,40.56222222222222],[-76.76638888888888,40.56805555555556],[-76.92277777777778,40.590833333333336],[-77.08333333333333,40.63916666666667],[-77.2325,40.68416666666666],[-77.38555555555556,40.730000000000004],[-77.53999999999999,40.775277777777774],[-77.69361111111111,40.81944444444445],[-77.84444444444443,40.86361111111111],[-78.00194444444445,40.90555555555555],[-78.1713888888889,40.918055555555554],[-78.34472222222222,40.92444444444444],[-78.51916666666666,40.93055555555555],[-78.68611111111112,40.93611111111111],[-78.82638888888889,40.940555555555555],[-78.99666666666667,40.945277777777775],[-79.16638888888889,40.95027777777778],[-79.3386111111111,40.95472222222222],[-79.50833333333334,40.95888888888889],[-79.68194444444445,40.96333333333334],[-79.84944444444444,40.966944444444444],[-80.0213888888889,40.970555555555556],[-80.18944444444445,40.97361111111111],[-80.36083333333333,40.977222222222224],[-80.53055555555555,40.98083333333334],[-80.87249999999999,40.98722222222222],[-81.04138888888889,40.98972222222222],[-81.21222222222222,40.9925],[-81.38277777777778,40.99472222222222],[-81.55083333333333,40.99666666666667],[-81.71805555555555,40.998333333333335],[-81.88944444444445,40.999722222222225],[-82.05527777777777,41.00111111111111],[-82.2213888888889,41.00194444444445],[-82.3888888888889,41.00277777777778],[-82.55305555555556,41.003055555555555],[-82.72,41.00333333333333],[-82.8863888888889,41.00333333333333],[-83.05194444444444,41.00333333333333],[-83.13388888888889,41.00361111111111],[-83.21388888888889,41.00277777777778],[-83.29833333333333,41.0025],[-83.37777777777777,41.00222222222222],[-83.49527777777777,41.00138888888889],[-83.54138888888889,41.00111111111111],[-83.66027777777778,41.000277777777775],[-83.70527777777778,41],[-83.82555555555555,40.99916666666667],[-83.86749999999999,40.99861111111111],[-83.98694444444445,40.9975],[-84.05333333333333,40.996944444444445],[-84.1538888888889,40.99583333333334],[-84.21805555555555,40.995],[-84.31305555555555,40.993611111111115],[-84.3825,40.99277777777778],[-84.54638888888888,40.99055555555556],[-84.64555555555556,40.98888888888889],[-84.71083333333334,40.98777777777778],[-84.87888888888888,40.985],[-85.04416666666667,40.981944444444444],[-85.14527777777778,40.980000000000004],[-85.20833333333334,40.980000000000004],[-85.27972222222222,40.97972222222222],[-85.37388888888889,40.97944444444445],[-85.50666666666666,40.97833333333333],[-85.67722222222223,40.97666666666667],[-85.85055555555554,40.975833333333334],[-85.94111111111111,40.973888888888894],[-86.00527777777778,40.973055555555554],[-86.10416666666666,40.97166666666667],[-86.17972222222222,40.97222222222222],[-86.33833333333332,40.96944444444445],[-86.49861111111112,40.966944444444444],[-86.59416666666667,40.96416666666667],[-86.66111111111111,40.96277777777778],[-86.75694444444444,40.961111111111116],[-86.82388888888889,40.961111111111116],[-86.92472222222223,40.95777777777778],[-86.9863888888889,40.95611111111111],[-87.08888888888889,40.95416666666667],[-87.14888888888889,40.95277777777778],[-87.25138888888888,40.95055555555556],[-87.31027777777777,40.94944444444444],[-87.41361111111112,40.946666666666665],[-87.47444444444444,40.945277777777775],[-87.6363888888889,40.94083333333333],[-87.79972222222221,40.936388888888885],[-87.96416666666667,40.931666666666665],[-88.06888888888888,40.92861111111111],[-88.23333333333333,40.92361111111111],[-88.28999999999999,40.92166666666667],[-88.39861111111112,40.918055555555554],[-88.45555555555556,40.91611111111111],[-88.5611111111111,40.9125],[-88.72472222222223,40.906666666666666],[-88.78166666666667,40.90472222222222],[-88.87972222222221,40.901111111111106],[-88.94527777777778,40.89861111111111],[-89.04277777777777,40.89472222222222],[-89.10638888888889,40.89222222222222],[-89.2713888888889,40.885555555555555],[-89.43388888888889,40.87888888888889],[-89.56083333333333,40.873333333333335],[-89.59333333333333,40.871944444444445],[-89.70361111111112,40.867222222222225],[-89.865,40.859722222222224],[-89.91333333333334,40.8575],[-90.02722222222222,40.852222222222224],[-90.07055555555556,40.85],[-90.18861111111111,40.84444444444445],[-90.23222222222222,40.842222222222226],[-90.39166666666668,40.83444444444444],[-90.51694444444445,40.82777777777778],[-90.55027777777778,40.82611111111112],[-90.67555555555556,40.81944444444445],[-90.86416666666666,40.809444444444445],[-90.99111111111111,40.80222222222222],[-91.0261111111111,40.80027777777777],[-91.21694444444445,40.78944444444444],[-91.3111111111111,40.78388888888889],[-91.36555555555555,40.780833333333334],[-91.45916666666668,40.775277777777774],[-91.52416666666666,40.771388888888886],[-91.61888888888888,40.76555555555556],[-91.68444444444445,40.76138888888889],[-91.84583333333333,40.75111111111111],[-91.97583333333334,40.74305555555556],[-92.00805555555556,40.740833333333335],[-92.16888888888889,40.73027777777778],[-92.20944444444444,40.7275],[-92.29861111111111,40.72166666666667],[-92.3325,40.71944444444445],[-92.37055555555555,40.71666666666667],[-92.49305555555556,40.708333333333336],[-92.53444444444445,40.705555555555556],[-92.64888888888889,40.6975],[-92.68166666666667,40.69499999999999],[-92.80888888888889,40.68611111111111],[-92.84222222222222,40.683611111111105],[-92.96944444444445,40.67444444444444],[-93.00027777777778,40.67222222222222],[-93.12944444444443,40.6625],[-93.16166666666668,40.66],[-93.28861111111111,40.650555555555556],[-93.32055555555556,40.64805555555556],[-93.44638888888889,40.638333333333335],[-93.48138888888889,40.635555555555555],[-93.60583333333332,40.62583333333333],[-93.64,40.623333333333335],[-93.76611111111112,40.613055555555555],[-93.79888888888888,40.61055555555556],[-93.92500000000001,40.60027777777778],[-93.98805555555556,40.597500000000004],[-94.08472222222221,40.59777777777778],[-94.11805555555554,40.59805555555556],[-94.24472222222222,40.598888888888894],[-94.27694444444444,40.599444444444444],[-94.40444444444445,40.6],[-94.43777777777778,40.60027777777778],[-94.59861111111111,40.60111111111111],[-94.75777777777778,40.60166666666667],[-94.91805555555555,40.60194444444445],[-95.07972222222222,40.60194444444445],[-95.26722222222222,40.60194444444445],[-95.42611111111111,40.60138888888889],[-95.58444444444444,40.600833333333334],[-95.73777777777778,40.60027777777778],[-95.89972222222222,40.59916666666667],[-96.05555555555556,40.59805555555556],[-96.21472222222222,40.59638888888889],[-96.37138888888889,40.595],[-96.5261111111111,40.59305555555556],[-96.68416666666667,40.59111111111111],[-96.84138888888889,40.58861111111111],[-96.99777777777778,40.586111111111116],[-97.15333333333334,40.583333333333336],[-97.31166666666667,40.580555555555556],[-97.47111111111111,40.577222222222225],[-97.59138888888889,40.57277777777778],[-97.74944444444445,40.57138888888889],[-97.78527777777778,40.57027777777778],[-97.94388888888889,40.56666666666667],[-98.06444444444445,40.56361111111111],[-98.09944444444444,40.5625],[-98.21916666666667,40.559444444444445],[-98.25444444444445,40.55833333333333],[-98.37694444444443,40.555],[-98.53388888888888,40.550555555555555],[-98.56944444444444,40.54944444444444],[-98.68972222222223,40.54555555555555],[-98.885,40.53944444444444],[-99.005,40.53527777777778],[-99.04277777777777,40.534166666666664],[-99.19833333333334,40.52861111111111],[-99.35749999999999,40.522777777777776],[-99.48138888888889,40.518055555555556],[-99.51583333333333,40.51694444444444],[-99.64027777777778,40.511944444444445],[-99.67416666666666,40.510555555555555],[-99.83138888888888,40.50416666666667],[-99.95555555555556,40.49916666666667],[-100.11472222222221,40.492222222222225],[-100.14833333333334,40.490833333333335],[-100.29277777777777,40.48444444444444],[-100.4375,40.47777777777778],[-100.58666666666666,40.470555555555556],[-100.745,40.463055555555556],[-100.89888888888889,40.45527777777778],[-101.0525,40.44166666666666],[-101.20361111111112,40.427499999999995],[-101.35444444444444,40.41305555555555],[-101.50416666666666,40.39833333333333],[-101.65472222222223,40.38333333333333],[-101.77361111111111,40.36833333333333],[-101.80333333333333,40.36833333333333],[-101.92166666666667,40.35416666666667],[-101.95194444444445,40.35333333333333],[-102.07,40.33916666666667],[-102.09972222222221,40.338055555555556],[-102.21777777777778,40.32333333333334],[-102.24888888888889,40.322500000000005],[-102.39750000000001,40.306666666666665],[-102.54944444444445,40.290277777777774],[-102.66638888888889,40.276666666666664],[-102.69861111111112,40.274166666666666],[-102.81805555555555,40.25972222222222],[-102.85166666666666,40.257222222222225],[-102.97111111111111,40.242222222222225],[-103.00111111111111,40.24055555555556],[-103.15305555555557,40.22361111111111],[-103.27416666666666,40.20805555555556],[-103.30388888888889,40.20638888888889],[-103.42500000000001,40.19083333333333],[-103.45583333333333,40.18888888888888],[-103.57583333333334,40.17333333333333],[-103.60722222222222,40.17111111111111],[-103.76027777777777,40.153055555555554],[-103.88277777777778,40.136944444444445],[-103.91166666666668,40.135],[-104.03444444444445,40.11888888888889],[-104.06333333333333,40.11666666666667],[-104.18583333333333,40.10055555555556],[-104.21555555555555,40.09805555555556],[-104.33916666666666,40.0825],[-104.36694444444444,40.07916666666667],[-104.49361111111111,40.06333333333333],[-104.51777777777778,40.06055555555555],[-104.67111111111112,40.04111111111111],[-104.82166666666666,40.02166666666667],[-104.95,40.00416666666667],[-104.97500000000001,40.00194444444445],[-105.10694444444444,39.98305555555556],[-105.12638888888888,39.98222222222223],[-105.28111111111112,39.96194444444445],[-105.41638888888889,39.94361111111111],[-105.435,39.941111111111105],[-105.57083333333333,39.921388888888885],[-105.58944444444444,39.92027777777778],[-105.72805555555556,39.901111111111106],[-105.74555555555555,39.899166666666666],[-105.88388888888889,39.87972222222222],[-105.90111111111112,39.8775],[-106.04027777777777,39.85805555555556],[-106.05888888888889,39.855555555555554],[-106.21333333333334,39.83416666666667],[-106.35027777777778,39.81333333333333],[-106.36638888888888,39.81222222222222],[-106.50555555555556,39.791666666666664],[-106.5375,39.78777777777778],[-106.66111111111111,39.77305555555555],[-106.69333333333334,39.770833333333336],[-106.81916666666666,39.757222222222225],[-106.84861111111111,39.754444444444445],[-106.97500000000001,39.73972222222222],[-107.00333333333333,39.73722222222222],[-107.13305555555554,39.72138888888889],[-107.16222222222223,39.71888888888889],[-107.29138888888889,39.70388888888889],[-107.3236111111111,39.70055555555556],[-107.44805555555556,39.68583333333333],[-107.48111111111112,39.68222222222222],[-107.60638888888889,39.66777777777777],[-107.63222222222221,39.664722222222224],[-107.76333333333334,39.64833333333333],[-107.79333333333334,39.645833333333336],[-107.9238888888889,39.63],[-107.95166666666667,39.626666666666665],[-108.08138888888888,39.611111111111114],[-108.11305555555555,39.60722222222223],[-108.23694444444445,39.592222222222226],[-108.27027777777778,39.588055555555556],[-108.39555555555556,39.572500000000005],[-108.43305555555555,39.56777777777778],[-108.56027777777777,39.55166666666666],[-108.59194444444444,39.547777777777775],[-108.72361111111111,39.53111111111111],[-108.88777777777779,39.51],[-108.91916666666667,39.50611111111111],[-109.08055555555555,39.485],[-109.20777777777778,39.468611111111116],[-109.24027777777778,39.46416666666667],[-109.36611111111111,39.4475],[-109.39722222222223,39.44333333333333],[-109.52527777777777,39.42638888888889],[-109.55722222222222,39.42194444444444],[-109.68611111111112,39.404444444444444],[-109.71861111111112,39.4],[-109.87916666666666,39.378055555555555],[-110.00944444444444,39.36],[-110.04222222222222,39.355555555555554],[-110.20083333333334,39.33444444444444],[-110.35944444444443,39.31305555555555],[-110.48805555555556,39.29555555555555],[-110.51916666666666,39.29111111111111],[-110.64833333333334,39.27333333333333],[-110.67888888888889,39.26888888888889],[-110.81,39.25055555555556],[-111.12972222222221,39.20527777777778],[-111.29083333333332,39.18194444444444],[-111.46055555555556,39.157222222222224],[-111.61944444444444,39.13388888888889],[-111.94166666666668,39.08583333333333],[-112.10083333333333,39.06166666666666],[-112.26138888888889,39.036944444444444],[-112.42194444444445,39.01222222222222],[-112.58333333333333,38.98694444444445],[-112.74333333333334,38.96194444444445],[-112.9025,38.93666666666666],[-113.06333333333333,38.91083333333333],[-113.22222222222223,38.885],[-113.38277777777778,38.85861111111111],[-113.54222222222222,38.8325],[-113.70277777777778,38.80583333333333],[-113.86194444444443,38.77916666666667],[-114.02277777777778,38.751666666666665],[-114.18166666666667,38.724722222222226],[-114.34027777777777,38.697222222222216],[-114.50111111111111,38.66916666666666],[-114.66083333333334,38.64111111111111],[-114.82027777777778,38.613055555555555],[-114.98,38.58444444444444],[-115.0775,38.56666666666667],[-115.14027777777778,38.55583333333333],[-115.24916666666667,38.536944444444444],[-115.29916666666666,38.526944444444446],[-115.4088888888889,38.507777777777775],[-115.47166666666666,38.49527777777778],[-115.56888888888888,38.47805555555556],[-115.63138888888888,38.465833333333336],[-115.72805555555556,38.448611111111106],[-115.78944444444444,38.436388888888885],[-115.88861111111112,38.41777777777777],[-115.95055555555555,38.40611111111111],[-116.04805555555555,38.38777777777778],[-116.11194444444443,38.37555555555556],[-116.20972222222223,38.356944444444444],[-116.27166666666666,38.34527777777778],[-116.36694444444444,38.32666666666667],[-116.43027777777779,38.31222222222222],[-116.58611111111111,38.27611111111111],[-116.68111111111112,38.25472222222222],[-116.74305555555556,38.24055555555556],[-116.83944444444444,38.21888888888889],[-116.90027777777779,38.205000000000005],[-116.99638888888889,38.183055555555555],[-117.05333333333333,38.169999999999995],[-117.14555555555556,38.14861111111111],[-117.20777777777778,38.134166666666665],[-117.29638888888888,38.11361111111111],[-117.32888888888888,38.10583333333334],[-117.44583333333334,38.07916666666667],[-117.47111111111111,38.07333333333334],[-117.58416666666666,38.04694444444444],[-117.61166666666666,38.040277777777774],[-117.72333333333333,38.01444444444444],[-117.74833333333333,38.00861111111111],[-117.85638888888889,37.98222222222223],[-117.87888888888888,37.969722222222224],[-117.96083333333334,37.87972222222222],[-118.02222222222223,37.80277777777778],[-118.03611111111111,37.785555555555554],[-118.13166666666666,37.70611111111111],[-118.24444444444444,37.715],[-118.27055555555556,37.723888888888894],[-118.37722222222222,37.76166666666666],[-118.40222222222222,37.770833333333336],[-118.50833333333334,37.81194444444444],[-118.62888888888888,37.87638888888889],[-118.75138888888888,37.94166666666666],[-118.87388888888889,38.00333333333333],[-119.01333333333334,38.00138888888889],[-119.14805555555556,37.973333333333336],[-119.28111111111112,37.94499999999999],[-119.41722222222222,37.91583333333333],[-119.55361111111111,37.88638888888889],[-119.6888888888889,37.85722222222223],[-119.82638888888889,37.827222222222225],[-119.96111111111111,37.79722222222222],[-120.09916666666666,37.766666666666666],[-120.2,37.75],[-120.23305555555555,37.73722222222222],[-120.36583333333333,37.7075],[-120.50583333333333,37.68666666666666],[-120.62138888888889,37.67388888888889],[-120.76416666666667,37.656666666666666],[-120.90222222222222,37.64],[-121.03416666666666,37.62361111111111],[-121.17083333333333,37.60444444444445],[-121.29444444444444,37.58833333333334],[-121.41444444444446,37.57527777777778],[-121.53166666666667,37.56166666666666],[-121.63166666666666,37.54888888888889],[-121.71805555555555,37.52833333333333],[-121.8,37.5],[-121.8775,37.49111111111111],[-122.11666666666666,37.516666666666666],[-122.18333333333334,37.55],[-122.25,37.56666666666667],[-122.29583333333333,37.587500000000006],[-122.34055555555555,37.60638888888889]],"type":"LineString"}
}
