{
  "id": 2032023219,
  "type": "Feature",
  "properties": {
    "geom:area": 0,
    "geom:bbox": "-122.534690,36.719090,-121.296090,37.663840",
    "geom:latitude": 37.2017374332271,
    "geom:longitude": -121.99960410975575,
    "src:alt_label": "swim-takeoff",
    "src:geom": "swim",
    "swim:elevations": [
      272,
      715,
      857,
      917,
      971,
      1174,
      1596,
      2573,
      2735,
      3336,
      3502,
      3891,
      4683,
      4930,
      5399,
      5880,
      6149,
      6330,
      6766,
      6887,
      7413,
      7937,
      8124,
      8360
    ],
    "swim:geom": "takeoff",
    "swim:timestamps": [
      1785348171,
      1785348200,
      1785348216,
      1785348234,
      1785348245,
      1785348268,
      1785348309,
      1785348373,
      1785348385,
      1785348448,
      1785348471,
      1785348512,
      1785348580,
      1785348605,
      1785348656,
      1785348707,
      1785348742,
      1785348761,
      1785348808,
      1785348825,
      1785348894,
      1785348982,
      1785349011,
      1785349046
    ],
    "wof:geomhash": "953a8283360a8b3977f02e522ae07c1a",
    "wof:id": 2032023219,
    "wof:repo": "sfomuseum-data-flights-2026-07"
  },
  "bbox": [
    -122.53469,
    36.71909,
    -121.29609,
    37.66384
  ],
  "geometry": {"coordinates":[[-122.39237,37.6263],[-122.41433,37.63587],[-122.42665,37.64122],[-122.44257,37.64813],[-122.4528,37.65267],[-122.47821,37.66384],[-122.53469,37.65834],[-122.52542,37.57993],[-122.51714,37.56538],[-122.46521,37.48461],[-122.42809,37.45988],[-122.35759,37.4145],[-122.23794,37.33707],[-122.19188,37.3073],[-122.09771,37.24621],[-122.00023,37.18285],[-121.93236,37.13862],[-121.89456,37.11394],[-121.80098,37.0527],[-121.76617,37.02988],[-121.62382,36.9364],[-121.43565,36.81171],[-121.37256,36.76986],[-121.29609,36.71909]],"type":"LineString"}
}
