{
  "id": 2032003273,
  "type": "Feature",
  "properties": {
    "geom:area": 0,
    "geom:bbox": "-122.350000,37.483333,-122.116667,37.616667",
    "geom:latitude": 37.5540000558489,
    "geom:longitude": -122.2289775470079,
    "src:alt_label": "swim-path",
    "src:geom": "swim",
    "swim:altitudes": [
      "047",
      "035",
      "031",
      "026",
      "024",
      "016",
      "003",
      "001"
    ],
    "swim:geom": "path",
    "swim:speeds": [
      188,
      195,
      203,
      184,
      173,
      152,
      148,
      146
    ],
    "swim:timestamps": [
      1785268229,
      1785268278,
      1785268290,
      1785268338,
      1785268349,
      1785268409,
      1785268519,
      1785268530
    ],
    "wof:geomhash": "3765701e32659a162b5e7fb88bf19c0c",
    "wof:id": 2032003273,
    "wof:repo": "sfomuseum-data-flights-2026-07"
  },
  "bbox": [
    -122.35,
    37.483333333333334,
    -122.11666666666666,
    37.61666666666667
  ],
  "geometry": {"coordinates":[[-122.11666666666666,37.483333333333334],[-122.14750000000001,37.51833333333333],[-122.15,37.53333333333333],[-122.20361111111112,37.54666666666667],[-122.21666666666667,37.55],[-122.26666666666667,37.56666666666667],[-122.34666666666666,37.60666666666667],[-122.35,37.61666666666667]],"type":"LineString"}
}
