{
  "id": 2032037977,
  "type": "Feature",
  "properties": {
    "geom:area": 0,
    "geom:bbox": "-122.400640,37.625940,-121.309500,38.385950",
    "geom:latitude": 38.04058299704883,
    "geom:longitude": -121.90126260969566,
    "src:alt_label": "swim-takeoff",
    "src:geom": "swim",
    "swim:elevations": [
      213,
      466,
      640,
      804,
      1086,
      1478,
      1837,
      2496,
      2630,
      3102,
      3385,
      3496,
      3684,
      4056,
      4311,
      4450,
      4868,
      5101,
      5295,
      5397,
      5765,
      6001,
      6035,
      6453,
      6479
    ],
    "swim:geom": "takeoff",
    "swim:timestamps": [
      1785427646,
      1785427678,
      1785427708,
      1785427724,
      1785427743,
      1785427771,
      1785427802,
      1785427855,
      1785427867,
      1785427909,
      1785427970,
      1785427988,
      1785428019,
      1785428063,
      1785428090,
      1785428106,
      1785428152,
      1785428183,
      1785428210,
      1785428222,
      1785428273,
      1785428306,
      1785428310,
      1785428366,
      1785428370
    ],
    "wof:geomhash": "6cb4b96b00c1df52f62b87e84430eb10",
    "wof:id": 2032037977,
    "wof:repo": "sfomuseum-data-flights-2026-07"
  },
  "bbox": [
    -122.40064,
    37.62594,
    -121.3095,
    38.38595
  ],
  "geometry": {"coordinates":[[-122.39161,37.62594],[-122.40064,37.64931],[-122.3675,37.66803],[-122.34208,37.67547],[-122.31319,37.68361],[-122.2741,37.69863],[-122.25205,37.73499],[-122.22929,37.80279],[-122.22398,37.81814],[-122.20428,37.87417],[-122.15455,37.95649],[-122.12134,37.97365],[-122.06243,38.00111],[-121.97306,38.0446],[-121.91821,38.07232],[-121.88588,38.08873],[-121.79147,38.13644],[-121.72407,38.17009],[-121.66592,38.19909],[-121.6402,38.21186],[-121.52674,38.26829],[-121.45188,38.30537],[-121.44221,38.31015],[-121.31837,38.38044],[-121.3095,38.38595]],"type":"LineString"}
}
