{
  "id": 2031976509,
  "type": "Feature",
  "properties": {
    "geom:area": 0,
    "geom:bbox": "-122.351850,37.478710,-121.274980,37.608950",
    "geom:latitude": 37.53889875750198,
    "geom:longitude": -121.82045537418733,
    "src:alt_label": "swim-approach",
    "src:geom": "swim",
    "swim:elevations": [
      4675,
      4370,
      4032,
      3715,
      3629,
      3411,
      3398,
      3319,
      2957,
      2828,
      2689,
      2547,
      2466,
      2397,
      2327,
      2228,
      2163,
      2070,
      2020,
      1917,
      1860,
      1829,
      1662,
      1603,
      1172,
      1038,
      912,
      758,
      685,
      427,
      304,
      250,
      155,
      50
    ],
    "swim:geom": "approach",
    "swim:timestamps": [
      1785059090,
      1785059121,
      1785059152,
      1785059187,
      1785059195,
      1785059248,
      1785059262,
      1785059282,
      1785059321,
      1785059338,
      1785059352,
      1785059369,
      1785059381,
      1785059425,
      1785059439,
      1785059455,
      1785059470,
      1785059494,
      1785059509,
      1785059525,
      1785059536,
      1785059578,
      1785059593,
      1785059613,
      1785059668,
      1785059693,
      1785059722,
      1785059757,
      1785059774,
      1785059829,
      1785059867,
      1785059885,
      1785059913,
      1785059944
    ],
    "wof:geomhash": "d8713806deafc953973fc5af8cd99c75",
    "wof:id": 2031976509,
    "wof:repo": "sfomuseum-data-flights-2026-07"
  },
  "bbox": [
    -122.35185,
    37.47871,
    -121.27498,
    37.60895
  ],
  "geometry": {"coordinates":[[-121.27498,37.59088],[-121.33516,37.58402],[-121.39572,37.57714],[-121.46391,37.5693],[-121.4793,37.56754],[-121.57435,37.5564],[-121.59667,37.5538],[-121.62498,37.55018],[-121.67844,37.53758],[-121.70038,37.53246],[-121.71822,37.52824],[-121.73975,37.52307],[-121.75535,37.51936],[-121.81255,37.50569],[-121.83088,37.50128],[-121.85114,37.49642],[-121.87035,37.49184],[-121.90029,37.48427],[-121.91893,37.47919],[-121.94159,37.47871],[-121.95494,37.47981],[-122.00901,37.48994],[-122.02733,37.49333],[-122.05334,37.49826],[-122.12205,37.51235],[-122.14965,37.52378],[-122.17794,37.53587],[-122.21063,37.54964],[-122.22703,37.55649],[-122.27519,37.57681],[-122.30176,37.58797],[-122.31321,37.59281],[-122.33193,37.60064],[-122.35185,37.60895]],"type":"LineString"}
}
