{
  "id": 2031957263,
  "type": "Feature",
  "properties": {
    "geom:area": 0,
    "geom:bbox": "-122.403333,25.785556,-80.291944,38.592500",
    "geom:latitude": 34.10856108763583,
    "geom:longitude": -100.7871943865737,
    "src:alt_label": "swim-path",
    "src:geom": "swim",
    "swim:altitudes": [
      "015",
      "029",
      "058",
      "110",
      "125",
      "142",
      "176",
      "190",
      "202",
      "216",
      "227",
      "238",
      "261",
      "270",
      "279",
      "283",
      "291",
      "301",
      "305",
      "310",
      "314",
      "317",
      "323",
      "326",
      "329",
      "332",
      "340",
      "345",
      "348C",
      "350C",
      "350C",
      "350C",
      "350C",
      "350C",
      "350C",
      "350C",
      "350C",
      "350C",
      "350C",
      "350C",
      "350C",
      "350C",
      "350C",
      "350C",
      "350C",
      "350C",
      "350C",
      "350C",
      "350C",
      "350C",
      "350C",
      "350C",
      "350C",
      "350C",
      "350C",
      "350C",
      "350C",
      "350C",
      "350C",
      "350C",
      "350C",
      "350C",
      "350C",
      "350C",
      "350C",
      "350C",
      "350C",
      "350C",
      "350C",
      "350C",
      "350C",
      "350C",
      "350C",
      "350C",
      "350C",
      "350C",
      "350C",
      "350C",
      "350C",
      "350C",
      "350C",
      "350C",
      "350C",
      "350C",
      "350C",
      "350C",
      "350C",
      "350C",
      "350C",
      "350C",
      "350C",
      "350C",
      "350C",
      "350C",
      "350C",
      "350C",
      "350C",
      "350C",
      "350C",
      "350C",
      "350C",
      "350C",
      "350C",
      "350C",
      "350C",
      "350C",
      "350C",
      "350C",
      "350C",
      "350C",
      "350C",
      "350C",
      "350C",
      "350C",
      "350C",
      "350C",
      "350C",
      "350C",
      "350C",
      "350C",
      "350C",
      "350C",
      "350C",
      "350C",
      "350C",
      "350C",
      "350C",
      "350C",
      "350C",
      "350C",
      "350C",
      "350C",
      "350C",
      "350C",
      "350C",
      "350C",
      "350C",
      "350C",
      "350C",
      "350C",
      "350C",
      "350C",
      "350C",
      "350C",
      "350C",
      "350C",
      "350C",
      "350C",
      "350C",
      "350C",
      "350C",
      "350C",
      "350C",
      "350C",
      "350C",
      "350C",
      "350C",
      "350C",
      "350C",
      "350C",
      "350C",
      "350C",
      "350C",
      "350C",
      "350C",
      "350C",
      "350C",
      "350C",
      "350C",
      "350C",
      "350C",
      "350C",
      "350C",
      "350C",
      "350C",
      "350C",
      "350C",
      "350C",
      "350C",
      "350C",
      "350C",
      "350C",
      "350",
      "356",
      "363",
      "370C",
      "370C",
      "370C",
      "370C",
      "370C",
      "370C",
      "370C",
      "370C",
      "370C",
      "370C",
      "370C",
      "370C",
      "370C",
      "370C",
      "370C",
      "370C",
      "370C",
      "370C",
      "370C",
      "370C",
      "370C",
      "370C",
      "370C",
      "370C",
      "370C",
      "370C",
      "370C",
      "370C",
      "370C",
      "370C",
      "370C",
      "370C",
      "370C",
      "370C",
      "370C",
      "370C",
      "370C",
      "370C",
      "370C",
      "370C",
      "370C",
      "370C",
      "370C",
      "370C",
      "370C",
      "370C",
      "370C",
      "370C",
      "370C",
      "370C",
      "370C",
      "370C",
      "370C",
      "370C",
      "370C",
      "370C",
      "370C",
      "370C",
      "370C",
      "370C",
      "370C",
      "370C",
      "370C",
      "370C",
      "370C",
      "370C",
      "370C",
      "370C",
      "370C",
      "370C",
      "370C",
      "370C",
      "370C",
      "370C",
      "370C",
      "370C",
      "370C",
      "370C",
      "370C",
      "370C",
      "370C",
      "370C",
      "370C",
      "370C",
      "370C",
      "370C",
      "370C",
      "370C",
      "370C",
      "370C",
      "370C",
      "370C",
      "370C",
      "370C",
      "370C",
      "370C",
      "370C",
      "370C",
      "370C",
      "370C",
      "370C",
      "370C",
      "370C",
      "370C",
      "370C",
      "370C",
      "370C",
      "370C",
      "370C",
      "370C",
      "370C",
      "370C",
      "370C",
      "370C",
      "370C",
      "370C",
      "370C",
      "370C",
      "346",
      "336",
      "321",
      "305",
      "287",
      "275",
      "257",
      "247",
      "227",
      "195",
      "185",
      "165",
      "124",
      "107",
      "103",
      "100",
      "100",
      "100",
      "099",
      "096",
      "084",
      "074",
      "068",
      "061",
      "058",
      "053",
      "049",
      "042",
      "038",
      "027",
      "024",
      "019",
      "015",
      "010",
      "007",
      "110"
    ],
    "swim:geom": "path",
    "swim:speeds": [
      162,
      260,
      276,
      335,
      361,
      375,
      383,
      394,
      412,
      419,
      427,
      435,
      447,
      453,
      463,
      459,
      472,
      474,
      475,
      477,
      477,
      477,
      481,
      492,
      490,
      498,
      499,
      500,
      498,
      500,
      497,
      499,
      497,
      498,
      498,
      497,
      498,
      496,
      497,
      495,
      495,
      493,
      493,
      488,
      487,
      487,
      486,
      487,
      487,
      487,
      487,
      487,
      488,
      488,
      488,
      488,
      488,
      487,
      486,
      486,
      485,
      483,
      483,
      483,
      483,
      483,
      485,
      486,
      487,
      487,
      487,
      487,
      485,
      484,
      482,
      477,
      475,
      475,
      477,
      478,
      480,
      481,
      481,
      481,
      480,
      479,
      479,
      479,
      479,
      481,
      483,
      483,
      483,
      483,
      483,
      482,
      480,
      479,
      477,
      477,
      478,
      480,
      486,
      481,
      485,
      485,
      484,
      485,
      484,
      485,
      483,
      484,
      482,
      481,
      482,
      479,
      481,
      481,
      484,
      485,
      485,
      486,
      485,
      486,
      485,
      485,
      484,
      483,
      481,
      478,
      476,
      475,
      475,
      475,
      476,
      477,
      478,
      476,
      472,
      470,
      467,
      464,
      466,
      465,
      464,
      463,
      463,
      462,
      462,
      462,
      462,
      462,
      462,
      461,
      461,
      460,
      459,
      459,
      455,
      455,
      452,
      452,
      450,
      450,
      450,
      450,
      451,
      451,
      452,
      452,
      454,
      454,
      456,
      456,
      457,
      457,
      457,
      456,
      455,
      453,
      452,
      450,
      449,
      453,
      453,
      452,
      451,
      451,
      451,
      454,
      460,
      461,
      462,
      463,
      463,
      462,
      461,
      460,
      460,
      460,
      460,
      460,
      459,
      459,
      459,
      459,
      460,
      457,
      458,
      457,
      457,
      457,
      459,
      459,
      459,
      459,
      458,
      459,
      458,
      458,
      456,
      456,
      455,
      453,
      453,
      451,
      450,
      450,
      449,
      450,
      451,
      451,
      452,
      452,
      452,
      452,
      454,
      453,
      454,
      454,
      454,
      453,
      453,
      453,
      452,
      452,
      452,
      452,
      451,
      452,
      451,
      452,
      451,
      449,
      449,
      449,
      449,
      447,
      445,
      444,
      442,
      441,
      440,
      439,
      439,
      439,
      439,
      441,
      445,
      448,
      449,
      448,
      448,
      448,
      447,
      446,
      445,
      444,
      443,
      442,
      440,
      440,
      438,
      439,
      437,
      437,
      438,
      439,
      441,
      442,
      441,
      440,
      439,
      438,
      436,
      432,
      429,
      429,
      429,
      428,
      426,
      426,
      428,
      439,
      444,
      445,
      443,
      434,
      416,
      406,
      397,
      384,
      371,
      365,
      369,
      358,
      349,
      343,
      306,
      294,
      289,
      272,
      247,
      236,
      238,
      235,
      234,
      234,
      234,
      234,
      234,
      225,
      213,
      198,
      180,
      174,
      156,
      153,
      146
    ],
    "swim:timestamps": [
      1784903657,
      1784903717,
      1784903778,
      1784903958,
      1784904018,
      1784904078,
      1784904198,
      1784904258,
      1784904318,
      1784904378,
      1784904438,
      1784904498,
      1784904618,
      1784904678,
      1784904739,
      1784904773,
      1784904834,
      1784904894,
      1784904919,
      1784904954,
      1784904979,
      1784905014,
      1784905074,
      1784905099,
      1784905134,
      1784905159,
      1784905219,
      1784905254,
      1784905279,
      1784905314,
      1784905339,
      1784905374,
      1784905399,
      1784905434,
      1784905494,
      1784905520,
      1784905555,
      1784905580,
      1784905615,
      1784905640,
      1784905675,
      1784905700,
      1784905735,
      1784905795,
      1784905820,
      1784905855,
      1784905880,
      1784905940,
      1784905975,
      1784906035,
      1784906060,
      1784906120,
      1784906155,
      1784906180,
      1784906215,
      1784906275,
      1784906336,
      1784906396,
      1784906456,
      1784906516,
      1784906576,
      1784906636,
      1784906696,
      1784906756,
      1784906816,
      1784906876,
      1784906936,
      1784906996,
      1784907057,
      1784907117,
      1784907177,
      1784907237,
      1784907357,
      1784907417,
      1784907477,
      1784907537,
      1784907657,
      1784907717,
      1784907838,
      1784907898,
      1784907958,
      1784908018,
      1784908078,
      1784908258,
      1784908318,
      1784908378,
      1784908439,
      1784908559,
      1784908619,
      1784908679,
      1784908859,
      1784908919,
      1784908979,
      1784909039,
      1784909099,
      1784909160,
      1784909280,
      1784909340,
      1784909460,
      1784909520,
      1784909640,
      1784909700,
      1784909734,
      1784909760,
      1784909794,
      1784909914,
      1784909941,
      1784909974,
      1784910001,
      1784910035,
      1784910061,
      1784910095,
      1784910121,
      1784910181,
      1784910215,
      1784910337,
      1784910395,
      1784910455,
      1784910515,
      1784910575,
      1784910614,
      1784910636,
      1784910674,
      1784910696,
      1784910734,
      1784910756,
      1784910794,
      1784910816,
      1784910876,
      1784910936,
      1784910996,
      1784911056,
      1784911116,
      1784911176,
      1784911237,
      1784911297,
      1784911357,
      1784911405,
      1784911417,
      1784911465,
      1784911477,
      1784911525,
      1784911537,
      1784911597,
      1784911645,
      1784911706,
      1784911717,
      1784911777,
      1784911826,
      1784911837,
      1784911886,
      1784911898,
      1784911946,
      1784911958,
      1784912006,
      1784912018,
      1784912066,
      1784912078,
      1784912126,
      1784912138,
      1784912186,
      1784912198,
      1784912246,
      1784912258,
      1784912306,
      1784912318,
      1784912366,
      1784912378,
      1784912427,
      1784912438,
      1784912487,
      1784912499,
      1784912547,
      1784912559,
      1784912607,
      1784912667,
      1784912727,
      1784912787,
      1784912847,
      1784912907,
      1784912967,
      1784913027,
      1784913087,
      1784913148,
      1784913208,
      1784913268,
      1784913328,
      1784913388,
      1784913448,
      1784913508,
      1784913568,
      1784913628,
      1784913688,
      1784913748,
      1784913808,
      1784913929,
      1784913989,
      1784914049,
      1784914109,
      1784914169,
      1784914229,
      1784914289,
      1784914349,
      1784914409,
      1784914476,
      1784914536,
      1784914596,
      1784914650,
      1784914716,
      1784914776,
      1784914836,
      1784914896,
      1784914956,
      1784915010,
      1784915017,
      1784915077,
      1784915130,
      1784915137,
      1784915197,
      1784915257,
      1784915371,
      1784915377,
      1784915437,
      1784915491,
      1784915497,
      1784915551,
      1784915611,
      1784915618,
      1784915678,
      1784915738,
      1784915791,
      1784915858,
      1784915918,
      1784915971,
      1784916032,
      1784916038,
      1784916092,
      1784916216,
      1784916272,
      1784916332,
      1784916392,
      1784916452,
      1784916513,
      1784916573,
      1784916633,
      1784916693,
      1784916753,
      1784916813,
      1784916877,
      1784916885,
      1784916937,
      1784916945,
      1784917005,
      1784917065,
      1784917125,
      1784917185,
      1784917246,
      1784917306,
      1784917366,
      1784917426,
      1784917486,
      1784917546,
      1784917606,
      1784917666,
      1784917778,
      1784917786,
      1784917846,
      1784917898,
      1784917967,
      1784918027,
      1784918087,
      1784918147,
      1784918207,
      1784918267,
      1784918327,
      1784918387,
      1784918447,
      1784918507,
      1784918567,
      1784918619,
      1784918639,
      1784918679,
      1784918700,
      1784918739,
      1784918760,
      1784918820,
      1784918940,
      1784919000,
      1784919060,
      1784919180,
      1784919300,
      1784919360,
      1784919420,
      1784919481,
      1784919541,
      1784919661,
      1784919781,
      1784919841,
      1784919961,
      1784920021,
      1784920141,
      1784920202,
      1784920264,
      1784920445,
      1784920505,
      1784920565,
      1784920625,
      1784920685,
      1784920745,
      1784920865,
      1784920925,
      1784921046,
      1784921226,
      1784921286,
      1784921346,
      1784921466,
      1784921504,
      1784921526,
      1784921552,
      1784921586,
      1784921613,
      1784921646,
      1784921679,
      1784921733,
      1784921767,
      1784921788,
      1784921827,
      1784921848,
      1784921887,
      1784921908,
      1784921947,
      1784921968,
      1784922029,
      1784922067,
      1784922089,
      1784922127,
      1784922149,
      1784922187,
      1784922247
    ],
    "wof:geomhash": "f04ef1facc241bdb2a5dace1bc434e28",
    "wof:id": 2031957263,
    "wof:repo": "sfomuseum-data-flights-2026-07"
  },
  "bbox": [
    -122.40333333333334,
    25.785555555555558,
    -80.29194444444444,
    38.5925
  ],
  "geometry": {"coordinates":[[-122.40333333333334,37.6375],[-122.34555555555555,37.675555555555555],[-122.25,37.7],[-121.97666666666667,37.83111111111111],[-121.85527777777777,37.85416666666667],[-121.72611111111111,37.87777777777778],[-121.46694444444445,37.92527777777777],[-121.33166666666666,37.95],[-121.1913888888889,37.97527777777778],[-121.04916666666666,38],[-120.90277777777779,38.02194444444444],[-120.75277777777778,38.044999999999995],[-120.44361111111111,38.091944444444444],[-120.28722222222223,38.11527777777778],[-120.12722222222222,38.138888888888886],[-120.0411111111111,38.150277777777774],[-119.87638888888888,38.17472222222222],[-119.71166666666667,38.1975],[-119.6363888888889,38.21027777777778],[-119.54555555555555,38.22166666666667],[-119.47027777777778,38.23388888888889],[-119.37944444444443,38.24527777777778],[-119.17722222222223,38.27444444444444],[-119.10722222222222,38.28444444444444],[-119.005,38.29805555555556],[-118.93277777777779,38.30833333333333],[-118.76166666666667,38.33166666666667],[-118.6575,38.345],[-118.5886111111111,38.35472222222222],[-118.48861111111111,38.36805555555556],[-118.41527777777779,38.37777777777778],[-118.31027777777777,38.39194444444444],[-118.24111111111111,38.401111111111106],[-118.13444444444445,38.41444444444444],[-117.95944444444444,38.436388888888885],[-117.88722222222223,38.44555555555555],[-117.78388888888888,38.45888888888889],[-117.71166666666667,38.46805555555556],[-117.61083333333333,38.480555555555554],[-117.53861111111111,38.489444444444445],[-117.47083333333333,38.49805555555556],[-117.40027777777779,38.50666666666667],[-117.29583333333333,38.51888888888889],[-117.12222222222222,38.52166666666667],[-117.05138888888888,38.52194444444444],[-116.95055555555555,38.5225],[-116.87833333333333,38.52305555555555],[-116.70333333333333,38.52361111111111],[-116.60166666666666,38.52388888888889],[-116.42861111111111,38.52388888888889],[-116.35666666666665,38.52388888888889],[-116.18444444444445,38.52388888888889],[-116.08083333333333,38.52361111111111],[-116.00833333333334,38.52333333333333],[-115.90861111111111,38.52305555555555],[-115.73222222222222,38.52222222222222],[-115.56194444444444,38.52111111111111],[-115.38722222222223,38.519999999999996],[-115.20305555555557,38.51833333333333],[-115.0325,38.51638888888889],[-114.85972222222222,38.51444444444444],[-114.6888888888889,38.511944444444445],[-114.52,38.50944444444445],[-114.34861111111111,38.506388888888885],[-114.17777777777778,38.50361111111111],[-114.00416666666666,38.500277777777775],[-113.83333333333333,38.50972222222222],[-113.66027777777778,38.52027777777778],[-113.48611111111111,38.530277777777776],[-113.31333333333333,38.54],[-113.1413888888889,38.54944444444444],[-112.97027777777778,38.55833333333333],[-112.62416666666665,38.57611111111112],[-112.4525,38.58444444444444],[-112.2825,38.5925],[-112.11416666666666,38.589444444444446],[-111.78333333333333,38.53805555555555],[-111.61722222222221,38.511944444444445],[-111.28444444444445,38.45888888888889],[-111.11861111111111,38.43194444444444],[-110.9525,38.405],[-110.7975,38.379444444444445],[-110.6325,38.35194444444445],[-110.13277777777778,38.2675],[-109.96888888888888,38.23916666666667],[-109.80527777777777,38.21055555555556],[-109.64305555555556,38.18222222222222],[-109.31138888888889,38.123333333333335],[-109.14916666666667,38.094166666666666],[-108.985,38.064166666666665],[-108.49083333333333,37.97277777777778],[-108.32388888888889,37.94138888888889],[-108.16000000000001,37.91027777777778],[-107.99444444444444,37.87888888888889],[-107.83166666666666,37.847500000000004],[-107.66583333333334,37.81527777777777],[-107.33888888888889,37.75111111111111],[-107.17722222222223,37.71888888888889],[-106.85222222222221,37.65361111111111],[-106.6913888888889,37.62083333333334],[-106.36527777777778,37.55361111111111],[-106.20277777777778,37.51972222222222],[-106.10138888888888,37.49861111111111],[-106.04166666666667,37.486111111111114],[-105.94027777777778,37.46472222222223],[-105.61166666666666,37.394444444444446],[-105.54972222222221,37.38111111111111],[-105.44777777777779,37.35916666666667],[-105.38722222222223,37.346111111111114],[-105.28444444444445,37.32361111111111],[-105.22472222222223,37.31055555555555],[-105.12777777777777,37.28944444444444],[-105.06055555555555,37.27472222222222],[-104.89833333333334,37.23888888888889],[-104.80277777777778,37.217777777777776],[-104.4725,37.14388888888889],[-104.32472222222222,37.11027777777778],[-104.16444444444446,37.07361111111111],[-104.00722222222223,37.03111111111111],[-103.85555555555555,36.971944444444446],[-103.73472222222222,36.92472222222222],[-103.70555555555556,36.913333333333334],[-103.58416666666666,36.86527777777778],[-103.55388888888889,36.85333333333333],[-103.43361111111112,36.80555555555555],[-103.40444444444445,36.79416666666666],[-103.2875,36.74805555555556],[-103.2538888888889,36.734722222222224],[-103.10777777777777,36.67638888888889],[-102.96055555555556,36.6175],[-102.79805555555555,36.551944444444445],[-102.65222222222222,36.49333333333333],[-102.50583333333333,36.433611111111105],[-102.36083333333333,36.37416666666667],[-102.21194444444444,36.31305555555555],[-102.06666666666666,36.25361111111111],[-101.92,36.19305555555555],[-101.80416666666666,36.14555555555555],[-101.77583333333334,36.132777777777775],[-101.66194444444444,36.08638888888889],[-101.63361111111112,36.07361111111111],[-101.5213888888889,36.026666666666664],[-101.49083333333333,36.01361111111111],[-101.34944444444444,35.95388888888889],[-101.23694444444445,35.906388888888884],[-101.09805555555555,35.84777777777778],[-101.06638888888888,35.83416666666667],[-100.92722222222223,35.77472222222222],[-100.81583333333333,35.72694444444445],[-100.78805555555556,35.715],[-100.68388888888889,35.67027777777778],[-100.64722222222223,35.654444444444444],[-100.54527777777777,35.61027777777778],[-100.51583333333333,35.597500000000004],[-100.40722222222223,35.55083333333333],[-100.3775,35.53777777777778],[-100.26888888888888,35.49055555555556],[-100.24138888888889,35.478611111111114],[-100.13444444444445,35.431666666666665],[-100.10499999999999,35.41888888888889],[-99.99972222222222,35.37277777777778],[-99.97055555555556,35.359722222222224],[-99.86527777777778,35.31333333333333],[-99.83722222222222,35.301111111111105],[-99.73222222222222,35.25472222222222],[-99.7025,35.24138888888889],[-99.59638888888888,35.19444444444444],[-99.56916666666666,35.18222222222222],[-99.46083333333334,35.13388888888889],[-99.43138888888889,35.12083333333334],[-99.32583333333334,35.07361111111111],[-99.29861111111111,35.061388888888885],[-99.19027777777778,35.0125],[-99.16055555555556,34.99916666666667],[-99.05416666666666,34.95111111111111],[-98.91944444444445,34.890277777777776],[-98.78333333333333,34.82833333333333],[-98.65,34.7675],[-98.51638888888888,34.70611111111111],[-98.36916666666666,34.63861111111111],[-98.23777777777778,34.57777777777778],[-98.10722222222222,34.51722222222222],[-97.97527777777778,34.45583333333334],[-97.84333333333333,34.39416666666666],[-97.71222222222222,34.33277777777778],[-97.58083333333333,34.270833333333336],[-97.44888888888889,34.20861111111111],[-97.31888888888888,34.14722222222222],[-97.18861111111111,34.085],[-97.05583333333333,34.021388888888886],[-96.92166666666667,33.956944444444446],[-96.7875,33.8925],[-96.65333333333334,33.8275],[-96.52111111111111,33.76361111111111],[-96.38777777777779,33.698611111111106],[-96.12138888888889,33.56805555555556],[-95.99083333333333,33.50388888888889],[-95.85944444444443,33.43888888888888],[-95.72694444444444,33.373333333333335],[-95.59722222222221,33.308611111111105],[-95.46694444444445,33.243611111111115],[-95.33694444444444,33.17833333333333],[-95.20611111111111,33.112500000000004],[-95.07777777777777,33.047777777777775],[-94.93694444444445,32.97527777777778],[-94.80611111111111,32.910555555555554],[-94.67750000000001,32.84388888888889],[-94.5625,32.78527777777778],[-94.42,32.712500000000006],[-94.2911111111111,32.64611111111111],[-94.16250000000001,32.57916666666667],[-94.03111111111112,32.510555555555555],[-93.90194444444445,32.44333333333333],[-93.77111111111111,32.375],[-93.77333333333333,32.376111111111115],[-93.64583333333334,32.30916666666666],[-93.51527777777778,32.24055555555556],[-93.52388888888889,32.245],[-93.39611111111111,32.177499999999995],[-93.26916666666666,32.11027777777778],[-93.0175,31.97611111111111],[-93.00527777777778,31.96944444444444],[-92.88027777777778,31.9025],[-92.76583333333333,31.84111111111111],[-92.75555555555556,31.835555555555555],[-92.64083333333333,31.77361111111111],[-92.51638888888888,31.70638888888889],[-92.50694444444444,31.70138888888889],[-92.38472222222222,31.634999999999998],[-92.26027777777777,31.56722222222222],[-92.14333333333335,31.503333333333334],[-92.01166666666667,31.43138888888889],[-91.89277777777778,31.365833333333335],[-91.76972222222223,31.298055555555557],[-91.64583333333334,31.229444444444443],[-91.64361111111111,31.22833333333333],[-91.53027777777778,31.15861111111111],[-91.28888888888889,31.030833333333334],[-91.16194444444444,30.955277777777777],[-91.03999999999999,30.88611111111111],[-90.91722222222222,30.81722222222222],[-90.79666666666667,30.748055555555556],[-90.67611111111111,30.67888888888889],[-90.55583333333333,30.611666666666668],[-90.43527777777778,30.544444444444448],[-90.31444444444445,30.47583333333333],[-90.19277777777778,30.40583333333333],[-90.07277777777777,30.33611111111111],[-89.9375,30.261666666666667],[-89.95222222222222,30.266944444444444],[-89.81888888888888,30.192777777777778],[-89.80833333333334,30.183888888888887],[-89.69,30.116111111111113],[-89.57138888888889,30.047777777777778],[-89.45222222222222,29.977777777777778],[-89.33388888888888,29.907777777777778],[-89.21583333333334,29.839166666666664],[-89.10027777777778,29.771944444444443],[-88.98305555555555,29.702777777777776],[-88.86694444444444,29.63361111111111],[-88.775,29.578888888888887],[-88.63777777777779,29.496944444444445],[-88.52361111111111,29.428611111111113],[-88.41027777777778,29.360555555555557],[-88.18722222222223,29.22611111111111],[-88.18,29.221944444444443],[-88.06555555555555,29.152777777777775],[-87.95111111111112,29.083333333333332],[-87.83111111111111,29.01],[-87.71472222222222,28.93888888888889],[-87.57722222222222,28.855],[-87.46222222222222,28.784166666666668],[-87.34527777777777,28.7125],[-87.23055555555555,28.641388888888887],[-87.11694444444444,28.57111111111111],[-87.00194444444445,28.499444444444446],[-86.88777777777779,28.428611111111113],[-86.77333333333333,28.357222222222223],[-86.65722222222223,28.289722222222224],[-86.56277777777777,28.239722222222223],[-86.51611111111112,28.215555555555554],[-86.44722222222222,28.179166666666667],[-86.39722222222223,28.153055555555554],[-86.32833333333333,28.116666666666667],[-86.27944444444444,28.090833333333332],[-86.16305555555556,28.029444444444444],[-85.92750000000001,27.904166666666665],[-85.80833333333334,27.840555555555554],[-85.69,27.7775],[-85.45138888888889,27.651944444444442],[-85.20861111111111,27.540277777777778],[-85.08527777777778,27.483055555555556],[-84.96666666666667,27.428055555555556],[-84.84694444444445,27.372222222222224],[-84.72722222222222,27.31638888888889],[-84.49,27.205],[-84.25333333333333,27.093333333333334],[-84.13722222222223,27.036944444444448],[-83.90138888888889,26.925],[-83.78555555555555,26.870555555555555],[-83.55305555555556,26.759166666666665],[-83.43611111111112,26.702777777777776],[-83.29666666666667,26.635555555555555],[-82.99222222222222,26.3975],[-82.89361111111111,26.310000000000002],[-82.795,26.22472222222222],[-82.69500000000001,26.140277777777776],[-82.60638888888889,26.049722222222226],[-82.52944444444444,25.95861111111111],[-82.34472222222222,25.842777777777776],[-82.22444444444444,25.823055555555555],[-81.9888888888889,25.81361111111111],[-81.63166666666666,25.851944444444445],[-81.52055555555556,25.863611111111112],[-81.4063888888889,25.875555555555557],[-81.18555555555555,25.898055555555555],[-81.11638888888888,25.904722222222222],[-81.0786111111111,25.90888888888889],[-81.03583333333333,25.910277777777775],[-80.98833333333333,25.894444444444446],[-80.95,25.880277777777778],[-80.90805555555556,25.86388888888889],[-80.86861111111111,25.848055555555554],[-80.80888888888889,25.825],[-80.77194444444444,25.81138888888889],[-80.74666666666667,25.801944444444445],[-80.705,25.786944444444448],[-80.67833333333334,25.785555555555558],[-80.6325,25.788611111111113],[-80.60694444444444,25.790000000000003],[-80.55972222222222,25.791944444444447],[-80.53527777777778,25.79277777777778],[-80.46833333333333,25.795],[-80.44,25.797222222222224],[-80.40833333333335,25.796666666666667],[-80.38472222222222,25.799166666666668],[-80.35777777777777,25.8],[-80.33749999999999,25.80138888888889],[-80.29194444444444,25.803333333333335]],"type":"LineString"}
}
