{
  "id": 2031960535,
  "type": "Feature",
  "properties": {
    "geom:area": 0,
    "geom:bbox": "-122.400000,37.633333,-70.921389,43.322222",
    "geom:latitude": 42.31094954096753,
    "geom:longitude": -96.94717424519891,
    "src:alt_label": "swim-path",
    "src:geom": "swim",
    "swim:altitudes": [
      "007",
      "018",
      "029",
      "063",
      "084",
      "112",
      "122",
      "135",
      "163",
      "176",
      "186",
      "196",
      "208",
      "220",
      "228",
      "237",
      "245",
      "261",
      "265",
      "271",
      "279",
      "286",
      "293",
      "303",
      "313",
      "324",
      "330C",
      "330C",
      "330C",
      "330C",
      "330C",
      "330C",
      "330C",
      "330C",
      "330C",
      "330C",
      "330C",
      "330C",
      "330C",
      "330C",
      "330C",
      "330C",
      "330C",
      "330C",
      "330C",
      "330C",
      "330C",
      "330C",
      "330C",
      "330C",
      "330C",
      "330C",
      "330C",
      "330C",
      "330C",
      "330C",
      "330C",
      "330C",
      "330C",
      "330C",
      "330C",
      "330C",
      "330C",
      "330C",
      "330C",
      "330C",
      "330C",
      "330C",
      "330C",
      "330C",
      "330C",
      "330C",
      "330C",
      "330C",
      "330C",
      "330C",
      "330C",
      "330C",
      "330C",
      "330C",
      "330C",
      "330C",
      "330C",
      "330C",
      "330C",
      "330C",
      "330C",
      "330C",
      "330C",
      "330C",
      "330C",
      "330C",
      "330C",
      "330C",
      "330C",
      "330C",
      "330C",
      "330C",
      "330C",
      "330C",
      "330C",
      "330C",
      "330C",
      "330C",
      "330C",
      "330C",
      "330C",
      "330C",
      "330C",
      "330C",
      "330C",
      "330C",
      "330C",
      "330C",
      "330C",
      "330C",
      "330C",
      "330C",
      "330C",
      "330C",
      "330C",
      "330C",
      "330C",
      "330C",
      "330C",
      "330C",
      "330C",
      "330C",
      "330C",
      "330C",
      "330",
      "330",
      "330",
      "330",
      "330",
      "333",
      "339",
      "343",
      "350C",
      "350C",
      "350C",
      "350C",
      "350C",
      "350C",
      "350C",
      "350C",
      "350C",
      "350C",
      "350C",
      "350C",
      "350C",
      "350C",
      "350C",
      "350C",
      "350C",
      "350C",
      "350C",
      "350C",
      "350C",
      "350C",
      "350C",
      "350C",
      "350C",
      "350C",
      "350C",
      "350C",
      "350C",
      "350C",
      "350C",
      "350C",
      "350C",
      "350C",
      "350C",
      "350C",
      "350C",
      "350C",
      "350C",
      "350C",
      "350C",
      "350C",
      "350C",
      "350C",
      "350C",
      "350C",
      "350C",
      "350C",
      "350C",
      "350C",
      "350C",
      "350C",
      "350C",
      "350C",
      "350C",
      "350C",
      "350C",
      "350C",
      "350C",
      "350C",
      "350C",
      "350C",
      "350C",
      "350C",
      "350C",
      "350C",
      "350C",
      "350C",
      "350C",
      "350C",
      "350C",
      "350C",
      "350C",
      "350C",
      "350C",
      "350C",
      "350C",
      "350C",
      "350C",
      "350C",
      "350C",
      "350C",
      "350C",
      "350C",
      "350C",
      "350C",
      "350C",
      "350C",
      "350C",
      "350C",
      "350C",
      "350C",
      "350C",
      "350C",
      "350C",
      "350C",
      "350C",
      "350C",
      "350C",
      "350C",
      "350C",
      "350C",
      "350C",
      "350C",
      "350C",
      "350C",
      "350",
      "350",
      "350",
      "342",
      "330C",
      "330C",
      "330C",
      "330C",
      "330C",
      "330C",
      "330C",
      "330C",
      "330C",
      "330C",
      "330C",
      "330C",
      "330C",
      "330C",
      "330C",
      "330C",
      "330C",
      "330C",
      "330C",
      "330C",
      "330C",
      "330C",
      "330C",
      "330C",
      "330C",
      "330C",
      "330C",
      "330C",
      "330C",
      "330C",
      "330C",
      "330C",
      "330C",
      "330C",
      "330C",
      "330C",
      "330C",
      "330C",
      "330C",
      "330C",
      "330C",
      "330C",
      "322",
      "312",
      "291",
      "270",
      "261",
      "252",
      "211",
      "188",
      "178",
      "169",
      "151",
      "146",
      "136",
      "131",
      "121",
      "117",
      "109C",
      "106",
      "096",
      "085",
      "073",
      "070",
      "062",
      "059",
      "050",
      "048",
      "040",
      "040",
      "035",
      "030",
      "028",
      "012",
      "004"
    ],
    "swim:geom": "path",
    "swim:speeds": [
      173,
      202,
      207,
      286,
      295,
      352,
      390,
      415,
      433,
      440,
      449,
      457,
      463,
      466,
      484,
      482,
      483,
      497,
      502,
      511,
      513,
      513,
      514,
      515,
      515,
      515,
      516,
      512,
      511,
      511,
      511,
      510,
      511,
      511,
      511,
      511,
      513,
      514,
      519,
      522,
      524,
      525,
      526,
      525,
      524,
      523,
      523,
      523,
      524,
      524,
      524,
      523,
      522,
      521,
      520,
      519,
      520,
      520,
      521,
      523,
      524,
      524,
      524,
      524,
      524,
      524,
      523,
      522,
      509,
      507,
      507,
      507,
      507,
      507,
      507,
      505,
      505,
      505,
      506,
      506,
      506,
      506,
      507,
      509,
      509,
      509,
      510,
      508,
      506,
      506,
      505,
      504,
      504,
      504,
      510,
      512,
      515,
      516,
      515,
      513,
      512,
      511,
      510,
      510,
      509,
      510,
      510,
      510,
      504,
      510,
      506,
      510,
      511,
      507,
      510,
      511,
      510,
      512,
      512,
      515,
      515,
      515,
      515,
      515,
      514,
      515,
      515,
      514,
      515,
      514,
      515,
      514,
      514,
      514,
      515,
      515,
      514,
      513,
      505,
      509,
      511,
      511,
      511,
      512,
      512,
      513,
      513,
      513,
      514,
      514,
      515,
      516,
      517,
      517,
      517,
      516,
      516,
      516,
      520,
      517,
      519,
      517,
      517,
      516,
      517,
      517,
      518,
      518,
      519,
      520,
      520,
      521,
      520,
      520,
      519,
      518,
      518,
      517,
      517,
      516,
      516,
      515,
      515,
      515,
      514,
      514,
      514,
      514,
      515,
      515,
      515,
      515,
      515,
      515,
      515,
      516,
      516,
      517,
      517,
      517,
      518,
      518,
      519,
      520,
      520,
      521,
      527,
      521,
      526,
      520,
      525,
      519,
      517,
      511,
      514,
      511,
      511,
      509,
      509,
      507,
      506,
      506,
      506,
      507,
      507,
      507,
      508,
      509,
      509,
      511,
      511,
      512,
      512,
      515,
      515,
      517,
      517,
      518,
      516,
      516,
      514,
      513,
      513,
      512,
      512,
      512,
      513,
      514,
      512,
      511,
      512,
      513,
      514,
      516,
      517,
      519,
      520,
      521,
      522,
      523,
      524,
      525,
      525,
      526,
      528,
      530,
      531,
      531,
      533,
      534,
      535,
      531,
      523,
      523,
      522,
      521,
      520,
      520,
      519,
      520,
      519,
      519,
      519,
      518,
      519,
      519,
      519,
      519,
      519,
      519,
      519,
      518,
      489,
      459,
      451,
      456,
      439,
      427,
      414,
      412,
      394,
      378,
      356,
      341,
      327,
      314,
      309,
      302,
      282,
      281,
      276,
      273,
      263,
      244,
      233,
      222,
      224,
      215,
      189,
      172,
      170,
      145,
      144
    ],
    "swim:timestamps": [
      1784924519,
      1784924550,
      1784924590,
      1784924710,
      1784924770,
      1784924890,
      1784924951,
      1784925011,
      1784925131,
      1784925191,
      1784925251,
      1784925311,
      1784925371,
      1784925431,
      1784925489,
      1784925549,
      1784925609,
      1784925732,
      1784925789,
      1784925849,
      1784925909,
      1784925970,
      1784926030,
      1784926090,
      1784926150,
      1784926270,
      1784926330,
      1784926450,
      1784926510,
      1784926570,
      1784926630,
      1784926690,
      1784926751,
      1784926871,
      1784926931,
      1784926991,
      1784927171,
      1784927231,
      1784927351,
      1784927411,
      1784927472,
      1784927532,
      1784927712,
      1784927772,
      1784927832,
      1784927952,
      1784928012,
      1784928072,
      1784928192,
      1784928253,
      1784928313,
      1784928373,
      1784928433,
      1784928493,
      1784928553,
      1784928613,
      1784928673,
      1784928733,
      1784928853,
      1784928973,
      1784929094,
      1784929154,
      1784929214,
      1784929274,
      1784929334,
      1784929394,
      1784929419,
      1784929479,
      1784929539,
      1784929574,
      1784929599,
      1784929659,
      1784929694,
      1784929719,
      1784929755,
      1784929815,
      1784929840,
      1784929875,
      1784929900,
      1784929935,
      1784929960,
      1784929995,
      1784930055,
      1784930115,
      1784930140,
      1784930175,
      1784930200,
      1784930260,
      1784930295,
      1784930320,
      1784930355,
      1784930415,
      1784930440,
      1784930500,
      1784930560,
      1784930596,
      1784930681,
      1784930741,
      1784930801,
      1784930861,
      1784930921,
      1784930981,
      1784931041,
      1784931101,
      1784931161,
      1784931342,
      1784931402,
      1784931462,
      1784931494,
      1784931522,
      1784931614,
      1784931642,
      1784931702,
      1784931735,
      1784931762,
      1784931822,
      1784931855,
      1784931882,
      1784931915,
      1784931942,
      1784931975,
      1784932002,
      1784932035,
      1784932062,
      1784932123,
      1784932183,
      1784932215,
      1784932243,
      1784932275,
      1784932303,
      1784932335,
      1784932363,
      1784932395,
      1784932423,
      1784932456,
      1784932483,
      1784932516,
      1784932543,
      1784932603,
      1784932696,
      1784932816,
      1784932936,
      1784932996,
      1784933116,
      1784933177,
      1784933297,
      1784933357,
      1784933417,
      1784933477,
      1784933537,
      1784933657,
      1784933729,
      1784933789,
      1784933849,
      1784933909,
      1784933970,
      1784934030,
      1784934150,
      1784934200,
      1784934210,
      1784934260,
      1784934270,
      1784934320,
      1784934330,
      1784934380,
      1784934390,
      1784934440,
      1784934450,
      1784934522,
      1784934561,
      1784934582,
      1784934621,
      1784934643,
      1784934681,
      1784934703,
      1784934763,
      1784934801,
      1784934823,
      1784934861,
      1784934921,
      1784934943,
      1784935003,
      1784935041,
      1784935063,
      1784935102,
      1784935123,
      1784935162,
      1784935183,
      1784935222,
      1784935243,
      1784935282,
      1784935303,
      1784935342,
      1784935364,
      1784935402,
      1784935462,
      1784935484,
      1784935522,
      1784935544,
      1784935582,
      1784935604,
      1784935642,
      1784935664,
      1784935703,
      1784935724,
      1784935763,
      1784935784,
      1784935823,
      1784935844,
      1784935883,
      1784935904,
      1784935943,
      1784936003,
      1784936024,
      1784936063,
      1784936085,
      1784936123,
      1784936145,
      1784936183,
      1784936243,
      1784936303,
      1784936424,
      1784936484,
      1784936544,
      1784936581,
      1784936604,
      1784936664,
      1784936702,
      1784936724,
      1784936784,
      1784936822,
      1784936844,
      1784936882,
      1784936965,
      1784937002,
      1784937025,
      1784937062,
      1784937085,
      1784937122,
      1784937145,
      1784937182,
      1784937242,
      1784937265,
      1784937325,
      1784937362,
      1784937423,
      1784937483,
      1784937543,
      1784938107,
      1784938168,
      1784938228,
      1784938288,
      1784938348,
      1784938408,
      1784938468,
      1784938528,
      1784938588,
      1784938648,
      1784938708,
      1784938768,
      1784938828,
      1784938889,
      1784938949,
      1784939009,
      1784939129,
      1784939189,
      1784939216,
      1784939249,
      1784939309,
      1784939396,
      1784939429,
      1784939489,
      1784939549,
      1784939576,
      1784939610,
      1784939636,
      1784939697,
      1784939730,
      1784939757,
      1784939790,
      1784939817,
      1784939850,
      1784939910,
      1784939937,
      1784939970,
      1784940030,
      1784940057,
      1784940117,
      1784940177,
      1784940237,
      1784940357,
      1784940417,
      1784940538,
      1784940658,
      1784940718,
      1784940778,
      1784940958,
      1784941018,
      1784941047,
      1784941078,
      1784941138,
      1784941155,
      1784941198,
      1784941215,
      1784941258,
      1784941275,
      1784941318,
      1784941329,
      1784941389,
      1784941439,
      1784941499,
      1784941509,
      1784941559,
      1784941570,
      1784941619,
      1784941629,
      1784941679,
      1784941689,
      1784941739,
      1784941799,
      1784941859,
      1784941979,
      1784942039
    ],
    "wof:geomhash": "5917ff855c741be87a82003fcf89f3e4",
    "wof:id": 2031960535,
    "wof:repo": "sfomuseum-data-flights-2026-07"
  },
  "bbox": [
    -122.4,
    37.63333333333333,
    -70.9213888888889,
    43.32222222222222
  ],
  "geometry": {"coordinates":[[-122.4,37.63333333333333],[-122.4,37.65],[-122.3761111111111,37.669444444444444],[-122.2075,37.72666666666667],[-122.1463888888889,37.79277777777778],[-121.99583333333334,37.928888888888885],[-121.89361111111111,37.998333333333335],[-121.76472222222222,38.08527777777778],[-121.53277777777778,38.24055555555556],[-121.41333333333334,38.32055555555556],[-121.2925,38.39694444444444],[-121.16638888888889,38.47416666666667],[-121.03999999999999,38.55222222222222],[-120.90972222222223,38.6325],[-120.7775,38.711111111111116],[-120.64333333333335,38.793055555555554],[-120.50555555555556,38.87638888888889],[-120.22583333333334,39.04694444444444],[-120.08138888888888,39.13166666666667],[-119.935,39.21888888888889],[-119.78888888888889,39.30583333333333],[-119.64166666666668,39.39333333333333],[-119.49388888888889,39.481388888888894],[-119.34527777777777,39.56722222222223],[-119.19722222222222,39.65361111111111],[-118.89888888888889,39.82666666666667],[-118.74222222222222,39.90694444444444],[-118.41444444444446,40.040277777777774],[-118.25361111111111,40.105000000000004],[-118.09055555555555,40.17055555555555],[-117.92055555555557,40.22888888888889],[-117.74722222222222,40.280833333333334],[-117.57555555555555,40.331944444444446],[-117.22694444444444,40.43472222222222],[-117.04944444444445,40.486666666666665],[-116.90833333333335,40.527499999999996],[-116.37638888888888,40.67972222222222],[-116.19916666666667,40.72972222222222],[-115.84472222222222,40.83833333333334],[-115.68027777777779,40.911944444444444],[-115.51416666666667,40.98583333333333],[-115.34861111111111,41.05916666666666],[-114.8461111111111,41.28],[-114.67166666666667,41.34527777777778],[-114.4925,41.39555555555555],[-114.12833333333333,41.49527777777778],[-113.94583333333334,41.544999999999995],[-113.76444444444445,41.59388888888889],[-113.40055555555556,41.69166666666666],[-113.21444444444445,41.74111111111111],[-113.02555555555556,41.77722222222222],[-112.8386111111111,41.81111111111111],[-112.61861111111111,41.85],[-112.42666666666668,41.874722222222225],[-112.23527777777778,41.88805555555555],[-112.04138888888889,41.90083333333333],[-111.88138888888888,41.91111111111111],[-111.68972222222223,41.92333333333333],[-111.30222222222221,41.947222222222216],[-110.91277777777778,41.971111111111114],[-110.52472222222222,42.00333333333333],[-110.32916666666667,42.01972222222222],[-110.13416666666667,42.03611111111111],[-109.93861111111111,42.05222222222222],[-109.74527777777777,42.06777777777778],[-109.54805555555555,42.08388888888889],[-109.47277777777778,42.09111111111111],[-109.27972222222222,42.10666666666667],[-109.09083333333332,42.12305555555555],[-108.97944444444444,42.134166666666665],[-108.90333333333334,42.145833333333336],[-108.71833333333333,42.17388888888889],[-108.60555555555555,42.19027777777777],[-108.53083333333333,42.200833333333335],[-108.41888888888889,42.21666666666667],[-108.235,42.2425],[-108.15916666666668,42.25333333333333],[-108.0461111111111,42.26916666666666],[-107.97305555555556,42.279444444444444],[-107.86027777777777,42.294999999999995],[-107.78527777777778,42.305],[-107.67333333333333,42.32027777777778],[-107.48472222222222,42.34583333333334],[-107.2975,42.37083333333334],[-107.22222222222223,42.38055555555555],[-107.10694444444444,42.39611111111111],[-107.03194444444445,42.405833333333334],[-106.83222222222221,42.431666666666665],[-106.71833333333333,42.44611111111111],[-106.64444444444445,42.45527777777778],[-106.53222222222222,42.46944444444445],[-106.34638888888888,42.4925],[-106.27194444444444,42.50194444444445],[-106.08277777777778,42.525],[-105.89555555555556,42.5475],[-105.78027777777778,42.56111111111111],[-105.51138888888889,42.59277777777778],[-105.31861111111111,42.615],[-105.12722222222222,42.636944444444445],[-104.93555555555555,42.658055555555556],[-104.74388888888889,42.67916666666667],[-104.54444444444444,42.70055555555556],[-104.35083333333333,42.721111111111114],[-104.19944444444445,42.73694444444445],[-104.00944444444444,42.75666666666667],[-103.43583333333333,42.81388888888888],[-103.20527777777778,42.836111111111116],[-103.01583333333333,42.85388888888889],[-102.95138888888889,42.85861111111111],[-102.82583333333334,42.87138888888889],[-102.56916666666666,42.89388888888889],[-102.43944444444445,42.90611111111111],[-102.24944444444445,42.9225],[-102.14555555555556,42.931666666666665],[-102.05666666666666,42.939166666666665],[-101.86527777777778,42.95527777777778],[-101.76083333333334,42.96416666666667],[-101.69194444444445,42.969722222222224],[-101.56916666666666,42.97944444444445],[-101.49777777777778,42.98527777777778],[-101.37249999999999,42.995],[-101.29472222222222,43.00111111111111],[-101.1825,43.00972222222222],[-101.10333333333332,43.01611111111111],[-100.9075,43.030833333333334],[-100.71638888888889,43.04472222222222],[-100.60388888888889,43.05305555555555],[-100.52083333333333,43.05888888888889],[-100.40944444444445,43.06666666666667],[-100.32666666666667,43.072500000000005],[-100.21472222222222,43.08027777777778],[-100.13472222222222,43.08555555555556],[-100.01694444444445,43.093333333333334],[-99.94055555555556,43.098333333333336],[-99.82527777777777,43.10611111111111],[-99.74666666666667,43.111111111111114],[-99.63138888888888,43.11833333333333],[-99.55527777777777,43.12305555555555],[-99.3625,43.135],[-99.05472222222222,43.15333333333333],[-98.68416666666667,43.17444444444444],[-98.29916666666666,43.19472222222222],[-98.10249999999999,43.20472222222222],[-97.71666666666667,43.223055555555554],[-97.52083333333333,43.231944444444444],[-97.13333333333334,43.24861111111111],[-96.93861111111111,43.256388888888885],[-96.74527777777777,43.26361111111111],[-96.54972222222221,43.270833333333336],[-96.3561111111111,43.277499999999996],[-95.92722222222223,43.291666666666664],[-95.69194444444445,43.29833333333333],[-95.49638888888889,43.303888888888885],[-95.29861111111111,43.30888888888889],[-95.14027777777778,43.3125],[-94.90444444444445,43.31777777777778],[-94.70944444444444,43.32222222222222],[-94.31805555555555,43.306666666666665],[-94.17111111111112,43.28861111111111],[-94.13222222222221,43.28388888888889],[-93.9775,43.27972222222222],[-93.93805555555556,43.28],[-93.77972222222222,43.28194444444444],[-93.74083333333333,43.282222222222224],[-93.58333333333333,43.28361111111111],[-93.54277777777777,43.28388888888889],[-93.38527777777779,43.28472222222222],[-93.34722222222221,43.285],[-93.14722222222223,43.28583333333333],[-92.99,43.28638888888889],[-92.9075,43.28666666666666],[-92.79055555555556,43.28666666666666],[-92.71138888888889,43.286944444444444],[-92.5925,43.28666666666666],[-92.51472222222222,43.28666666666666],[-92.31611111111111,43.28611111111111],[-92.1975,43.285555555555554],[-92.11972222222222,43.28527777777778],[-91.99972222222222,43.28472222222222],[-91.80194444444444,43.28333333333333],[-91.72444444444444,43.282777777777774],[-91.5261111111111,43.28055555555555],[-91.40916666666668,43.27916666666667],[-91.32888888888888,43.27833333333333],[-91.21055555555556,43.276944444444446],[-91.13333333333334,43.27583333333333],[-91.01583333333333,43.274166666666666],[-90.93388888888889,43.27305555555555],[-90.8175,43.270833333333336],[-90.7375,43.269444444444446],[-90.6211111111111,43.26722222222222],[-90.54083333333332,43.26583333333333],[-90.42361111111111,43.263888888888886],[-90.3461111111111,43.26222222222222],[-90.23138888888889,43.25972222222222],[-90.03333333333333,43.25527777777778],[-89.95194444444445,43.25333333333333],[-89.83749999999999,43.25055555555556],[-89.75333333333333,43.248333333333335],[-89.64083333333333,43.24527777777778],[-89.55749999999999,43.24305555555556],[-89.44305555555556,43.24],[-89.35944444444443,43.237500000000004],[-89.24833333333333,43.23416666666667],[-89.17805555555556,43.231944444444444],[-89.04833333333333,43.22777777777778],[-89.0111111111111,43.22638888888889],[-88.85333333333332,43.22166666666667],[-88.77583333333334,43.21805555555556],[-88.6563888888889,43.21472222222223],[-88.58138888888888,43.21],[-88.46638888888889,43.20777777777778],[-88.27305555555556,43.20055555555556],[-88.19222222222223,43.197222222222216],[-88.08027777777778,43.19277777777778],[-87.99861111111112,43.189166666666665],[-87.8913888888889,43.18472222222222],[-87.80722222222222,43.18111111111111],[-87.69888888888889,43.17666666666666],[-87.50833333333334,43.168055555555554],[-87.31972222222223,43.159166666666664],[-86.93583333333333,43.14055555555556],[-86.7475,43.130833333333335],[-86.5525,43.120555555555555],[-86.4388888888889,43.11416666666667],[-86.35972222222222,43.109722222222224],[-86.1675,43.098888888888894],[-86.03416666666666,43.09138888888889],[-85.96416666666667,43.08722222222222],[-85.76638888888888,43.07527777777778],[-85.65138888888889,43.068333333333335],[-85.57055555555556,43.06305555555555],[-85.45611111111111,43.05583333333333],[-85.17916666666667,43.03805555555555],[-85.06416666666667,43.030277777777776],[-84.98166666666667,43.02444444444444],[-84.86694444444444,43.016666666666666],[-84.78694444444444,43.01416666666667],[-84.67194444444445,43.01694444444444],[-84.59194444444444,43.01888888888889],[-84.47833333333334,43.021388888888886],[-84.27083333333333,43.025555555555556],[-84.20833333333334,43.026944444444446],[-84.01388888888889,43.030277777777776],[-83.88222222222221,43.0325],[-83.68555555555555,43.03527777777778],[-83.49111111111111,43.03777777777778],[-83.2936111111111,43.040277777777774],[-81.45916666666668,43.04472222222222],[-81.26805555555555,43.04361111111111],[-81.07472222222222,43.04222222222222],[-80.8761111111111,43.04],[-80.6825,43.03777777777778],[-80.4825,43.03527777777778],[-80.28694444444444,43.032222222222224],[-80.09166666666667,43.02916666666667],[-79.88555555555556,43.025555555555556],[-79.6888888888889,43.02166666666667],[-79.48833333333333,43.01722222222222],[-79.29055555555556,43.0125],[-79.0911111111111,43.0075],[-78.89250000000001,43.00222222222222],[-78.69222222222223,42.99638888888889],[-78.49305555555556,42.99],[-78.08944444444444,42.97694444444445],[-77.88861111111112,42.969722222222224],[-77.81527777777778,42.96666666666667],[-77.68333333333334,42.961666666666666],[-77.5225,42.955555555555556],[-77.19444444444444,42.94194444444444],[-77.11027777777777,42.93833333333333],[-76.90916666666668,42.92972222222222],[-76.71166666666667,42.92055555555555],[-76.59555555555555,42.914722222222224],[-76.5175,42.90083333333333],[-76.41416666666667,42.861111111111114],[-76.24,42.79666666666667],[-76.16277777777778,42.788888888888884],[-76.04861111111111,42.78861111111111],[-75.96972222222223,42.78805555555555],[-75.85249999999999,42.78666666666666],[-75.775,42.785555555555554],[-75.5425,42.7825],[-75.46472222222222,42.78138888888889],[-75.35055555555554,42.78],[-75.15277777777779,42.776666666666664],[-75.07833333333333,42.775555555555556],[-74.88277777777778,42.77194444444444],[-74.68694444444445,42.76833333333333],[-74.49194444444444,42.763888888888886],[-74.10333333333332,42.754444444444445],[-73.90722222222223,42.74944444444444],[-73.52333333333333,42.74472222222222],[-73.1725,42.74138888888889],[-73.00166666666667,42.72777777777778],[-72.8261111111111,42.7075],[-72.32111111111111,42.64666666666667],[-72.15722222222223,42.6275],[-72.08333333333333,42.61666666666667],[-72.0038888888889,42.60916666666667],[-71.85805555555555,42.590833333333336],[-71.81666666666666,42.583333333333336],[-71.72333333333333,42.57083333333334],[-71.68333333333334,42.56666666666667],[-71.60166666666666,42.55166666666666],[-71.56666666666666,42.55],[-71.48944444444444,42.528888888888886],[-71.46666666666667,42.516666666666666],[-71.36666666666666,42.5],[-71.28277777777778,42.486666666666665],[-71.18333333333334,42.466944444444444],[-71.16666666666667,42.46666666666667],[-71.09027777777777,42.48555555555556],[-71.06666666666666,42.5],[-71.04194444444444,42.53611111111111],[-71.03333333333333,42.55],[-71.01222222222222,42.593611111111116],[-71,42.6],[-70.94638888888889,42.59666666666667],[-70.9213888888889,42.55611111111111],[-70.93388888888889,42.51111111111111],[-70.9725,42.43222222222222],[-70.99055555555556,42.394999999999996]],"type":"LineString"}
}
