{
  "id": 2031982709,
  "type": "Feature",
  "properties": {
    "geom:area": 0,
    "geom:bbox": "-122.522410,36.760020,-121.357520,37.666220",
    "geom:latitude": 37.21883727423875,
    "geom:longitude": -122.02448002640988,
    "src:alt_label": "swim-takeoff",
    "src:geom": "swim",
    "swim:elevations": [
      152,
      318,
      653,
      950,
      1127,
      1595,
      1647,
      2481,
      2751,
      3081,
      3293,
      3706,
      3962,
      4177,
      4426,
      5019,
      5280,
      5450,
      5815,
      6055,
      6333,
      6460,
      6752,
      6964,
      7053,
      7478,
      7723,
      7887,
      8138,
      8296,
      8455,
      8623,
      8718,
      8836
    ],
    "swim:geom": "takeoff",
    "swim:timestamps": [
      1785064478,
      1785064489,
      1785064511,
      1785064538,
      1785064561,
      1785064599,
      1785064603,
      1785064677,
      1785064699,
      1785064724,
      1785064755,
      1785064784,
      1785064809,
      1785064834,
      1785064860,
      1785064918,
      1785064942,
      1785064964,
      1785065002,
      1785065027,
      1785065062,
      1785065076,
      1785065114,
      1785065139,
      1785065148,
      1785065203,
      1785065238,
      1785065268,
      1785065301,
      1785065320,
      1785065340,
      1785065365,
      1785065380,
      1785065402
    ],
    "wof:geomhash": "81ab25a45c2d0b6cfd4da23dbefbb40b",
    "wof:id": 2031982709,
    "wof:repo": "sfomuseum-data-flights-2026-07"
  },
  "bbox": [
    -122.52241,
    36.76002,
    -121.35752,
    37.66622
  ],
  "geometry": {"coordinates":[[-122.39608,37.62731],[-122.40571,37.63155],[-122.42534,37.63959],[-122.45039,37.65062],[-122.47264,37.66104],[-122.51805,37.66622],[-122.52241,37.66378],[-122.51879,37.58588],[-122.50605,37.55824],[-122.49139,37.5275],[-122.46824,37.48749],[-122.42683,37.4593],[-122.38904,37.4355],[-122.3516,37.41064],[-122.31024,37.38366],[-122.21773,37.32435],[-122.1769,37.29807],[-122.14069,37.2746],[-122.07707,37.23329],[-122.03508,37.20605],[-121.97495,37.16693],[-121.95072,37.15103],[-121.88559,37.10853],[-121.8413,37.07967],[-121.82526,37.06913],[-121.72669,37.00466],[-121.66202,36.96147],[-121.60678,36.9251],[-121.54575,36.88475],[-121.51045,36.8614],[-121.47328,36.83692],[-121.42636,36.80563],[-121.39894,36.78763],[-121.35752,36.76002]],"type":"LineString"}
}
