{
  "id": 2031961143,
  "type": "Feature",
  "properties": {
    "date:cessation_lower": "2026-07-25",
    "date:cessation_upper": "2026-07-25",
    "date:inception_lower": "2026-07-25",
    "date:inception_upper": "2026-07-25",
    "edtf:cessation": "2026-07-25T06:11:08Z",
    "edtf:inception": "2026-07-25T05:08:00Z",
    "flysfo:actual_timestamp": -1,
    "flysfo:airline": "UA",
    "flysfo:date": "2026-07-24",
    "flysfo:estimated_timestamp": 1784954940,
    "flysfo:event": "D",
    "flysfo:flight_number": "UA8190",
    "flysfo:gate": "",
    "flysfo:journey": "SFO-EUG",
    "flysfo:scheduled_timestamp": 1784954940,
    "flysfo:timestamp": 1784954940,
    "geom:area": 0,
    "geom:bbox": "-123.213030,37.617990,-122.370943,44.119058",
    "geom:latitude": 40.868524,
    "geom:longitude": -122.79198650000001,
    "iata:airline": "UA",
    "icao:aircraft": "A320",
    "icao:airline": "UAL",
    "lbl:latitude": 37.61799,
    "lbl:longitude": -122.370943,
    "sfomuseum:aircraft_id": 1159292085,
    "sfomuseum:airline_id": 1159285413,
    "sfomuseum:arrival_id": 102533927,
    "sfomuseum:departure_id": 102527513,
    "sfomuseum:flight_id": "20260724-D-UAL-8190",
    "sfomuseum:flight_number": [
      "UAL8190",
      "UA8190"
    ],
    "sfomuseum:placetype": "flight",
    "src:geom": "flysfo",
    "src:geom_alt": [
      "swim-path",
      "swim-takeoff"
    ],
    "swim:tail_number": "N466UA",
    "wof:belongsto": [],
    "wof:concordances": {
      "swim:flight_ref": "152667611"
    },
    "wof:country": "US",
    "wof:created": 1784996311,
    "wof:geomhash": "ac29143dee46faf8dc4d82fa5cfc7601",
    "wof:hierarchy": [
      {
        "custom_id": 2031961143,
        "flight_id": 2031961143
      }
    ],
    "wof:id": 2031961143,
    "wof:involves": [
      1159292085,
      102533927,
      102527513,
      1159285413
    ],
    "wof:lastmodified": 1784996395,
    "wof:name": "UA8190 (SFO-EUG)",
    "wof:parent_id": -1,
    "wof:placetype": "custom",
    "wof:placetype_alt": [
      "flight"
    ],
    "wof:repo": "sfomuseum-data-flights-2026-07",
    "wof:superseded_by": [],
    "wof:supersedes": []
  },
  "bbox": [
    -123.21303,
    37.61799,
    -122.370943,
    44.119058
  ],
  "geometry": {"coordinates":[[-122.370943,37.61799],[-123.21303,44.119058]],"type":"MultiPoint"}
}
