{
  "id": 2032039623,
  "type": "Feature",
  "properties": {
    "geom:area": 0,
    "geom:bbox": "-121.126111,38.499167,-104.683333,40.846111",
    "geom:latitude": 40.325311857236315,
    "geom:longitude": -112.77557122505183,
    "src:alt_label": "swim-path",
    "src:geom": "swim",
    "swim:altitudes": [
      "285",
      "297",
      "305",
      "309",
      "317",
      "320",
      "330",
      "339",
      "346",
      "356",
      "359",
      "365",
      "367",
      "370C",
      "370C",
      "370C",
      "370C",
      "370C",
      "370C",
      "370C",
      "370C",
      "370C",
      "370C",
      "370C",
      "370C",
      "370C",
      "370C",
      "370C",
      "370C",
      "370C",
      "370C",
      "370C",
      "370C",
      "370C",
      "370C",
      "370C",
      "370C",
      "370C",
      "370C",
      "370C",
      "370C",
      "370C",
      "370C",
      "370C",
      "370C",
      "370C",
      "370C",
      "370C",
      "370C",
      "370C",
      "370C",
      "370C",
      "370C",
      "370C",
      "370C",
      "370C",
      "370C",
      "370C",
      "370C",
      "370C",
      "370C",
      "370C",
      "370C",
      "370C",
      "370C",
      "370C",
      "370C",
      "370C",
      "370C",
      "370C",
      "370C",
      "370C",
      "370C",
      "370C",
      "370C",
      "370C",
      "370C",
      "370C",
      "370C",
      "370C",
      "370C",
      "370C",
      "370C",
      "370C",
      "370C",
      "370C",
      "370C",
      "370C",
      "370C",
      "370C",
      "370C",
      "370C",
      "370C",
      "370C",
      "370C",
      "370C",
      "370C",
      "370C",
      "370C",
      "370C",
      "370",
      "370",
      "370",
      "370",
      "370",
      "370",
      "370",
      "359",
      "333",
      "310",
      "289",
      "270",
      "256",
      "250",
      "242",
      "241",
      "232",
      "223",
      "222",
      "213",
      "212",
      "201",
      "190",
      "178",
      "163",
      "149",
      "131",
      "131",
      "130",
      "131",
      "117",
      "116",
      "110",
      "101",
      "091",
      "077",
      "068",
      "068",
      "062",
      "061",
      "055",
      "054",
      "054"
    ],
    "swim:geom": "path",
    "swim:speeds": [
      449,
      458,
      462,
      469,
      471,
      475,
      483,
      491,
      492,
      498,
      497,
      499,
      498,
      499,
      503,
      505,
      505,
      505,
      507,
      508,
      509,
      508,
      508,
      508,
      509,
      514,
      510,
      514,
      512,
      514,
      514,
      516,
      517,
      518,
      518,
      519,
      519,
      520,
      519,
      521,
      521,
      523,
      524,
      525,
      525,
      526,
      526,
      527,
      527,
      528,
      528,
      528,
      528,
      528,
      528,
      528,
      528,
      529,
      529,
      529,
      528,
      528,
      527,
      525,
      525,
      524,
      524,
      523,
      521,
      519,
      519,
      519,
      519,
      520,
      520,
      521,
      520,
      520,
      521,
      520,
      519,
      517,
      517,
      518,
      518,
      519,
      518,
      517,
      511,
      511,
      511,
      511,
      511,
      511,
      512,
      513,
      514,
      514,
      515,
      515,
      512,
      509,
      507,
      507,
      507,
      506,
      504,
      505,
      504,
      501,
      488,
      471,
      459,
      455,
      435,
      434,
      423,
      417,
      418,
      409,
      414,
      409,
      395,
      395,
      373,
      335,
      324,
      320,
      315,
      319,
      320,
      319,
      306,
      262,
      205,
      179,
      159,
      162,
      139,
      140,
      153,
      150,
      97
    ],
    "swim:timestamps": [
      1785468288,
      1785468348,
      1785468387,
      1785468408,
      1785468447,
      1785468468,
      1785468528,
      1785468588,
      1785468628,
      1785468688,
      1785468708,
      1785468748,
      1785468769,
      1785468808,
      1785468829,
      1785468868,
      1785468889,
      1785468928,
      1785468949,
      1785468988,
      1785469009,
      1785469048,
      1785469069,
      1785469108,
      1785469129,
      1785469168,
      1785469189,
      1785469229,
      1785469249,
      1785469289,
      1785469309,
      1785469349,
      1785469369,
      1785469409,
      1785469429,
      1785469469,
      1785469489,
      1785469529,
      1785469549,
      1785469589,
      1785469610,
      1785469649,
      1785469670,
      1785469709,
      1785469730,
      1785469769,
      1785469790,
      1785469829,
      1785469850,
      1785469889,
      1785469910,
      1785469949,
      1785469970,
      1785470010,
      1785470030,
      1785470070,
      1785470090,
      1785470130,
      1785470190,
      1785470250,
      1785470310,
      1785470370,
      1785470430,
      1785470490,
      1785470550,
      1785470610,
      1785470670,
      1785470730,
      1785470791,
      1785470851,
      1785470911,
      1785470971,
      1785471031,
      1785471091,
      1785471151,
      1785471211,
      1785471271,
      1785471331,
      1785471391,
      1785471451,
      1785471511,
      1785471572,
      1785471632,
      1785471692,
      1785471752,
      1785471812,
      1785471872,
      1785471932,
      1785471990,
      1785472050,
      1785472110,
      1785472172,
      1785472230,
      1785472290,
      1785472352,
      1785472410,
      1785472470,
      1785472533,
      1785472591,
      1785472651,
      1785472713,
      1785472771,
      1785472831,
      1785472893,
      1785472951,
      1785473011,
      1785473071,
      1785473131,
      1785473191,
      1785473251,
      1785473311,
      1785473371,
      1785473431,
      1785473454,
      1785473483,
      1785473491,
      1785473546,
      1785473604,
      1785473612,
      1785473666,
      1785473672,
      1785473732,
      1785473792,
      1785473852,
      1785473912,
      1785473972,
      1785474024,
      1785474032,
      1785474084,
      1785474092,
      1785474146,
      1785474152,
      1785474212,
      1785474272,
      1785474332,
      1785474392,
      1785474443,
      1785474452,
      1785474503,
      1785474512,
      1785474566,
      1785474572,
      1785474632
    ],
    "wof:geomhash": "7a8f2396a9db1b872f727b57714e8ddc",
    "wof:id": 2032039623,
    "wof:repo": "sfomuseum-data-flights-2026-07"
  },
  "bbox": [
    -121.1261111111111,
    38.49916666666667,
    -104.68333333333334,
    40.846111111111114
  ],
  "geometry": {"coordinates":[[-121.1261111111111,38.49916666666667],[-120.99833333333333,38.57805555555556],[-120.9075,38.63027777777778],[-120.86777777777777,38.65833333333333],[-120.77472222222222,38.712500000000006],[-120.73527777777778,38.73916666666667],[-120.59888888888888,38.82194444444445],[-120.45944444444444,38.906388888888884],[-120.36083333333333,38.962500000000006],[-120.22,39.04833333333333],[-120.17888888888889,39.075],[-120.07805555555555,39.13333333333333],[-120.04916666666666,39.15277777777778],[-119.93611111111112,39.218611111111116],[-119.90583333333333,39.238055555555555],[-119.79166666666667,39.305],[-119.76138888888889,39.32361111111111],[-119.6463888888889,39.39111111111111],[-119.61472222222221,39.41],[-119.50027777777778,39.47777777777778],[-119.4675,39.49666666666667],[-119.38333333333334,39.54611111111111],[-119.32166666666666,39.58166666666667],[-119.235,39.63138888888889],[-119.17361111111111,39.66777777777777],[-119.05666666666666,39.73555555555556],[-119.02472222222222,39.75416666666667],[-118.90694444444445,39.82166666666667],[-118.87472222222222,39.84027777777778],[-118.75222222222222,39.90277777777778],[-118.71777777777778,39.916666666666664],[-118.62055555555555,39.95638888888889],[-118.54972222222221,39.98527777777778],[-118.4525,40.02472222222222],[-118.3825,40.05305555555555],[-118.25527777777778,40.10416666666667],[-118.21361111111112,40.12083333333334],[-118.08805555555556,40.171388888888885],[-118.0461111111111,40.18805555555555],[-117.9113888888889,40.224444444444444],[-117.86666666666666,40.235],[-117.7286111111111,40.26722222222222],[-117.68861111111111,40.276666666666664],[-117.54472222222222,40.30972222222222],[-117.50694444444444,40.318333333333335],[-117.3625,40.35166666666667],[-117.32249999999999,40.36055555555556],[-117.17805555555556,40.39333333333333],[-117.13833333333334,40.40222222222222],[-116.98916666666666,40.43583333333333],[-116.94861111111112,40.44499999999999],[-116.83472222222221,40.470555555555556],[-116.75027777777778,40.489444444444445],[-116.64472222222223,40.51277777777778],[-116.56888888888888,40.52972222222222],[-116.45833333333334,40.553888888888885],[-116.3825,40.56722222222223],[-116.26916666666666,40.57666666666667],[-116.07777777777777,40.59138888888889],[-115.88333333333334,40.60611111111111],[-115.69222222222223,40.62],[-115.50055555555555,40.63388888888889],[-115.31138888888889,40.64694444444444],[-115.11861111111111,40.66],[-114.93055555555556,40.6725],[-114.73083333333334,40.68555555555555],[-114.53972222222222,40.6975],[-114.35277777777777,40.705555555555556],[-114.16305555555556,40.71222222222222],[-113.9738888888889,40.71888888888889],[-113.78444444444445,40.725],[-113.59555555555555,40.73861111111111],[-113.40777777777778,40.75277777777778],[-113.21611111111112,40.766666666666666],[-113.02666666666667,40.78055555555555],[-112.83722222222222,40.79388888888889],[-112.64944444444446,40.806666666666665],[-112.46000000000001,40.81944444444445],[-112.26916666666666,40.831944444444446],[-112.08333333333333,40.84388888888889],[-111.8963888888889,40.846111111111114],[-111.71194444444444,40.83694444444445],[-111.52666666666667,40.8275],[-111.29944444444445,40.81583333333333],[-111.11083333333333,40.80555555555555],[-110.92194444444445,40.79472222222222],[-110.73222222222222,40.78388888888889],[-110.58416666666666,40.775],[-110.39416666666668,40.76361111111111],[-110.21000000000001,40.75222222222222],[-110.02361111111111,40.74027777777778],[-109.81638888888888,40.72666666666667],[-109.65305555555557,40.71555555555556],[-109.44638888888889,40.70138888888889],[-109.25555555555556,40.68805555555555],[-109.06861111111111,40.67444444444444],[-108.88083333333333,40.66222222222222],[-108.68583333333333,40.649166666666666],[-108.505,40.63722222222222],[-108.31833333333333,40.62444444444444],[-108.1275,40.611111111111114],[-107.97638888888889,40.60027777777778],[-107.75833333333334,40.58416666666667],[-107.57888888888888,40.57083333333334],[-107.39361111111111,40.55638888888888],[-107.21694444444445,40.543055555555554],[-107.035,40.52861111111111],[-106.85,40.51361111111111],[-106.66777777777779,40.49861111111111],[-106.48694444444445,40.483333333333334],[-106.30638888888889,40.466944444444444],[-106.13722222222223,40.45166666666667],[-105.97027777777778,40.43722222222222],[-105.9,40.43333333333333],[-105.83333333333333,40.416666666666664],[-105.81222222222222,40.40861111111111],[-105.7,40.36666666666667],[-105.56666666666666,40.3],[-105.5436111111111,40.301111111111105],[-105.41666666666667,40.25],[-105.41194444444444,40.2475],[-105.28055555555555,40.19444444444444],[-105.1525,40.14194444444444],[-105.0275,40.090833333333336],[-104.92416666666666,40.026666666666664],[-104.915,39.931666666666665],[-104.91666666666667,39.85],[-104.91861111111112,39.84444444444445],[-104.93333333333334,39.766666666666666],[-104.93277777777779,39.7575],[-104.95,39.68333333333333],[-104.93944444444445,39.66888888888889],[-104.85,39.63361111111111],[-104.74916666666667,39.64055555555556],[-104.70527777777778,39.69277777777778],[-104.68861111111111,39.73861111111111],[-104.68333333333334,39.78333333333333],[-104.68833333333333,39.78583333333333],[-104.68333333333334,39.81666666666667],[-104.68777777777778,39.823888888888895],[-104.68333333333334,39.86666666666667],[-104.68722222222223,39.86638888888889],[-104.68583333333333,39.88388888888889]],"type":"LineString"}
}
