{
  "id": 2032034551,
  "type": "Feature",
  "properties": {
    "geom:area": 0,
    "geom:bbox": "-122.358010,37.491790,-121.249630,37.613810",
    "geom:latitude": 37.54294848239373,
    "geom:longitude": -121.81087524904017,
    "src:alt_label": "swim-approach",
    "src:geom": "swim",
    "swim:elevations": [
      4889,
      4644,
      4343,
      4059,
      3878,
      3836,
      3779,
      3729,
      3415,
      3363,
      3168,
      2883,
      2709,
      2542,
      2340,
      2267,
      2124,
      1916,
      1745,
      1614,
      1435,
      1376,
      1266,
      1136,
      893,
      812,
      635,
      576,
      415,
      307,
      212,
      69,
      3
    ],
    "swim:geom": "approach",
    "swim:timestamps": [
      1785456440,
      1785456465,
      1785456495,
      1785456530,
      1785456552,
      1785456558,
      1785456567,
      1785456581,
      1785456627,
      1785456633,
      1785456666,
      1785456711,
      1785456735,
      1785456768,
      1785456808,
      1785456818,
      1785456842,
      1785456885,
      1785456917,
      1785456947,
      1785456983,
      1785456996,
      1785457020,
      1785457053,
      1785457104,
      1785457125,
      1785457168,
      1785457178,
      1785457220,
      1785457247,
      1785457271,
      1785457310,
      1785457325
    ],
    "wof:geomhash": "f152ab0ed775cd3447a33dda504fca62",
    "wof:id": 2032034551,
    "wof:repo": "sfomuseum-data-flights-2026-07"
  },
  "bbox": [
    -122.35801,
    37.49179,
    -121.24963,
    37.61381
  ],
  "geometry": {"coordinates":[[-121.24963,37.59461],[-121.2939,37.58887],[-121.34766,37.58306],[-121.41142,37.57585],[-121.44841,37.5715],[-121.4589,37.57027],[-121.47459,37.56847],[-121.49913,37.56561],[-121.57336,37.55676],[-121.58275,37.55563],[-121.63354,37.54874],[-121.69911,37.53332],[-121.73382,37.52482],[-121.77937,37.5139],[-121.83251,37.501],[-121.84582,37.49786],[-121.87857,37.49179],[-121.93679,37.49442],[-121.97958,37.49684],[-122.01908,37.49911],[-122.06492,37.50167],[-122.08003,37.50246],[-122.10723,37.50812],[-122.1389,37.52163],[-122.18613,37.54158],[-122.20461,37.54936],[-122.2412,37.5648],[-122.25018,37.56859],[-122.2822,37.58195],[-122.30335,37.59099],[-122.32027,37.59807],[-122.3476,37.60949],[-122.35801,37.61381]],"type":"LineString"}
}
