{
  "id": 2031965335,
  "type": "Feature",
  "properties": {
    "geom:area": 0,
    "geom:bbox": "-122.349950,37.492050,-121.283110,37.610540",
    "geom:latitude": 37.540904560763764,
    "geom:longitude": -121.82328897632259,
    "src:alt_label": "swim-approach",
    "src:geom": "swim",
    "swim:elevations": [
      4468,
      4195,
      3880,
      3659,
      3419,
      3170,
      3123,
      2966,
      2916,
      2772,
      2532,
      2458,
      2307,
      2243,
      2058,
      1899,
      1799,
      1661,
      1607,
      1398,
      1342,
      1220,
      1185,
      1154,
      908,
      873,
      682,
      581,
      454,
      384,
      306,
      241,
      150,
      59
    ],
    "swim:geom": "approach",
    "swim:timestamps": [
      1785025015,
      1785025045,
      1785025075,
      1785025099,
      1785025125,
      1785025165,
      1785025183,
      1785025214,
      1785025223,
      1785025241,
      1785025287,
      1785025317,
      1785025341,
      1785025350,
      1785025386,
      1785025419,
      1785025435,
      1785025464,
      1785025479,
      1785025524,
      1785025536,
      1785025573,
      1785025582,
      1785025594,
      1785025648,
      1785025657,
      1785025706,
      1785025732,
      1785025761,
      1785025783,
      1785025804,
      1785025818,
      1785025842,
      1785025866
    ],
    "wof:geomhash": "853577084c78d8879ec9f306c8870675",
    "wof:id": 2031965335,
    "wof:repo": "sfomuseum-data-flights-2026-07"
  },
  "bbox": [
    -122.34995,
    37.49205,
    -121.28311,
    37.61054
  ],
  "geometry": {"coordinates":[[-121.28311,37.59007],[-121.34108,37.58359],[-121.39977,37.57701],[-121.44587,37.5718],[-121.49496,37.5661],[-121.57043,37.55717],[-121.60243,37.55346],[-121.65258,37.54412],[-121.66678,37.5407],[-121.69504,37.53383],[-121.76284,37.51805],[-121.8037,37.50825],[-121.83592,37.50039],[-121.84793,37.49747],[-121.89886,37.49205],[-121.94314,37.49451],[-121.96416,37.49567],[-122.00026,37.49786],[-122.01879,37.499],[-122.07349,37.50219],[-122.08754,37.50331],[-122.12296,37.51526],[-122.13085,37.51849],[-122.1414,37.52277],[-122.18588,37.5414],[-122.19301,37.54448],[-122.23188,37.56093],[-122.25101,37.56887],[-122.27294,37.57815],[-122.28833,37.58456],[-122.30335,37.5909],[-122.31355,37.59525],[-122.33139,37.60272],[-122.34995,37.61054]],"type":"LineString"}
}
