{
  "id": 2032049321,
  "type": "Feature",
  "properties": {
    "geom:area": 0,
    "geom:bbox": "-122.350000,33.919167,-118.447222,37.616667",
    "geom:latitude": 35.524942540884965,
    "geom:longitude": -120.70648699596913,
    "src:alt_label": "swim-path",
    "src:geom": "swim",
    "swim:altitudes": [
      "013",
      "022",
      "033",
      "052",
      "083",
      "112",
      "120",
      "127",
      "146",
      "172",
      "204",
      "233",
      "255",
      "260",
      "269",
      "289",
      "301",
      "312",
      "325",
      "344",
      "360C",
      "360C",
      "360C",
      "360C",
      "360C",
      "360C",
      "360C",
      "360C",
      "360C",
      "360",
      "356",
      "331",
      "310",
      "291",
      "282",
      "272",
      "254",
      "250",
      "232",
      "214",
      "201",
      "197",
      "184",
      "179",
      "164",
      "147",
      "135",
      "122",
      "113",
      "110",
      "101",
      "101",
      "090",
      "085",
      "080",
      "080",
      "074",
      "073",
      "068",
      "063",
      "049",
      "042",
      "037",
      "034",
      "030",
      "027",
      "018",
      "015",
      "011",
      "008",
      "004",
      "002"
    ],
    "swim:geom": "path",
    "swim:speeds": [
      157,
      204,
      211,
      261,
      282,
      304,
      338,
      343,
      356,
      378,
      383,
      380,
      390,
      398,
      400,
      414,
      438,
      464,
      482,
      485,
      462,
      452,
      450,
      448,
      446,
      445,
      444,
      443,
      442,
      442,
      441,
      441,
      446,
      439,
      427,
      422,
      408,
      409,
      387,
      375,
      371,
      363,
      359,
      352,
      348,
      338,
      329,
      300,
      305,
      309,
      302,
      296,
      299,
      297,
      293,
      284,
      284,
      275,
      253,
      245,
      235,
      203,
      197,
      196,
      196,
      189,
      182,
      157,
      145,
      142,
      130,
      125
    ],
    "swim:timestamps": [
      1785532663,
      1785532687,
      1785532723,
      1785532783,
      1785532843,
      1785532903,
      1785532963,
      1785533024,
      1785533084,
      1785533144,
      1785533204,
      1785533264,
      1785533324,
      1785533384,
      1785533444,
      1785533504,
      1785533564,
      1785533624,
      1785533684,
      1785533745,
      1785533805,
      1785533865,
      1785533930,
      1785533990,
      1785534045,
      1785534110,
      1785534170,
      1785534225,
      1785534285,
      1785534350,
      1785534406,
      1785534470,
      1785534530,
      1785534591,
      1785534617,
      1785534651,
      1785534711,
      1785534719,
      1785534780,
      1785534840,
      1785534891,
      1785534899,
      1785534951,
      1785534965,
      1785535020,
      1785535080,
      1785535131,
      1785535199,
      1785535251,
      1785535260,
      1785535312,
      1785535320,
      1785535372,
      1785535386,
      1785535432,
      1785535440,
      1785535492,
      1785535500,
      1785535552,
      1785535566,
      1785535625,
      1785535686,
      1785535732,
      1785535740,
      1785535792,
      1785535806,
      1785535852,
      1785535866,
      1785535912,
      1785535926,
      1785535972,
      1785535986
    ],
    "wof:geomhash": "e34e527417062be4a9f72ba698cca128",
    "wof:id": 2032049321,
    "wof:repo": "sfomuseum-data-flights-2026-07"
  },
  "bbox": [
    -122.35,
    33.91916666666666,
    -118.44722222222222,
    37.61666666666667
  ],
  "geometry": {"coordinates":[[-118.44722222222222,33.94583333333333],[-118.48333333333333,33.95],[-118.51388888888889,33.94222222222222],[-118.59527777777777,33.93527777777778],[-118.68861111111111,33.92833333333333],[-118.7863888888889,33.920833333333334],[-118.89861111111112,33.91916666666666],[-118.9975,33.958333333333336],[-119.08111111111111,34.029444444444444],[-119.17,34.10472222222222],[-119.26027777777777,34.18138888888889],[-119.35777777777777,34.24583333333334],[-119.48444444444445,34.26722222222222],[-119.61861111111111,34.2575],[-119.75166666666667,34.24777777777778],[-119.87527777777777,34.285555555555554],[-119.95527777777778,34.3875],[-120.03888888888889,34.495555555555555],[-120.12777777777777,34.609722222222224],[-120.18194444444445,34.73361111111111],[-120.19555555555556,34.86222222222222],[-120.27666666666667,34.96527777777778],[-120.38138888888888,35.06638888888889],[-120.48194444444445,35.16277777777778],[-120.56833333333333,35.245555555555555],[-120.68027777777779,35.352222222222224],[-120.77944444444444,35.446666666666665],[-120.85888888888888,35.527499999999996],[-120.94555555555556,35.620555555555555],[-121.05611111111111,35.739444444444445],[-121.14472222222223,35.83388888888889],[-121.23916666666666,35.93444444444444],[-121.33333333333333,36.035],[-121.41666666666667,36.13527777777778],[-121.45,36.18333333333333],[-121.495,36.23527777777778],[-121.57,36.33111111111111],[-121.58333333333333,36.35],[-121.66666666666667,36.45],[-121.73333333333333,36.53333333333333],[-121.78222222222222,36.60027777777778],[-121.8,36.61666666666667],[-121.85027777777778,36.68611111111111],[-121.86666666666666,36.71666666666667],[-121.91666666666667,36.8],[-121.93333333333334,36.88333333333333],[-121.99027777777778,36.94444444444444],[-122.1,37],[-122.17777777777778,37.025],[-122.2,37.03333333333333],[-122.26444444444445,37.069722222222225],[-122.28333333333333,37.083333333333336],[-122.30111111111111,37.14722222222222],[-122.3,37.166666666666664],[-122.27194444444444,37.224722222222226],[-122.26666666666667,37.233333333333334],[-122.22833333333334,37.29472222222222],[-122.21666666666667,37.31666666666667],[-122.1875,37.359722222222224],[-122.18333333333334,37.38333333333333],[-122.13333333333334,37.43333333333333],[-122.1,37.5],[-122.13333333333334,37.5175],[-122.15,37.516666666666666],[-122.19305555555556,37.54222222222222],[-122.21666666666667,37.55],[-122.25305555555556,37.5675],[-122.26666666666667,37.56666666666667],[-122.29777777777778,37.586111111111116],[-122.31666666666666,37.6],[-122.34027777777777,37.60388888888889],[-122.35,37.61666666666667]],"type":"LineString"}
}
