{
  "id": 2032050259,
  "type": "Feature",
  "properties": {
    "geom:area": 0,
    "geom:bbox": "-127.491944,37.559444,-124.695000,38.542500",
    "geom:latitude": 38.080232751478334,
    "geom:longitude": -126.07281954622432,
    "src:alt_label": "swim-path",
    "src:geom": "swim",
    "swim:altitudes": [
      "350C",
      "350C",
      "350C",
      "350C",
      "350C",
      "350C",
      "350C",
      "350C",
      "350C",
      "350",
      "350",
      "339C",
      "321",
      "297",
      "290",
      "290"
    ],
    "swim:geom": "path",
    "swim:speeds": [
      525,
      524,
      523,
      525,
      518,
      517,
      517,
      516,
      516,
      520,
      510,
      490,
      507,
      484,
      473,
      471
    ],
    "swim:timestamps": [
      1785600107,
      1785600167,
      1785600227,
      1785600287,
      1785600347,
      1785600407,
      1785600467,
      1785600527,
      1785600588,
      1785600643,
      1785600703,
      1785600823,
      1785600948,
      1785601068,
      1785601128,
      1785601188
    ],
    "wof:geomhash": "4614db9debebe804bc82ed4e0e39599c",
    "wof:id": 2032050259,
    "wof:repo": "sfomuseum-data-flights-2026-07"
  },
  "bbox": [
    -127.49194444444444,
    37.559444444444445,
    -124.69500000000001,
    38.5425
  ],
  "geometry": {"coordinates":[[-127.49194444444444,38.5425],[-127.31194444444444,38.50861111111111],[-127.13222222222221,38.474444444444444],[-126.95138888888889,38.44888888888889],[-126.77916666666667,38.4],[-126.57416666666666,38.337500000000006],[-126.40805555555556,38.28583333333333],[-126.23722222222223,38.23305555555556],[-126.08722222222222,38.19361111111111],[-125.91666666666667,38.13333333333333],[-125.78333333333333,38.05],[-125.61666666666666,37.81666666666667],[-125.35222222222221,37.66],[-125.01944444444445,37.61],[-124.85666666666665,37.584722222222226],[-124.69500000000001,37.559444444444445]],"type":"LineString"}
}
