{
  "id": 2031942493,
  "type": "Feature",
  "properties": {
    "geom:area": 0,
    "geom:bbox": "-122.352778,37.416667,-75.083333,40.823889",
    "geom:latitude": 39.13589203189148,
    "geom:longitude": -98.60631754120058,
    "src:alt_label": "swim-path",
    "src:geom": "swim",
    "swim:altitudes": [
      "007",
      "013",
      "022",
      "036",
      "045",
      "059",
      "073",
      "086",
      "098",
      "100",
      "100",
      "104",
      "115",
      "131",
      "143",
      "163",
      "170",
      "170",
      "185",
      "200",
      "208",
      "233",
      "243",
      "253",
      "261",
      "275",
      "292",
      "301",
      "311",
      "322",
      "340C",
      "340C",
      "340C",
      "340C",
      "340C",
      "340C",
      "340C",
      "340C",
      "340C",
      "340C",
      "340C",
      "340C",
      "340C",
      "340C",
      "340C",
      "340C",
      "340C",
      "340C",
      "340C",
      "340C",
      "340C",
      "340C",
      "340C",
      "340C",
      "340C",
      "340C",
      "340C",
      "340C",
      "340C",
      "340C",
      "340C",
      "340C",
      "340C",
      "340C",
      "340C",
      "340C",
      "340C",
      "340C",
      "340C",
      "340C",
      "340C",
      "340C",
      "340C",
      "340C",
      "340C",
      "340C",
      "340C",
      "340C",
      "340C",
      "340C",
      "340C",
      "340C",
      "340C",
      "340C",
      "340C",
      "340C",
      "340C",
      "340C",
      "340C",
      "340C",
      "340C",
      "340C",
      "340C",
      "340C",
      "340C",
      "340C",
      "340C",
      "340C",
      "340C",
      "340C",
      "340C",
      "340C",
      "340C",
      "340C",
      "340C",
      "340C",
      "340C",
      "340C",
      "340C",
      "340C",
      "340C",
      "340C",
      "340C",
      "340C",
      "340C",
      "340C",
      "340C",
      "340C",
      "340C",
      "340C",
      "340C",
      "340C",
      "340C",
      "340C",
      "340C",
      "340C",
      "340C",
      "340C",
      "340C",
      "340C",
      "340C",
      "340C",
      "340C",
      "340C",
      "340C",
      "340C",
      "340C",
      "340C",
      "340C",
      "340C",
      "340C",
      "340C",
      "340C",
      "340C",
      "340C",
      "340C",
      "340C",
      "340C",
      "340C",
      "340C",
      "340C",
      "340C",
      "340C",
      "340C",
      "340C",
      "340C",
      "340C",
      "340C",
      "340C",
      "340C",
      "340C",
      "340C",
      "340C",
      "340C",
      "340C",
      "340C",
      "340C",
      "340C",
      "340C",
      "340C",
      "340C",
      "340C",
      "340C",
      "340C",
      "340C",
      "340C",
      "340C",
      "340C",
      "340C",
      "340C",
      "340C",
      "340C",
      "340C",
      "340C",
      "340C",
      "340C",
      "340C",
      "340C",
      "340C",
      "340C",
      "340C",
      "340C",
      "340C",
      "340C",
      "340C",
      "340C",
      "340C",
      "340C",
      "340C",
      "340C",
      "340C",
      "340C",
      "340C",
      "340C",
      "340C",
      "340C",
      "340C",
      "340C",
      "340C",
      "340C",
      "340C",
      "340C",
      "340C",
      "340C",
      "340C",
      "340C",
      "340C",
      "340C",
      "340C",
      "340C",
      "340C",
      "340C",
      "340C",
      "340C",
      "340C",
      "340C",
      "340C",
      "340C",
      "340C",
      "340C",
      "340C",
      "340C",
      "340C",
      "340C",
      "340C",
      "340C",
      "340C",
      "340C",
      "340C",
      "340C",
      "340C",
      "340C",
      "340C",
      "340C",
      "340C",
      "340C",
      "340C",
      "340C",
      "340C",
      "340C",
      "340C",
      "340C",
      "340C",
      "340C",
      "340C",
      "340C",
      "340C",
      "340C",
      "340C",
      "340C",
      "340C",
      "340C",
      "340C",
      "340C",
      "340C",
      "340C",
      "340C",
      "340C",
      "340C",
      "340C",
      "340C",
      "340C",
      "340C",
      "340C",
      "340C",
      "340C",
      "340C",
      "340C",
      "340C",
      "340C",
      "340C",
      "340C",
      "340C",
      "340C",
      "340C",
      "340C",
      "340C",
      "340C",
      "340C",
      "340C",
      "340",
      "333",
      "318",
      "266",
      "244",
      "239",
      "226",
      "205",
      "184",
      "180",
      "166",
      "149",
      "139",
      "125",
      "109",
      "099",
      "085",
      "082",
      "075",
      "070",
      "070",
      "062",
      "053",
      "045",
      "041",
      "033",
      "021",
      "016",
      "008",
      "002"
    ],
    "swim:geom": "path",
    "swim:speeds": [
      177,
      182,
      237,
      231,
      257,
      261,
      271,
      268,
      287,
      311,
      361,
      366,
      369,
      376,
      384,
      388,
      393,
      393,
      394,
      403,
      403,
      414,
      425,
      431,
      435,
      435,
      428,
      424,
      421,
      420,
      411,
      410,
      409,
      409,
      409,
      409,
      409,
      409,
      410,
      411,
      410,
      409,
      407,
      406,
      405,
      404,
      405,
      405,
      405,
      404,
      404,
      405,
      406,
      407,
      408,
      410,
      413,
      414,
      413,
      414,
      412,
      410,
      407,
      408,
      407,
      408,
      412,
      413,
      415,
      416,
      422,
      419,
      421,
      422,
      423,
      423,
      424,
      425,
      426,
      427,
      431,
      432,
      434,
      435,
      436,
      436,
      436,
      436,
      436,
      437,
      440,
      441,
      443,
      445,
      448,
      449,
      449,
      444,
      444,
      445,
      446,
      446,
      446,
      446,
      447,
      449,
      449,
      447,
      445,
      442,
      440,
      440,
      439,
      439,
      439,
      440,
      440,
      442,
      444,
      446,
      447,
      448,
      448,
      447,
      447,
      450,
      451,
      454,
      452,
      450,
      449,
      448,
      447,
      447,
      447,
      449,
      451,
      453,
      453,
      453,
      451,
      450,
      449,
      449,
      448,
      448,
      450,
      451,
      452,
      453,
      453,
      454,
      456,
      456,
      457,
      455,
      453,
      452,
      451,
      451,
      449,
      447,
      446,
      445,
      443,
      444,
      445,
      447,
      448,
      450,
      452,
      452,
      452,
      451,
      450,
      451,
      450,
      451,
      451,
      451,
      450,
      451,
      449,
      451,
      447,
      444,
      444,
      444,
      444,
      444,
      444,
      444,
      446,
      445,
      447,
      446,
      447,
      447,
      447,
      450,
      447,
      450,
      448,
      448,
      448,
      448,
      448,
      447,
      447,
      447,
      447,
      449,
      451,
      452,
      452,
      453,
      453,
      453,
      448,
      446,
      446,
      444,
      443,
      442,
      442,
      442,
      441,
      441,
      441,
      442,
      443,
      443,
      444,
      443,
      442,
      441,
      441,
      441,
      442,
      441,
      441,
      440,
      438,
      437,
      437,
      437,
      438,
      439,
      441,
      441,
      441,
      443,
      440,
      441,
      439,
      440,
      437,
      436,
      436,
      437,
      437,
      438,
      438,
      439,
      440,
      441,
      443,
      444,
      445,
      446,
      447,
      447,
      447,
      446,
      426,
      425,
      423,
      423,
      420,
      421,
      418,
      418,
      415,
      413,
      411,
      410,
      408,
      408,
      408,
      410,
      411,
      410,
      411,
      427,
      416,
      409,
      393,
      383,
      374,
      368,
      366,
      346,
      301,
      261,
      261,
      260,
      253,
      251,
      252,
      248,
      246,
      232,
      233,
      235,
      234,
      221,
      157,
      143,
      139,
      133
    ],
    "swim:timestamps": [
      1784819058,
      1784819080,
      1784819112,
      1784819140,
      1784819171,
      1784819200,
      1784819232,
      1784819260,
      1784819292,
      1784819320,
      1784819380,
      1784819411,
      1784819440,
      1784819500,
      1784819560,
      1784819621,
      1784819741,
      1784819801,
      1784819921,
      1784820041,
      1784820103,
      1784820221,
      1784820283,
      1784820344,
      1784820402,
      1784820462,
      1784820524,
      1784820582,
      1784820644,
      1784820702,
      1784820824,
      1784820884,
      1784820944,
      1784821004,
      1784821065,
      1784821125,
      1784821185,
      1784821245,
      1784821425,
      1784821485,
      1784821605,
      1784821665,
      1784821725,
      1784821788,
      1784821846,
      1784821906,
      1784821966,
      1784822026,
      1784822086,
      1784822146,
      1784822206,
      1784822266,
      1784822326,
      1784822386,
      1784822447,
      1784822507,
      1784822627,
      1784822708,
      1784822750,
      1784822769,
      1784822807,
      1784822867,
      1784822987,
      1784823009,
      1784823047,
      1784823069,
      1784823252,
      1784823312,
      1784823372,
      1784823502,
      1784823615,
      1784823622,
      1784823673,
      1784823735,
      1784823863,
      1784823915,
      1784823923,
      1784823983,
      1784824043,
      1784824103,
      1784824214,
      1784824276,
      1784824336,
      1784824515,
      1784824576,
      1784824757,
      1784824812,
      1784824877,
      1784824997,
      1784825057,
      1784825113,
      1784825173,
      1784825236,
      1784825296,
      1784825416,
      1784825476,
      1784825536,
      1784825728,
      1784825789,
      1784825849,
      1784825909,
      1784825969,
      1784826029,
      1784826089,
      1784826149,
      1784826269,
      1784826329,
      1784826389,
      1784826450,
      1784826510,
      1784826570,
      1784826630,
      1784826690,
      1784826750,
      1784826810,
      1784826870,
      1784826930,
      1784826990,
      1784827050,
      1784827111,
      1784827171,
      1784827231,
      1784827291,
      1784827351,
      1784827411,
      1784827531,
      1784827591,
      1784827772,
      1784827832,
      1784827892,
      1784827952,
      1784828012,
      1784828072,
      1784828132,
      1784828192,
      1784828312,
      1784828432,
      1784828552,
      1784828612,
      1784828672,
      1784828732,
      1784828792,
      1784828852,
      1784828913,
      1784828973,
      1784829033,
      1784829153,
      1784829214,
      1784829274,
      1784829333,
      1784829394,
      1784829634,
      1784829754,
      1784829814,
      1784829874,
      1784829934,
      1784829994,
      1784830054,
      1784830114,
      1784830174,
      1784830234,
      1784830294,
      1784830354,
      1784830415,
      1784830535,
      1784830595,
      1784830655,
      1784830715,
      1784830775,
      1784830835,
      1784830895,
      1784830955,
      1784831015,
      1784831148,
      1784831196,
      1784831209,
      1784831256,
      1784831269,
      1784831316,
      1784831329,
      1784831376,
      1784831389,
      1784831436,
      1784831449,
      1784831509,
      1784831569,
      1784831629,
      1784831689,
      1784831749,
      1784831809,
      1784831869,
      1784831929,
      1784831977,
      1784831990,
      1784832037,
      1784832050,
      1784832110,
      1784832170,
      1784832230,
      1784832277,
      1784832290,
      1784832337,
      1784832350,
      1784832410,
      1784832470,
      1784832530,
      1784832590,
      1784832638,
      1784832650,
      1784832698,
      1784832711,
      1784832771,
      1784832831,
      1784832878,
      1784832891,
      1784832938,
      1784832951,
      1784832998,
      1784833071,
      1784833118,
      1784833131,
      1784833191,
      1784833251,
      1784833311,
      1784833371,
      1784833431,
      1784833492,
      1784833552,
      1784833612,
      1784833672,
      1784833732,
      1784833792,
      1784833852,
      1784833972,
      1784834032,
      1784834092,
      1784834152,
      1784834213,
      1784834273,
      1784834333,
      1784834393,
      1784834453,
      1784834513,
      1784834573,
      1784834633,
      1784834693,
      1784834753,
      1784834813,
      1784834873,
      1784834933,
      1784834994,
      1784835037,
      1784835054,
      1784835097,
      1784835114,
      1784835158,
      1784835174,
      1784835234,
      1784835294,
      1784835338,
      1784835354,
      1784835398,
      1784835414,
      1784835458,
      1784835518,
      1784835534,
      1784835638,
      1784835654,
      1784835714,
      1784835758,
      1784835818,
      1784835835,
      1784835879,
      1784835895,
      1784835939,
      1784835955,
      1784835999,
      1784836015,
      1784836059,
      1784836075,
      1784836119,
      1784836135,
      1784836195,
      1784836239,
      1784836299,
      1784836359,
      1784836479,
      1784836539,
      1784836600,
      1784836720,
      1784836840,
      1784836900,
      1784836960,
      1784837080,
      1784837140,
      1784837150,
      1784837200,
      1784837260,
      1784837321,
      1784837330,
      1784837381,
      1784837441,
      1784837501,
      1784837571,
      1784837631,
      1784837681,
      1784837741,
      1784837751,
      1784837801,
      1784837861,
      1784837871,
      1784837931,
      1784837991,
      1784838042,
      1784838051,
      1784838102,
      1784838171,
      1784838222,
      1784838282,
      1784838342
    ],
    "wof:geomhash": "6e8f780478e741c10d5a513390549d97",
    "wof:id": 2031942493,
    "wof:repo": "sfomuseum-data-flights-2026-07"
  },
  "bbox": [
    -122.35277777777777,
    37.416666666666664,
    -75.08333333333333,
    40.823888888888895
  ],
  "geometry": {"coordinates":[[-75.21666666666667,39.88333333333333],[-75.18972222222223,39.87916666666667],[-75.15,39.88333333333333],[-75.10472222222222,39.8875],[-75.08333333333333,39.916666666666664],[-75.10249999999999,39.94638888888888],[-75.15,39.96666666666667],[-75.17944444444444,39.99194444444444],[-75.21666666666667,40.016666666666666],[-75.26166666666667,40.04222222222222],[-75.36083333333333,40.10194444444445],[-75.41666666666667,40.13333333333333],[-75.46638888888889,40.16555555555556],[-75.57944444444443,40.234722222222224],[-75.68,40.30083333333333],[-75.78333333333333,40.37],[-76.0461111111111,40.465],[-76.18027777777779,40.486666666666665],[-76.46138888888889,40.531666666666666],[-76.75166666666667,40.56722222222223],[-76.91083333333334,40.581388888888895],[-77.20111111111112,40.60666666666667],[-77.36472222222221,40.620555555555555],[-77.51861111111111,40.63333333333333],[-77.64777777777779,40.64388888888889],[-77.80499999999999,40.65694444444444],[-77.99388888888889,40.67194444444444],[-78.11277777777777,40.68111111111111],[-78.26972222222223,40.69305555555555],[-78.42222222222223,40.70472222222222],[-78.7225,40.72694444444445],[-78.87249999999999,40.73777777777778],[-79.01611111111112,40.74777777777778],[-79.19444444444444,40.76],[-79.34444444444443,40.77027777777778],[-79.49333333333334,40.78],[-79.64,40.78972222222222],[-79.78805555555556,40.79888888888889],[-80.21888888888888,40.823888888888895],[-80.36972222222222,40.81388888888888],[-80.67111111111112,40.79222222222222],[-80.82833333333333,40.78055555555555],[-80.97500000000001,40.769444444444446],[-81.11611111111111,40.75888888888889],[-81.26166666666667,40.7475],[-81.41111111111111,40.73583333333333],[-81.55694444444444,40.72416666666667],[-81.70555555555556,40.71194444444445],[-81.85333333333332,40.69972222222222],[-82.00166666666667,40.68722222222222],[-82.14916666666667,40.67444444444444],[-82.29722222222222,40.66166666666666],[-82.44388888888889,40.64888888888889],[-82.59222222222222,40.63583333333333],[-82.74194444444444,40.62222222222222],[-82.89333333333335,40.60805555555556],[-83.19250000000001,40.580000000000005],[-83.38777777777779,40.56111111111111],[-83.50583333333333,40.54944444444444],[-83.53583333333333,40.54666666666667],[-83.63777777777779,40.53638888888889],[-83.78583333333333,40.52166666666667],[-84.07583333333334,40.48861111111111],[-84.1261111111111,40.481388888888894],[-84.22027777777778,40.467222222222226],[-84.27027777777778,40.459722222222226],[-84.71777777777778,40.391666666666666],[-84.86555555555555,40.368611111111115],[-85.015,40.34527777777778],[-85.29888888888888,40.300555555555555],[-85.61388888888888,40.249722222222225],[-85.63027777777778,40.246944444444445],[-85.73055555555555,40.230555555555554],[-85.91055555555556,40.200833333333335],[-86.22666666666667,40.14805555555556],[-86.35666666666665,40.126111111111115],[-86.405,40.117777777777775],[-86.55499999999999,40.092222222222226],[-86.70527777777778,40.06638888888889],[-86.82555555555555,40.04555555555555],[-87.11611111111111,39.99444444444445],[-87.28222222222222,39.965],[-87.43416666666667,39.9375],[-87.8863888888889,39.86527777777778],[-88.04944444444445,39.83861111111111],[-88.52805555555555,39.75888888888889],[-88.66777777777779,39.735],[-88.83611111111111,39.70638888888889],[-89.14,39.653888888888886],[-89.29333333333334,39.62694444444445],[-89.43972222222223,39.600833333333334],[-89.5936111111111,39.57333333333334],[-89.76194444444444,39.54333333333333],[-89.91861111111112,39.514722222222225],[-90.22583333333334,39.448611111111106],[-90.38138888888888,39.4125],[-90.53472222222221,39.37722222222222],[-91.02944444444444,39.290277777777774],[-91.18694444444445,39.276944444444446],[-91.34527777777777,39.26305555555555],[-91.5038888888889,39.24916666666667],[-91.66055555555556,39.23527777777778],[-91.81833333333333,39.22083333333334],[-91.97833333333334,39.20611111111111],[-92.1375,39.191111111111105],[-92.44250000000001,39.161944444444444],[-92.57194444444444,39.14944444444444],[-92.77666666666667,39.12888888888889],[-92.93666666666667,39.11277777777778],[-93.09083333333332,39.096944444444446],[-93.2475,39.08083333333334],[-93.37194444444444,39.06805555555556],[-93.53861111111111,39.05027777777777],[-93.69444444444444,39.03333333333333],[-93.85,39.016666666666666],[-94.00694444444444,39.000277777777775],[-94.13277777777778,38.99916666666667],[-94.32027777777778,38.99777777777778],[-94.48055555555555,38.99638888888889],[-94.64166666666668,38.99472222222222],[-94.80166666666666,38.99277777777778],[-94.96388888888889,38.990833333333335],[-95.1236111111111,38.98833333333334],[-95.28666666666666,38.98583333333333],[-95.44722222222222,38.98305555555556],[-95.76972222222223,38.97694444444445],[-95.9325,38.973333333333336],[-96.41916666666667,38.961666666666666],[-96.54638888888888,38.958333333333336],[-96.73777777777778,38.95277777777778],[-96.89833333333334,38.948055555555555],[-97.05638888888889,38.94333333333333],[-97.21555555555555,38.93805555555555],[-97.37666666666667,38.93277777777777],[-97.53527777777778,38.926944444444445],[-97.86166666666666,38.915],[-98.18222222222222,38.893055555555556],[-98.50277777777778,38.86472222222223],[-98.66250000000001,38.848888888888894],[-98.81777777777778,38.81472222222222],[-98.9725,38.78194444444444],[-99.12666666666667,38.750277777777775],[-99.27777777777777,38.71944444444445],[-99.43111111111112,38.68861111111111],[-99.58416666666666,38.65833333333333],[-99.74083333333333,38.628055555555555],[-100.05416666666666,38.60388888888889],[-100.21166666666667,38.61055555555556],[-100.37416666666665,38.6175],[-100.53527777777778,38.62361111111111],[-100.68833333333333,38.629444444444445],[-101.33361111111111,38.65138888888889],[-101.65694444444445,38.66138888888889],[-101.81916666666666,38.66583333333333],[-101.98027777777779,38.669999999999995],[-102.14055555555557,38.674166666666665],[-102.30194444444444,38.67777777777778],[-102.4588888888889,38.68111111111111],[-102.62055555555555,38.68444444444444],[-102.7911111111111,38.687777777777775],[-102.94833333333334,38.69083333333333],[-103.10555555555555,38.69333333333333],[-103.26416666666667,38.69583333333333],[-103.42277777777778,38.698055555555555],[-103.75361111111111,38.70194444444445],[-103.9088888888889,38.703611111111115],[-104.06638888888888,38.70444444444445],[-104.21472222222222,38.70583333333334],[-104.37694444444443,38.706944444444446],[-104.53583333333333,38.7075],[-104.69722222222222,38.70777777777778],[-104.85916666666667,38.70805555555556],[-105.01972222222223,38.70805555555556],[-105.35916666666667,38.70888888888889],[-105.5025,38.706944444444446],[-105.51944444444445,38.7075],[-105.66222222222223,38.70611111111111],[-105.67944444444444,38.70722222222223],[-105.82277777777777,38.705000000000005],[-105.83972222222222,38.70527777777778],[-105.98083333333334,38.70388888888889],[-105.99916666666667,38.70305555555556],[-106.14111111111112,38.7025],[-106.15833333333335,38.70138888888889],[-106.31444444444445,38.69444444444444],[-106.47055555555556,38.675],[-106.62805555555555,38.65472222222222],[-106.78416666666666,38.63527777777778],[-106.94083333333333,38.617777777777775],[-107.09888888888888,38.59916666666667],[-107.25083333333333,38.57027777777778],[-107.40527777777778,38.538888888888884],[-107.52638888888889,38.516666666666666],[-107.55916666666667,38.50972222222222],[-107.6825,38.48888888888889],[-107.71444444444445,38.4825],[-107.87055555555555,38.455555555555556],[-108.02555555555556,38.430277777777775],[-108.18361111111112,38.415],[-108.31083333333333,38.405277777777776],[-108.34277777777777,38.40277777777778],[-108.47,38.40277777777778],[-108.50277777777778,38.40083333333333],[-108.66194444444444,38.39944444444444],[-108.82083333333333,38.397777777777776],[-108.98,38.39694444444444],[-109.13916666666667,38.395833333333336],[-109.26277777777777,38.39472222222222],[-109.29666666666667,38.394444444444446],[-109.4225,38.39333333333333],[-109.45416666666667,38.39277777777778],[-109.61166666666666,38.406388888888884],[-109.76583333333333,38.44472222222222],[-109.8888888888889,38.47527777777778],[-109.91944444444445,38.48305555555556],[-110.0411111111111,38.513888888888886],[-110.07194444444444,38.52166666666667],[-110.19305555555556,38.55138888888889],[-110.38361111111112,38.55583333333333],[-110.50694444444444,38.55444444444444],[-110.54027777777777,38.553888888888885],[-110.69777777777779,38.551944444444445],[-110.85527777777777,38.54944444444444],[-111.02194444444444,38.54666666666667],[-111.17694444444444,38.54388888888889],[-111.3325,38.54083333333333],[-111.49083333333333,38.53777777777778],[-111.64583333333334,38.534166666666664],[-111.80083333333333,38.53055555555555],[-111.95694444444445,38.526666666666664],[-112.11388888888888,38.5225],[-112.27111111111111,38.51833333333333],[-112.42722222222223,38.513888888888886],[-112.73694444444445,38.493611111111115],[-112.89194444444445,38.48083333333334],[-113.04694444444445,38.466944444444444],[-113.20166666666667,38.45388888888889],[-113.3561111111111,38.44472222222222],[-113.51277777777777,38.43472222222222],[-113.665,38.42444444444444],[-113.82111111111111,38.41361111111111],[-113.97194444444445,38.403055555555554],[-114.12777777777777,38.39194444444444],[-114.28055555555555,38.380833333333335],[-114.43444444444445,38.36944444444445],[-114.61916666666666,38.355555555555554],[-114.77333333333333,38.343611111111116],[-114.92694444444444,38.33166666666667],[-115.08361111111111,38.330000000000005],[-115.23861111111111,38.32222222222222],[-115.38666666666667,38.30638888888888],[-115.48222222222222,38.29833333333333],[-115.53999999999999,38.29],[-115.63472222222222,38.28],[-115.69583333333334,38.272777777777776],[-115.7875,38.265],[-115.84805555555555,38.25611111111111],[-115.99805555555555,38.239444444444445],[-116.15138888888889,38.22222222222222],[-116.24388888888889,38.21194444444445],[-116.30444444444444,38.205000000000005],[-116.39722222222223,38.19416666666666],[-116.45722222222223,38.18722222222222],[-116.55333333333333,38.17583333333333],[-116.70805555555556,38.157777777777774],[-116.76638888888888,38.15083333333333],[-117.0175,38.12083333333334],[-117.07916666666667,38.11333333333334],[-117.2125,38.096944444444446],[-117.34305555555555,38.08083333333334],[-117.50083333333333,38.06111111111111],[-117.52944444444444,38.0575],[-117.655,38.041666666666664],[-117.68305555555555,38.038333333333334],[-117.80527777777777,38.022777777777776],[-117.83194444444445,38.019444444444446],[-117.94944444444445,38.00388888888889],[-117.97833333333334,38.000277777777775],[-118.09416666666667,37.98527777777778],[-118.12305555555555,37.981388888888894],[-118.2388888888889,37.96638888888889],[-118.26611111111112,37.96277777777778],[-118.40805555555556,37.943888888888885],[-118.52555555555556,37.92805555555555],[-118.66666666666667,37.90888888888889],[-118.80888888888889,37.89],[-119.08999999999999,37.85861111111111],[-119.23083333333334,37.842222222222226],[-119.37333333333332,37.82555555555556],[-119.65861111111111,37.79138888888889],[-119.94500000000001,37.75666666666667],[-120.08749999999999,37.73888888888889],[-120.23055555555555,37.72083333333334],[-120.52333333333333,37.68527777777778],[-120.66805555555555,37.66861111111111],[-120.7,37.666666666666664],[-120.80777777777777,37.651944444444446],[-120.93944444444445,37.63583333333333],[-121.06972222222223,37.61888888888889],[-121.1,37.61666666666667],[-121.18277777777779,37.603611111111114],[-121.30499999999999,37.587500000000006],[-121.41361111111112,37.57555555555556],[-121.53333333333333,37.56666666666667],[-121.61666666666666,37.55],[-121.685,37.53638888888889],[-121.74388888888889,37.49],[-121.75,37.46666666666667],[-121.78888888888889,37.433055555555555],[-121.8736111111111,37.42527777777777],[-121.9,37.416666666666664],[-121.96666666666667,37.45],[-122.05,37.483333333333334],[-122.09777777777778,37.50416666666667],[-122.11666666666666,37.516666666666666],[-122.16805555555555,37.53361111111111],[-122.23333333333333,37.56666666666667],[-122.26972222222223,37.57666666666667],[-122.31194444444444,37.59444444444445],[-122.35277777777777,37.611666666666665]],"type":"LineString"}
}
