{
  "id": 2031944795,
  "type": "Feature",
  "properties": {
    "geom:area": 0,
    "geom:bbox": "-122.739167,37.652500,-121.550556,47.823056",
    "geom:latitude": 43.02191186880413,
    "geom:longitude": -122.17757934293999,
    "src:alt_label": "swim-path",
    "src:geom": "swim",
    "swim:altitudes": [
      "019",
      "026",
      "035",
      "046",
      "056",
      "063",
      "076",
      "095",
      "110",
      "149",
      "168",
      "206",
      "224",
      "242",
      "256",
      "270",
      "297",
      "317",
      "331",
      "340",
      "351",
      "359C",
      "360C",
      "360C",
      "360C",
      "360C",
      "360C",
      "360C",
      "360C",
      "360C",
      "360C",
      "360C",
      "360C",
      "360C",
      "360C",
      "360C",
      "360C",
      "360C",
      "360C",
      "360C",
      "360C",
      "360C",
      "360C",
      "360C",
      "360C",
      "360C",
      "360C",
      "360C",
      "360C",
      "360C",
      "360C",
      "359",
      "354",
      "350C",
      "350C",
      "350C",
      "350C",
      "350",
      "350",
      "350",
      "350",
      "348",
      "323",
      "300",
      "280",
      "260",
      "240",
      "202",
      "185",
      "172",
      "168",
      "146",
      "129",
      "121",
      "102",
      "094",
      "088",
      "084",
      "081",
      "070",
      "067",
      "060",
      "060",
      "060",
      "060",
      "060",
      "060",
      "060",
      "060",
      "060",
      "060",
      "060",
      "058",
      "056",
      "054",
      "052",
      "049",
      "039",
      "036",
      "031",
      "027",
      "011",
      "006",
      "004",
      "003"
    ],
    "swim:geom": "path",
    "swim:speeds": [
      203,
      239,
      256,
      268,
      271,
      289,
      292,
      303,
      337,
      375,
      399,
      418,
      433,
      442,
      456,
      468,
      485,
      502,
      503,
      504,
      506,
      504,
      504,
      505,
      505,
      505,
      505,
      506,
      507,
      508,
      508,
      509,
      511,
      512,
      513,
      502,
      491,
      488,
      488,
      487,
      486,
      485,
      485,
      486,
      486,
      487,
      488,
      491,
      505,
      528,
      528,
      528,
      527,
      511,
      412,
      412,
      425,
      480,
      480,
      479,
      478,
      476,
      475,
      478,
      473,
      465,
      452,
      425,
      406,
      391,
      386,
      346,
      326,
      316,
      308,
      299,
      302,
      289,
      270,
      227,
      215,
      206,
      204,
      204,
      207,
      205,
      205,
      205,
      203,
      205,
      206,
      206,
      213,
      211,
      213,
      213,
      204,
      178,
      171,
      154,
      158,
      151,
      153,
      151,
      136
    ],
    "swim:timestamps": [
      1784838042,
      1784838063,
      1784838102,
      1784838123,
      1784838162,
      1784838178,
      1784838222,
      1784838282,
      1784838342,
      1784838462,
      1784838522,
      1784838642,
      1784838703,
      1784838766,
      1784838827,
      1784838883,
      1784839007,
      1784839123,
      1784839187,
      1784839243,
      1784839303,
      1784839367,
      1784839424,
      1784839484,
      1784839544,
      1784839604,
      1784839664,
      1784839784,
      1784839844,
      1784839904,
      1784839964,
      1784840024,
      1784840085,
      1784840145,
      1784840205,
      1784840265,
      1784840329,
      1784840449,
      1784840509,
      1784840569,
      1784840629,
      1784840689,
      1784840749,
      1784840809,
      1784840869,
      1784840929,
      1784840989,
      1784841049,
      1784841110,
      1784841170,
      1784841230,
      1784841290,
      1784841350,
      1784841410,
      1784841590,
      1784841650,
      1784841710,
      1784841831,
      1784841891,
      1784841951,
      1784842011,
      1784842071,
      1784842131,
      1784842191,
      1784842251,
      1784842311,
      1784842371,
      1784842491,
      1784842551,
      1784842590,
      1784842612,
      1784842711,
      1784842792,
      1784842826,
      1784842912,
      1784842946,
      1784842972,
      1784843001,
      1784843032,
      1784843121,
      1784843152,
      1784843181,
      1784843212,
      1784843242,
      1784843296,
      1784843333,
      1784843363,
      1784843393,
      1784843423,
      1784843453,
      1784843483,
      1784843513,
      1784843544,
      1784843573,
      1784843604,
      1784843633,
      1784843664,
      1784843725,
      1784843753,
      1784843785,
      1784843813,
      1784843933,
      1784843966,
      1784843993,
      1784844053
    ],
    "wof:geomhash": "d04b957efa04c51531826691ebe1711b",
    "wof:id": 2031944795,
    "wof:repo": "sfomuseum-data-flights-2026-07"
  },
  "bbox": [
    -122.73916666666666,
    37.652499999999996,
    -121.55055555555555,
    47.823055555555555
  ],
  "geometry": {"coordinates":[[-122.44861111111112,37.652499999999996],[-122.48333333333333,37.666666666666664],[-122.51833333333333,37.69],[-122.53333333333333,37.71666666666667],[-122.52722222222222,37.76416666666667],[-122.51666666666667,37.8],[-122.47444444444444,37.825],[-122.40222222222222,37.88055555555555],[-122.35027777777778,37.961666666666666],[-122.23416666666667,38.14472222222222],[-122.17166666666667,38.2425],[-122.12027777777777,38.459722222222226],[-122.12972222222221,38.57916666666667],[-122.14055555555557,38.722500000000004],[-122.14944444444446,38.85111111111111],[-122.1563888888889,38.96555555555556],[-122.17722222222223,39.24888888888889],[-122.19472222222223,39.51],[-122.20611111111111,39.666666666666664],[-122.21472222222222,39.79277777777778],[-122.22472222222223,39.93277777777777],[-122.23333333333333,40.08638888888889],[-122.20916666666668,40.212500000000006],[-122.17527777777778,40.352222222222224],[-122.1413888888889,40.489444444444445],[-122.10916666666667,40.6225],[-122.07583333333334,40.76166666666666],[-122.00833333333334,41.0375],[-121.97361111111111,41.17611111111111],[-121.9388888888889,41.315555555555555],[-121.90416666666667,41.453611111111115],[-121.86972222222222,41.59305555555556],[-121.83444444444444,41.733333333333334],[-121.79222222222222,41.900277777777774],[-121.75694444444444,42.03722222222222],[-121.73527777777778,42.17222222222222],[-121.76166666666667,42.30444444444444],[-121.82249999999999,42.57027777777778],[-121.85305555555556,42.70277777777778],[-121.88333333333334,42.83555555555556],[-121.91416666666667,42.967777777777776],[-121.94555555555556,43.10138888888889],[-121.97611111111111,43.23305555555556],[-122.00972222222222,43.37555555555556],[-122.04138888888889,43.51027777777778],[-122.07277777777777,43.64277777777778],[-122.10499999999999,43.776944444444446],[-122.13722222222223,43.91222222222222],[-122.15472222222223,44.04833333333333],[-122.075,44.18194444444444],[-121.935,44.28805555555555],[-121.79666666666667,44.39111111111111],[-121.65527777777778,44.49527777777778],[-121.55055555555555,44.615833333333335],[-121.91277777777778,44.82416666666667],[-122.05972222222222,44.874722222222225],[-122.21333333333334,44.93277777777777],[-122.3436111111111,45.17666666666666],[-122.39750000000001,45.30166666666666],[-122.4525,45.428888888888885],[-122.50694444444444,45.553888888888885],[-122.56138888888889,45.67972222222222],[-122.6061111111111,45.80888888888889],[-122.6388888888889,45.939722222222215],[-122.67083333333333,46.06777777777778],[-122.6975,46.195277777777775],[-122.72194444444445,46.323055555555555],[-122.73083333333334,46.56194444444444],[-122.73527777777778,46.67666666666666],[-122.73916666666666,46.753055555555555],[-122.72472222222223,46.79222222222222],[-122.5786111111111,46.925555555555555],[-122.51694444444445,47.041666666666664],[-122.49944444444445,47.08972222222222],[-122.47638888888889,47.211111111111116],[-122.46972222222223,47.257777777777775],[-122.46444444444445,47.29388888888889],[-122.45833333333334,47.33277777777778],[-122.45527777777778,47.37222222222222],[-122.45694444444445,47.47222222222222],[-122.45555555555556,47.498333333333335],[-122.45805555555556,47.530277777777776],[-122.45555555555556,47.55555555555555],[-122.45722222222223,47.58555555555556],[-122.45444444444445,47.638333333333335],[-122.45555555555556,47.66972222222222],[-122.45611111111111,47.700833333333335],[-122.45527777777778,47.72666666666667],[-122.45722222222223,47.75888888888889],[-122.45555555555556,47.78333333333333],[-122.44666666666667,47.81388888888888],[-122.41111111111111,47.823055555555555],[-122.36944444444444,47.81027777777778],[-122.34833333333333,47.788888888888884],[-122.32138888888889,47.76027777777778],[-122.31583333333333,47.734722222222224],[-122.31472222222222,47.700833333333335],[-122.3175,47.64805555555556],[-122.31638888888888,47.62888888888889],[-122.31611111111111,47.60333333333333],[-122.31666666666666,47.584722222222226],[-122.3175,47.49777777777778],[-122.32,47.471111111111114],[-122.31805555555555,47.45583333333334],[-122.31833333333333,47.4175]],"type":"LineString"}
}
