{
  "id": 2032050837,
  "type": "Feature",
  "properties": {
    "geom:area": 0,
    "geom:bbox": "-122.400000,34.591667,-80.966944,38.513611",
    "geom:latitude": 36.47582484248095,
    "geom:longitude": -101.58523604589631,
    "src:alt_label": "swim-path",
    "src:geom": "swim",
    "swim:altitudes": [
      "007",
      "018",
      "019",
      "022",
      "029",
      "043",
      "051",
      "064",
      "082",
      "096",
      "105",
      "111",
      "121",
      "134",
      "143",
      "156",
      "169",
      "178",
      "188",
      "201",
      "208",
      "215",
      "223",
      "232",
      "237",
      "239",
      "244",
      "246",
      "250",
      "252",
      "256",
      "257",
      "262",
      "264",
      "268",
      "270",
      "273",
      "273",
      "276",
      "277",
      "280",
      "280",
      "285",
      "286",
      "292",
      "293",
      "297",
      "298",
      "307",
      "307",
      "310C",
      "310C",
      "310C",
      "310C",
      "310C",
      "310C",
      "310C",
      "310C",
      "310C",
      "310C",
      "310C",
      "310C",
      "310C",
      "310C",
      "310C",
      "310C",
      "310C",
      "310C",
      "310C",
      "310C",
      "310C",
      "310C",
      "310C",
      "310C",
      "310C",
      "310C",
      "310C",
      "310C",
      "310C",
      "310C",
      "310C",
      "310C",
      "310C",
      "310C",
      "310C",
      "310C",
      "310C",
      "310C",
      "310C",
      "310C",
      "310C",
      "310C",
      "310C",
      "310C",
      "310C",
      "310C",
      "310C",
      "310C",
      "310C",
      "310C",
      "310C",
      "310C",
      "310C",
      "310C",
      "310C",
      "310C",
      "310C",
      "310C",
      "310C",
      "310C",
      "310C",
      "310C",
      "310C",
      "310C",
      "310C",
      "310C",
      "310C",
      "310C",
      "310C",
      "310C",
      "310C",
      "310C",
      "310C",
      "310C",
      "310C",
      "310C",
      "310C",
      "310C",
      "310C",
      "310C",
      "310C",
      "310C",
      "310C",
      "310C",
      "310C",
      "310C",
      "310C",
      "310C",
      "310C",
      "310C",
      "310C",
      "310C",
      "313",
      "314",
      "317",
      "318",
      "323",
      "324",
      "328C",
      "330C",
      "330C",
      "330C",
      "330C",
      "330C",
      "330C",
      "330C",
      "330C",
      "330C",
      "330C",
      "330C",
      "330C",
      "330C",
      "330C",
      "330C",
      "330C",
      "330C",
      "330C",
      "330C",
      "330C",
      "330C",
      "330C",
      "330C",
      "330C",
      "330C",
      "330C",
      "330C",
      "330C",
      "330C",
      "330C",
      "330C",
      "330C",
      "330C",
      "330C",
      "330C",
      "330C",
      "330C",
      "330C",
      "330C",
      "330C",
      "330C",
      "330C",
      "330C",
      "330C",
      "330C",
      "330C",
      "330C",
      "330C",
      "330C",
      "330C",
      "330C",
      "331C",
      "331C",
      "331C",
      "330C",
      "330C",
      "330C",
      "330C",
      "330C",
      "330C",
      "330C",
      "330C",
      "330C",
      "330C",
      "330C",
      "330C",
      "330C",
      "331C",
      "331C",
      "330C",
      "330C",
      "330C",
      "330C",
      "330C",
      "330C",
      "330C",
      "330C",
      "330C",
      "330C",
      "330C",
      "330C",
      "330C",
      "330C",
      "330C",
      "330C",
      "330C",
      "330C",
      "330C",
      "331C",
      "330C",
      "330C",
      "330C",
      "330C",
      "330C",
      "330C",
      "330C",
      "331C",
      "331C",
      "330C",
      "330C",
      "330C",
      "330C",
      "330C",
      "330C",
      "330C",
      "330C",
      "331C",
      "331C",
      "331C",
      "330C",
      "330C",
      "330C",
      "330C",
      "330C",
      "330C",
      "330C",
      "330C",
      "330C",
      "330C",
      "330C",
      "330C",
      "330C",
      "330C",
      "330C",
      "330C",
      "330C",
      "330C",
      "330C",
      "330C",
      "330C",
      "330C",
      "330C",
      "331C",
      "331C",
      "330C",
      "330C",
      "330C",
      "330C",
      "330C",
      "330C",
      "330C",
      "330C",
      "330C",
      "330C",
      "330C",
      "330C",
      "330C",
      "330C",
      "330C",
      "330C",
      "330C",
      "330C",
      "330C",
      "330C",
      "330C",
      "330C",
      "330C",
      "330C",
      "330C",
      "330C",
      "330C",
      "330C",
      "330C",
      "330C",
      "330C",
      "330C",
      "330C",
      "330C",
      "330C",
      "330C",
      "330C",
      "330C",
      "330C",
      "330C",
      "330C",
      "330C",
      "330C",
      "330C",
      "330C",
      "330C",
      "330C",
      "330C",
      "330C",
      "330C",
      "331C",
      "330C",
      "330C",
      "330C",
      "330C",
      "330C",
      "330C",
      "330C",
      "330C",
      "330C",
      "330C",
      "330C",
      "330C",
      "330C",
      "330C",
      "330C",
      "330C",
      "330C",
      "330C",
      "330C",
      "330C",
      "330C",
      "330C",
      "330C",
      "330C",
      "330C",
      "330C",
      "330C",
      "330C",
      "330C",
      "330C",
      "330C",
      "330C",
      "330C",
      "330C",
      "330C",
      "330C",
      "330C",
      "330C",
      "330C",
      "330",
      "322",
      "312",
      "302",
      "292C",
      "290C",
      "290C",
      "290",
      "279",
      "260",
      "248",
      "223",
      "203",
      "184",
      "166",
      "150",
      "150",
      "141",
      "141",
      "125",
      "111",
      "097",
      "084",
      "083",
      "070",
      "070",
      "070",
      "070",
      "064",
      "060",
      "050",
      "050",
      "050",
      "050",
      "042",
      "041",
      "031",
      "022",
      "015",
      "014",
      "010"
    ],
    "swim:geom": "path",
    "swim:speeds": [
      161,
      184,
      209,
      267,
      271,
      274,
      273,
      290,
      297,
      300,
      321,
      356,
      378,
      381,
      395,
      399,
      406,
      416,
      421,
      426,
      424,
      430,
      435,
      438,
      439,
      441,
      445,
      445,
      446,
      453,
      455,
      456,
      457,
      461,
      468,
      467,
      470,
      475,
      478,
      484,
      491,
      491,
      496,
      495,
      495,
      495,
      495,
      494,
      488,
      487,
      486,
      486,
      485,
      485,
      484,
      485,
      485,
      486,
      486,
      487,
      487,
      487,
      486,
      487,
      486,
      486,
      486,
      486,
      486,
      486,
      486,
      487,
      487,
      487,
      486,
      486,
      485,
      485,
      485,
      486,
      486,
      486,
      485,
      485,
      486,
      484,
      484,
      484,
      484,
      483,
      483,
      483,
      484,
      484,
      484,
      483,
      482,
      481,
      482,
      483,
      484,
      484,
      483,
      482,
      482,
      482,
      482,
      483,
      484,
      484,
      483,
      481,
      480,
      479,
      479,
      479,
      479,
      479,
      479,
      479,
      478,
      478,
      477,
      478,
      476,
      477,
      476,
      477,
      475,
      476,
      475,
      476,
      475,
      475,
      475,
      475,
      475,
      475,
      474,
      475,
      473,
      474,
      474,
      474,
      478,
      480,
      480,
      481,
      481,
      482,
      482,
      483,
      482,
      482,
      482,
      483,
      482,
      483,
      484,
      482,
      483,
      483,
      484,
      483,
      483,
      484,
      483,
      483,
      484,
      483,
      482,
      484,
      482,
      481,
      483,
      481,
      483,
      481,
      483,
      482,
      483,
      481,
      482,
      481,
      482,
      481,
      482,
      482,
      482,
      482,
      482,
      483,
      483,
      483,
      483,
      483,
      483,
      483,
      484,
      484,
      482,
      483,
      483,
      482,
      480,
      476,
      476,
      474,
      475,
      474,
      474,
      473,
      473,
      474,
      474,
      475,
      477,
      479,
      478,
      478,
      479,
      479,
      479,
      478,
      479,
      478,
      478,
      478,
      478,
      478,
      478,
      479,
      478,
      478,
      479,
      479,
      480,
      480,
      479,
      477,
      475,
      476,
      475,
      476,
      477,
      477,
      478,
      479,
      479,
      479,
      479,
      478,
      476,
      475,
      475,
      476,
      475,
      477,
      477,
      474,
      473,
      471,
      472,
      472,
      470,
      471,
      470,
      471,
      470,
      470,
      469,
      470,
      468,
      469,
      468,
      469,
      470,
      469,
      471,
      470,
      472,
      471,
      472,
      471,
      471,
      469,
      468,
      467,
      466,
      466,
      465,
      465,
      463,
      464,
      462,
      463,
      461,
      462,
      460,
      462,
      460,
      461,
      460,
      461,
      459,
      460,
      460,
      460,
      460,
      461,
      461,
      460,
      460,
      459,
      458,
      457,
      457,
      457,
      458,
      458,
      456,
      452,
      449,
      452,
      450,
      449,
      448,
      448,
      446,
      448,
      444,
      443,
      443,
      445,
      445,
      447,
      446,
      448,
      447,
      449,
      448,
      449,
      451,
      453,
      455,
      455,
      456,
      456,
      456,
      455,
      455,
      454,
      455,
      455,
      455,
      455,
      456,
      455,
      453,
      451,
      451,
      450,
      450,
      450,
      451,
      451,
      451,
      451,
      451,
      450,
      448,
      447,
      447,
      448,
      450,
      459,
      461,
      463,
      467,
      470,
      471,
      471,
      470,
      485,
      476,
      453,
      438,
      428,
      396,
      398,
      333,
      336,
      314,
      313,
      298,
      294,
      297,
      284,
      287,
      241,
      245,
      239,
      243,
      233,
      237,
      232,
      233,
      192,
      194,
      186,
      176,
      154,
      158,
      156
    ],
    "swim:timestamps": [
      1785511602,
      1785511631,
      1785511662,
      1785511691,
      1785511722,
      1785511751,
      1785511782,
      1785511842,
      1785511902,
      1785511962,
      1785512022,
      1785512082,
      1785512143,
      1785512203,
      1785512263,
      1785512323,
      1785512383,
      1785512443,
      1785512503,
      1785512563,
      1785512623,
      1785512683,
      1785512743,
      1785512803,
      1785512849,
      1785512863,
      1785512909,
      1785512924,
      1785512970,
      1785512984,
      1785513030,
      1785513044,
      1785513090,
      1785513104,
      1785513150,
      1785513164,
      1785513210,
      1785513224,
      1785513270,
      1785513284,
      1785513330,
      1785513344,
      1785513390,
      1785513404,
      1785513450,
      1785513464,
      1785513510,
      1785513524,
      1785513570,
      1785513585,
      1785513645,
      1785513690,
      1785513705,
      1785513751,
      1785513765,
      1785513811,
      1785513825,
      1785513871,
      1785513885,
      1785513931,
      1785513945,
      1785513991,
      1785514005,
      1785514051,
      1785514065,
      1785514111,
      1785514125,
      1785514171,
      1785514185,
      1785514231,
      1785514245,
      1785514291,
      1785514351,
      1785514411,
      1785514472,
      1785514532,
      1785514592,
      1785514652,
      1785514712,
      1785514772,
      1785514832,
      1785514892,
      1785514952,
      1785515012,
      1785515309,
      1785515373,
      1785515433,
      1785515493,
      1785515553,
      1785515613,
      1785515673,
      1785515729,
      1785515793,
      1785515849,
      1785515913,
      1785515974,
      1785516034,
      1785516090,
      1785516154,
      1785516210,
      1785516274,
      1785516334,
      1785516390,
      1785516454,
      1785516510,
      1785516570,
      1785516631,
      1785516691,
      1785516751,
      1785516811,
      1785516871,
      1785516931,
      1785516991,
      1785517005,
      1785517051,
      1785517065,
      1785517111,
      1785517125,
      1785517171,
      1785517185,
      1785517231,
      1785517245,
      1785517291,
      1785517306,
      1785517351,
      1785517366,
      1785517412,
      1785517426,
      1785517472,
      1785517486,
      1785517532,
      1785517546,
      1785517592,
      1785517606,
      1785517652,
      1785517666,
      1785517712,
      1785517726,
      1785517772,
      1785517786,
      1785517832,
      1785517846,
      1785517892,
      1785517904,
      1785517952,
      1785517964,
      1785518012,
      1785518024,
      1785518072,
      1785518084,
      1785518133,
      1785518144,
      1785518193,
      1785518204,
      1785518253,
      1785518264,
      1785518279,
      1785518313,
      1785518324,
      1785518339,
      1785518373,
      1785518384,
      1785518399,
      1785518433,
      1785518444,
      1785518459,
      1785518493,
      1785518505,
      1785518519,
      1785518553,
      1785518565,
      1785518579,
      1785518613,
      1785518625,
      1785518639,
      1785518685,
      1785518699,
      1785518745,
      1785518760,
      1785518805,
      1785518820,
      1785518865,
      1785518880,
      1785518925,
      1785518940,
      1785518985,
      1785519060,
      1785519120,
      1785519166,
      1785519180,
      1785519226,
      1785519240,
      1785519286,
      1785519300,
      1785519346,
      1785519360,
      1785519406,
      1785519421,
      1785519466,
      1785519481,
      1785519500,
      1785519526,
      1785519541,
      1785519560,
      1785519586,
      1785519620,
      1785519646,
      1785519680,
      1785519706,
      1785519740,
      1785519767,
      1785519781,
      1785519800,
      1785519827,
      1785519860,
      1785519887,
      1785519947,
      1785519961,
      1785519980,
      1785520007,
      1785520040,
      1785520067,
      1785520100,
      1785520127,
      1785520142,
      1785520160,
      1785520221,
      1785520247,
      1785520262,
      1785520281,
      1785520307,
      1785520322,
      1785520341,
      1785520367,
      1785520401,
      1785520428,
      1785520442,
      1785520461,
      1785520521,
      1785520581,
      1785520622,
      1785520641,
      1785520701,
      1785520761,
      1785520821,
      1785520863,
      1785520881,
      1785520930,
      1785520990,
      1785521050,
      1785521110,
      1785521170,
      1785521230,
      1785521290,
      1785521350,
      1785521416,
      1785521425,
      1785521476,
      1785521485,
      1785521536,
      1785521545,
      1785521590,
      1785521596,
      1785521605,
      1785521651,
      1785521665,
      1785521711,
      1785521725,
      1785521771,
      1785521785,
      1785521831,
      1785521845,
      1785521891,
      1785521906,
      1785521951,
      1785521966,
      1785522026,
      1785522071,
      1785522086,
      1785522131,
      1785522146,
      1785522191,
      1785522206,
      1785522251,
      1785522266,
      1785522311,
      1785522326,
      1785522372,
      1785522386,
      1785522432,
      1785522446,
      1785522492,
      1785522506,
      1785522552,
      1785522566,
      1785522612,
      1785522626,
      1785522672,
      1785522687,
      1785522732,
      1785522747,
      1785522792,
      1785522807,
      1785522852,
      1785522867,
      1785522912,
      1785522927,
      1785522972,
      1785522987,
      1785523047,
      1785523107,
      1785523167,
      1785523227,
      1785523287,
      1785523347,
      1785523407,
      1785523468,
      1785523528,
      1785523588,
      1785523648,
      1785523708,
      1785523774,
      1785523828,
      1785523834,
      1785523894,
      1785523954,
      1785524014,
      1785524074,
      1785524128,
      1785524134,
      1785524189,
      1785524249,
      1785524309,
      1785524369,
      1785524435,
      1785524489,
      1785524495,
      1785524555,
      1785524609,
      1785524615,
      1785524675,
      1785524729,
      1785524789,
      1785524855,
      1785524909,
      1785524915,
      1785524970,
      1785525030,
      1785525096,
      1785525156,
      1785525210,
      1785525276,
      1785525330,
      1785525336,
      1785525390,
      1785525396,
      1785525450,
      1785525510,
      1785525570,
      1785525630,
      1785525636,
      1785525691,
      1785525757,
      1785525811,
      1785525871,
      1785525877,
      1785525937,
      1785525991,
      1785525997,
      1785526057,
      1785526117,
      1785526177,
      1785526237,
      1785526297,
      1785526357,
      1785526418,
      1785526478,
      1785526538,
      1785526598,
      1785526658,
      1785526718,
      1785526778,
      1785526838,
      1785526898,
      1785526958,
      1785527018,
      1785527078,
      1785527139,
      1785527186,
      1785527199,
      1785527247,
      1785527259,
      1785527319,
      1785527379,
      1785527428,
      1785527482,
      1785527499,
      1785527542,
      1785527559,
      1785527603,
      1785527619,
      1785527663,
      1785527679,
      1785527729,
      1785527739,
      1785527789,
      1785527800,
      1785527850,
      1785527860,
      1785527920,
      1785527980,
      1785528025,
      1785528040,
      1785528100
    ],
    "wof:geomhash": "e4d7e17625ddd3af4132e5a314074c60",
    "wof:id": 2032050837,
    "wof:repo": "sfomuseum-data-flights-2026-07"
  },
  "bbox": [
    -122.4,
    34.59166666666667,
    -80.96694444444445,
    38.51361111111111
  ],
  "geometry": {"coordinates":[[-122.3888888888889,37.62694444444445],[-122.4,37.65],[-122.37972222222221,37.663888888888884],[-122.33333333333333,37.68333333333333],[-122.29583333333333,37.690555555555555],[-122.23333333333333,37.71666666666667],[-122.20722222222223,37.72166666666667],[-122.12388888888889,37.765],[-122.035,37.81055555555555],[-121.93666666666667,37.83861111111111],[-121.83,37.85861111111111],[-121.71027777777778,37.880833333333335],[-121.58583333333333,37.90361111111111],[-121.455,37.92777777777778],[-121.32083333333333,37.95194444444445],[-121.18388888888889,37.97666666666667],[-121.01611111111112,38.00472222222222],[-120.87277777777777,38.026666666666664],[-120.72666666666667,38.049166666666665],[-120.57888888888888,38.07166666666667],[-120.43222222222222,38.093611111111116],[-120.28277777777778,38.11611111111111],[-120.13111111111111,38.13861111111111],[-119.97972222222222,38.16083333333333],[-119.87194444444444,38.17611111111111],[-119.825,38.18333333333333],[-119.71694444444445,38.1975],[-119.67027777777778,38.205555555555556],[-119.56138888888889,38.220555555555556],[-119.51083333333334,38.22805555555556],[-119.40194444444445,38.24277777777778],[-119.36833333333333,38.248333333333335],[-119.24194444444444,38.26555555555556],[-119.2075,38.270833333333336],[-119.0786111111111,38.286944444444444],[-119.04472222222222,38.293055555555554],[-118.91472222222222,38.31027777777778],[-118.87972222222221,38.315555555555555],[-118.74722222222222,38.33222222222223],[-118.71194444444444,38.33833333333334],[-118.56055555555555,38.358333333333334],[-118.54083333333332,38.361111111111114],[-118.40777777777778,38.37861111111111],[-118.36861111111111,38.38361111111111],[-118.23555555555555,38.401111111111106],[-118.19666666666667,38.406388888888884],[-118.06305555555555,38.42361111111111],[-118.02722222222222,38.42805555555555],[-117.89083333333333,38.44555555555555],[-117.8561111111111,38.45],[-117.68555555555555,38.47138888888889],[-117.54916666666666,38.48861111111111],[-117.51444444444445,38.49277777777778],[-117.38,38.509166666666665],[-117.34277777777777,38.51277777777778],[-117.20416666666667,38.51361111111111],[-117.17,38.51111111111111],[-117.03027777777778,38.499722222222225],[-116.99555555555555,38.49666666666667],[-116.85972222222222,38.48527777777778],[-116.82111111111111,38.48222222222223],[-116.68583333333333,38.470555555555556],[-116.64833333333334,38.4675],[-116.51333333333334,38.45583333333334],[-116.47805555555556,38.4525],[-116.34138888888889,38.440555555555555],[-116.30694444444444,38.4375],[-116.17111111111112,38.42527777777777],[-116.13361111111112,38.42166666666667],[-115.99777777777778,38.409166666666664],[-115.96166666666667,38.405833333333334],[-115.82638888888889,38.39333333333333],[-115.65777777777778,38.3775],[-115.48472222222222,38.36083333333333],[-115.31277777777777,38.344166666666666],[-115.15861111111111,38.32888888888889],[-114.98722222222223,38.31166666666666],[-114.81861111111111,38.294444444444444],[-114.64722222222223,38.276944444444446],[-114.47777777777777,38.259166666666665],[-114.31055555555555,38.23277777777778],[-114.14250000000001,38.1975],[-113.9786111111111,38.16305555555555],[-113.815,38.12833333333333],[-112.9925,37.94972222222222],[-112.82666666666667,37.91277777777778],[-112.66027777777778,37.87555555555556],[-112.49388888888889,37.838055555555556],[-112.33138888888888,37.80138888888889],[-112.16666666666667,37.763888888888886],[-112.0025,37.725833333333334],[-111.8411111111111,37.68861111111111],[-111.67777777777778,37.650555555555556],[-111.51666666666667,37.612500000000004],[-111.35249999999999,37.573888888888895],[-111.1913888888889,37.535555555555554],[-111.03111111111112,37.49722222222222],[-110.86972222222222,37.45805555555556],[-110.70861111111111,37.41888888888889],[-110.5475,37.379444444444445],[-110.3875,37.34027777777778],[-110.22500000000001,37.29972222222222],[-110.09222222222222,37.266666666666666],[-109.90444444444445,37.21944444444445],[-109.7725,37.186388888888885],[-109.61305555555555,37.145833333333336],[-109.45194444444445,37.10472222222222],[-109.29222222222222,37.06361111111111],[-109.13222222222221,37.02222222222222],[-108.97083333333333,36.980000000000004],[-108.81083333333333,36.93805555555555],[-108.65333333333334,36.89666666666667],[-108.49333333333334,36.85416666666667],[-108.46444444444445,36.84638888888889],[-108.33527777777778,36.81194444444444],[-108.30777777777777,36.80472222222222],[-108.18083333333334,36.77055555555555],[-108.14583333333334,36.761944444444445],[-108.01722222222222,36.74305555555556],[-107.98722222222223,36.740833333333335],[-107.85111111111111,36.731944444444444],[-107.8175,36.72944444444445],[-107.68861111111111,36.720555555555556],[-107.65333333333334,36.718333333333334],[-107.525,36.70916666666667],[-107.49111111111111,36.70666666666667],[-107.36055555555555,36.6975],[-107.33055555555555,36.695277777777775],[-107.19777777777779,36.68555555555555],[-107.16527777777779,36.683055555555555],[-107.03277777777778,36.67333333333333],[-106.99888888888889,36.670833333333334],[-106.87027777777777,36.66111111111111],[-106.83916666666666,36.65861111111111],[-106.70527777777778,36.64833333333333],[-106.67666666666668,36.646388888888886],[-106.54333333333334,36.63583333333333],[-106.49416666666667,36.63194444444444],[-106.36194444444443,36.62138888888889],[-106.325,36.61833333333333],[-106.19611111111111,36.60777777777778],[-106.17111111111112,36.60583333333334],[-106.03305555555555,36.594166666666666],[-106.00666666666666,36.591944444444444],[-105.87805555555555,36.58111111111111],[-105.83611111111111,36.57777777777778],[-105.72527777777778,36.568333333333335],[-105.66805555555555,36.56333333333333],[-105.55972222222222,36.553888888888885],[-105.51138888888889,36.54944444444444],[-105.39250000000001,36.53916666666667],[-105.34222222222222,36.53444444444444],[-105.22888888888889,36.524166666666666],[-105.17777777777778,36.519444444444446],[-105.05833333333334,36.50888888888889],[-105.01194444444444,36.504444444444445],[-104.99222222222222,36.49944444444444],[-104.89055555555557,36.493611111111115],[-104.84416666666667,36.49194444444444],[-104.82777777777777,36.48305555555556],[-104.73444444444445,36.4925],[-104.67888888888889,36.49277777777778],[-104.65666666666667,36.494166666666665],[-104.56583333333333,36.493611111111115],[-104.51027777777777,36.49388888888889],[-104.49138888888889,36.49305555555556],[-104.40305555555557,36.49444444444445],[-104.34527777777777,36.49444444444445],[-104.32472222222222,36.49444444444445],[-104.23583333333333,36.495],[-104.17750000000001,36.495],[-104.1588888888889,36.495555555555555],[-104.04027777777777,36.49527777777778],[-104.01277777777777,36.49527777777778],[-103.99277777777777,36.495],[-103.84583333333333,36.49527777777778],[-103.82805555555555,36.495555555555555],[-103.67750000000001,36.495],[-103.6613888888889,36.495555555555555],[-103.51194444444444,36.49472222222222],[-103.49583333333334,36.49472222222222],[-103.34694444444445,36.49388888888889],[-103.32944444444443,36.49333333333333],[-103.17972222222222,36.49277777777778],[-103.16638888888889,36.492222222222225],[-103.01333333333334,36.477222222222224],[-102.83666666666666,36.45861111111111],[-102.66944444444445,36.440555555555555],[-102.53694444444444,36.42583333333333],[-102.5038888888889,36.42222222222222],[-102.37083333333332,36.4075],[-102.33944444444444,36.40416666666667],[-102.20472222222223,36.38916666666667],[-102.17472222222223,36.38583333333333],[-102.0411111111111,36.370555555555555],[-102.00833333333334,36.36666666666667],[-101.87388888888889,36.35138888888889],[-101.84277777777777,36.34777777777778],[-101.70972222222223,36.33222222222223],[-101.67833333333334,36.328611111111115],[-101.6111111111111,36.32083333333334],[-101.54416666666667,36.312777777777775],[-101.51388888888889,36.30916666666666],[-101.44666666666667,36.30083333333333],[-101.38305555555554,36.29361111111111],[-101.28611111111111,36.28194444444444],[-101.21972222222223,36.27388888888889],[-101.12583333333333,36.2625],[-101.075,36.256388888888885],[-100.97916666666667,36.24444444444445],[-100.91222222222223,36.236111111111114],[-100.86749999999999,36.230555555555554],[-100.81944444444444,36.224444444444444],[-100.75,36.215833333333336],[-100.65777777777778,36.20416666666667],[-100.58666666666666,36.195277777777775],[-100.42611111111111,36.17472222222222],[-100.36277777777777,36.166666666666664],[-100.32888888888888,36.16222222222222],[-100.26333333333334,36.153888888888886],[-100.16555555555556,36.14111111111111],[-100.10027777777778,36.1325],[-100.00555555555556,36.12027777777778],[-99.93416666666667,36.11055555555556],[-99.87555555555555,36.10305555555556],[-99.83944444444444,36.09805555555556],[-99.67777777777778,36.07638888888889],[-99.61222222222221,36.0675],[-99.55111111111111,36.05916666666666],[-99.51944444444445,36.055],[-99.45333333333333,36.045833333333334],[-99.3888888888889,36.036944444444444],[-99.36222222222221,36.03333333333333],[-99.27722222222222,36.02166666666667],[-99.19722222222222,36.010555555555555],[-99.11555555555555,35.99916666666667],[-99.06972222222223,35.99277777777778],[-99.01055555555556,35.98444444444444],[-98.85027777777778,35.961666666666666],[-98.68861111111111,35.93861111111111],[-98.59472222222222,35.92527777777777],[-98.52833333333334,35.91555555555556],[-98.36972222222222,35.8925],[-98.20805555555556,35.868611111111115],[-98.0736111111111,35.84861111111111],[-97.94388888888889,35.82944444444445],[-97.91305555555556,35.82472222222223],[-97.78472222222221,35.805277777777775],[-97.62333333333332,35.780833333333334],[-97.46138888888889,35.755833333333335],[-97.29888888888888,35.73083333333334],[-97.1388888888889,35.70583333333334],[-96.97583333333334,35.68],[-96.81555555555555,35.654444444444444],[-96.65805555555556,35.62916666666667],[-96.46722222222222,35.59805555555556],[-96.47,35.59805555555556],[-96.30583333333333,35.57166666666667],[-96.27944444444444,35.5675],[-96.15,35.54611111111111],[-96.12444444444444,35.541666666666664],[-96.0213888888889,35.52444444444444],[-96.02,35.52444444444444],[-95.96694444444445,35.515277777777776],[-95.86472222222221,35.498333333333335],[-95.80805555555555,35.48888888888889],[-95.7088888888889,35.471944444444446],[-95.65361111111112,35.462500000000006],[-95.55138888888888,35.44499999999999],[-95.4961111111111,35.43555555555555],[-95.39583333333334,35.41833333333333],[-95.34277777777777,35.409166666666664],[-95.24,35.39138888888889],[-95.18722222222223,35.382222222222225],[-95.085,35.36416666666667],[-95.05805555555555,35.35944444444445],[-94.89750000000001,35.33111111111111],[-94.76138888888889,35.30694444444444],[-94.73861111111111,35.30305555555555],[-94.60722222222222,35.279444444444444],[-94.56194444444444,35.27111111111111],[-94.46138888888889,35.253055555555555],[-94.40333333333334,35.2425],[-94.30194444444444,35.22416666666667],[-94.27722222222222,35.21944444444445],[-94.15694444444445,35.1975],[-94.11638888888888,35.19],[-94.00138888888888,35.16861111111111],[-93.96527777777779,35.161944444444444],[-93.85055555555554,35.14055555555556],[-93.80944444444444,35.13305555555556],[-93.69944444444445,35.11222222222222],[-93.63861111111112,35.100833333333334],[-93.54694444444445,35.083333333333336],[-93.48861111111111,35.07222222222222],[-93.36555555555555,35.04888888888889],[-93.33777777777777,35.04333333333333],[-93.21777777777778,35.02055555555555],[-93.18722222222223,35.01444444444444],[-93.06833333333333,34.99166666666667],[-93.03694444444444,34.98555555555556],[-92.91472222222222,34.961666666666666],[-92.88722222222223,34.95638888888889],[-92.76666666666667,34.9325],[-92.7388888888889,34.92722222222222],[-92.61416666666666,34.902499999999996],[-92.58666666666666,34.89694444444444],[-92.46611111111112,34.87305555555555],[-92.43583333333333,34.86694444444444],[-92.285,34.836666666666666],[-92.13166666666666,34.82277777777778],[-91.97833333333334,34.83083333333334],[-91.83194444444445,34.79111111111111],[-91.685,34.755],[-91.53472222222221,34.72888888888889],[-91.38416666666667,34.7025],[-91.23722222222223,34.67638888888889],[-91.08805555555556,34.64972222222222],[-90.93777777777778,34.62277777777778],[-90.78555555555555,34.59583333333334],[-90.63416666666667,34.59166666666667],[-90.46444444444445,34.62388888888889],[-90.34166666666667,34.652499999999996],[-90.31944444444444,34.659444444444446],[-90.17527777777778,34.693888888888885],[-90.03027777777778,34.72694444444445],[-89.88444444444445,34.75694444444444],[-89.76805555555555,34.784166666666664],[-89.60138888888888,34.82055555555556],[-89.59444444444443,34.823888888888895],[-89.4575,34.85277777777778],[-89.31388888888888,34.88444444444444],[-89.17111111111112,34.91583333333333],[-89.02527777777777,34.94777777777777],[-88.86833333333333,34.98361111111111],[-88.73111111111112,35.01166666666666],[-88.7213888888889,35.015],[-88.57833333333333,35.044444444444444],[-88.42555555555556,35.07694444444445],[-88.42750000000001,35.07638888888889],[-88.27916666666667,35.10777777777778],[-88.13,35.13916666666667],[-87.97916666666667,35.170833333333334],[-87.83,35.20166666666667],[-87.67833333333334,35.23305555555556],[-87.68083333333334,35.2325],[-87.52666666666667,35.26416666666667],[-87.40722222222223,35.288333333333334],[-87.22805555555556,35.32472222222223],[-87.0761111111111,35.355000000000004],[-86.95472222222223,35.379444444444445],[-86.77666666666667,35.414722222222224],[-86.65166666666667,35.439166666666665],[-86.62305555555555,35.44472222222222],[-86.49944444444445,35.46888888888889],[-86.47222222222223,35.47416666666667],[-86.35,35.49805555555556],[-86.20027777777779,35.526944444444446],[-86.02388888888889,35.56055555555555],[-85.87555555555555,35.58861111111111],[-85.87555555555555,35.58861111111111],[-85.72472222222223,35.617222222222225],[-85.57666666666667,35.64472222222222],[-85.42527777777778,35.67305555555555],[-85.2761111111111,35.70027777777778],[-85.2761111111111,35.70027777777778],[-85.12583333333333,35.72777777777778],[-84.97666666666667,35.755],[-84.97666666666667,35.755],[-84.83277777777778,35.780833333333334],[-84.68694444444445,35.80694444444444],[-84.53611111111111,35.82222222222222],[-84.38305555555554,35.83305555555556],[-84.23027777777779,35.84388888888889],[-84.07638888888889,35.85416666666667],[-83.92083333333333,35.864444444444445],[-83.7611111111111,35.875],[-83.60083333333333,35.88527777777778],[-83.44222222222223,35.88444444444444],[-83.28611111111111,35.85333333333333],[-83.12194444444444,35.81666666666667],[-82.96833333333333,35.7825],[-82.81388888888888,35.74805555555556],[-82.65472222222223,35.71194444444445],[-82.49583333333334,35.67583333333333],[-82.34333333333333,35.64083333333333],[-82.20083333333334,35.60805555555556],[-82.06166666666667,35.57555555555556],[-81.93388888888889,35.55138888888889],[-81.92666666666668,35.551111111111105],[-81.81527777777778,35.530833333333334],[-81.80888888888889,35.529444444444444],[-81.70555555555556,35.51083333333333],[-81.6036111111111,35.492222222222225],[-81.50277777777778,35.49888888888889],[-81.41388888888889,35.50666666666667],[-81.40305555555557,35.509166666666665],[-81.31527777777778,35.51777777777777],[-81.30555555555556,35.51861111111111],[-81.22916666666667,35.525277777777774],[-81.2063888888889,35.528055555555554],[-81.14888888888889,35.51972222222222],[-81.1275,35.51638888888889],[-81.06194444444444,35.504444444444445],[-81.05138888888888,35.5],[-81.00722222222223,35.45666666666667],[-81.00138888888888,35.45],[-80.9825,35.40416666666667],[-80.98222222222222,35.39805555555556],[-80.97777777777777,35.346944444444446],[-80.97361111111111,35.29722222222222],[-80.97194444444445,35.2625],[-80.97,35.25333333333333],[-80.96694444444445,35.219166666666666]],"type":"LineString"}
}
