{
  "id": 2032019939,
  "type": "Feature",
  "properties": {
    "geom:area": 0,
    "geom:bbox": "-122.370278,37.383333,-122.096667,37.618889",
    "geom:latitude": 37.499839454062304,
    "geom:longitude": -122.20584078381783,
    "src:alt_label": "swim-path",
    "src:geom": "swim",
    "swim:altitudes": [
      "060",
      "060",
      "061",
      "058",
      "044",
      "045",
      "036",
      "028",
      "020",
      "012",
      "006",
      "100"
    ],
    "swim:geom": "path",
    "swim:speeds": [
      242,
      241,
      241,
      213,
      193,
      196,
      193,
      177,
      161,
      134,
      124,
      122
    ],
    "swim:timestamps": [
      1785379960,
      1785380021,
      1785380032,
      1785380081,
      1785380146,
      1785380153,
      1785380213,
      1785380273,
      1785380333,
      1785380393,
      1785380453,
      1785380513
    ],
    "wof:geomhash": "65ac107c5be56a96344fccdc37777b41",
    "wof:id": 2032019939,
    "wof:repo": "sfomuseum-data-flights-2026-07"
  },
  "bbox": [
    -122.37027777777777,
    37.38333333333333,
    -122.09666666666666,
    37.61888888888889
  ],
  "geometry": {"coordinates":[[-122.28333333333333,37.38333333333333],[-122.2,37.4],[-122.19666666666667,37.408055555555556],[-122.13333333333334,37.43333333333333],[-122.1,37.5],[-122.09666666666666,37.48972222222222],[-122.14555555555556,37.524166666666666],[-122.19944444444445,37.54722222222222],[-122.24972222222222,37.568333333333335],[-122.295,37.587500000000006],[-122.3325,37.60305555555556],[-122.37027777777777,37.61888888888889]],"type":"LineString"}
}
