{
  "id": 2032049957,
  "type": "Feature",
  "properties": {
    "geom:area": 0,
    "geom:bbox": "-122.650000,37.418056,-82.918333,43.283333",
    "geom:latitude": 41.50680738258575,
    "geom:longitude": -103.29804402707805,
    "src:alt_label": "swim-path",
    "src:geom": "swim",
    "swim:altitudes": [
      "016",
      "025",
      "039",
      "062",
      "096",
      "112",
      "126",
      "128",
      "149",
      "150",
      "164",
      "165",
      "181",
      "198",
      "210",
      "212",
      "223",
      "233",
      "235",
      "249",
      "252",
      "262",
      "265",
      "274",
      "276",
      "285",
      "293",
      "298",
      "300",
      "307",
      "308",
      "309",
      "317",
      "319",
      "325",
      "328",
      "336",
      "340C",
      "340C",
      "340C",
      "340C",
      "340C",
      "340C",
      "340C",
      "340C",
      "340C",
      "340C",
      "340C",
      "340C",
      "340C",
      "340C",
      "340C",
      "340C",
      "340C",
      "340C",
      "340C",
      "340C",
      "340C",
      "340C",
      "340C",
      "340C",
      "340C",
      "340C",
      "340C",
      "340C",
      "340C",
      "340C",
      "340C",
      "340C",
      "340C",
      "340C",
      "340C",
      "340C",
      "340C",
      "340C",
      "340C",
      "340C",
      "340C",
      "340C",
      "340C",
      "340C",
      "340C",
      "340C",
      "340C",
      "340C",
      "340C",
      "340C",
      "340C",
      "340C",
      "340C",
      "340C",
      "340C",
      "340C",
      "340C",
      "340C",
      "340C",
      "340C",
      "340C",
      "340C",
      "340C",
      "340C",
      "340C",
      "340C",
      "340C",
      "340C",
      "340C",
      "340C",
      "340C",
      "340C",
      "340C",
      "340C",
      "340C",
      "340C",
      "340C",
      "340C",
      "340C",
      "340C",
      "340C",
      "340C",
      "340C",
      "340C",
      "340C",
      "340C",
      "339C",
      "340C",
      "340C",
      "340C",
      "340C",
      "340C",
      "340C",
      "340C",
      "340C",
      "340C",
      "340C",
      "340C",
      "340C",
      "340C",
      "340C",
      "340C",
      "340C",
      "340C",
      "340C",
      "340C",
      "340C",
      "340C",
      "340C",
      "339C",
      "340C",
      "340C",
      "340C",
      "340C",
      "340C",
      "340C",
      "340C",
      "340C",
      "340C",
      "340C",
      "340C",
      "340C",
      "340C",
      "340C",
      "340C",
      "340C",
      "340C",
      "340",
      "340",
      "340",
      "340",
      "351",
      "359C",
      "360C",
      "360C",
      "360C",
      "360C",
      "360C",
      "360C",
      "360C",
      "360C",
      "360C",
      "360C",
      "360C",
      "360C",
      "360C",
      "360C",
      "360C",
      "360C",
      "360C",
      "360C",
      "360C",
      "360C",
      "360C",
      "360C",
      "360C",
      "360C",
      "359C",
      "360C",
      "360C",
      "360C",
      "360C",
      "360C",
      "360C",
      "360C",
      "360C",
      "360C",
      "360C",
      "360C",
      "360C",
      "360C",
      "360C",
      "360C",
      "360C",
      "360C",
      "360C",
      "360C",
      "360C",
      "360C",
      "359C",
      "360C",
      "360C",
      "360C",
      "360C",
      "360C",
      "360C",
      "360C",
      "360C",
      "360C",
      "360C",
      "360C",
      "360C",
      "360C",
      "360C",
      "360C",
      "360C",
      "360C",
      "360C",
      "360C",
      "360C",
      "360C",
      "360C",
      "360C",
      "360C",
      "360C",
      "360C",
      "360C",
      "360C",
      "360C",
      "360C",
      "360C",
      "360C",
      "360C",
      "360C",
      "360C",
      "360C",
      "360C",
      "360C",
      "360C",
      "360C",
      "360C",
      "360C",
      "360C",
      "360C",
      "360C",
      "360C",
      "360C",
      "360C",
      "360C",
      "360C",
      "360C",
      "360C",
      "360C",
      "360C",
      "360C",
      "360C",
      "360C",
      "360C",
      "360C",
      "360C",
      "360C",
      "360C",
      "360C",
      "360C",
      "360C",
      "360C",
      "360C",
      "360C",
      "360C",
      "360C",
      "360C",
      "360C",
      "360C",
      "360C",
      "360C",
      "360C",
      "360C",
      "360C",
      "360C",
      "360C",
      "360C",
      "360C",
      "360C",
      "360C",
      "360C",
      "360C",
      "360C",
      "360C",
      "360C",
      "360C",
      "360C",
      "360C",
      "360C",
      "360C",
      "360C",
      "360C",
      "360C",
      "360C",
      "360C",
      "360C",
      "360C",
      "360C",
      "360C",
      "360C",
      "360C",
      "360C",
      "360C",
      "360C",
      "360C",
      "360C",
      "360C",
      "360C",
      "360C",
      "360C",
      "360C",
      "359C",
      "360C",
      "360C",
      "360C",
      "360C",
      "360C",
      "360C",
      "360C",
      "360C",
      "360C",
      "360C",
      "360C",
      "360",
      "353",
      "343",
      "333",
      "330",
      "330",
      "330",
      "325",
      "307",
      "284",
      "264",
      "241",
      "220",
      "199",
      "178",
      "171",
      "159",
      "135",
      "116",
      "110C",
      "110",
      "110",
      "110C",
      "098",
      "080",
      "079",
      "063",
      "062",
      "048",
      "040",
      "040",
      "034",
      "033",
      "027",
      "025",
      "018",
      "017",
      "011",
      "010",
      "004"
    ],
    "swim:geom": "path",
    "swim:speeds": [
      167,
      182,
      241,
      282,
      287,
      320,
      365,
      367,
      368,
      368,
      384,
      387,
      400,
      400,
      412,
      416,
      420,
      428,
      428,
      432,
      429,
      422,
      422,
      418,
      418,
      419,
      421,
      427,
      428,
      430,
      448,
      449,
      453,
      451,
      450,
      450,
      442,
      442,
      442,
      442,
      442,
      444,
      444,
      443,
      443,
      444,
      443,
      443,
      446,
      448,
      450,
      450,
      450,
      449,
      449,
      449,
      450,
      450,
      450,
      449,
      448,
      447,
      447,
      447,
      447,
      441,
      432,
      429,
      425,
      426,
      425,
      425,
      429,
      428,
      432,
      430,
      434,
      432,
      435,
      434,
      436,
      434,
      438,
      434,
      432,
      432,
      432,
      435,
      443,
      444,
      446,
      446,
      445,
      444,
      442,
      442,
      441,
      445,
      453,
      453,
      452,
      451,
      450,
      450,
      450,
      452,
      453,
      455,
      456,
      457,
      458,
      459,
      459,
      460,
      461,
      463,
      464,
      465,
      465,
      465,
      464,
      462,
      461,
      461,
      462,
      463,
      464,
      465,
      466,
      469,
      470,
      471,
      472,
      472,
      472,
      472,
      471,
      469,
      466,
      465,
      465,
      465,
      466,
      464,
      458,
      455,
      454,
      454,
      455,
      456,
      455,
      453,
      448,
      447,
      454,
      448,
      450,
      447,
      447,
      447,
      447,
      447,
      447,
      447,
      446,
      447,
      444,
      447,
      443,
      446,
      436,
      445,
      435,
      436,
      437,
      438,
      439,
      438,
      438,
      438,
      438,
      438,
      438,
      440,
      441,
      440,
      440,
      438,
      437,
      438,
      438,
      436,
      433,
      433,
      432,
      431,
      421,
      422,
      412,
      421,
      420,
      425,
      423,
      426,
      426,
      423,
      426,
      424,
      429,
      431,
      429,
      432,
      432,
      434,
      434,
      433,
      433,
      432,
      433,
      434,
      435,
      439,
      436,
      433,
      435,
      431,
      429,
      429,
      427,
      426,
      426,
      425,
      425,
      425,
      426,
      426,
      426,
      427,
      427,
      427,
      427,
      429,
      431,
      431,
      432,
      432,
      431,
      430,
      430,
      430,
      429,
      429,
      429,
      428,
      428,
      428,
      429,
      428,
      428,
      427,
      428,
      428,
      428,
      428,
      428,
      432,
      433,
      434,
      434,
      435,
      437,
      438,
      439,
      440,
      441,
      442,
      443,
      444,
      445,
      444,
      443,
      441,
      441,
      442,
      444,
      442,
      440,
      439,
      440,
      440,
      441,
      441,
      441,
      440,
      440,
      441,
      444,
      445,
      444,
      444,
      445,
      445,
      445,
      447,
      447,
      446,
      444,
      442,
      443,
      444,
      444,
      445,
      445,
      446,
      446,
      445,
      444,
      445,
      445,
      444,
      443,
      442,
      440,
      439,
      439,
      440,
      440,
      435,
      434,
      434,
      436,
      435,
      433,
      432,
      432,
      432,
      432,
      432,
      432,
      434,
      435,
      434,
      432,
      427,
      426,
      425,
      426,
      429,
      435,
      437,
      438,
      438,
      441,
      437,
      414,
      406,
      395,
      384,
      373,
      365,
      365,
      357,
      346,
      303,
      303,
      279,
      277,
      247,
      249,
      247,
      243,
      246,
      239,
      214,
      217,
      184,
      185,
      175,
      178,
      174,
      174,
      131,
      133,
      125
    ],
    "swim:timestamps": [
      1785548562,
      1785548583,
      1785548643,
      1785548703,
      1785548763,
      1785548823,
      1785548883,
      1785548893,
      1785548943,
      1785548953,
      1785549003,
      1785549013,
      1785549063,
      1785549123,
      1785549184,
      1785549193,
      1785549244,
      1785549304,
      1785549314,
      1785549364,
      1785549374,
      1785549424,
      1785549434,
      1785549484,
      1785549494,
      1785549554,
      1785549614,
      1785549664,
      1785549674,
      1785549734,
      1785549784,
      1785549794,
      1785549845,
      1785549854,
      1785549905,
      1785549915,
      1785549975,
      1785550025,
      1785550035,
      1785550085,
      1785550095,
      1785550152,
      1785550212,
      1785550272,
      1785550332,
      1785550392,
      1785550452,
      1785550513,
      1785550573,
      1785550633,
      1785550693,
      1785550753,
      1785550813,
      1785550873,
      1785550933,
      1785550955,
      1785550993,
      1785551015,
      1785551053,
      1785551076,
      1785551113,
      1785551136,
      1785551174,
      1785551196,
      1785551234,
      1785551256,
      1785551294,
      1785551316,
      1785551354,
      1785551376,
      1785551414,
      1785551436,
      1785551474,
      1785551496,
      1785551534,
      1785551556,
      1785551594,
      1785551616,
      1785551654,
      1785551676,
      1785551714,
      1785551736,
      1785551775,
      1785551797,
      1785551835,
      1785551857,
      1785551895,
      1785551917,
      1785551955,
      1785551977,
      1785552015,
      1785552037,
      1785552075,
      1785552097,
      1785552135,
      1785552157,
      1785552195,
      1785552217,
      1785552255,
      1785552277,
      1785552337,
      1785552376,
      1785552397,
      1785552436,
      1785552457,
      1785552496,
      1785552517,
      1785552556,
      1785552578,
      1785552616,
      1785552638,
      1785552676,
      1785552698,
      1785552736,
      1785552758,
      1785552796,
      1785552818,
      1785552856,
      1785552878,
      1785552916,
      1785552938,
      1785552976,
      1785552998,
      1785553037,
      1785553058,
      1785553097,
      1785553118,
      1785553157,
      1785553178,
      1785553217,
      1785553238,
      1785553298,
      1785553359,
      1785553419,
      1785553479,
      1785553539,
      1785553599,
      1785553659,
      1785553719,
      1785553779,
      1785553839,
      1785553899,
      1785553959,
      1785554019,
      1785554079,
      1785554139,
      1785554200,
      1785554260,
      1785554320,
      1785554380,
      1785554440,
      1785554500,
      1785554560,
      1785554620,
      1785554686,
      1785554740,
      1785554746,
      1785554800,
      1785554806,
      1785554866,
      1785554920,
      1785554926,
      1785554986,
      1785555038,
      1785555106,
      1785555158,
      1785555166,
      1785555218,
      1785555287,
      1785555338,
      1785555347,
      1785555398,
      1785555467,
      1785555518,
      1785555527,
      1785555581,
      1785555647,
      1785555698,
      1785555707,
      1785555761,
      1785555767,
      1785555827,
      1785555879,
      1785555887,
      1785555947,
      1785555999,
      1785556059,
      1785556068,
      1785556128,
      1785556188,
      1785556239,
      1785556248,
      1785556299,
      1785556308,
      1785556368,
      1785556419,
      1785556428,
      1785556479,
      1785556488,
      1785556548,
      1785556600,
      1785556608,
      1785556660,
      1785556668,
      1785556728,
      1785556780,
      1785556789,
      1785556840,
      1785556849,
      1785556909,
      1785556960,
      1785556969,
      1785557020,
      1785557029,
      1785557089,
      1785557149,
      1785557200,
      1785557209,
      1785557260,
      1785557269,
      1785557321,
      1785557329,
      1785557381,
      1785557389,
      1785557441,
      1785557449,
      1785557510,
      1785557561,
      1785557570,
      1785557621,
      1785557630,
      1785557690,
      1785557741,
      1785557750,
      1785557801,
      1785557810,
      1785557870,
      1785557921,
      1785557930,
      1785557981,
      1785557990,
      1785558050,
      1785558102,
      1785558110,
      1785558162,
      1785558170,
      1785558222,
      1785558254,
      1785558282,
      1785558315,
      1785558342,
      1785558375,
      1785558402,
      1785558435,
      1785558462,
      1785558495,
      1785558522,
      1785558555,
      1785558582,
      1785558615,
      1785558642,
      1785558675,
      1785558702,
      1785558735,
      1785558762,
      1785558822,
      1785558882,
      1785558942,
      1785559003,
      1785559063,
      1785559123,
      1785559183,
      1785559243,
      1785559303,
      1785559363,
      1785559423,
      1785559483,
      1785559543,
      1785559603,
      1785559663,
      1785559723,
      1785559783,
      1785559843,
      1785559903,
      1785559964,
      1785560024,
      1785560084,
      1785560144,
      1785560204,
      1785560264,
      1785560324,
      1785560384,
      1785560444,
      1785560504,
      1785560564,
      1785560624,
      1785560684,
      1785560744,
      1785560804,
      1785560864,
      1785560924,
      1785560987,
      1785561047,
      1785561105,
      1785561165,
      1785561227,
      1785561285,
      1785561345,
      1785561407,
      1785561467,
      1785561525,
      1785561587,
      1785561647,
      1785561705,
      1785561767,
      1785561827,
      1785561885,
      1785561948,
      1785562008,
      1785562066,
      1785562128,
      1785562188,
      1785562246,
      1785562308,
      1785562368,
      1785562426,
      1785562488,
      1785562548,
      1785562606,
      1785562666,
      1785562728,
      1785562788,
      1785562848,
      1785562908,
      1785562968,
      1785563029,
      1785563089,
      1785563149,
      1785563209,
      1785563269,
      1785563329,
      1785563389,
      1785563449,
      1785563509,
      1785563569,
      1785563629,
      1785563689,
      1785563749,
      1785563809,
      1785563869,
      1785563929,
      1785563989,
      1785564049,
      1785564109,
      1785564169,
      1785564229,
      1785564290,
      1785564350,
      1785564410,
      1785564426,
      1785564470,
      1785564522,
      1785564590,
      1785564650,
      1785564703,
      1785564762,
      1785564770,
      1785564822,
      1785564882,
      1785564890,
      1785564943,
      1785564950,
      1785565010,
      1785565063,
      1785565070,
      1785565117,
      1785565130,
      1785565177,
      1785565190,
      1785565237,
      1785565250,
      1785565297,
      1785565310,
      1785565370
    ],
    "wof:geomhash": "3181a2d6b785a54d2842b69d6900c2fe",
    "wof:id": 2032049957,
    "wof:repo": "sfomuseum-data-flights-2026-07"
  },
  "bbox": [
    -122.65,
    37.418055555555554,
    -82.91833333333334,
    43.28333333333333
  ],
  "geometry": {"coordinates":[[-82.91833333333334,40.00333333333333],[-82.93805555555556,40.01361111111111],[-83.00305555555556,40.04888888888889],[-83.09583333333333,40.06166666666666],[-83.19888888888889,40.05138888888889],[-83.30722222222222,40.04083333333333],[-83.42611111111111,40.073888888888895],[-83.43694444444445,40.07777777777778],[-83.54888888888888,40.11694444444444],[-83.56027777777777,40.12083333333334],[-83.67527777777778,40.16083333333333],[-83.68722222222223,40.165],[-83.80722222222222,40.20666666666667],[-83.92972222222222,40.24916666666667],[-84.0611111111111,40.30222222222222],[-84.07805555555555,40.31388888888888],[-84.17361111111111,40.38138888888889],[-84.2875,40.46194444444445],[-84.30722222222222,40.476111111111116],[-84.40361111111112,40.544444444444444],[-84.42166666666667,40.55722222222222],[-84.51638888888888,40.62388888888889],[-84.535,40.63722222222222],[-84.62722222222222,40.70194444444445],[-84.64611111111111,40.71527777777778],[-84.75888888888889,40.79416666666666],[-84.87194444444444,40.87305555555555],[-84.96444444444445,40.9375],[-84.98972222222223,40.955000000000005],[-85.10722222222222,41.03638888888889],[-85.20444444444445,41.10333333333333],[-85.22916666666667,41.12027777777778],[-85.32888888888888,41.18888888888888],[-85.35388888888889,41.20583333333334],[-85.45166666666667,41.272777777777776],[-85.4775,41.29055555555556],[-85.59916666666666,41.373333333333335],[-85.69555555555556,41.43888888888888],[-85.72194444444445,41.45666666666667],[-85.81944444444444,41.5225],[-85.84472222222222,41.53944444444444],[-85.96833333333333,41.6225],[-86.09138888888889,41.705000000000005],[-86.21416666666667,41.786944444444444],[-86.33805555555556,41.869166666666665],[-86.46222222222222,41.95111111111111],[-86.58611111111111,42.032777777777774],[-86.69527777777778,42.10444444444445],[-86.82055555555556,42.186388888888885],[-86.9475,42.26888888888889],[-87.0736111111111,42.35055555555556],[-87.20111111111112,42.43277777777777],[-87.32777777777777,42.51416666666667],[-87.45444444444445,42.59527777777778],[-87.58527777777778,42.67833333333333],[-87.63583333333334,42.71027777777778],[-87.71361111111112,42.75972222222222],[-87.76222222222222,42.790277777777774],[-87.84166666666667,42.84055555555556],[-87.90722222222223,42.88166666666667],[-87.97083333333333,42.92166666666667],[-88.02555555555556,42.95583333333334],[-88.09888888888888,43.001666666666665],[-88.15555555555557,43.036944444444444],[-88.23388888888888,43.078611111111115],[-88.29694444444445,43.10027777777778],[-88.39,43.11694444444444],[-88.45222222222222,43.11833333333333],[-88.55277777777778,43.12138888888889],[-88.615,43.12083333333334],[-88.71444444444445,43.12361111111111],[-88.7786111111111,43.12388888888889],[-88.87833333333333,43.12583333333333],[-88.94472222222223,43.12638888888889],[-89.0461111111111,43.12777777777778],[-89.11055555555555,43.128055555555555],[-89.20916666666668,43.129444444444445],[-89.27638888888889,43.13],[-89.37833333333333,43.13111111111111],[-89.44305555555556,43.13166666666667],[-89.54194444444444,43.132222222222225],[-89.60805555555555,43.132777777777775],[-89.71055555555556,43.13333333333333],[-89.78055555555555,43.13361111111111],[-89.84027777777777,43.13388888888889],[-89.94361111111111,43.134166666666665],[-90.00555555555556,43.13444444444444],[-90.10972222222222,43.14],[-90.20416666666667,43.15555555555555],[-90.25166666666667,43.16694444444444],[-90.37527777777777,43.20277777777778],[-90.40972222222223,43.21333333333334],[-90.53194444444445,43.248333333333335],[-90.56666666666666,43.25611111111111],[-90.69444444444444,43.27972222222222],[-90.72833333333334,43.2825],[-90.86,43.28333333333333],[-90.92833333333334,43.278055555555554],[-91.0325,43.271388888888886],[-91.10083333333333,43.266666666666666],[-91.27055555555556,43.255],[-91.37055555555555,43.2475],[-91.43833333333333,43.24277777777778],[-91.53916666666666,43.23527777777778],[-91.60638888888889,43.230000000000004],[-91.70805555555556,43.222500000000004],[-91.77805555555555,43.217222222222226],[-91.87916666666666,43.20944444444445],[-91.94972222222222,43.20388888888889],[-92.05111111111111,43.19583333333333],[-92.12083333333332,43.19027777777777],[-92.22472222222223,43.181666666666665],[-92.29416666666667,43.17611111111111],[-92.39805555555556,43.16777777777777],[-92.47,43.161944444444444],[-92.575,43.153055555555554],[-92.6438888888889,43.14722222222222],[-92.74888888888889,43.138333333333335],[-92.81888888888888,43.132222222222225],[-92.92444444444445,43.12305555555555],[-92.99444444444444,43.11694444444444],[-93.09583333333333,43.10805555555556],[-93.16694444444445,43.10166666666667],[-93.27055555555556,43.0925],[-93.33944444444444,43.086111111111116],[-93.40916666666668,43.07972222222222],[-93.51555555555555,43.07],[-93.61972222222222,43.06027777777778],[-93.69,43.053888888888885],[-93.79805555555555,43.04361111111111],[-93.86944444444444,43.03666666666666],[-94.0475,43.019444444444446],[-94.22333333333333,43.00222222222222],[-94.39916666666667,42.984722222222224],[-94.57694444444444,42.96666666666667],[-94.76,42.948055555555555],[-94.9375,42.92944444444444],[-95.11333333333333,42.91083333333333],[-95.28611111111111,42.89222222222222],[-95.46111111111111,42.87305555555555],[-95.63527777777779,42.85388888888889],[-95.80722222222222,42.83444444444444],[-95.98333333333333,42.81444444444444],[-96.1563888888889,42.794444444444444],[-96.32694444444444,42.77444444444444],[-96.4961111111111,42.75416666666667],[-96.66305555555556,42.73416666666667],[-96.83472222222221,42.71333333333334],[-97.00222222222222,42.69277777777778],[-97.17861111111111,42.67055555555555],[-97.345,42.64944444444444],[-97.51138888888889,42.62861111111111],[-97.67944444444444,42.62027777777778],[-97.8475,42.61333333333334],[-98.0286111111111,42.605555555555554],[-98.18416666666667,42.59861111111111],[-98.19805555555556,42.59805555555556],[-98.35,42.590833333333336],[-98.36305555555555,42.59027777777778],[-98.53305555555555,42.58222222222223],[-98.68583333333333,42.575],[-98.70055555555555,42.57416666666667],[-98.86916666666666,42.56583333333333],[-98.99666666666667,42.559444444444445],[-99.20527777777778,42.54805555555556],[-99.3325,42.540277777777774],[-99.36916666666666,42.53916666666667],[-99.49805555555555,42.53111111111111],[-99.70138888888889,42.52027777777778],[-99.83,42.51222222222222],[-99.86138888888888,42.51083333333333],[-99.99194444444444,42.50222222222222],[-100.1875,42.490833333333335],[-100.33194444444445,42.480000000000004],[-100.35027777777778,42.480555555555554],[-100.48527777777778,42.471944444444446],[-100.67972222222222,42.45916666666667],[-100.82555555555555,42.44833333333333],[-100.84277777777777,42.448055555555555],[-100.97638888888889,42.43888888888888],[-101.00416666666666,42.43694444444444],[-101.17,42.42527777777777],[-101.31722222222221,42.41222222222222],[-101.3325,42.41361111111111],[-101.49916666666667,42.40138888888889],[-101.6463888888889,42.388333333333335],[-101.80916666666667,42.37638888888889],[-101.82472222222222,42.376666666666665],[-101.97166666666666,42.36527777777778],[-102.13416666666667,42.3525],[-102.29777777777778,42.336111111111116],[-102.29888888888888,42.33916666666667],[-102.45722222222223,42.323888888888895],[-102.45722222222223,42.32611111111112],[-102.61944444444444,42.312777777777775],[-102.77555555555556,42.29888888888889],[-102.77583333333334,42.29944444444444],[-102.92888888888889,42.28444444444444],[-102.92861111111111,42.28638888888889],[-103.08666666666666,42.2725],[-103.24361111111111,42.25833333333333],[-103.24527777777777,42.25833333333333],[-103.40277777777779,42.24388888888889],[-103.4025,42.24388888888889],[-103.56361111111111,42.22916666666667],[-103.71972222222223,42.21472222222223],[-103.7225,42.214444444444446],[-103.88,42.19833333333333],[-103.87972222222221,42.19944444444444],[-104.04166666666667,42.18388888888889],[-104.20305555555557,42.166666666666664],[-104.2038888888889,42.168055555555554],[-104.36666666666666,42.150555555555556],[-104.36833333333333,42.151944444444446],[-104.5286111111111,42.13583333333333],[-104.69083333333333,42.11944444444445],[-104.81722222222221,42.10444444444445],[-104.85055555555554,42.10277777777778],[-104.97833333333334,42.08777777777778],[-105.01277777777777,42.08555555555556],[-105.14166666666668,42.069722222222225],[-105.17555555555556,42.068333333333335],[-105.30305555555556,42.052499999999995],[-105.33611111111111,42.051111111111105],[-105.46194444444444,42.03583333333333],[-105.49333333333334,42.03388888888889],[-105.65055555555556,42.016666666666666],[-105.77694444444444,42.00222222222222],[-105.81,41.99861111111111],[-105.93361111111112,41.984722222222224],[-105.96472222222222,41.98111111111111],[-106.1211111111111,41.96333333333334],[-106.2461111111111,41.948611111111106],[-106.27888888888889,41.94472222222222],[-106.40444444444445,41.93],[-106.43416666666667,41.92638888888889],[-106.58055555555555,41.90888888888889],[-106.73833333333333,41.89],[-106.73805555555556,41.89],[-106.89527777777778,41.87083333333334],[-106.92722222222223,41.86694444444444],[-107.08638888888889,41.84722222222222],[-107.21277777777777,41.831388888888895],[-107.24416666666667,41.8275],[-107.37055555555555,41.81166666666666],[-107.40138888888889,41.8075],[-107.52722222222222,41.79138888888889],[-107.6211111111111,41.779444444444444],[-107.6863888888889,41.770833333333336],[-107.7786111111111,41.75888888888889],[-107.8436111111111,41.75055555555556],[-107.935,41.73833333333334],[-107.99944444444445,41.730000000000004],[-108.09138888888889,41.7175],[-108.15416666666667,41.70916666666667],[-108.24694444444445,41.696666666666665],[-108.30972222222222,41.68833333333333],[-108.40416666666667,41.675555555555555],[-108.46638888888889,41.66694444444444],[-108.55833333333334,41.654444444444444],[-108.62194444444444,41.64555555555555],[-108.715,41.6325],[-108.7786111111111,41.62361111111111],[-108.86888888888888,41.61083333333333],[-108.93305555555555,41.60194444444445],[-109.08416666666666,41.57416666666667],[-109.23388888888888,41.538888888888884],[-109.38666666666667,41.5025],[-109.53722222222223,41.46666666666667],[-109.6913888888889,41.42972222222222],[-109.84333333333333,41.393055555555556],[-109.99777777777778,41.355555555555554],[-110.15416666666667,41.31722222222223],[-110.30722222222222,41.27916666666667],[-110.46277777777777,41.24055555555556],[-110.61861111111111,41.20194444444445],[-110.7713888888889,41.163333333333334],[-110.92833333333334,41.12361111111111],[-111.10694444444444,41.07805555555556],[-111.26055555555556,41.03861111111111],[-111.41555555555556,40.99861111111111],[-111.56888888888888,40.95861111111111],[-111.69194444444445,40.92666666666666],[-111.85138888888888,40.88472222222222],[-112.00972222222222,40.8525],[-112.17222222222223,40.843333333333334],[-112.33416666666666,40.83722222222222],[-112.49416666666667,40.83111111111111],[-112.6563888888889,40.824444444444445],[-112.81694444444445,40.81777777777778],[-112.9775,40.81083333333333],[-113.14055555555557,40.80361111111111],[-113.30138888888888,40.79611111111111],[-113.46000000000001,40.78861111111111],[-113.62194444444444,40.78055555555555],[-113.78416666666666,40.7725],[-113.94666666666667,40.76416666666667],[-114.10777777777777,40.75555555555555],[-114.2713888888889,40.74638888888889],[-114.43222222222222,40.737500000000004],[-114.595,40.72805555555556],[-114.75222222222222,40.71888888888889],[-114.91555555555556,40.70944444444445],[-115.07833333333333,40.69888888888889],[-115.24138888888889,40.68861111111111],[-115.40305555555557,40.677499999999995],[-115.5611111111111,40.66777777777777],[-115.72361111111111,40.65694444444444],[-115.88361111111112,40.645833333333336],[-116.0775,40.632222222222225],[-116.23944444444444,40.620555555555555],[-116.40138888888889,40.60888888888889],[-116.56305555555555,40.59666666666667],[-116.72194444444445,40.584722222222226],[-116.88166666666666,40.571111111111115],[-117.03222222222222,40.538888888888884],[-117.1825,40.49777777777778],[-117.33444444444444,40.45583333333334],[-117.48583333333333,40.413888888888884],[-117.635,40.37222222222222],[-117.78722222222223,40.32944444444445],[-117.93805555555556,40.286944444444444],[-118.08361111111111,40.245555555555555],[-118.23805555555556,40.20138888888889],[-118.38694444444445,40.15861111111111],[-118.53138888888888,40.11666666666667],[-118.68472222222222,40.072500000000005],[-118.83,40.02972222222222],[-118.97333333333333,39.987500000000004],[-119.11944444444444,39.94444444444444],[-119.26777777777778,39.900277777777774],[-119.41277777777778,39.856944444444444],[-119.55555555555556,39.814166666666665],[-119.70027777777779,39.77027777777778],[-119.845,39.72638888888889],[-119.98916666666666,39.68222222222222],[-120.13277777777778,39.638333333333335],[-120.28361111111111,39.59166666666667],[-120.42583333333334,39.5475],[-120.57138888888889,39.50222222222222],[-120.71722222222222,39.45638888888889],[-120.85972222222222,39.41138888888889],[-121.0025,39.36611111111111],[-121.13722222222223,39.31166666666666],[-121.25972222222222,39.24111111111111],[-121.37888888888888,39.17194444444444],[-121.50055555555555,39.100833333333334],[-121.62305555555555,39.028888888888886],[-121.74722222222222,38.95583333333334],[-121.8711111111111,38.8825],[-121.995,38.80888888888889],[-122.11722222222221,38.73583333333333],[-122.25277777777778,38.655],[-122.37305555555555,38.578611111111115],[-122.43472222222222,38.475833333333334],[-122.47944444444444,38.36888888888889],[-122.52222222222223,38.265277777777776],[-122.56416666666667,38.163888888888884],[-122.60527777777777,38.06444444444444],[-122.61666666666666,38.03333333333333],[-122.64305555555556,37.971944444444446],[-122.65,37.86666666666667],[-122.5611111111111,37.79416666666666],[-122.49166666666667,37.72833333333333],[-122.43333333333334,37.666666666666664],[-122.36666666666666,37.6],[-122.36222222222221,37.59861111111111],[-122.33333333333333,37.53333333333333],[-122.28333333333333,37.483333333333334],[-122.28666666666666,37.474722222222226],[-122.23333333333333,37.43333333333333],[-122.2363888888889,37.42305555555555],[-122.1588888888889,37.418055555555554],[-122.13333333333334,37.46666666666667],[-122.12527777777777,37.474722222222226],[-122.15,37.516666666666666],[-122.1563888888889,37.51861111111111],[-122.2,37.55],[-122.20555555555556,37.5475],[-122.25,37.56666666666667],[-122.25916666666667,37.57],[-122.3,37.583333333333336],[-122.3025,37.58833333333334],[-122.34166666666667,37.60472222222222]],"type":"LineString"}
}
